{
  "type": "FeatureCollection",
  "features": [
    {
      "type": "Feature",
      "properties": {
        "name": "GraphHopper Track",
        "source": "Parcours_forestiers.gpx",
        "type": "track"
      },
      "geometry": {
        "type": "LineString",
        "coordinates": [
          [
            1.225,
            43.945387,
            95.78
          ],
          [
            1.224191,
            43.947235,
            95.0
          ],
          [
            1.224136,
            43.947521,
            95.0
          ],
          [
            1.224843,
            43.947679,
            95.0
          ],
          [
            1.225631,
            43.947794,
            95.41
          ],
          [
            1.225951,
            43.947887,
            95.59
          ],
          [
            1.226198,
            43.948042,
            95.77
          ],
          [
            1.226604,
            43.948168,
            95.98
          ],
          [
            1.228051,
            43.948259,
            96.0
          ],
          [
            1.228396,
            43.948252,
            96.0
          ],
          [
            1.229012,
            43.948076,
            96.01
          ],
          [
            1.229393,
            43.948066,
            96.03
          ],
          [
            1.230118,
            43.948196,
            96.27
          ],
          [
            1.23089,
            43.948371,
            97.0
          ],
          [
            1.231332,
            43.948523,
            97.03
          ],
          [
            1.231871,
            43.948727,
            97.08
          ],
          [
            1.232359,
            43.94896,
            97.27
          ],
          [
            1.233205,
            43.949416,
            98.37
          ],
          [
            1.23336,
            43.949463,
            99.68
          ],
          [
            1.232766,
            43.950651,
            99.31
          ],
          [
            1.232291,
            43.951565,
            99.59
          ],
          [
            1.232396,
            43.951585,
            100.06
          ],
          [
            1.232542,
            43.951597,
            100.36
          ],
          [
            1.232757,
            43.951592,
            100.77
          ],
          [
            1.233362,
            43.951543,
            101.71
          ],
          [
            1.234338,
            43.95142,
            102.68
          ],
          [
            1.23542,
            43.951245,
            103.85
          ],
          [
            1.23542,
            43.951245,
            103.85
          ],
          [
            1.234338,
            43.95142,
            102.68
          ],
          [
            1.233362,
            43.951543,
            101.71
          ],
          [
            1.232757,
            43.951592,
            100.77
          ],
          [
            1.232542,
            43.951597,
            100.36
          ],
          [
            1.232396,
            43.951585,
            100.06
          ],
          [
            1.232291,
            43.951565,
            99.59
          ],
          [
            1.232766,
            43.950651,
            99.31
          ],
          [
            1.23336,
            43.949463,
            99.68
          ],
          [
            1.233205,
            43.949416,
            98.37
          ],
          [
            1.232359,
            43.94896,
            97.27
          ],
          [
            1.231871,
            43.948727,
            97.08
          ],
          [
            1.231332,
            43.948523,
            97.03
          ],
          [
            1.23089,
            43.948371,
            97.0
          ],
          [
            1.230118,
            43.948196,
            96.27
          ],
          [
            1.229393,
            43.948066,
            96.03
          ],
          [
            1.229012,
            43.948076,
            96.01
          ],
          [
            1.228396,
            43.948252,
            96.0
          ],
          [
            1.228051,
            43.948259,
            96.0
          ],
          [
            1.226604,
            43.948168,
            95.98
          ],
          [
            1.226198,
            43.948042,
            95.77
          ],
          [
            1.225951,
            43.947887,
            95.59
          ],
          [
            1.225631,
            43.947794,
            95.41
          ],
          [
            1.224843,
            43.947679,
            95.0
          ],
          [
            1.224136,
            43.947521,
            95.0
          ],
          [
            1.224191,
            43.947235,
            95.0
          ],
          [
            1.225,
            43.945387,
            95.78
          ]
        ]
      }
    },
    {
      "type": "Feature",
      "properties": {
        "source": "Parcours_forestiers.gpx",
        "type": "route"
      },
      "geometry": {
        "type": "LineString",
        "coordinates": [
          [
            1.225,
            43.945387
          ],
          [
            1.224136,
            43.947521
          ],
          [
            1.23336,
            43.949463
          ],
          [
            1.232291,
            43.951565
          ],
          [
            1.23542,
            43.951245
          ],
          [
            1.23542,
            43.951245
          ],
          [
            1.232291,
            43.951565
          ],
          [
            1.23336,
            43.949463
          ],
          [
            1.224136,
            43.947521
          ],
          [
            1.225,
            43.945387
          ]
        ]
      }
    }
  ]
}