{
  "type": "FeatureCollection",
  "features": [
    {
      "type": "Feature",
      "properties": {
        "name": "GraphHopper Track",
        "source": "Haut-Languedoc.gpx",
        "type": "track"
      },
      "geometry": {
        "type": "LineString",
        "coordinates": [
          [
            3.015604,
            43.621392,
            729.69
          ],
          [
            3.015523,
            43.621329,
            730.29
          ],
          [
            3.015326,
            43.621066,
            732.9
          ],
          [
            3.015282,
            43.62102,
            733.43
          ],
          [
            3.015211,
            43.620993,
            733.98
          ],
          [
            3.01512,
            43.620981,
            734.58
          ],
          [
            3.015079,
            43.620988,
            734.83
          ],
          [
            3.015032,
            43.621008,
            735.15
          ],
          [
            3.014935,
            43.621087,
            736.03
          ],
          [
            3.014795,
            43.621228,
            737.42
          ],
          [
            3.014743,
            43.621265,
            737.82
          ],
          [
            3.014649,
            43.621311,
            738.42
          ],
          [
            3.014602,
            43.621322,
            738.67
          ],
          [
            3.014525,
            43.621326,
            739.06
          ],
          [
            3.014111,
            43.621311,
            740.83
          ],
          [
            3.013559,
            43.621271,
            742.54
          ],
          [
            3.012844,
            43.621248,
            744.67
          ],
          [
            3.012352,
            43.621259,
            746.42
          ],
          [
            3.012193,
            43.621249,
            746.99
          ],
          [
            3.01162,
            43.621144,
            749.21
          ],
          [
            3.011438,
            43.621135,
            749.89
          ],
          [
            3.011048,
            43.621142,
            751.38
          ],
          [
            3.010871,
            43.621157,
            751.99
          ],
          [
            3.010477,
            43.621228,
            753.72
          ],
          [
            3.010427,
            43.621257,
            754.22
          ],
          [
            3.010416,
            43.621307,
            754.98
          ],
          [
            3.01044,
            43.621324,
            755.22
          ],
          [
            3.0105,
            43.621334,
            755.48
          ],
          [
            3.010782,
            43.621309,
            755.89
          ],
          [
            3.011088,
            43.62133,
            756.41
          ],
          [
            3.011293,
            43.62136,
            756.81
          ],
          [
            3.011465,
            43.621405,
            757.13
          ],
          [
            3.011942,
            43.621568,
            758.04
          ],
          [
            3.012449,
            43.621716,
            759.18
          ],
          [
            3.013319,
            43.622035,
            761.29
          ],
          [
            3.013968,
            43.622332,
            763.23
          ],
          [
            3.013996,
            43.622353,
            763.37
          ],
          [
            3.014017,
            43.622387,
            763.58
          ],
          [
            3.014008,
            43.622438,
            764.03
          ],
          [
            3.01399,
            43.622452,
            764.21
          ],
          [
            3.013959,
            43.622458,
            764.43
          ],
          [
            3.013876,
            43.622446,
            765.08
          ],
          [
            3.013808,
            43.62253,
            767.75
          ],
          [
            3.013824,
            43.62264,
            770.35
          ],
          [
            3.013821,
            43.622734,
            772.48
          ],
          [
            3.013773,
            43.622805,
            774.22
          ],
          [
            3.01358,
            43.623213,
            783.24
          ],
          [
            3.013599,
            43.623337,
            785.84
          ],
          [
            3.013631,
            43.623392,
            787.03
          ],
          [
            3.013577,
            43.623493,
            789.16
          ],
          [
            3.013494,
            43.623596,
            791.49
          ],
          [
            3.013254,
            43.623647,
            795.21
          ],
          [
            3.013376,
            43.623796,
            795.72
          ],
          [
            3.013426,
            43.623879,
            796.16
          ],
          [
            3.013451,
            43.623943,
            796.44
          ],
          [
            3.013495,
            43.624171,
            797.71
          ],
          [
            3.013274,
            43.624235,
            799.44
          ],
          [
            3.012449,
            43.624497,
            804.89
          ],
          [
            3.012366,
            43.624528,
            805.21
          ],
          [
            3.012287,
            43.624573,
            805.5
          ],
          [
            3.012217,
            43.624626,
            805.74
          ],
          [
            3.012165,
            43.624652,
            805.86
          ],
          [
            3.012099,
            43.624674,
            806.0
          ],
          [
            3.011824,
            43.624728,
            806.54
          ],
          [
            3.011694,
            43.624773,
            806.85
          ],
          [
            3.01135,
            43.624933,
            807.83
          ],
          [
            3.01123,
            43.624969,
            807.92
          ],
          [
            3.010991,
            43.624989,
            808.71
          ],
          [
            3.010635,
            43.625,
            811.77
          ],
          [
            3.010086,
            43.625079,
            817.28
          ],
          [
            3.009902,
            43.625122,
            818.83
          ],
          [
            3.009738,
            43.625196,
            820.56
          ],
          [
            3.009588,
            43.625287,
            822.46
          ],
          [
            3.009357,
            43.62545,
            825.6
          ],
          [
            3.009074,
            43.625624,
            829.36
          ],
          [
            3.008911,
            43.625704,
            831.57
          ],
          [
            3.00842,
            43.625903,
            837.78
          ],
          [
            3.00825,
            43.625984,
            839.79
          ],
          [
            3.008207,
            43.625993,
            840.22
          ],
          [
            3.00817,
            43.625978,
            840.62
          ],
          [
            3.008151,
            43.625952,
            841.01
          ],
          [
            3.008095,
            43.62569,
            844.82
          ],
          [
            3.008065,
            43.625609,
            845.65
          ],
          [
            3.008027,
            43.625549,
            846.17
          ],
          [
            3.007897,
            43.625445,
            847.19
          ],
          [
            3.007761,
            43.625383,
            848.49
          ],
          [
            3.007597,
            43.62534,
            849.59
          ],
          [
            3.007502,
            43.625331,
            850.07
          ],
          [
            3.00733,
            43.62533,
            851.01
          ],
          [
            3.006855,
            43.62536,
            853.03
          ],
          [
            3.006157,
            43.625451,
            853.74
          ],
          [
            3.005852,
            43.625454,
            853.53
          ],
          [
            3.005524,
            43.625409,
            853.09
          ],
          [
            3.005524,
            43.625409,
            853.09
          ],
          [
            3.005852,
            43.625454,
            853.53
          ],
          [
            3.006157,
            43.625451,
            853.74
          ],
          [
            3.006855,
            43.62536,
            853.03
          ],
          [
            3.00733,
            43.62533,
            851.01
          ],
          [
            3.007502,
            43.625331,
            850.07
          ],
          [
            3.007597,
            43.62534,
            849.59
          ],
          [
            3.007761,
            43.625383,
            848.49
          ],
          [
            3.007897,
            43.625445,
            847.19
          ],
          [
            3.008027,
            43.625549,
            846.17
          ],
          [
            3.008065,
            43.625609,
            845.65
          ],
          [
            3.008095,
            43.62569,
            844.82
          ],
          [
            3.008151,
            43.625952,
            841.01
          ],
          [
            3.00817,
            43.625978,
            840.62
          ],
          [
            3.008207,
            43.625993,
            840.22
          ],
          [
            3.00825,
            43.625984,
            839.79
          ],
          [
            3.00842,
            43.625903,
            837.78
          ],
          [
            3.008911,
            43.625704,
            831.57
          ],
          [
            3.009074,
            43.625624,
            829.36
          ],
          [
            3.009357,
            43.62545,
            825.6
          ],
          [
            3.009588,
            43.625287,
            822.46
          ],
          [
            3.009738,
            43.625196,
            820.56
          ],
          [
            3.009902,
            43.625122,
            818.83
          ],
          [
            3.010086,
            43.625079,
            817.28
          ],
          [
            3.010635,
            43.625,
            811.77
          ],
          [
            3.010991,
            43.624989,
            808.71
          ],
          [
            3.01123,
            43.624969,
            807.92
          ],
          [
            3.01135,
            43.624933,
            807.83
          ],
          [
            3.011694,
            43.624773,
            806.85
          ],
          [
            3.011824,
            43.624728,
            806.54
          ],
          [
            3.012099,
            43.624674,
            806.0
          ],
          [
            3.012165,
            43.624652,
            805.86
          ],
          [
            3.012217,
            43.624626,
            805.74
          ],
          [
            3.012287,
            43.624573,
            805.5
          ],
          [
            3.012366,
            43.624528,
            805.21
          ],
          [
            3.012449,
            43.624497,
            804.89
          ],
          [
            3.013274,
            43.624235,
            799.44
          ],
          [
            3.013495,
            43.624171,
            797.71
          ],
          [
            3.013451,
            43.623943,
            796.44
          ],
          [
            3.013426,
            43.623879,
            796.16
          ],
          [
            3.013376,
            43.623796,
            795.72
          ],
          [
            3.013254,
            43.623647,
            795.21
          ],
          [
            3.013494,
            43.623596,
            791.49
          ],
          [
            3.013577,
            43.623493,
            789.16
          ],
          [
            3.013631,
            43.623392,
            787.03
          ],
          [
            3.013599,
            43.623337,
            785.84
          ],
          [
            3.01358,
            43.623213,
            783.24
          ],
          [
            3.013773,
            43.622805,
            774.22
          ],
          [
            3.013821,
            43.622734,
            772.48
          ],
          [
            3.013824,
            43.62264,
            770.35
          ],
          [
            3.013808,
            43.62253,
            767.75
          ],
          [
            3.013876,
            43.622446,
            765.08
          ],
          [
            3.013959,
            43.622458,
            764.43
          ],
          [
            3.01399,
            43.622452,
            764.21
          ],
          [
            3.014008,
            43.622438,
            764.03
          ],
          [
            3.014017,
            43.622387,
            763.58
          ],
          [
            3.013996,
            43.622353,
            763.37
          ],
          [
            3.013968,
            43.622332,
            763.23
          ],
          [
            3.013319,
            43.622035,
            761.29
          ],
          [
            3.012449,
            43.621716,
            759.18
          ],
          [
            3.011942,
            43.621568,
            758.04
          ],
          [
            3.011465,
            43.621405,
            757.13
          ],
          [
            3.011293,
            43.62136,
            756.81
          ],
          [
            3.011088,
            43.62133,
            756.41
          ],
          [
            3.010782,
            43.621309,
            755.89
          ],
          [
            3.0105,
            43.621334,
            755.48
          ],
          [
            3.01044,
            43.621324,
            755.22
          ],
          [
            3.010416,
            43.621307,
            754.98
          ],
          [
            3.010427,
            43.621257,
            754.22
          ],
          [
            3.010477,
            43.621228,
            753.72
          ],
          [
            3.010871,
            43.621157,
            751.99
          ],
          [
            3.011048,
            43.621142,
            751.38
          ],
          [
            3.011438,
            43.621135,
            749.89
          ],
          [
            3.01162,
            43.621144,
            749.21
          ],
          [
            3.012193,
            43.621249,
            746.99
          ],
          [
            3.012352,
            43.621259,
            746.42
          ],
          [
            3.012844,
            43.621248,
            744.67
          ],
          [
            3.013559,
            43.621271,
            742.54
          ],
          [
            3.014111,
            43.621311,
            740.83
          ],
          [
            3.014525,
            43.621326,
            739.06
          ],
          [
            3.014602,
            43.621322,
            738.67
          ],
          [
            3.014649,
            43.621311,
            738.42
          ],
          [
            3.014743,
            43.621265,
            737.82
          ],
          [
            3.014795,
            43.621228,
            737.42
          ],
          [
            3.014935,
            43.621087,
            736.03
          ],
          [
            3.015032,
            43.621008,
            735.15
          ],
          [
            3.015079,
            43.620988,
            734.83
          ],
          [
            3.01512,
            43.620981,
            734.58
          ],
          [
            3.015211,
            43.620993,
            733.98
          ],
          [
            3.015282,
            43.62102,
            733.43
          ],
          [
            3.015326,
            43.621066,
            732.9
          ],
          [
            3.015523,
            43.621329,
            730.29
          ],
          [
            3.015604,
            43.621392,
            729.69
          ]
        ]
      }
    },
    {
      "type": "Feature",
      "properties": {
        "source": "Haut-Languedoc.gpx",
        "type": "route"
      },
      "geometry": {
        "type": "LineString",
        "coordinates": [
          [
            3.015604,
            43.621392
          ],
          [
            3.013495,
            43.624171
          ],
          [
            3.007761,
            43.625383
          ],
          [
            3.005524,
            43.625409
          ],
          [
            3.005524,
            43.625409
          ],
          [
            3.013495,
            43.624171
          ],
          [
            3.015604,
            43.621392
          ]
        ]
      }
    }
  ]
}