{
  "type": "FeatureCollection",
  "features": [
    {
      "type": "Feature",
      "properties": {
        "name": "GraphHopper Track",
        "source": "Olonzac__Aigne.gpx",
        "type": "track"
      },
      "geometry": {
        "type": "LineString",
        "coordinates": [
          [
            2.731021,
            43.284315,
            48.3
          ],
          [
            2.731639,
            43.284278,
            48.0
          ],
          [
            2.731804,
            43.284303,
            48.0
          ],
          [
            2.73267,
            43.284164,
            47.28
          ],
          [
            2.733667,
            43.284033,
            47.76
          ],
          [
            2.734254,
            43.283972,
            47.99
          ],
          [
            2.735419,
            43.283808,
            47.59
          ],
          [
            2.735596,
            43.283834,
            47.92
          ],
          [
            2.735761,
            43.283873,
            48.84
          ],
          [
            2.735817,
            43.283935,
            49.0
          ],
          [
            2.735921,
            43.283969,
            48.93
          ],
          [
            2.73603,
            43.283965,
            48.71
          ],
          [
            2.736151,
            43.283924,
            48.49
          ],
          [
            2.736418,
            43.28387,
            48.0
          ],
          [
            2.737058,
            43.283837,
            47.73
          ],
          [
            2.737441,
            43.283854,
            47.78
          ],
          [
            2.737774,
            43.283885,
            47.97
          ],
          [
            2.739327,
            43.28409,
            49.93
          ],
          [
            2.73982,
            43.28421,
            50.57
          ],
          [
            2.740054,
            43.28429,
            50.83
          ],
          [
            2.741051,
            43.28469,
            51.0
          ],
          [
            2.741513,
            43.284847,
            51.21
          ],
          [
            2.741495,
            43.284925,
            51.45
          ],
          [
            2.741621,
            43.285358,
            52.05
          ],
          [
            2.74169,
            43.285495,
            52.22
          ],
          [
            2.742344,
            43.286107,
            53.62
          ],
          [
            2.742582,
            43.286294,
            54.22
          ],
          [
            2.742741,
            43.286381,
            54.81
          ],
          [
            2.742929,
            43.286447,
            55.35
          ],
          [
            2.743535,
            43.28657,
            56.13
          ],
          [
            2.743795,
            43.286644,
            56.08
          ],
          [
            2.743943,
            43.286678,
            56.09
          ],
          [
            2.744142,
            43.286696,
            56.17
          ],
          [
            2.744553,
            43.286678,
            56.36
          ],
          [
            2.744716,
            43.286683,
            56.51
          ],
          [
            2.745092,
            43.286738,
            56.89
          ],
          [
            2.745193,
            43.28677,
            56.96
          ],
          [
            2.745301,
            43.286841,
            57.0
          ],
          [
            2.745449,
            43.28697,
            57.0
          ],
          [
            2.745792,
            43.287233,
            56.76
          ],
          [
            2.745861,
            43.287327,
            56.63
          ],
          [
            2.745893,
            43.287414,
            56.53
          ],
          [
            2.745886,
            43.287506,
            56.4
          ],
          [
            2.745864,
            43.287611,
            56.23
          ],
          [
            2.74589,
            43.28774,
            55.88
          ],
          [
            2.745955,
            43.287877,
            55.66
          ],
          [
            2.746085,
            43.288008,
            55.61
          ],
          [
            2.746435,
            43.288234,
            55.93
          ],
          [
            2.747323,
            43.289264,
            57.59
          ],
          [
            2.747428,
            43.28932,
            57.63
          ],
          [
            2.747529,
            43.289325,
            57.66
          ],
          [
            2.747677,
            43.289349,
            57.7
          ],
          [
            2.749143,
            43.289695,
            57.18
          ],
          [
            2.749024,
            43.290289,
            56.1
          ],
          [
            2.74891,
            43.290626,
            56.19
          ],
          [
            2.748856,
            43.290721,
            56.27
          ],
          [
            2.748559,
            43.291135,
            56.82
          ],
          [
            2.748413,
            43.291292,
            57.03
          ],
          [
            2.748226,
            43.291513,
            57.35
          ],
          [
            2.748154,
            43.29163,
            57.47
          ],
          [
            2.748034,
            43.291888,
            57.2
          ],
          [
            2.747722,
            43.292353,
            58.39
          ],
          [
            2.747669,
            43.292498,
            58.61
          ],
          [
            2.747637,
            43.292665,
            58.94
          ],
          [
            2.74761,
            43.292731,
            59.2
          ],
          [
            2.747556,
            43.292818,
            59.28
          ],
          [
            2.747564,
            43.29288,
            59.88
          ],
          [
            2.74759,
            43.292918,
            60.32
          ],
          [
            2.747667,
            43.292981,
            61.27
          ],
          [
            2.747692,
            43.293015,
            61.6
          ],
          [
            2.747713,
            43.293098,
            62.09
          ],
          [
            2.747713,
            43.293237,
            62.65
          ],
          [
            2.747688,
            43.293388,
            62.94
          ],
          [
            2.747688,
            43.293472,
            63.21
          ],
          [
            2.747701,
            43.293583,
            63.59
          ],
          [
            2.747737,
            43.293751,
            63.73
          ],
          [
            2.747768,
            43.293833,
            63.67
          ],
          [
            2.747773,
            43.293913,
            63.32
          ],
          [
            2.747761,
            43.293961,
            62.88
          ],
          [
            2.747715,
            43.294036,
            62.28
          ],
          [
            2.747757,
            43.294044,
            62.48
          ],
          [
            2.747896,
            43.294102,
            63.4
          ],
          [
            2.748111,
            43.294223,
            64.28
          ],
          [
            2.748293,
            43.294266,
            64.96
          ],
          [
            2.748387,
            43.294266,
            65.2
          ],
          [
            2.748765,
            43.294217,
            67.31
          ],
          [
            2.748894,
            43.294215,
            67.69
          ],
          [
            2.749412,
            43.294262,
            68.81
          ],
          [
            2.749546,
            43.294299,
            69.06
          ],
          [
            2.749956,
            43.294481,
            69.92
          ],
          [
            2.750442,
            43.294717,
            70.69
          ],
          [
            2.750699,
            43.294879,
            70.87
          ],
          [
            2.750823,
            43.294987,
            71.03
          ],
          [
            2.750879,
            43.29508,
            71.18
          ],
          [
            2.7509,
            43.295155,
            71.28
          ],
          [
            2.750908,
            43.295293,
            71.47
          ],
          [
            2.750946,
            43.295348,
            71.56
          ],
          [
            2.751021,
            43.295367,
            71.64
          ],
          [
            2.751179,
            43.295371,
            71.8
          ],
          [
            2.751397,
            43.295408,
            72.02
          ],
          [
            2.751684,
            43.295488,
            72.53
          ],
          [
            2.751794,
            43.295545,
            72.85
          ],
          [
            2.752008,
            43.295711,
            73.41
          ],
          [
            2.752268,
            43.295824,
            74.05
          ],
          [
            2.752463,
            43.295827,
            74.94
          ],
          [
            2.752571,
            43.295905,
            75.04
          ],
          [
            2.752872,
            43.296046,
            76.02
          ],
          [
            2.753881,
            43.296484,
            79.15
          ],
          [
            2.754252,
            43.296664,
            80.1
          ],
          [
            2.754734,
            43.296956,
            82.15
          ],
          [
            2.754801,
            43.296905,
            82.54
          ],
          [
            2.755007,
            43.297001,
            84.46
          ],
          [
            2.755171,
            43.297135,
            85.14
          ],
          [
            2.75524,
            43.297182,
            85.27
          ],
          [
            2.755287,
            43.297236,
            85.15
          ],
          [
            2.755299,
            43.297301,
            84.49
          ],
          [
            2.755607,
            43.297443,
            85.19
          ],
          [
            2.756452,
            43.297786,
            86.35
          ],
          [
            2.757002,
            43.298047,
            87.16
          ],
          [
            2.757221,
            43.29817,
            86.9
          ],
          [
            2.757849,
            43.298554,
            88.09
          ],
          [
            2.758503,
            43.299002,
            91.06
          ],
          [
            2.758846,
            43.299217,
            93.12
          ],
          [
            2.758908,
            43.299241,
            93.72
          ],
          [
            2.759318,
            43.299356,
            96.45
          ],
          [
            2.759425,
            43.299409,
            96.82
          ],
          [
            2.7596,
            43.299529,
            96.41
          ],
          [
            2.761244,
            43.300774,
            102.0
          ],
          [
            2.761829,
            43.301235,
            104.65
          ],
          [
            2.763284,
            43.302732,
            108.59
          ],
          [
            2.763519,
            43.302939,
            108.97
          ],
          [
            2.764681,
            43.303721,
            109.74
          ],
          [
            2.765141,
            43.304049,
            110.41
          ],
          [
            2.765248,
            43.304165,
            110.66
          ],
          [
            2.765369,
            43.30435,
            111.1
          ],
          [
            2.765455,
            43.304573,
            111.79
          ],
          [
            2.765508,
            43.304682,
            112.16
          ],
          [
            2.765574,
            43.304785,
            112.56
          ],
          [
            2.76569,
            43.304899,
            113.07
          ],
          [
            2.765808,
            43.304963,
            113.41
          ],
          [
            2.765941,
            43.305017,
            113.76
          ],
          [
            2.766109,
            43.30506,
            114.18
          ],
          [
            2.766346,
            43.305092,
            114.69
          ],
          [
            2.766674,
            43.305156,
            115.32
          ],
          [
            2.766852,
            43.305229,
            115.59
          ],
          [
            2.767034,
            43.305379,
            116.03
          ],
          [
            2.767168,
            43.305543,
            116.45
          ],
          [
            2.767444,
            43.305928,
            117.11
          ],
          [
            2.767308,
            43.305981,
            116.37
          ],
          [
            2.767326,
            43.30617,
            115.38
          ],
          [
            2.767313,
            43.306264,
            115.23
          ],
          [
            2.76724,
            43.306348,
            115.28
          ],
          [
            2.767237,
            43.306396,
            115.32
          ],
          [
            2.767405,
            43.306621,
            115.84
          ],
          [
            2.767471,
            43.306759,
            116.4
          ],
          [
            2.767495,
            43.306926,
            117.23
          ],
          [
            2.767479,
            43.307058,
            118.03
          ],
          [
            2.76745,
            43.307123,
            118.51
          ],
          [
            2.767332,
            43.307215,
            119.38
          ],
          [
            2.767303,
            43.307255,
            119.68
          ],
          [
            2.767311,
            43.307312,
            120.07
          ],
          [
            2.76739,
            43.307381,
            120.67
          ],
          [
            2.767513,
            43.307467,
            121.51
          ],
          [
            2.76756,
            43.307532,
            121.98
          ],
          [
            2.767595,
            43.307659,
            122.68
          ],
          [
            2.767639,
            43.307724,
            123.02
          ],
          [
            2.767729,
            43.307781,
            123.35
          ],
          [
            2.767821,
            43.307867,
            123.66
          ],
          [
            2.767847,
            43.307955,
            123.89
          ],
          [
            2.767818,
            43.308127,
            124.46
          ],
          [
            2.767847,
            43.308191,
            124.72
          ],
          [
            2.768142,
            43.30842,
            126.05
          ],
          [
            2.768265,
            43.308543,
            126.85
          ],
          [
            2.768333,
            43.308661,
            127.65
          ],
          [
            2.76836,
            43.308761,
            128.39
          ],
          [
            2.768333,
            43.309279,
            133.21
          ],
          [
            2.768341,
            43.309379,
            134.14
          ],
          [
            2.768439,
            43.309471,
            135.29
          ],
          [
            2.768567,
            43.309516,
            136.42
          ],
          [
            2.768951,
            43.309583,
            138.9
          ],
          [
            2.769256,
            43.309673,
            140.07
          ],
          [
            2.769865,
            43.309875,
            140.43
          ],
          [
            2.769976,
            43.309866,
            140.26
          ],
          [
            2.770045,
            43.309884,
            140.24
          ],
          [
            2.770179,
            43.309884,
            140.42
          ],
          [
            2.770319,
            43.309898,
            140.87
          ],
          [
            2.770484,
            43.30998,
            141.11
          ],
          [
            2.770687,
            43.310053,
            141.36
          ],
          [
            2.770932,
            43.31005,
            142.11
          ],
          [
            2.771021,
            43.309823,
            141.17
          ],
          [
            2.771082,
            43.309814,
            140.57
          ],
          [
            2.771562,
            43.310187,
            142.53
          ],
          [
            2.771925,
            43.310501,
            143.66
          ],
          [
            2.772008,
            43.310701,
            143.79
          ],
          [
            2.772064,
            43.310761,
            143.79
          ],
          [
            2.772243,
            43.310862,
            143.85
          ],
          [
            2.772449,
            43.311012,
            143.54
          ],
          [
            2.772521,
            43.311026,
            143.32
          ],
          [
            2.772607,
            43.311011,
            143.06
          ],
          [
            2.772718,
            43.310928,
            142.53
          ],
          [
            2.772834,
            43.310816,
            142.23
          ],
          [
            2.772873,
            43.310845,
            142.46
          ],
          [
            2.772992,
            43.310863,
            142.88
          ],
          [
            2.773208,
            43.310858,
            143.65
          ],
          [
            2.773314,
            43.310891,
            144.11
          ],
          [
            2.773742,
            43.311235,
            146.45
          ],
          [
            2.773889,
            43.311323,
            147.09
          ],
          [
            2.773996,
            43.311366,
            147.53
          ],
          [
            2.774108,
            43.31138,
            147.93
          ],
          [
            2.774394,
            43.311376,
            148.99
          ],
          [
            2.774476,
            43.311395,
            149.32
          ],
          [
            2.775008,
            43.311807,
            152.61
          ],
          [
            2.775051,
            43.311857,
            153.07
          ],
          [
            2.775119,
            43.312128,
            155.53
          ],
          [
            2.775171,
            43.312185,
            156.1
          ],
          [
            2.775231,
            43.312223,
            156.35
          ],
          [
            2.77535,
            43.312258,
            156.3
          ],
          [
            2.77559,
            43.312274,
            156.14
          ],
          [
            2.77581,
            43.312267,
            155.86
          ],
          [
            2.776072,
            43.312479,
            156.84
          ],
          [
            2.776397,
            43.312798,
            158.78
          ],
          [
            2.776568,
            43.313027,
            159.9
          ],
          [
            2.776722,
            43.313321,
            161.22
          ],
          [
            2.776923,
            43.313749,
            163.38
          ],
          [
            2.777208,
            43.314408,
            166.94
          ],
          [
            2.777371,
            43.314745,
            168.85
          ],
          [
            2.777461,
            43.314901,
            169.93
          ],
          [
            2.777592,
            43.315067,
            171.09
          ],
          [
            2.777751,
            43.315213,
            172.32
          ],
          [
            2.777979,
            43.315366,
            173.59
          ],
          [
            2.778224,
            43.315477,
            174.9
          ],
          [
            2.778507,
            43.315573,
            176.12
          ],
          [
            2.778779,
            43.315627,
            177.41
          ],
          [
            2.779174,
            43.315677,
            179.24
          ],
          [
            2.779408,
            43.315725,
            180.33
          ],
          [
            2.779635,
            43.315794,
            181.46
          ],
          [
            2.779883,
            43.315896,
            182.75
          ],
          [
            2.780019,
            43.315972,
            183.49
          ],
          [
            2.780165,
            43.31607,
            184.35
          ],
          [
            2.780417,
            43.316282,
            185.91
          ],
          [
            2.781252,
            43.317046,
            191.21
          ],
          [
            2.7814,
            43.317202,
            192.26
          ],
          [
            2.781546,
            43.317376,
            193.38
          ],
          [
            2.782167,
            43.318185,
            198.25
          ],
          [
            2.782323,
            43.318423,
            199.22
          ],
          [
            2.782373,
            43.31854,
            199.19
          ],
          [
            2.782429,
            43.318754,
            198.62
          ],
          [
            2.782445,
            43.318981,
            197.78
          ],
          [
            2.782449,
            43.321347,
            179.55
          ],
          [
            2.782511,
            43.321361,
            179.09
          ],
          [
            2.782706,
            43.321568,
            177.69
          ],
          [
            2.782881,
            43.321799,
            176.76
          ],
          [
            2.782953,
            43.321953,
            176.76
          ],
          [
            2.78295,
            43.322066,
            176.63
          ],
          [
            2.782889,
            43.32222,
            176.25
          ],
          [
            2.782718,
            43.322367,
            176.17
          ],
          [
            2.782444,
            43.322553,
            176.45
          ],
          [
            2.782436,
            43.323864,
            171.06
          ],
          [
            2.782443,
            43.324179,
            169.73
          ],
          [
            2.78241,
            43.324204,
            169.68
          ],
          [
            2.782364,
            43.324291,
            169.2
          ],
          [
            2.782201,
            43.325223,
            167.12
          ],
          [
            2.782214,
            43.325321,
            167.73
          ],
          [
            2.782272,
            43.325412,
            167.9
          ],
          [
            2.782405,
            43.325549,
            168.24
          ],
          [
            2.782514,
            43.325609,
            168.46
          ],
          [
            2.78265,
            43.325644,
            168.63
          ],
          [
            2.782864,
            43.325655,
            169.15
          ],
          [
            2.783929,
            43.325646,
            171.24
          ],
          [
            2.784102,
            43.325628,
            170.26
          ],
          [
            2.784216,
            43.325688,
            170.78
          ],
          [
            2.784294,
            43.325739,
            171.62
          ],
          [
            2.784461,
            43.325872,
            171.83
          ],
          [
            2.784709,
            43.32613,
            172.29
          ],
          [
            2.784804,
            43.326311,
            171.44
          ],
          [
            2.784882,
            43.326501,
            171.03
          ],
          [
            2.785533,
            43.32915,
            171.41
          ],
          [
            2.785614,
            43.329391,
            170.9
          ],
          [
            2.7857,
            43.329586,
            168.57
          ],
          [
            2.785897,
            43.329584,
            167.97
          ],
          [
            2.786074,
            43.329543,
            166.75
          ],
          [
            2.786242,
            43.32949,
            166.15
          ],
          [
            2.786974,
            43.329202,
            163.56
          ],
          [
            2.787104,
            43.329175,
            163.05
          ],
          [
            2.787248,
            43.329173,
            162.52
          ],
          [
            2.787898,
            43.329301,
            160.01
          ],
          [
            2.789139,
            43.32939,
            156.18
          ],
          [
            2.789366,
            43.329384,
            155.55
          ],
          [
            2.789636,
            43.329344,
            154.73
          ],
          [
            2.790068,
            43.329238,
            152.74
          ],
          [
            2.790325,
            43.329188,
            151.73
          ],
          [
            2.790408,
            43.329188,
            151.13
          ],
          [
            2.790468,
            43.329208,
            150.82
          ],
          [
            2.790525,
            43.329256,
            150.59
          ],
          [
            2.790577,
            43.329329,
            150.47
          ],
          [
            2.790763,
            43.329749,
            150.69
          ],
          [
            2.79088,
            43.329876,
            150.84
          ],
          [
            2.791909,
            43.330542,
            152.31
          ],
          [
            2.79223,
            43.330704,
            152.11
          ],
          [
            2.792727,
            43.330829,
            152.01
          ],
          [
            2.792784,
            43.330837,
            152.12
          ],
          [
            2.792874,
            43.330879,
            152.54
          ],
          [
            2.792927,
            43.330918,
            152.87
          ],
          [
            2.792956,
            43.330956,
            153.19
          ],
          [
            2.793006,
            43.330984,
            153.41
          ],
          [
            2.793021,
            43.331004,
            153.57
          ],
          [
            2.793603,
            43.331047,
            153.95
          ],
          [
            2.793794,
            43.331035,
            154.5
          ],
          [
            2.79389,
            43.331017,
            154.35
          ],
          [
            2.794775,
            43.330817,
            156.16
          ],
          [
            2.794921,
            43.330791,
            155.79
          ],
          [
            2.795033,
            43.330792,
            155.51
          ],
          [
            2.795128,
            43.33082,
            155.23
          ],
          [
            2.795207,
            43.330875,
            155.29
          ],
          [
            2.795357,
            43.330776,
            154.33
          ],
          [
            2.795716,
            43.330865,
            153.76
          ],
          [
            2.795959,
            43.330888,
            153.34
          ],
          [
            2.79697,
            43.331683,
            148.29
          ],
          [
            2.796908,
            43.331785,
            148.74
          ],
          [
            2.796905,
            43.331882,
            148.67
          ],
          [
            2.79693,
            43.332057,
            148.48
          ],
          [
            2.796989,
            43.332199,
            148.18
          ],
          [
            2.796642,
            43.332263,
            149.13
          ],
          [
            2.796746,
            43.332353,
            149.0
          ],
          [
            2.796488,
            43.332488,
            149.87
          ],
          [
            2.796488,
            43.332488,
            149.87
          ],
          [
            2.796746,
            43.332353,
            149.0
          ],
          [
            2.796642,
            43.332263,
            149.13
          ],
          [
            2.796989,
            43.332199,
            148.18
          ],
          [
            2.79693,
            43.332057,
            148.48
          ],
          [
            2.796905,
            43.331882,
            148.67
          ],
          [
            2.796908,
            43.331785,
            148.74
          ],
          [
            2.79697,
            43.331683,
            148.29
          ],
          [
            2.795959,
            43.330888,
            153.34
          ],
          [
            2.795716,
            43.330865,
            153.76
          ],
          [
            2.795357,
            43.330776,
            154.33
          ],
          [
            2.795207,
            43.330875,
            155.29
          ],
          [
            2.795128,
            43.33082,
            155.23
          ],
          [
            2.795033,
            43.330792,
            155.51
          ],
          [
            2.794921,
            43.330791,
            155.79
          ],
          [
            2.794775,
            43.330817,
            156.16
          ],
          [
            2.794027,
            43.330986,
            154.63
          ]
        ]
      }
    },
    {
      "type": "Feature",
      "properties": {
        "source": "Olonzac__Aigne.gpx",
        "type": "route"
      },
      "geometry": {
        "type": "LineString",
        "coordinates": [
          [
            2.731021,
            43.284315
          ],
          [
            2.731804,
            43.284303
          ],
          [
            2.735419,
            43.283808
          ],
          [
            2.735761,
            43.283873
          ],
          [
            2.741513,
            43.284847
          ],
          [
            2.749143,
            43.289695
          ],
          [
            2.747556,
            43.292818
          ],
          [
            2.747715,
            43.294036
          ],
          [
            2.752463,
            43.295827
          ],
          [
            2.754734,
            43.296956
          ],
          [
            2.754801,
            43.296905
          ],
          [
            2.755007,
            43.297001
          ],
          [
            2.755299,
            43.297301
          ],
          [
            2.767444,
            43.305928
          ],
          [
            2.772834,
            43.310816
          ],
          [
            2.77581,
            43.312267
          ],
          [
            2.782449,
            43.321347
          ],
          [
            2.782444,
            43.322553
          ],
          [
            2.782443,
            43.324179
          ],
          [
            2.784102,
            43.325628
          ],
          [
            2.7857,
            43.329586
          ],
          [
            2.792727,
            43.330829
          ],
          [
            2.792956,
            43.330956
          ],
          [
            2.79389,
            43.331017
          ],
          [
            2.795207,
            43.330875
          ],
          [
            2.795357,
            43.330776
          ],
          [
            2.795959,
            43.330888
          ],
          [
            2.79697,
            43.331683
          ],
          [
            2.796989,
            43.332199
          ],
          [
            2.796642,
            43.332263
          ],
          [
            2.796746,
            43.332353
          ],
          [
            2.796488,
            43.332488
          ],
          [
            2.796488,
            43.332488
          ],
          [
            2.796746,
            43.332353
          ],
          [
            2.796642,
            43.332263
          ],
          [
            2.796989,
            43.332199
          ],
          [
            2.79697,
            43.331683
          ],
          [
            2.795959,
            43.330888
          ],
          [
            2.795357,
            43.330776
          ],
          [
            2.795207,
            43.330875
          ],
          [
            2.794027,
            43.330986
          ]
        ]
      }
    }
  ]
}