{
  "type": "FeatureCollection",
  "features": [
    {
      "type": "Feature",
      "properties": {
        "name": "GraphHopper Track",
        "source": "Oupia_Les_Serres.gpx",
        "type": "track"
      },
      "geometry": {
        "type": "LineString",
        "coordinates": [
          [
            2.739767,
            43.290491,
            51.45
          ],
          [
            2.73973,
            43.290807,
            51.68
          ],
          [
            2.739747,
            43.290884,
            51.75
          ],
          [
            2.739792,
            43.290957,
            51.84
          ],
          [
            2.739947,
            43.291136,
            52.11
          ],
          [
            2.739988,
            43.2912,
            52.2
          ],
          [
            2.740014,
            43.291262,
            52.27
          ],
          [
            2.74002,
            43.291336,
            52.35
          ],
          [
            2.739957,
            43.291727,
            52.65
          ],
          [
            2.739897,
            43.292476,
            53.34
          ],
          [
            2.739831,
            43.293692,
            54.54
          ],
          [
            2.739915,
            43.294326,
            55.45
          ],
          [
            2.73997,
            43.294393,
            55.55
          ],
          [
            2.74007,
            43.294427,
            55.64
          ],
          [
            2.742141,
            43.294748,
            56.0
          ],
          [
            2.742127,
            43.294868,
            56.57
          ],
          [
            2.742079,
            43.295051,
            56.9
          ],
          [
            2.741706,
            43.296279,
            56.85
          ],
          [
            2.741671,
            43.296457,
            56.8
          ],
          [
            2.741607,
            43.296562,
            56.8
          ],
          [
            2.741513,
            43.296681,
            56.89
          ],
          [
            2.741322,
            43.296847,
            57.17
          ],
          [
            2.741293,
            43.2969,
            57.26
          ],
          [
            2.741271,
            43.297072,
            57.49
          ],
          [
            2.741287,
            43.297175,
            57.57
          ],
          [
            2.741322,
            43.297329,
            57.63
          ],
          [
            2.741424,
            43.297608,
            57.79
          ],
          [
            2.741432,
            43.297696,
            57.87
          ],
          [
            2.741266,
            43.298237,
            58.38
          ],
          [
            2.741218,
            43.298463,
            58.56
          ],
          [
            2.741204,
            43.298625,
            58.68
          ],
          [
            2.741161,
            43.298768,
            58.86
          ],
          [
            2.741129,
            43.29902,
            59.21
          ],
          [
            2.74111,
            43.299072,
            59.27
          ],
          [
            2.741057,
            43.299127,
            59.34
          ],
          [
            2.740939,
            43.299211,
            59.44
          ],
          [
            2.740805,
            43.29934,
            59.61
          ],
          [
            2.740571,
            43.299523,
            60.06
          ],
          [
            2.740544,
            43.299574,
            60.17
          ],
          [
            2.740496,
            43.299738,
            60.54
          ],
          [
            2.740512,
            43.299781,
            60.64
          ],
          [
            2.74056,
            43.299808,
            60.72
          ],
          [
            2.740939,
            43.299849,
            61.41
          ],
          [
            2.741057,
            43.299855,
            61.74
          ],
          [
            2.741242,
            43.299845,
            61.99
          ],
          [
            2.741282,
            43.299851,
            62.02
          ],
          [
            2.741309,
            43.299881,
            62.07
          ],
          [
            2.741247,
            43.29989,
            62.02
          ],
          [
            2.741057,
            43.299895,
            61.82
          ],
          [
            2.740556,
            43.299841,
            61.15
          ],
          [
            2.740366,
            43.299807,
            61.08
          ],
          [
            2.739809,
            43.299669,
            61.23
          ],
          [
            2.739666,
            43.299639,
            61.51
          ],
          [
            2.739498,
            43.299656,
            62.09
          ],
          [
            2.7391,
            43.299786,
            63.17
          ],
          [
            2.738973,
            43.299812,
            63.48
          ],
          [
            2.738604,
            43.299829,
            63.82
          ],
          [
            2.737126,
            43.297799,
            56.0
          ],
          [
            2.736749,
            43.297334,
            55.28
          ],
          [
            2.736689,
            43.297375,
            55.09
          ],
          [
            2.736512,
            43.297412,
            55.03
          ],
          [
            2.736463,
            43.297468,
            55.02
          ],
          [
            2.73645,
            43.297762,
            55.39
          ],
          [
            2.736437,
            43.297828,
            55.46
          ],
          [
            2.73638,
            43.297862,
            55.5
          ],
          [
            2.735146,
            43.298029,
            55.99
          ],
          [
            2.735006,
            43.298063,
            56.0
          ],
          [
            2.734952,
            43.298111,
            56.0
          ],
          [
            2.734961,
            43.298179,
            56.0
          ],
          [
            2.734926,
            43.298224,
            56.0
          ],
          [
            2.734926,
            43.298224,
            56.0
          ],
          [
            2.734961,
            43.298179,
            56.0
          ],
          [
            2.734952,
            43.298111,
            56.0
          ],
          [
            2.735006,
            43.298063,
            56.0
          ],
          [
            2.735146,
            43.298029,
            55.99
          ],
          [
            2.73638,
            43.297862,
            55.5
          ],
          [
            2.736437,
            43.297828,
            55.46
          ],
          [
            2.73645,
            43.297762,
            55.39
          ],
          [
            2.736463,
            43.297468,
            55.02
          ],
          [
            2.736512,
            43.297412,
            55.03
          ],
          [
            2.736689,
            43.297375,
            55.09
          ],
          [
            2.736749,
            43.297334,
            55.28
          ],
          [
            2.737126,
            43.297799,
            56.0
          ],
          [
            2.738604,
            43.299829,
            63.82
          ],
          [
            2.738782,
            43.30011,
            65.43
          ],
          [
            2.738883,
            43.300307,
            65.93
          ],
          [
            2.738977,
            43.300545,
            66.36
          ],
          [
            2.739128,
            43.301036,
            66.81
          ],
          [
            2.739174,
            43.30135,
            66.32
          ],
          [
            2.739219,
            43.30273,
            67.74
          ],
          [
            2.739262,
            43.303076,
            68.44
          ],
          [
            2.739319,
            43.30328,
            68.89
          ],
          [
            2.739815,
            43.304304,
            72.65
          ],
          [
            2.739968,
            43.30481,
            75.27
          ],
          [
            2.74035,
            43.306271,
            79.47
          ],
          [
            2.74092,
            43.305995,
            80.66
          ],
          [
            2.741205,
            43.305877,
            81.33
          ],
          [
            2.741675,
            43.305611,
            82.59
          ],
          [
            2.742707,
            43.305146,
            84.31
          ],
          [
            2.742957,
            43.305081,
            84.55
          ],
          [
            2.743289,
            43.305025,
            84.83
          ],
          [
            2.743505,
            43.305033,
            84.93
          ],
          [
            2.743841,
            43.305067,
            85.09
          ],
          [
            2.744047,
            43.305067,
            85.4
          ],
          [
            2.744231,
            43.305054,
            85.52
          ],
          [
            2.744621,
            43.30496,
            85.56
          ],
          [
            2.744766,
            43.304936,
            85.73
          ],
          [
            2.744961,
            43.304926,
            86.03
          ],
          [
            2.74539,
            43.304944,
            87.07
          ],
          [
            2.745589,
            43.304905,
            87.7
          ],
          [
            2.745672,
            43.304912,
            87.96
          ],
          [
            2.745769,
            43.304981,
            88.0
          ],
          [
            2.745697,
            43.305034,
            87.98
          ],
          [
            2.745568,
            43.305168,
            87.77
          ],
          [
            2.745349,
            43.305434,
            87.43
          ]
        ]
      }
    },
    {
      "type": "Feature",
      "properties": {
        "source": "Oupia_Les_Serres.gpx",
        "type": "route"
      },
      "geometry": {
        "type": "LineString",
        "coordinates": [
          [
            2.739767,
            43.290491
          ],
          [
            2.742141,
            43.294748
          ],
          [
            2.741309,
            43.299881
          ],
          [
            2.738604,
            43.299829
          ],
          [
            2.736749,
            43.297334
          ],
          [
            2.734926,
            43.298224
          ],
          [
            2.734926,
            43.298224
          ],
          [
            2.736749,
            43.297334
          ],
          [
            2.74035,
            43.306271
          ],
          [
            2.745769,
            43.304981
          ],
          [
            2.745349,
            43.305434
          ]
        ]
      }
    }
  ]
}