{
  "type": "FeatureCollection",
  "features": [
    {
      "type": "Feature",
      "properties": {
        "name": "GraphHopper Track",
        "source": "Pinède_de_la_Bade.gpx",
        "type": "track"
      },
      "geometry": {
        "type": "LineString",
        "coordinates": [
          [
            2.745595,
            43.295563,
            59.83
          ],
          [
            2.745427,
            43.295698,
            59.99
          ],
          [
            2.74542,
            43.295753,
            60.0
          ],
          [
            2.745455,
            43.295778,
            60.27
          ],
          [
            2.745553,
            43.295767,
            60.66
          ],
          [
            2.745971,
            43.29567,
            61.07
          ],
          [
            2.746116,
            43.295652,
            61.62
          ],
          [
            2.746293,
            43.295663,
            62.08
          ],
          [
            2.746426,
            43.295684,
            62.42
          ],
          [
            2.74654,
            43.29573,
            62.94
          ],
          [
            2.74684,
            43.295827,
            65.44
          ],
          [
            2.746989,
            43.29585,
            65.73
          ],
          [
            2.7479,
            43.29625,
            65.48
          ],
          [
            2.748447,
            43.296614,
            66.46
          ],
          [
            2.748586,
            43.296665,
            66.67
          ],
          [
            2.748849,
            43.296734,
            67.09
          ],
          [
            2.748947,
            43.296782,
            67.28
          ],
          [
            2.749241,
            43.296994,
            67.94
          ],
          [
            2.749943,
            43.297401,
            69.7
          ],
          [
            2.750538,
            43.29788,
            71.54
          ],
          [
            2.750677,
            43.297968,
            71.9
          ],
          [
            2.750927,
            43.298099,
            72.4
          ],
          [
            2.751016,
            43.298159,
            72.71
          ],
          [
            2.751072,
            43.298246,
            73.19
          ],
          [
            2.751142,
            43.298414,
            73.95
          ],
          [
            2.751158,
            43.298509,
            74.35
          ],
          [
            2.751145,
            43.298614,
            74.65
          ],
          [
            2.751185,
            43.298643,
            74.49
          ],
          [
            2.751846,
            43.298751,
            74.49
          ],
          [
            2.753594,
            43.298836,
            78.03
          ],
          [
            2.753851,
            43.298835,
            78.45
          ],
          [
            2.75402,
            43.298815,
            78.71
          ],
          [
            2.754388,
            43.298659,
            79.39
          ],
          [
            2.754526,
            43.298627,
            79.56
          ],
          [
            2.754756,
            43.298621,
            79.98
          ],
          [
            2.755285,
            43.298653,
            81.33
          ],
          [
            2.755312,
            43.298484,
            82.83
          ],
          [
            2.755312,
            43.298484,
            82.83
          ],
          [
            2.755285,
            43.298653,
            81.33
          ],
          [
            2.755286,
            43.298737,
            81.01
          ],
          [
            2.755345,
            43.298849,
            79.95
          ],
          [
            2.754664,
            43.29938,
            77.66
          ],
          [
            2.754208,
            43.299707,
            77.52
          ],
          [
            2.752428,
            43.300827,
            77.2
          ],
          [
            2.752268,
            43.300965,
            77.52
          ],
          [
            2.751645,
            43.301745,
            80.5
          ],
          [
            2.751548,
            43.301853,
            80.93
          ],
          [
            2.751476,
            43.30191,
            81.22
          ],
          [
            2.751292,
            43.302013,
            81.82
          ],
          [
            2.750741,
            43.302207,
            82.9
          ],
          [
            2.750467,
            43.302193,
            82.08
          ],
          [
            2.749324,
            43.301944,
            80.65
          ],
          [
            2.748866,
            43.301855,
            81.02
          ]
        ]
      }
    },
    {
      "type": "Feature",
      "properties": {
        "source": "Pinède_de_la_Bade.gpx",
        "type": "route"
      },
      "geometry": {
        "type": "LineString",
        "coordinates": [
          [
            2.745595,
            43.295563
          ],
          [
            2.74542,
            43.295753
          ],
          [
            2.751185,
            43.298643
          ],
          [
            2.755285,
            43.298653
          ],
          [
            2.755312,
            43.298484
          ],
          [
            2.755312,
            43.298484
          ],
          [
            2.755345,
            43.298849
          ],
          [
            2.750741,
            43.302207
          ],
          [
            2.748866,
            43.301855
          ]
        ]
      }
    }
  ]
}