{
  "type": "FeatureCollection",
  "features": [
    {
      "type": "Feature",
      "properties": {
        "name": "GraphHopper Track",
        "source": "Vignobles__Plaines.gpx",
        "type": "track"
      },
      "geometry": {
        "type": "LineString",
        "coordinates": [
          [
            2.706583,
            43.276513,
            53.05
          ],
          [
            2.706492,
            43.276628,
            54.17
          ],
          [
            2.706331,
            43.276757,
            54.41
          ],
          [
            2.706155,
            43.276805,
            52.1
          ],
          [
            2.705993,
            43.277011,
            51.46
          ],
          [
            2.705485,
            43.277335,
            51.76
          ],
          [
            2.705221,
            43.277414,
            52.11
          ],
          [
            2.704981,
            43.277515,
            52.35
          ],
          [
            2.704799,
            43.277564,
            52.48
          ],
          [
            2.704429,
            43.277585,
            52.59
          ],
          [
            2.70425,
            43.277633,
            52.76
          ],
          [
            2.703959,
            43.277767,
            52.23
          ],
          [
            2.703734,
            43.277838,
            51.3
          ],
          [
            2.703648,
            43.278037,
            52.26
          ],
          [
            2.703641,
            43.278267,
            53.29
          ],
          [
            2.703583,
            43.278347,
            53.62
          ],
          [
            2.703085,
            43.278525,
            52.56
          ],
          [
            2.702523,
            43.278742,
            52.41
          ],
          [
            2.702162,
            43.278863,
            52.71
          ],
          [
            2.701618,
            43.279128,
            53.83
          ],
          [
            2.70116,
            43.279317,
            54.91
          ],
          [
            2.700701,
            43.279433,
            55.81
          ],
          [
            2.700127,
            43.279677,
            55.65
          ],
          [
            2.699879,
            43.279953,
            55.96
          ],
          [
            2.699677,
            43.280202,
            56.62
          ],
          [
            2.699593,
            43.280454,
            56.99
          ],
          [
            2.699603,
            43.280552,
            57.19
          ],
          [
            2.699666,
            43.280642,
            57.49
          ],
          [
            2.699613,
            43.280735,
            57.88
          ],
          [
            2.699493,
            43.280839,
            58.55
          ],
          [
            2.699497,
            43.28091,
            58.93
          ],
          [
            2.699536,
            43.281033,
            59.63
          ],
          [
            2.699561,
            43.281332,
            61.35
          ],
          [
            2.699555,
            43.281366,
            61.55
          ],
          [
            2.699527,
            43.2814,
            61.78
          ],
          [
            2.699431,
            43.281464,
            62.34
          ],
          [
            2.6994,
            43.281499,
            62.58
          ],
          [
            2.699392,
            43.281532,
            62.82
          ],
          [
            2.699399,
            43.281653,
            63.92
          ],
          [
            2.699314,
            43.281776,
            64.9
          ],
          [
            2.699314,
            43.281815,
            65.11
          ],
          [
            2.699346,
            43.281849,
            65.31
          ],
          [
            2.699589,
            43.281987,
            65.62
          ],
          [
            2.699622,
            43.282022,
            65.74
          ],
          [
            2.699603,
            43.282058,
            65.81
          ],
          [
            2.698682,
            43.281728,
            63.04
          ],
          [
            2.698373,
            43.281693,
            63.23
          ],
          [
            2.698234,
            43.281671,
            63.48
          ],
          [
            2.698086,
            43.28168,
            63.78
          ],
          [
            2.697953,
            43.281674,
            64.0
          ],
          [
            2.697692,
            43.281624,
            64.48
          ],
          [
            2.696912,
            43.281446,
            66.11
          ],
          [
            2.696559,
            43.28141,
            66.64
          ],
          [
            2.696169,
            43.281436,
            67.08
          ],
          [
            2.695569,
            43.28145,
            67.42
          ],
          [
            2.695174,
            43.281432,
            67.59
          ],
          [
            2.694477,
            43.281325,
            67.86
          ],
          [
            2.694044,
            43.281244,
            68.02
          ],
          [
            2.693699,
            43.281218,
            68.13
          ],
          [
            2.692985,
            43.281194,
            68.44
          ],
          [
            2.692243,
            43.281241,
            69.0
          ],
          [
            2.69221,
            43.281164,
            69.0
          ],
          [
            2.692127,
            43.281046,
            69.0
          ],
          [
            2.69201,
            43.281062,
            69.02
          ],
          [
            2.691148,
            43.281239,
            69.6
          ],
          [
            2.690235,
            43.281405,
            70.37
          ],
          [
            2.689924,
            43.281444,
            70.86
          ],
          [
            2.689859,
            43.281632,
            70.98
          ],
          [
            2.689725,
            43.281918,
            71.39
          ],
          [
            2.689601,
            43.282069,
            71.7
          ],
          [
            2.689382,
            43.282216,
            72.07
          ],
          [
            2.688356,
            43.282755,
            74.02
          ],
          [
            2.687166,
            43.283756,
            76.27
          ],
          [
            2.686605,
            43.284291,
            77.52
          ],
          [
            2.685876,
            43.2849,
            78.0
          ],
          [
            2.68555,
            43.285271,
            78.0
          ],
          [
            2.685407,
            43.285463,
            78.0
          ],
          [
            2.685407,
            43.285463,
            78.0
          ],
          [
            2.68449,
            43.286762,
            77.75
          ],
          [
            2.684366,
            43.287077,
            77.83
          ],
          [
            2.684288,
            43.287207,
            78.0
          ],
          [
            2.684165,
            43.287322,
            78.0
          ],
          [
            2.683991,
            43.287399,
            78.12
          ],
          [
            2.68353,
            43.287649,
            78.5
          ],
          [
            2.683222,
            43.287898,
            78.84
          ],
          [
            2.682751,
            43.288409,
            79.43
          ],
          [
            2.682111,
            43.289155,
            79.92
          ],
          [
            2.681881,
            43.289388,
            80.22
          ],
          [
            2.681325,
            43.289878,
            81.08
          ],
          [
            2.680501,
            43.290671,
            82.63
          ],
          [
            2.680248,
            43.290981,
            82.96
          ],
          [
            2.680085,
            43.291214,
            83.05
          ],
          [
            2.67994,
            43.291545,
            82.96
          ],
          [
            2.679855,
            43.291867,
            82.16
          ],
          [
            2.679839,
            43.292112,
            81.23
          ],
          [
            2.679726,
            43.292598,
            79.61
          ],
          [
            2.679614,
            43.292884,
            79.41
          ],
          [
            2.679625,
            43.293141,
            79.4
          ],
          [
            2.67968,
            43.293593,
            79.9
          ],
          [
            2.679975,
            43.294171,
            81.0
          ],
          [
            2.679497,
            43.294265,
            81.91
          ],
          [
            2.679057,
            43.29434,
            82.39
          ],
          [
            2.677872,
            43.294592,
            83.0
          ],
          [
            2.678194,
            43.294884,
            83.18
          ],
          [
            2.677922,
            43.294957,
            83.42
          ],
          [
            2.677591,
            43.295024,
            83.41
          ],
          [
            2.67779,
            43.29578,
            85.02
          ],
          [
            2.677357,
            43.295824,
            85.3
          ],
          [
            2.676258,
            43.295898,
            85.16
          ],
          [
            2.675267,
            43.296078,
            86.0
          ],
          [
            2.67513,
            43.296112,
            86.0
          ],
          [
            2.675026,
            43.29589,
            86.0
          ],
          [
            2.674922,
            43.295701,
            86.01
          ],
          [
            2.674849,
            43.295692,
            86.01
          ],
          [
            2.672365,
            43.296379,
            88.0
          ],
          [
            2.672576,
            43.298227,
            89.0
          ],
          [
            2.672245,
            43.298178,
            89.09
          ],
          [
            2.671939,
            43.298083,
            89.13
          ],
          [
            2.671523,
            43.297927,
            89.32
          ],
          [
            2.671086,
            43.297737,
            89.59
          ],
          [
            2.670834,
            43.297645,
            89.8
          ],
          [
            2.670477,
            43.297579,
            90.13
          ],
          [
            2.669663,
            43.297455,
            91.0
          ],
          [
            2.668962,
            43.297269,
            90.99
          ],
          [
            2.668471,
            43.297174,
            90.89
          ],
          [
            2.667733,
            43.297097,
            90.82
          ],
          [
            2.666692,
            43.296935,
            90.89
          ],
          [
            2.665045,
            43.29685,
            91.27
          ],
          [
            2.664888,
            43.296809,
            91.48
          ],
          [
            2.664907,
            43.296652,
            91.07
          ],
          [
            2.665049,
            43.296039,
            90.09
          ],
          [
            2.665183,
            43.295409,
            89.49
          ],
          [
            2.665166,
            43.295241,
            89.5
          ],
          [
            2.664681,
            43.294272,
            91.0
          ],
          [
            2.663468,
            43.294434,
            91.42
          ],
          [
            2.662862,
            43.294442,
            91.47
          ],
          [
            2.662774,
            43.294477,
            91.48
          ],
          [
            2.66275,
            43.294551,
            91.49
          ],
          [
            2.662841,
            43.294809,
            91.56
          ],
          [
            2.662833,
            43.294869,
            91.57
          ],
          [
            2.662776,
            43.294907,
            91.58
          ],
          [
            2.658822,
            43.295455,
            95.0
          ],
          [
            2.658904,
            43.295972,
            94.75
          ],
          [
            2.658921,
            43.29615,
            94.0
          ],
          [
            2.658073,
            43.295851,
            95.36
          ],
          [
            2.65768,
            43.295729,
            95.89
          ],
          [
            2.657253,
            43.295614,
            96.4
          ],
          [
            2.656125,
            43.295415,
            97.0
          ],
          [
            2.655655,
            43.295325,
            97.0
          ],
          [
            2.655642,
            43.295377,
            97.07
          ],
          [
            2.655631,
            43.295506,
            97.51
          ]
        ]
      }
    },
    {
      "type": "Feature",
      "properties": {
        "source": "Vignobles__Plaines.gpx",
        "type": "route"
      },
      "geometry": {
        "type": "LineString",
        "coordinates": [
          [
            2.706583,
            43.276513
          ],
          [
            2.706331,
            43.276757
          ],
          [
            2.703734,
            43.277838
          ],
          [
            2.703583,
            43.278347
          ],
          [
            2.700127,
            43.279677
          ],
          [
            2.699603,
            43.282058
          ],
          [
            2.692243,
            43.281241
          ],
          [
            2.692127,
            43.281046
          ],
          [
            2.689924,
            43.281444
          ],
          [
            2.685407,
            43.285463
          ],
          [
            2.685407,
            43.285463
          ],
          [
            2.679975,
            43.294171
          ],
          [
            2.677872,
            43.294592
          ],
          [
            2.678194,
            43.294884
          ],
          [
            2.677591,
            43.295024
          ],
          [
            2.67779,
            43.29578
          ],
          [
            2.67513,
            43.296112
          ],
          [
            2.672365,
            43.296379
          ],
          [
            2.672576,
            43.298227
          ],
          [
            2.664888,
            43.296809
          ],
          [
            2.664681,
            43.294272
          ],
          [
            2.658822,
            43.295455
          ],
          [
            2.658921,
            43.29615
          ],
          [
            2.655655,
            43.295325
          ],
          [
            2.655631,
            43.295506
          ]
        ]
      }
    }
  ]
}