{
  "type": "FeatureCollection",
  "features": [
    {
      "type": "Feature",
      "properties": {
        "name": "GraphHopper Track",
        "source": "Col_de_Larrieu.gpx",
        "type": "track"
      },
      "geometry": {
        "type": "LineString",
        "coordinates": [
          [
            0.802277,
            43.013979,
            469.73
          ],
          [
            0.80271,
            43.013942,
            470.95
          ],
          [
            0.803613,
            43.014009,
            472.0
          ],
          [
            0.804165,
            43.014095,
            473.45
          ],
          [
            0.804805,
            43.014046,
            477.96
          ],
          [
            0.804932,
            43.014005,
            479.15
          ],
          [
            0.805069,
            43.013842,
            482.33
          ],
          [
            0.805113,
            43.013963,
            484.37
          ],
          [
            0.805145,
            43.014105,
            486.21
          ],
          [
            0.805253,
            43.014237,
            487.79
          ],
          [
            0.805421,
            43.014412,
            489.94
          ],
          [
            0.805773,
            43.014631,
            492.62
          ],
          [
            0.80579,
            43.014697,
            491.86
          ],
          [
            0.806315,
            43.014874,
            494.39
          ],
          [
            0.806626,
            43.014948,
            495.64
          ],
          [
            0.807026,
            43.014983,
            497.15
          ],
          [
            0.807736,
            43.014956,
            499.21
          ],
          [
            0.808133,
            43.014917,
            500.48
          ],
          [
            0.808568,
            43.014756,
            501.97
          ],
          [
            0.808949,
            43.014658,
            503.81
          ],
          [
            0.809357,
            43.01463,
            506.04
          ],
          [
            0.809716,
            43.014666,
            508.01
          ],
          [
            0.810295,
            43.014768,
            511.83
          ],
          [
            0.810666,
            43.014775,
            514.45
          ],
          [
            0.81235,
            43.014568,
            528.43
          ],
          [
            0.813063,
            43.014364,
            537.48
          ],
          [
            0.813659,
            43.014266,
            545.36
          ],
          [
            0.814319,
            43.014109,
            552.02
          ],
          [
            0.815016,
            43.013987,
            557.69
          ],
          [
            0.815531,
            43.01385,
            561.48
          ],
          [
            0.815864,
            43.01361,
            564.69
          ],
          [
            0.816177,
            43.013337,
            567.53
          ],
          [
            0.816292,
            43.013296,
            567.29
          ],
          [
            0.816695,
            43.01301,
            568.45
          ],
          [
            0.816894,
            43.012936,
            569.6
          ],
          [
            0.817339,
            43.01292,
            571.79
          ],
          [
            0.81758,
            43.012999,
            573.15
          ],
          [
            0.817779,
            43.012999,
            574.18
          ],
          [
            0.819442,
            43.012485,
            581.73
          ],
          [
            0.821325,
            43.011834,
            582.18
          ],
          [
            0.822344,
            43.011528,
            580.45
          ],
          [
            0.823465,
            43.0113,
            584.39
          ],
          [
            0.82406,
            43.011249,
            587.57
          ],
          [
            0.825439,
            43.011226,
            586.06
          ],
          [
            0.825525,
            43.011171,
            585.31
          ],
          [
            0.82578,
            43.010663,
            581.4
          ],
          [
            0.825812,
            43.010461,
            580.94
          ],
          [
            0.825756,
            43.009962,
            582.5
          ],
          [
            0.825783,
            43.009762,
            583.47
          ],
          [
            0.825875,
            43.009416,
            585.65
          ],
          [
            0.825933,
            43.009385,
            586.04
          ],
          [
            0.82608,
            43.009444,
            587.02
          ],
          [
            0.826196,
            43.009448,
            587.8
          ],
          [
            0.826831,
            43.009073,
            596.59
          ],
          [
            0.826989,
            43.009011,
            599.12
          ],
          [
            0.827046,
            43.008846,
            602.88
          ],
          [
            0.827133,
            43.008843,
            604.52
          ],
          [
            0.827278,
            43.008982,
            608.64
          ],
          [
            0.827329,
            43.00917,
            609.8
          ],
          [
            0.826828,
            43.009825,
            591.2
          ],
          [
            0.826764,
            43.01032,
            581.46
          ],
          [
            0.827032,
            43.010696,
            574.09
          ],
          [
            0.82729,
            43.011112,
            566.84
          ],
          [
            0.82759,
            43.011512,
            560.3
          ],
          [
            0.828298,
            43.011967,
            553.23
          ],
          [
            0.828996,
            43.012265,
            546.9
          ],
          [
            0.829146,
            43.01254,
            543.24
          ],
          [
            0.829234,
            43.012928,
            536.48
          ],
          [
            0.829666,
            43.013089,
            534.6
          ],
          [
            0.830036,
            43.013097,
            534.4
          ],
          [
            0.830763,
            43.012853,
            534.99
          ],
          [
            0.831141,
            43.012683,
            536.96
          ],
          [
            0.831492,
            43.012787,
            533.52
          ],
          [
            0.831843,
            43.013047,
            532.44
          ],
          [
            0.831897,
            43.013104,
            532.42
          ],
          [
            0.831867,
            43.013205,
            532.26
          ],
          [
            0.831691,
            43.013409,
            531.7
          ],
          [
            0.831328,
            43.013733,
            530.97
          ],
          [
            0.830953,
            43.014142,
            529.83
          ],
          [
            0.830588,
            43.014519,
            530.0
          ],
          [
            0.830414,
            43.014737,
            530.94
          ],
          [
            0.830331,
            43.014898,
            531.88
          ],
          [
            0.830265,
            43.015326,
            535.4
          ],
          [
            0.8301,
            43.015612,
            538.96
          ],
          [
            0.8301,
            43.015612,
            538.96
          ],
          [
            0.830079,
            43.015886,
            542.42
          ],
          [
            0.830032,
            43.016268,
            547.38
          ],
          [
            0.829985,
            43.01647,
            549.8
          ],
          [
            0.829861,
            43.016688,
            552.03
          ],
          [
            0.829694,
            43.016846,
            553.44
          ],
          [
            0.829524,
            43.016968,
            554.39
          ],
          [
            0.829164,
            43.017146,
            555.51
          ],
          [
            0.828801,
            43.017377,
            556.42
          ],
          [
            0.828213,
            43.017814,
            558.35
          ],
          [
            0.827431,
            43.018311,
            560.0
          ],
          [
            0.826934,
            43.018157,
            560.68
          ],
          [
            0.826812,
            43.018132,
            560.55
          ],
          [
            0.82667,
            43.018112,
            560.12
          ],
          [
            0.826359,
            43.01811,
            559.18
          ],
          [
            0.825756,
            43.018123,
            556.87
          ],
          [
            0.825064,
            43.01815,
            553.13
          ],
          [
            0.8244,
            43.018147,
            549.02
          ],
          [
            0.824276,
            43.018136,
            548.25
          ],
          [
            0.824164,
            43.018116,
            547.53
          ],
          [
            0.823984,
            43.018049,
            546.3
          ],
          [
            0.823897,
            43.01803,
            545.75
          ],
          [
            0.823765,
            43.018018,
            544.97
          ],
          [
            0.823639,
            43.018027,
            544.23
          ],
          [
            0.822866,
            43.018174,
            539.95
          ],
          [
            0.822755,
            43.018182,
            539.39
          ],
          [
            0.822652,
            43.01817,
            538.87
          ],
          [
            0.82256,
            43.018146,
            538.38
          ],
          [
            0.822486,
            43.018118,
            537.98
          ],
          [
            0.822372,
            43.018056,
            537.29
          ],
          [
            0.822261,
            43.018011,
            536.68
          ],
          [
            0.822128,
            43.01798,
            536.01
          ],
          [
            0.821657,
            43.017904,
            533.24
          ],
          [
            0.821199,
            43.017803,
            530.16
          ],
          [
            0.821036,
            43.01775,
            529.02
          ],
          [
            0.820736,
            43.017629,
            526.75
          ],
          [
            0.820603,
            43.017584,
            525.72
          ],
          [
            0.820481,
            43.01756,
            524.8
          ],
          [
            0.820324,
            43.017542,
            523.65
          ],
          [
            0.820189,
            43.017541,
            522.69
          ],
          [
            0.820026,
            43.017555,
            521.61
          ],
          [
            0.819774,
            43.017592,
            520.15
          ],
          [
            0.819365,
            43.017671,
            517.93
          ],
          [
            0.819267,
            43.017677,
            517.37
          ],
          [
            0.819179,
            43.017667,
            516.83
          ],
          [
            0.819092,
            43.01764,
            516.25
          ],
          [
            0.819011,
            43.017597,
            515.63
          ],
          [
            0.818904,
            43.017496,
            514.52
          ],
          [
            0.818653,
            43.017318,
            512.18
          ],
          [
            0.818228,
            43.017084,
            508.17
          ],
          [
            0.818141,
            43.017026,
            507.29
          ],
          [
            0.818054,
            43.016958,
            506.33
          ],
          [
            0.81795,
            43.016831,
            504.82
          ],
          [
            0.817843,
            43.016739,
            503.6
          ],
          [
            0.817725,
            43.01666,
            502.46
          ],
          [
            0.817469,
            43.016547,
            500.46
          ],
          [
            0.817313,
            43.016504,
            499.41
          ],
          [
            0.817136,
            43.01647,
            498.31
          ],
          [
            0.816924,
            43.016439,
            496.98
          ],
          [
            0.816298,
            43.01639,
            492.53
          ],
          [
            0.815578,
            43.016355,
            487.93
          ],
          [
            0.815438,
            43.016331,
            487.15
          ],
          [
            0.81531,
            43.016296,
            486.45
          ],
          [
            0.814936,
            43.016143,
            484.58
          ],
          [
            0.81482,
            43.016114,
            484.08
          ],
          [
            0.81472,
            43.016098,
            483.65
          ],
          [
            0.814163,
            43.016081,
            480.92
          ],
          [
            0.813631,
            43.016081,
            477.56
          ],
          [
            0.812939,
            43.016025,
            472.87
          ],
          [
            0.81279,
            43.016031,
            471.87
          ],
          [
            0.812314,
            43.016084,
            468.74
          ],
          [
            0.811365,
            43.01623,
            462.08
          ],
          [
            0.811206,
            43.016235,
            461.03
          ],
          [
            0.810659,
            43.016185,
            457.88
          ],
          [
            0.809728,
            43.016133,
            454.28
          ],
          [
            0.809338,
            43.016144,
            453.02
          ],
          [
            0.808604,
            43.016188,
            451.55
          ],
          [
            0.807974,
            43.016239,
            450.84
          ],
          [
            0.806965,
            43.016294,
            450.18
          ],
          [
            0.806358,
            43.016303,
            452.22
          ],
          [
            0.806099,
            43.016281,
            453.97
          ],
          [
            0.80596,
            43.016259,
            454.73
          ],
          [
            0.805735,
            43.016196,
            456.03
          ],
          [
            0.805352,
            43.016045,
            458.82
          ],
          [
            0.804991,
            43.015927,
            460.09
          ],
          [
            0.804739,
            43.01585,
            461.11
          ],
          [
            0.804502,
            43.015794,
            462.14
          ],
          [
            0.804167,
            43.015738,
            463.65
          ],
          [
            0.803928,
            43.01572,
            464.66
          ],
          [
            0.803774,
            43.015695,
            465.31
          ],
          [
            0.803635,
            43.015741,
            464.23
          ],
          [
            0.80345,
            43.015776,
            463.05
          ],
          [
            0.803418,
            43.015727,
            463.7
          ],
          [
            0.803327,
            43.015717,
            463.85
          ],
          [
            0.802472,
            43.015722,
            463.78
          ],
          [
            0.801496,
            43.015746,
            461.82
          ],
          [
            0.801468,
            43.01571,
            462.25
          ],
          [
            0.801329,
            43.0156,
            462.03
          ],
          [
            0.800866,
            43.014927,
            460.07
          ],
          [
            0.80067,
            43.014815,
            459.63
          ],
          [
            0.800319,
            43.014641,
            459.54
          ],
          [
            0.799856,
            43.014291,
            457.77
          ],
          [
            0.799623,
            43.014004,
            455.44
          ],
          [
            0.799377,
            43.013814,
            453.46
          ],
          [
            0.799326,
            43.013738,
            452.75
          ],
          [
            0.799329,
            43.013596,
            451.6
          ],
          [
            0.799557,
            43.013304,
            448.6
          ],
          [
            0.799589,
            43.013224,
            447.36
          ],
          [
            0.799589,
            43.01319,
            446.68
          ],
          [
            0.799176,
            43.013179,
            444.63
          ],
          [
            0.799037,
            43.013161,
            443.59
          ],
          [
            0.798899,
            43.013125,
            442.64
          ],
          [
            0.798789,
            43.013081,
            441.49
          ],
          [
            0.798707,
            43.013037,
            440.4
          ],
          [
            0.798653,
            43.012988,
            439.63
          ],
          [
            0.798585,
            43.012874,
            438.41
          ],
          [
            0.798416,
            43.01187,
            439.1
          ],
          [
            0.798393,
            43.011397,
            441.01
          ],
          [
            0.798432,
            43.011078,
            443.33
          ],
          [
            0.79853,
            43.010797,
            443.98
          ],
          [
            0.798813,
            43.010245,
            443.77
          ],
          [
            0.798898,
            43.01002,
            442.6
          ],
          [
            0.799167,
            43.00913,
            447.34
          ],
          [
            0.799286,
            43.008838,
            448.28
          ],
          [
            0.799324,
            43.00865,
            448.79
          ],
          [
            0.799304,
            43.008423,
            449.24
          ],
          [
            0.799115,
            43.007671,
            449.36
          ],
          [
            0.799019,
            43.007162,
            449.17
          ],
          [
            0.798746,
            43.005537,
            449.94
          ],
          [
            0.798532,
            43.004183,
            453.19
          ],
          [
            0.798456,
            43.003758,
            452.13
          ],
          [
            0.798418,
            43.00364,
            451.03
          ],
          [
            0.798453,
            43.003628,
            451.03
          ],
          [
            0.79849,
            43.003599,
            450.91
          ],
          [
            0.798633,
            43.003344,
            450.26
          ],
          [
            0.79867,
            43.003236,
            450.16
          ],
          [
            0.798679,
            43.00312,
            450.8
          ],
          [
            0.798662,
            43.002903,
            451.2
          ],
          [
            0.79855,
            43.002647,
            451.22
          ],
          [
            0.798137,
            43.002037,
            449.4
          ],
          [
            0.798364,
            43.001885,
            452.54
          ],
          [
            0.798672,
            43.001774,
            455.57
          ],
          [
            0.798968,
            43.001575,
            459.45
          ]
        ]
      }
    },
    {
      "type": "Feature",
      "properties": {
        "source": "Col_de_Larrieu.gpx",
        "type": "route"
      },
      "geometry": {
        "type": "LineString",
        "coordinates": [
          [
            0.802277,
            43.013979
          ],
          [
            0.803613,
            43.014009
          ],
          [
            0.805069,
            43.013842
          ],
          [
            0.80579,
            43.014697
          ],
          [
            0.816177,
            43.013337
          ],
          [
            0.827329,
            43.00917
          ],
          [
            0.831141,
            43.012683
          ],
          [
            0.8301,
            43.015612
          ],
          [
            0.8301,
            43.015612
          ],
          [
            0.827431,
            43.018311
          ],
          [
            0.803774,
            43.015695
          ],
          [
            0.80345,
            43.015776
          ],
          [
            0.801496,
            43.015746
          ],
          [
            0.800866,
            43.014927
          ],
          [
            0.799589,
            43.01319
          ],
          [
            0.798418,
            43.00364
          ],
          [
            0.798137,
            43.002037
          ],
          [
            0.798968,
            43.001575
          ]
        ]
      }
    }
  ]
}