{
  "type": "FeatureCollection",
  "features": [
    {
      "type": "Feature",
      "properties": {
        "name": "GraphHopper Track",
        "source": "Coteaux_de_Bouloc.gpx",
        "type": "track"
      },
      "geometry": {
        "type": "LineString",
        "coordinates": [
          [
            1.506986,
            43.782663,
            148.7
          ],
          [
            1.508034,
            43.783633,
            141.87
          ],
          [
            1.508434,
            43.783929,
            140.25
          ],
          [
            1.50989,
            43.784454,
            135.4
          ],
          [
            1.510029,
            43.784515,
            134.93
          ],
          [
            1.510081,
            43.784602,
            134.34
          ],
          [
            1.510451,
            43.784855,
            133.37
          ],
          [
            1.510534,
            43.784992,
            133.1
          ],
          [
            1.510675,
            43.785539,
            132.11
          ],
          [
            1.510679,
            43.78561,
            132.03
          ],
          [
            1.510648,
            43.785666,
            132.0
          ],
          [
            1.510696,
            43.785692,
            132.0
          ],
          [
            1.5108,
            43.785812,
            131.99
          ],
          [
            1.511076,
            43.78628,
            131.59
          ],
          [
            1.511161,
            43.786384,
            131.5
          ],
          [
            1.511256,
            43.78645,
            131.43
          ],
          [
            1.511359,
            43.786501,
            131.36
          ],
          [
            1.512071,
            43.786814,
            131.0
          ],
          [
            1.512231,
            43.786909,
            131.0
          ],
          [
            1.512356,
            43.786997,
            131.0
          ],
          [
            1.512516,
            43.787143,
            131.0
          ],
          [
            1.512767,
            43.787404,
            131.0
          ],
          [
            1.512847,
            43.78745,
            131.0
          ],
          [
            1.512919,
            43.78747,
            131.0
          ],
          [
            1.512955,
            43.787537,
            131.0
          ],
          [
            1.513042,
            43.787621,
            131.0
          ],
          [
            1.513756,
            43.788086,
            130.74
          ],
          [
            1.514467,
            43.788495,
            130.02
          ],
          [
            1.514869,
            43.788696,
            129.53
          ],
          [
            1.515195,
            43.788846,
            129.19
          ],
          [
            1.515195,
            43.788846,
            129.19
          ],
          [
            1.514869,
            43.788696,
            129.53
          ],
          [
            1.514467,
            43.788495,
            130.02
          ],
          [
            1.513756,
            43.788086,
            130.74
          ],
          [
            1.513042,
            43.787621,
            131.0
          ],
          [
            1.512955,
            43.787537,
            131.0
          ],
          [
            1.512919,
            43.78747,
            131.0
          ],
          [
            1.512847,
            43.78745,
            131.0
          ],
          [
            1.512767,
            43.787404,
            131.0
          ],
          [
            1.512516,
            43.787143,
            131.0
          ],
          [
            1.512356,
            43.786997,
            131.0
          ],
          [
            1.512231,
            43.786909,
            131.0
          ],
          [
            1.512071,
            43.786814,
            131.0
          ],
          [
            1.511359,
            43.786501,
            131.36
          ],
          [
            1.511256,
            43.78645,
            131.43
          ],
          [
            1.511161,
            43.786384,
            131.5
          ],
          [
            1.511076,
            43.78628,
            131.59
          ],
          [
            1.5108,
            43.785812,
            131.99
          ],
          [
            1.510696,
            43.785692,
            132.0
          ],
          [
            1.510648,
            43.785666,
            132.0
          ],
          [
            1.510679,
            43.78561,
            132.03
          ],
          [
            1.510675,
            43.785539,
            132.11
          ],
          [
            1.510534,
            43.784992,
            133.1
          ],
          [
            1.510451,
            43.784855,
            133.37
          ],
          [
            1.510081,
            43.784602,
            134.34
          ],
          [
            1.510029,
            43.784515,
            134.93
          ],
          [
            1.50989,
            43.784454,
            135.4
          ],
          [
            1.508434,
            43.783929,
            140.25
          ],
          [
            1.508034,
            43.783633,
            141.87
          ],
          [
            1.506774,
            43.782466,
            150.08
          ],
          [
            1.506412,
            43.782051,
            152.85
          ],
          [
            1.506293,
            43.781674,
            154.36
          ],
          [
            1.506221,
            43.78149,
            154.24
          ],
          [
            1.50568,
            43.781199,
            156.55
          ],
          [
            1.50544,
            43.781046,
            157.6
          ],
          [
            1.505234,
            43.781223,
            157.01
          ],
          [
            1.505071,
            43.781389,
            155.59
          ],
          [
            1.504904,
            43.781522,
            154.3
          ],
          [
            1.504663,
            43.781685,
            151.86
          ],
          [
            1.504485,
            43.781786,
            150.04
          ],
          [
            1.504342,
            43.781835,
            148.89
          ],
          [
            1.503763,
            43.781989,
            145.89
          ],
          [
            1.503527,
            43.782076,
            145.11
          ],
          [
            1.503045,
            43.782286,
            143.86
          ],
          [
            1.502904,
            43.782336,
            143.66
          ],
          [
            1.502795,
            43.782344,
            143.55
          ],
          [
            1.502546,
            43.782333,
            143.34
          ],
          [
            1.502284,
            43.782362,
            143.2
          ],
          [
            1.502152,
            43.782399,
            143.15
          ],
          [
            1.501975,
            43.782481,
            143.04
          ],
          [
            1.501739,
            43.782621,
            142.84
          ],
          [
            1.501408,
            43.782837,
            142.52
          ],
          [
            1.500046,
            43.783473,
            140.4
          ],
          [
            1.499706,
            43.783665,
            139.7
          ],
          [
            1.499438,
            43.783846,
            139.23
          ]
        ]
      }
    },
    {
      "type": "Feature",
      "properties": {
        "source": "Coteaux_de_Bouloc.gpx",
        "type": "route"
      },
      "geometry": {
        "type": "LineString",
        "coordinates": [
          [
            1.506986,
            43.782663
          ],
          [
            1.510648,
            43.785666
          ],
          [
            1.512919,
            43.78747
          ],
          [
            1.515195,
            43.788846
          ],
          [
            1.515195,
            43.788846
          ],
          [
            1.512919,
            43.78747
          ],
          [
            1.510648,
            43.785666
          ],
          [
            1.510029,
            43.784515
          ],
          [
            1.506221,
            43.78149
          ],
          [
            1.50544,
            43.781046
          ],
          [
            1.499438,
            43.783846
          ]
        ]
      }
    }
  ]
}