{
  "type": "FeatureCollection",
  "features": [
    {
      "type": "Feature",
      "properties": {
        "name": "GraphHopper Track",
        "source": "Bois_de_la_Capelle.gpx",
        "type": "track"
      },
      "geometry": {
        "type": "LineString",
        "coordinates": [
          [
            1.982381,
            43.643293,
            159.05
          ],
          [
            1.982496,
            43.643603,
            158.03
          ],
          [
            1.983052,
            43.644042,
            155.46
          ],
          [
            1.983511,
            43.6434,
            153.01
          ],
          [
            1.983741,
            43.643135,
            154.6
          ],
          [
            1.983979,
            43.642939,
            156.84
          ],
          [
            1.984268,
            43.642748,
            159.35
          ],
          [
            1.984615,
            43.642573,
            161.47
          ],
          [
            1.985091,
            43.642259,
            163.69
          ],
          [
            1.98547,
            43.641988,
            164.91
          ],
          [
            1.985668,
            43.641825,
            165.66
          ],
          [
            1.985853,
            43.641641,
            166.3
          ],
          [
            1.986041,
            43.641397,
            168.04
          ],
          [
            1.986333,
            43.640863,
            171.02
          ],
          [
            1.986428,
            43.640742,
            171.71
          ],
          [
            1.986726,
            43.640476,
            173.52
          ],
          [
            1.98524,
            43.63969,
            173.83
          ],
          [
            1.98452,
            43.639364,
            175.41
          ],
          [
            1.98383,
            43.639072,
            177.14
          ],
          [
            1.982481,
            43.638296,
            175.75
          ],
          [
            1.98226,
            43.638161,
            175.33
          ],
          [
            1.982108,
            43.638004,
            175.37
          ],
          [
            1.981878,
            43.637853,
            174.82
          ],
          [
            1.981323,
            43.637571,
            179.86
          ],
          [
            1.982898,
            43.635333,
            196.94
          ],
          [
            1.985077,
            43.634717,
            200.29
          ],
          [
            1.985077,
            43.634717,
            200.29
          ],
          [
            1.982898,
            43.635333,
            196.94
          ],
          [
            1.981323,
            43.637571,
            179.86
          ],
          [
            1.981878,
            43.637853,
            174.82
          ],
          [
            1.982108,
            43.638004,
            175.37
          ],
          [
            1.98226,
            43.638161,
            175.33
          ],
          [
            1.982481,
            43.638296,
            175.75
          ],
          [
            1.98383,
            43.639072,
            177.14
          ],
          [
            1.98452,
            43.639364,
            175.41
          ],
          [
            1.98524,
            43.63969,
            173.83
          ],
          [
            1.986726,
            43.640476,
            173.52
          ],
          [
            1.986428,
            43.640742,
            171.71
          ],
          [
            1.986333,
            43.640863,
            171.02
          ],
          [
            1.986041,
            43.641397,
            168.04
          ],
          [
            1.985853,
            43.641641,
            166.3
          ],
          [
            1.985668,
            43.641825,
            165.66
          ],
          [
            1.98547,
            43.641988,
            164.91
          ],
          [
            1.985091,
            43.642259,
            163.69
          ],
          [
            1.984615,
            43.642573,
            161.47
          ],
          [
            1.984268,
            43.642748,
            159.35
          ],
          [
            1.983979,
            43.642939,
            156.84
          ],
          [
            1.983741,
            43.643135,
            154.6
          ],
          [
            1.983511,
            43.6434,
            153.01
          ],
          [
            1.983052,
            43.644042,
            155.46
          ],
          [
            1.982496,
            43.643603,
            158.03
          ],
          [
            1.982381,
            43.643293,
            159.05
          ]
        ]
      }
    },
    {
      "type": "Feature",
      "properties": {
        "source": "Bois_de_la_Capelle.gpx",
        "type": "route"
      },
      "geometry": {
        "type": "LineString",
        "coordinates": [
          [
            1.982381,
            43.643293
          ],
          [
            1.983052,
            43.644042
          ],
          [
            1.986726,
            43.640476
          ],
          [
            1.981323,
            43.637571
          ],
          [
            1.982898,
            43.635333
          ],
          [
            1.985077,
            43.634717
          ],
          [
            1.985077,
            43.634717
          ],
          [
            1.982898,
            43.635333
          ],
          [
            1.981323,
            43.637571
          ],
          [
            1.986726,
            43.640476
          ],
          [
            1.983052,
            43.644042
          ],
          [
            1.982381,
            43.643293
          ]
        ]
      }
    }
  ]
}