{
  "type": "FeatureCollection",
  "features": [
    {
      "type": "Feature",
      "properties": {
        "name": "GraphHopper Track",
        "source": "Circuit_Plateaux.gpx",
        "type": "track"
      },
      "geometry": {
        "type": "LineString",
        "coordinates": [
          [
            1.966219,
            43.685223,
            211.61
          ],
          [
            1.966308,
            43.685343,
            212.39
          ],
          [
            1.966657,
            43.685619,
            215.33
          ],
          [
            1.967145,
            43.686245,
            221.28
          ],
          [
            1.967202,
            43.686357,
            222.0
          ],
          [
            1.967475,
            43.68675,
            224.5
          ],
          [
            1.967529,
            43.686863,
            225.5
          ],
          [
            1.967646,
            43.686905,
            226.08
          ],
          [
            1.967775,
            43.687025,
            227.37
          ],
          [
            1.967824,
            43.687084,
            228.09
          ],
          [
            1.968285,
            43.687541,
            235.24
          ],
          [
            1.968684,
            43.687748,
            240.63
          ],
          [
            1.969983,
            43.688346,
            257.43
          ],
          [
            1.970197,
            43.688357,
            259.83
          ],
          [
            1.970643,
            43.688348,
            265.31
          ],
          [
            1.970846,
            43.688362,
            268.0
          ],
          [
            1.971091,
            43.688416,
            271.45
          ],
          [
            1.971329,
            43.68854,
            275.51
          ],
          [
            1.971504,
            43.688684,
            279.04
          ],
          [
            1.971713,
            43.688967,
            284.56
          ],
          [
            1.972067,
            43.68927,
            290.33
          ],
          [
            1.972525,
            43.689685,
            296.96
          ],
          [
            1.971909,
            43.690322,
            295.9
          ],
          [
            1.97185,
            43.690597,
            295.72
          ],
          [
            1.971923,
            43.690818,
            295.38
          ],
          [
            1.971993,
            43.690976,
            294.99
          ],
          [
            1.971996,
            43.69118,
            294.48
          ],
          [
            1.97188,
            43.691393,
            293.92
          ],
          [
            1.971695,
            43.691563,
            293.11
          ],
          [
            1.971499,
            43.691853,
            291.39
          ],
          [
            1.971373,
            43.69197,
            290.52
          ],
          [
            1.971244,
            43.692028,
            289.93
          ],
          [
            1.970804,
            43.692177,
            287.59
          ],
          [
            1.9706,
            43.692255,
            286.02
          ],
          [
            1.970488,
            43.692334,
            285.01
          ],
          [
            1.970573,
            43.69235,
            285.92
          ],
          [
            1.97065,
            43.692411,
            286.52
          ],
          [
            1.970767,
            43.692572,
            287.04
          ],
          [
            1.971008,
            43.693031,
            288.26
          ],
          [
            1.971079,
            43.693116,
            288.89
          ],
          [
            1.971519,
            43.693798,
            294.19
          ],
          [
            1.971608,
            43.693919,
            295.08
          ],
          [
            1.971725,
            43.693997,
            295.71
          ],
          [
            1.971842,
            43.694052,
            296.18
          ],
          [
            1.971954,
            43.694086,
            296.28
          ],
          [
            1.972155,
            43.694085,
            297.1
          ],
          [
            1.972478,
            43.694049,
            297.81
          ],
          [
            1.972899,
            43.693983,
            299.29
          ],
          [
            1.97322,
            43.693902,
            300.53
          ],
          [
            1.974182,
            43.693566,
            305.24
          ],
          [
            1.974687,
            43.693466,
            307.09
          ],
          [
            1.975049,
            43.693454,
            308.12
          ],
          [
            1.975642,
            43.693478,
            309.39
          ],
          [
            1.975642,
            43.693478,
            309.39
          ],
          [
            1.975049,
            43.693454,
            308.12
          ],
          [
            1.974687,
            43.693466,
            307.09
          ],
          [
            1.974182,
            43.693566,
            305.24
          ],
          [
            1.97322,
            43.693902,
            300.53
          ],
          [
            1.972899,
            43.693983,
            299.29
          ],
          [
            1.972478,
            43.694049,
            297.81
          ],
          [
            1.972155,
            43.694085,
            297.1
          ],
          [
            1.971954,
            43.694086,
            296.28
          ],
          [
            1.971842,
            43.694052,
            296.18
          ],
          [
            1.971725,
            43.693997,
            295.71
          ],
          [
            1.971608,
            43.693919,
            295.08
          ],
          [
            1.971519,
            43.693798,
            294.19
          ],
          [
            1.971079,
            43.693116,
            288.89
          ],
          [
            1.971008,
            43.693031,
            288.26
          ],
          [
            1.970767,
            43.692572,
            287.04
          ],
          [
            1.97065,
            43.692411,
            286.52
          ],
          [
            1.970573,
            43.69235,
            285.92
          ],
          [
            1.970488,
            43.692334,
            285.01
          ],
          [
            1.9706,
            43.692255,
            286.02
          ],
          [
            1.970804,
            43.692177,
            287.59
          ],
          [
            1.971244,
            43.692028,
            289.93
          ],
          [
            1.971373,
            43.69197,
            290.52
          ],
          [
            1.971499,
            43.691853,
            291.39
          ],
          [
            1.971695,
            43.691563,
            293.11
          ],
          [
            1.97188,
            43.691393,
            293.92
          ],
          [
            1.971996,
            43.69118,
            294.48
          ],
          [
            1.971993,
            43.690976,
            294.99
          ],
          [
            1.971923,
            43.690818,
            295.38
          ],
          [
            1.97185,
            43.690597,
            295.72
          ],
          [
            1.971909,
            43.690322,
            295.9
          ],
          [
            1.972525,
            43.689685,
            296.96
          ],
          [
            1.972067,
            43.68927,
            290.33
          ],
          [
            1.971713,
            43.688967,
            284.56
          ],
          [
            1.971504,
            43.688684,
            279.04
          ],
          [
            1.971329,
            43.68854,
            275.51
          ],
          [
            1.971091,
            43.688416,
            271.45
          ],
          [
            1.970846,
            43.688362,
            268.0
          ],
          [
            1.970643,
            43.688348,
            265.31
          ],
          [
            1.970197,
            43.688357,
            259.83
          ],
          [
            1.969983,
            43.688346,
            257.43
          ],
          [
            1.968684,
            43.687748,
            240.63
          ],
          [
            1.968285,
            43.687541,
            235.24
          ],
          [
            1.967824,
            43.687084,
            228.09
          ],
          [
            1.967775,
            43.687025,
            227.37
          ],
          [
            1.967646,
            43.686905,
            226.08
          ],
          [
            1.967529,
            43.686863,
            225.5
          ],
          [
            1.967475,
            43.68675,
            224.5
          ],
          [
            1.967202,
            43.686357,
            222.0
          ],
          [
            1.967145,
            43.686245,
            221.28
          ],
          [
            1.966657,
            43.685619,
            215.33
          ],
          [
            1.966308,
            43.685343,
            212.39
          ],
          [
            1.965315,
            43.683998,
            203.65
          ],
          [
            1.965198,
            43.683865,
            203.0
          ],
          [
            1.965111,
            43.683599,
            201.96
          ],
          [
            1.965027,
            43.682801,
            198.48
          ],
          [
            1.965155,
            43.682777,
            198.43
          ],
          [
            1.966567,
            43.681638,
            195.44
          ],
          [
            1.967029,
            43.681288,
            194.46
          ],
          [
            1.967635,
            43.680875,
            193.19
          ],
          [
            1.968124,
            43.680469,
            192.49
          ],
          [
            1.96964,
            43.679119,
            196.46
          ],
          [
            1.970124,
            43.678784,
            196.75
          ],
          [
            1.970326,
            43.678616,
            196.71
          ],
          [
            1.970442,
            43.678444,
            196.52
          ],
          [
            1.970568,
            43.678082,
            196.68
          ],
          [
            1.970684,
            43.677837,
            196.29
          ],
          [
            1.970777,
            43.677674,
            195.61
          ],
          [
            1.970795,
            43.677558,
            195.21
          ],
          [
            1.970849,
            43.677465,
            194.93
          ],
          [
            1.970988,
            43.677286,
            194.42
          ],
          [
            1.971024,
            43.677225,
            194.44
          ],
          [
            1.971022,
            43.677176,
            194.5
          ],
          [
            1.971049,
            43.677141,
            194.58
          ],
          [
            1.971148,
            43.677051,
            194.88
          ],
          [
            1.971867,
            43.676479,
            197.69
          ],
          [
            1.972332,
            43.675917,
            199.77
          ],
          [
            1.972889,
            43.675371,
            200.71
          ],
          [
            1.973433,
            43.674708,
            202.63
          ],
          [
            1.973676,
            43.674384,
            202.9
          ],
          [
            1.973993,
            43.674092,
            201.95
          ],
          [
            1.974409,
            43.673824,
            199.43
          ],
          [
            1.975008,
            43.673504,
            194.62
          ],
          [
            1.975162,
            43.673369,
            192.9
          ],
          [
            1.975263,
            43.673198,
            191.47
          ],
          [
            1.975363,
            43.67289,
            189.93
          ],
          [
            1.975351,
            43.672706,
            189.4
          ],
          [
            1.975293,
            43.672561,
            189.11
          ],
          [
            1.975071,
            43.672237,
            188.36
          ],
          [
            1.974917,
            43.671948,
            187.82
          ],
          [
            1.97463,
            43.67121,
            184.81
          ],
          [
            1.97453,
            43.670909,
            183.34
          ],
          [
            1.974472,
            43.670669,
            182.56
          ],
          [
            1.974355,
            43.670408,
            182.33
          ],
          [
            1.974129,
            43.670004,
            183.23
          ],
          [
            1.973718,
            43.66936,
            186.54
          ],
          [
            1.973641,
            43.669194,
            187.13
          ],
          [
            1.973242,
            43.66785,
            189.0
          ],
          [
            1.97316,
            43.667841,
            189.0
          ],
          [
            1.973038,
            43.667872,
            189.0
          ],
          [
            1.973243,
            43.667371,
            188.98
          ],
          [
            1.973184,
            43.666944,
            188.78
          ],
          [
            1.973176,
            43.666796,
            188.14
          ],
          [
            1.973034,
            43.666029,
            182.71
          ],
          [
            1.972802,
            43.665532,
            176.93
          ],
          [
            1.972866,
            43.66533,
            174.56
          ],
          [
            1.972909,
            43.665016,
            171.23
          ],
          [
            1.972727,
            43.664919,
            169.68
          ],
          [
            1.971868,
            43.664523,
            162.26
          ],
          [
            1.971389,
            43.663818,
            149.25
          ],
          [
            1.971401,
            43.663404,
            143.71
          ],
          [
            1.971445,
            43.663313,
            143.18
          ],
          [
            1.971461,
            43.663083,
            143.0
          ],
          [
            1.971172,
            43.658636,
            143.0
          ],
          [
            1.971142,
            43.658037,
            143.0
          ],
          [
            1.971159,
            43.657837,
            143.01
          ],
          [
            1.971196,
            43.657614,
            143.62
          ],
          [
            1.971226,
            43.657551,
            143.49
          ],
          [
            1.971261,
            43.657515,
            143.41
          ],
          [
            1.971362,
            43.65744,
            143.19
          ],
          [
            1.971953,
            43.657084,
            142.54
          ],
          [
            1.972039,
            43.657024,
            142.41
          ],
          [
            1.972174,
            43.656888,
            142.27
          ],
          [
            1.972294,
            43.656718,
            142.34
          ],
          [
            1.972372,
            43.656633,
            142.43
          ],
          [
            1.972525,
            43.65653,
            142.66
          ],
          [
            1.972468,
            43.65649,
            142.26
          ],
          [
            1.972408,
            43.656408,
            142.2
          ],
          [
            1.972379,
            43.656206,
            142.27
          ],
          [
            1.972288,
            43.655752,
            142.44
          ],
          [
            1.972212,
            43.655255,
            142.7
          ],
          [
            1.972218,
            43.654824,
            142.96
          ],
          [
            1.972244,
            43.654475,
            143.0
          ],
          [
            1.972287,
            43.65437,
            143.0
          ],
          [
            1.972395,
            43.654297,
            143.0
          ],
          [
            1.972657,
            43.654161,
            142.96
          ],
          [
            1.97343,
            43.653699,
            143.04
          ],
          [
            1.973785,
            43.653451,
            143.06
          ],
          [
            1.974187,
            43.653113,
            143.05
          ],
          [
            1.974342,
            43.653007,
            143.0
          ],
          [
            1.973855,
            43.652271,
            143.54
          ],
          [
            1.973581,
            43.651835,
            143.24
          ],
          [
            1.973519,
            43.651697,
            142.64
          ],
          [
            1.974295,
            43.651732,
            143.23
          ],
          [
            1.974552,
            43.651726,
            143.59
          ],
          [
            1.974743,
            43.651693,
            143.86
          ],
          [
            1.975088,
            43.651545,
            144.0
          ],
          [
            1.974639,
            43.651062,
            142.51
          ],
          [
            1.973959,
            43.650306,
            141.02
          ],
          [
            1.973864,
            43.650156,
            144.55
          ],
          [
            1.973824,
            43.650057,
            145.62
          ],
          [
            1.973803,
            43.649973,
            146.27
          ],
          [
            1.973813,
            43.649717,
            148.56
          ],
          [
            1.973991,
            43.648221,
            156.38
          ],
          [
            1.974015,
            43.648138,
            156.96
          ],
          [
            1.974061,
            43.648021,
            157.65
          ],
          [
            1.974131,
            43.647925,
            157.78
          ],
          [
            1.974091,
            43.647943,
            157.79
          ],
          [
            1.974002,
            43.647794,
            158.67
          ],
          [
            1.973712,
            43.647419,
            160.46
          ],
          [
            1.973628,
            43.647335,
            160.84
          ],
          [
            1.97349,
            43.647229,
            161.0
          ],
          [
            1.973734,
            43.647014,
            161.0
          ]
        ]
      }
    },
    {
      "type": "Feature",
      "properties": {
        "source": "Circuit_Plateaux.gpx",
        "type": "route"
      },
      "geometry": {
        "type": "LineString",
        "coordinates": [
          [
            1.966219,
            43.685223
          ],
          [
            1.967529,
            43.686863
          ],
          [
            1.972525,
            43.689685
          ],
          [
            1.970488,
            43.692334
          ],
          [
            1.975642,
            43.693478
          ],
          [
            1.975642,
            43.693478
          ],
          [
            1.971079,
            43.693116
          ],
          [
            1.970488,
            43.692334
          ],
          [
            1.972525,
            43.689685
          ],
          [
            1.967529,
            43.686863
          ],
          [
            1.967202,
            43.686357
          ],
          [
            1.965027,
            43.682801
          ],
          [
            1.973242,
            43.66785
          ],
          [
            1.973038,
            43.667872
          ],
          [
            1.972525,
            43.65653
          ],
          [
            1.974342,
            43.653007
          ],
          [
            1.973519,
            43.651697
          ],
          [
            1.975088,
            43.651545
          ],
          [
            1.973991,
            43.648221
          ],
          [
            1.974015,
            43.648138
          ],
          [
            1.974131,
            43.647925
          ],
          [
            1.974091,
            43.647943
          ],
          [
            1.97349,
            43.647229
          ],
          [
            1.973734,
            43.647014
          ]
        ]
      }
    }
  ]
}