{
  "type": "FeatureCollection",
  "features": [
    {
      "type": "Feature",
      "properties": {
        "name": "GraphHopper Track",
        "source": "Ruisseaux__canaux.gpx",
        "type": "track"
      },
      "geometry": {
        "type": "LineString",
        "coordinates": [
          [
            1.473878,
            44.118558,
            94.0
          ],
          [
            1.473723,
            44.118357,
            93.8
          ],
          [
            1.473616,
            44.118343,
            93.59
          ],
          [
            1.473364,
            44.117986,
            92.34
          ],
          [
            1.47269,
            44.117288,
            90.66
          ],
          [
            1.472628,
            44.117151,
            90.53
          ],
          [
            1.472228,
            44.116681,
            90.29
          ],
          [
            1.471611,
            44.116083,
            89.94
          ],
          [
            1.471195,
            44.115728,
            89.71
          ],
          [
            1.47103,
            44.115665,
            89.66
          ],
          [
            1.470006,
            44.114645,
            89.14
          ],
          [
            1.469845,
            44.114407,
            88.98
          ],
          [
            1.469851,
            44.114154,
            88.0
          ],
          [
            1.469908,
            44.114174,
            88.0
          ],
          [
            1.470255,
            44.114092,
            88.68
          ],
          [
            1.470437,
            44.113937,
            88.98
          ],
          [
            1.470598,
            44.113836,
            89.25
          ],
          [
            1.473916,
            44.112368,
            90.15
          ],
          [
            1.475204,
            44.113576,
            89.85
          ],
          [
            1.475694,
            44.114076,
            89.86
          ],
          [
            1.475696,
            44.114277,
            89.75
          ],
          [
            1.475522,
            44.114592,
            89.6
          ],
          [
            1.475494,
            44.114729,
            89.56
          ],
          [
            1.475931,
            44.115456,
            90.59
          ],
          [
            1.476084,
            44.115581,
            91.99
          ],
          [
            1.476334,
            44.115426,
            92.07
          ],
          [
            1.476602,
            44.115283,
            93.05
          ],
          [
            1.476961,
            44.11513,
            95.08
          ],
          [
            1.477035,
            44.115198,
            94.34
          ],
          [
            1.477448,
            44.115483,
            93.44
          ],
          [
            1.478122,
            44.116059,
            92.43
          ],
          [
            1.478895,
            44.116567,
            94.53
          ],
          [
            1.479659,
            44.117111,
            96.63
          ],
          [
            1.479936,
            44.117276,
            97.22
          ],
          [
            1.48129,
            44.118194,
            98.56
          ],
          [
            1.481559,
            44.118412,
            97.41
          ],
          [
            1.482165,
            44.118933,
            98.06
          ],
          [
            1.482575,
            44.119222,
            98.65
          ],
          [
            1.483421,
            44.119766,
            99.15
          ],
          [
            1.483736,
            44.119955,
            99.51
          ],
          [
            1.484058,
            44.120165,
            100.0
          ],
          [
            1.48524,
            44.120892,
            100.17
          ],
          [
            1.487352,
            44.12216,
            101.4
          ],
          [
            1.48799,
            44.122533,
            101.71
          ],
          [
            1.488145,
            44.122663,
            101.85
          ],
          [
            1.488204,
            44.122752,
            101.93
          ],
          [
            1.488243,
            44.122977,
            101.94
          ],
          [
            1.488224,
            44.123234,
            101.74
          ],
          [
            1.488301,
            44.123357,
            101.47
          ],
          [
            1.488387,
            44.123443,
            101.4
          ],
          [
            1.489368,
            44.124134,
            101.52
          ],
          [
            1.490144,
            44.124826,
            102.0
          ],
          [
            1.491888,
            44.127117,
            102.13
          ],
          [
            1.49266,
            44.128602,
            102.86
          ],
          [
            1.497445,
            44.13399,
            104.0
          ],
          [
            1.496166,
            44.134787,
            101.64
          ],
          [
            1.495652,
            44.135008,
            100.76
          ],
          [
            1.495042,
            44.135294,
            99.25
          ],
          [
            1.495042,
            44.135294,
            99.25
          ],
          [
            1.495652,
            44.135008,
            100.76
          ],
          [
            1.496166,
            44.134787,
            101.64
          ],
          [
            1.497445,
            44.13399,
            104.0
          ],
          [
            1.498474,
            44.13513,
            103.0
          ],
          [
            1.499166,
            44.135592,
            102.44
          ],
          [
            1.499683,
            44.136044,
            102.71
          ],
          [
            1.501986,
            44.137395,
            102.86
          ],
          [
            1.50268,
            44.137862,
            103.31
          ],
          [
            1.503058,
            44.138001,
            103.0
          ],
          [
            1.503317,
            44.138229,
            103.2
          ],
          [
            1.50452,
            44.139025,
            103.0
          ],
          [
            1.506852,
            44.14021,
            103.29
          ],
          [
            1.508629,
            44.140976,
            104.75
          ],
          [
            1.5095,
            44.14139,
            104.25
          ],
          [
            1.509658,
            44.141495,
            104.21
          ],
          [
            1.510303,
            44.142247,
            104.79
          ],
          [
            1.510461,
            44.142368,
            104.99
          ],
          [
            1.5106,
            44.142411,
            105.0
          ],
          [
            1.510771,
            44.142431,
            105.0
          ],
          [
            1.510918,
            44.14241,
            105.0
          ],
          [
            1.511039,
            44.142373,
            105.01
          ],
          [
            1.511176,
            44.14231,
            105.1
          ],
          [
            1.511857,
            44.141689,
            106.21
          ],
          [
            1.512127,
            44.141539,
            106.87
          ],
          [
            1.512261,
            44.141489,
            107.0
          ],
          [
            1.512489,
            44.141476,
            107.27
          ],
          [
            1.512774,
            44.141518,
            107.28
          ],
          [
            1.51303,
            44.141635,
            107.31
          ],
          [
            1.513143,
            44.141697,
            107.33
          ],
          [
            1.515626,
            44.143624,
            107.0
          ],
          [
            1.516984,
            44.144653,
            107.03
          ],
          [
            1.517423,
            44.14494,
            107.0
          ],
          [
            1.515928,
            44.146052,
            107.09
          ],
          [
            1.515859,
            44.146184,
            107.16
          ],
          [
            1.515875,
            44.146305,
            107.17
          ],
          [
            1.515953,
            44.146409,
            107.22
          ],
          [
            1.516064,
            44.146471,
            107.31
          ],
          [
            1.516386,
            44.146558,
            108.14
          ],
          [
            1.516672,
            44.146651,
            107.66
          ]
        ]
      }
    },
    {
      "type": "Feature",
      "properties": {
        "source": "Ruisseaux__canaux.gpx",
        "type": "route"
      },
      "geometry": {
        "type": "LineString",
        "coordinates": [
          [
            1.473878,
            44.118558
          ],
          [
            1.469851,
            44.114154
          ],
          [
            1.473916,
            44.112368
          ],
          [
            1.476084,
            44.115581
          ],
          [
            1.476961,
            44.11513
          ],
          [
            1.497445,
            44.13399
          ],
          [
            1.495042,
            44.135294
          ],
          [
            1.495042,
            44.135294
          ],
          [
            1.497445,
            44.13399
          ],
          [
            1.517423,
            44.14494
          ],
          [
            1.516672,
            44.146651
          ]
        ]
      }
    }
  ]
}