{
  "type": "FeatureCollection",
  "features": [
    {
      "type": "Feature",
      "properties": {
        "name": "GraphHopper Track",
        "source": "Villages_et_moulins.gpx",
        "type": "track"
      },
      "geometry": {
        "type": "LineString",
        "coordinates": [
          [
            1.480056,
            44.114341,
            103.79
          ],
          [
            1.480322,
            44.114574,
            103.49
          ],
          [
            1.48007,
            44.114712,
            102.49
          ],
          [
            1.479787,
            44.114896,
            102.0
          ],
          [
            1.480013,
            44.115083,
            102.0
          ],
          [
            1.480629,
            44.115672,
            104.4
          ],
          [
            1.481148,
            44.11614,
            105.45
          ],
          [
            1.481731,
            44.116464,
            105.85
          ],
          [
            1.481998,
            44.116638,
            105.31
          ],
          [
            1.482296,
            44.117149,
            103.41
          ],
          [
            1.482681,
            44.11775,
            102.0
          ],
          [
            1.482854,
            44.118001,
            102.0
          ],
          [
            1.482949,
            44.118115,
            101.99
          ],
          [
            1.482973,
            44.11816,
            101.96
          ],
          [
            1.482976,
            44.1182,
            101.95
          ],
          [
            1.482961,
            44.118244,
            101.96
          ],
          [
            1.482932,
            44.118278,
            101.92
          ],
          [
            1.4838,
            44.118926,
            101.21
          ],
          [
            1.484125,
            44.119197,
            101.52
          ],
          [
            1.484316,
            44.119338,
            101.8
          ],
          [
            1.485436,
            44.118614,
            103.3
          ],
          [
            1.485548,
            44.118535,
            103.69
          ],
          [
            1.485548,
            44.118535,
            103.69
          ],
          [
            1.485436,
            44.118614,
            103.3
          ],
          [
            1.484316,
            44.119338,
            101.8
          ],
          [
            1.484125,
            44.119197,
            101.52
          ],
          [
            1.4838,
            44.118926,
            101.21
          ],
          [
            1.482932,
            44.118278,
            101.92
          ],
          [
            1.482961,
            44.118244,
            101.96
          ],
          [
            1.482976,
            44.1182,
            101.95
          ],
          [
            1.482973,
            44.11816,
            101.96
          ],
          [
            1.482949,
            44.118115,
            101.99
          ],
          [
            1.482854,
            44.118001,
            102.0
          ],
          [
            1.482681,
            44.11775,
            102.0
          ],
          [
            1.482296,
            44.117149,
            103.41
          ],
          [
            1.481998,
            44.116638,
            105.31
          ],
          [
            1.481731,
            44.116464,
            105.85
          ],
          [
            1.481148,
            44.11614,
            105.45
          ],
          [
            1.480629,
            44.115672,
            104.4
          ],
          [
            1.481117,
            44.115359,
            106.28
          ],
          [
            1.480499,
            44.114811,
            103.0
          ],
          [
            1.480533,
            44.114793,
            103.0
          ],
          [
            1.480322,
            44.114574,
            103.49
          ],
          [
            1.480537,
            44.114465,
            104.31
          ],
          [
            1.480396,
            44.113898,
            106.77
          ],
          [
            1.480347,
            44.113803,
            107.13
          ],
          [
            1.480222,
            44.113685,
            107.69
          ],
          [
            1.480264,
            44.113663,
            107.85
          ],
          [
            1.480768,
            44.113516,
            108.29
          ],
          [
            1.480728,
            44.113272,
            108.79
          ],
          [
            1.480727,
            44.113206,
            108.44
          ],
          [
            1.480805,
            44.113152,
            108.47
          ],
          [
            1.480929,
            44.113087,
            108.56
          ],
          [
            1.480859,
            44.112962,
            106.9
          ],
          [
            1.480826,
            44.112927,
            106.43
          ],
          [
            1.480773,
            44.112896,
            105.91
          ],
          [
            1.480502,
            44.112809,
            103.58
          ],
          [
            1.480334,
            44.112747,
            102.11
          ],
          [
            1.480296,
            44.112703,
            101.55
          ],
          [
            1.480303,
            44.112509,
            98.59
          ],
          [
            1.481074,
            44.112499,
            99.28
          ],
          [
            1.481317,
            44.112508,
            99.24
          ],
          [
            1.481714,
            44.112469,
            99.22
          ],
          [
            1.481906,
            44.112419,
            99.15
          ],
          [
            1.482307,
            44.112377,
            98.87
          ],
          [
            1.482478,
            44.112384,
            98.68
          ],
          [
            1.482592,
            44.11238,
            98.59
          ],
          [
            1.482718,
            44.112361,
            98.52
          ],
          [
            1.482873,
            44.11232,
            98.34
          ],
          [
            1.483075,
            44.112284,
            97.97
          ],
          [
            1.482953,
            44.111755,
            95.55
          ],
          [
            1.482916,
            44.111714,
            95.44
          ],
          [
            1.482755,
            44.111588,
            94.96
          ],
          [
            1.482684,
            44.111506,
            94.72
          ]
        ]
      }
    },
    {
      "type": "Feature",
      "properties": {
        "source": "Villages_et_moulins.gpx",
        "type": "route"
      },
      "geometry": {
        "type": "LineString",
        "coordinates": [
          [
            1.480056,
            44.114341
          ],
          [
            1.480322,
            44.114574
          ],
          [
            1.479787,
            44.114896
          ],
          [
            1.482854,
            44.118001
          ],
          [
            1.482973,
            44.11816
          ],
          [
            1.482932,
            44.118278
          ],
          [
            1.484316,
            44.119338
          ],
          [
            1.485548,
            44.118535
          ],
          [
            1.485548,
            44.118535
          ],
          [
            1.484316,
            44.119338
          ],
          [
            1.482932,
            44.118278
          ],
          [
            1.482854,
            44.118001
          ],
          [
            1.480629,
            44.115672
          ],
          [
            1.481117,
            44.115359
          ],
          [
            1.480499,
            44.114811
          ],
          [
            1.480533,
            44.114793
          ],
          [
            1.480322,
            44.114574
          ],
          [
            1.480222,
            44.113685
          ],
          [
            1.480768,
            44.113516
          ],
          [
            1.480727,
            44.113206
          ],
          [
            1.480929,
            44.113087
          ],
          [
            1.480303,
            44.112509
          ],
          [
            1.483075,
            44.112284
          ],
          [
            1.482684,
            44.111506
          ]
        ]
      }
    }
  ]
}