{
  "type": "FeatureCollection",
  "features": [
    {
      "type": "Feature",
      "properties": {
        "name": "GraphHopper Track",
        "source": "Boucle_de_Caraman.gpx",
        "type": "track"
      },
      "geometry": {
        "type": "LineString",
        "coordinates": [
          [
            1.852553,
            43.525267,
            238.99
          ],
          [
            1.852517,
            43.525089,
            239.63
          ],
          [
            1.852283,
            43.52451,
            242.56
          ],
          [
            1.852194,
            43.523779,
            248.15
          ],
          [
            1.852196,
            43.523646,
            249.02
          ],
          [
            1.852061,
            43.523537,
            249.85
          ],
          [
            1.851786,
            43.523344,
            251.05
          ],
          [
            1.851209,
            43.52282,
            252.27
          ],
          [
            1.850817,
            43.522414,
            252.89
          ],
          [
            1.849403,
            43.521461,
            257.86
          ],
          [
            1.850928,
            43.52104,
            253.67
          ],
          [
            1.851313,
            43.520924,
            252.26
          ],
          [
            1.851917,
            43.520678,
            249.75
          ],
          [
            1.853802,
            43.519702,
            246.06
          ],
          [
            1.85437,
            43.519345,
            245.81
          ],
          [
            1.855377,
            43.51856,
            246.89
          ],
          [
            1.855634,
            43.518265,
            248.09
          ],
          [
            1.856052,
            43.517733,
            247.69
          ],
          [
            1.857248,
            43.515991,
            247.47
          ],
          [
            1.855454,
            43.515239,
            254.73
          ],
          [
            1.854317,
            43.514744,
            256.08
          ],
          [
            1.853442,
            43.514364,
            253.38
          ],
          [
            1.852717,
            43.514029,
            251.15
          ],
          [
            1.852747,
            43.513915,
            250.63
          ],
          [
            1.853219,
            43.513732,
            247.4
          ],
          [
            1.853277,
            43.513545,
            245.64
          ],
          [
            1.852982,
            43.513152,
            241.08
          ],
          [
            1.852826,
            43.512738,
            236.39
          ],
          [
            1.852537,
            43.512304,
            231.37
          ],
          [
            1.852339,
            43.512121,
            230.36
          ],
          [
            1.852236,
            43.512048,
            230.61
          ],
          [
            1.852081,
            43.512071,
            229.96
          ],
          [
            1.85192,
            43.512141,
            228.88
          ],
          [
            1.851754,
            43.512176,
            228.17
          ],
          [
            1.850541,
            43.512395,
            223.49
          ],
          [
            1.85037,
            43.512374,
            222.76
          ],
          [
            1.850187,
            43.512337,
            221.9
          ],
          [
            1.849726,
            43.512192,
            219.4
          ],
          [
            1.849393,
            43.511995,
            217.25
          ],
          [
            1.849185,
            43.511904,
            216.05
          ],
          [
            1.848761,
            43.511748,
            213.86
          ],
          [
            1.848535,
            43.511639,
            212.7
          ],
          [
            1.848332,
            43.51146,
            211.33
          ],
          [
            1.848149,
            43.511207,
            209.5
          ],
          [
            1.848015,
            43.511083,
            208.42
          ],
          [
            1.846267,
            43.510103,
            198.28
          ],
          [
            1.845802,
            43.509797,
            196.09
          ],
          [
            1.845617,
            43.509641,
            195.75
          ],
          [
            1.845545,
            43.509653,
            195.64
          ],
          [
            1.845057,
            43.509989,
            195.58
          ],
          [
            1.844952,
            43.510013,
            195.74
          ],
          [
            1.84485,
            43.510001,
            195.95
          ],
          [
            1.84323,
            43.509192,
            211.26
          ],
          [
            1.843142,
            43.50912,
            213.01
          ],
          [
            1.843085,
            43.509042,
            214.61
          ],
          [
            1.843056,
            43.508929,
            216.71
          ],
          [
            1.843042,
            43.508606,
            222.54
          ],
          [
            1.843021,
            43.508507,
            224.09
          ],
          [
            1.842809,
            43.508089,
            228.84
          ],
          [
            1.842731,
            43.507997,
            229.61
          ],
          [
            1.842077,
            43.507569,
            232.3
          ],
          [
            1.841894,
            43.507427,
            233.0
          ],
          [
            1.841666,
            43.507192,
            232.49
          ],
          [
            1.841497,
            43.507071,
            232.14
          ],
          [
            1.839846,
            43.506074,
            232.99
          ],
          [
            1.840156,
            43.505851,
            233.1
          ],
          [
            1.840725,
            43.50538,
            233.97
          ],
          [
            1.841422,
            43.504729,
            236.28
          ],
          [
            1.841557,
            43.504628,
            236.67
          ],
          [
            1.841857,
            43.504429,
            237.29
          ],
          [
            1.842141,
            43.50427,
            237.66
          ],
          [
            1.842549,
            43.503885,
            238.08
          ],
          [
            1.842796,
            43.503686,
            238.22
          ],
          [
            1.843055,
            43.503518,
            238.27
          ],
          [
            1.843055,
            43.503518,
            238.27
          ],
          [
            1.842796,
            43.503686,
            238.22
          ],
          [
            1.842549,
            43.503885,
            238.08
          ],
          [
            1.842141,
            43.50427,
            237.66
          ],
          [
            1.841857,
            43.504429,
            237.29
          ],
          [
            1.841557,
            43.504628,
            236.67
          ],
          [
            1.841422,
            43.504729,
            236.28
          ],
          [
            1.840725,
            43.50538,
            233.97
          ],
          [
            1.840156,
            43.505851,
            233.1
          ],
          [
            1.839846,
            43.506074,
            232.99
          ],
          [
            1.841497,
            43.507071,
            232.14
          ],
          [
            1.841666,
            43.507192,
            232.49
          ],
          [
            1.841894,
            43.507427,
            233.0
          ],
          [
            1.842077,
            43.507569,
            232.3
          ],
          [
            1.842731,
            43.507997,
            229.61
          ],
          [
            1.842809,
            43.508089,
            228.84
          ],
          [
            1.843021,
            43.508507,
            224.09
          ],
          [
            1.843042,
            43.508606,
            222.54
          ],
          [
            1.843056,
            43.508929,
            216.71
          ],
          [
            1.843085,
            43.509042,
            214.61
          ],
          [
            1.843142,
            43.50912,
            213.01
          ],
          [
            1.84323,
            43.509192,
            211.26
          ],
          [
            1.84485,
            43.510001,
            195.95
          ],
          [
            1.844952,
            43.510013,
            195.74
          ],
          [
            1.845057,
            43.509989,
            195.58
          ],
          [
            1.845545,
            43.509653,
            195.64
          ],
          [
            1.845617,
            43.509641,
            195.75
          ],
          [
            1.845802,
            43.509797,
            196.09
          ],
          [
            1.846267,
            43.510103,
            198.28
          ],
          [
            1.848015,
            43.511083,
            208.42
          ],
          [
            1.848149,
            43.511207,
            209.5
          ],
          [
            1.848332,
            43.51146,
            211.33
          ],
          [
            1.848535,
            43.511639,
            212.7
          ],
          [
            1.848761,
            43.511748,
            213.86
          ],
          [
            1.849185,
            43.511904,
            216.05
          ],
          [
            1.849393,
            43.511995,
            217.25
          ],
          [
            1.849726,
            43.512192,
            219.4
          ],
          [
            1.850187,
            43.512337,
            221.9
          ],
          [
            1.85037,
            43.512374,
            222.76
          ],
          [
            1.850541,
            43.512395,
            223.49
          ],
          [
            1.851754,
            43.512176,
            228.17
          ],
          [
            1.85192,
            43.512141,
            228.88
          ],
          [
            1.852081,
            43.512071,
            229.96
          ],
          [
            1.852236,
            43.512048,
            230.61
          ],
          [
            1.852339,
            43.512121,
            230.36
          ],
          [
            1.852537,
            43.512304,
            231.37
          ],
          [
            1.852826,
            43.512738,
            236.39
          ],
          [
            1.852982,
            43.513152,
            241.08
          ],
          [
            1.853277,
            43.513545,
            245.64
          ],
          [
            1.853219,
            43.513732,
            247.4
          ],
          [
            1.852747,
            43.513915,
            250.63
          ],
          [
            1.852717,
            43.514029,
            251.15
          ],
          [
            1.853442,
            43.514364,
            253.38
          ],
          [
            1.854317,
            43.514744,
            256.08
          ],
          [
            1.855454,
            43.515239,
            254.73
          ],
          [
            1.857248,
            43.515991,
            247.47
          ],
          [
            1.856052,
            43.517733,
            247.69
          ],
          [
            1.855634,
            43.518265,
            248.09
          ],
          [
            1.855377,
            43.51856,
            246.89
          ],
          [
            1.85437,
            43.519345,
            245.81
          ],
          [
            1.853802,
            43.519702,
            246.06
          ],
          [
            1.851917,
            43.520678,
            249.75
          ],
          [
            1.851757,
            43.520745,
            250.28
          ],
          [
            1.853086,
            43.521272,
            242.26
          ],
          [
            1.853298,
            43.521269,
            241.04
          ],
          [
            1.855007,
            43.520891,
            232.32
          ],
          [
            1.855243,
            43.520874,
            231.33
          ],
          [
            1.856557,
            43.520957,
            225.09
          ],
          [
            1.85709,
            43.521138,
            222.01
          ],
          [
            1.857998,
            43.521517,
            216.77
          ],
          [
            1.858195,
            43.521557,
            215.92
          ],
          [
            1.858831,
            43.521612,
            213.59
          ],
          [
            1.860645,
            43.521788,
            207.26
          ],
          [
            1.860919,
            43.521848,
            206.12
          ],
          [
            1.86115,
            43.521909,
            205.22
          ],
          [
            1.861323,
            43.522008,
            204.46
          ],
          [
            1.861433,
            43.522096,
            203.94
          ],
          [
            1.86149,
            43.522226,
            203.39
          ],
          [
            1.861166,
            43.523529,
            200.63
          ],
          [
            1.861041,
            43.524096,
            200.24
          ],
          [
            1.861035,
            43.524292,
            200.08
          ],
          [
            1.861452,
            43.525724,
            196.89
          ],
          [
            1.861528,
            43.525837,
            196.65
          ],
          [
            1.861638,
            43.525918,
            196.46
          ],
          [
            1.862724,
            43.526354,
            195.5
          ],
          [
            1.862849,
            43.526372,
            195.36
          ],
          [
            1.86297,
            43.526334,
            195.38
          ],
          [
            1.863615,
            43.526031,
            195.19
          ],
          [
            1.864276,
            43.525912,
            195.29
          ],
          [
            1.864764,
            43.52581,
            195.97
          ],
          [
            1.865833,
            43.526842,
            196.4
          ],
          [
            1.865725,
            43.526879,
            196.62
          ],
          [
            1.86423,
            43.527263,
            196.23
          ],
          [
            1.863055,
            43.527764,
            195.81
          ],
          [
            1.861785,
            43.528401,
            195.53
          ],
          [
            1.860868,
            43.529057,
            195.24
          ],
          [
            1.859476,
            43.530145,
            194.37
          ],
          [
            1.858604,
            43.530855,
            194.59
          ],
          [
            1.858165,
            43.530583,
            192.96
          ],
          [
            1.858001,
            43.530468,
            193.07
          ],
          [
            1.857861,
            43.53032,
            193.52
          ]
        ]
      }
    },
    {
      "type": "Feature",
      "properties": {
        "source": "Boucle_de_Caraman.gpx",
        "type": "route"
      },
      "geometry": {
        "type": "LineString",
        "coordinates": [
          [
            1.852553,
            43.525267
          ],
          [
            1.849403,
            43.521461
          ],
          [
            1.857248,
            43.515991
          ],
          [
            1.854317,
            43.514744
          ],
          [
            1.852717,
            43.514029
          ],
          [
            1.852236,
            43.512048
          ],
          [
            1.846267,
            43.510103
          ],
          [
            1.841894,
            43.507427
          ],
          [
            1.839846,
            43.506074
          ],
          [
            1.843055,
            43.503518
          ],
          [
            1.843055,
            43.503518
          ],
          [
            1.839846,
            43.506074
          ],
          [
            1.841894,
            43.507427
          ],
          [
            1.846267,
            43.510103
          ],
          [
            1.852236,
            43.512048
          ],
          [
            1.852717,
            43.514029
          ],
          [
            1.854317,
            43.514744
          ],
          [
            1.857248,
            43.515991
          ],
          [
            1.851757,
            43.520745
          ],
          [
            1.864764,
            43.52581
          ],
          [
            1.865833,
            43.526842
          ],
          [
            1.858604,
            43.530855
          ],
          [
            1.857861,
            43.53032
          ]
        ]
      }
    }
  ]
}