{
  "type": "FeatureCollection",
  "features": [
    {
      "type": "Feature",
      "properties": {
        "name": "GraphHopper Track",
        "source": "Garidech.gpx",
        "type": "track"
      },
      "geometry": {
        "type": "LineString",
        "coordinates": [
          [
            1.561521,
            43.708527,
            184.82
          ],
          [
            1.561279,
            43.708626,
            184.54
          ],
          [
            1.561185,
            43.708651,
            184.4
          ],
          [
            1.561132,
            43.70853,
            183.77
          ],
          [
            1.561,
            43.708332,
            182.68
          ],
          [
            1.559362,
            43.708862,
            179.42
          ],
          [
            1.558741,
            43.709054,
            178.75
          ],
          [
            1.55848,
            43.709131,
            179.03
          ],
          [
            1.558416,
            43.709138,
            178.84
          ],
          [
            1.558197,
            43.709189,
            178.44
          ],
          [
            1.557867,
            43.709299,
            178.24
          ],
          [
            1.55735,
            43.709499,
            178.19
          ],
          [
            1.55706,
            43.709639,
            178.37
          ],
          [
            1.554854,
            43.710773,
            177.36
          ],
          [
            1.554604,
            43.710869,
            177.19
          ],
          [
            1.55379,
            43.711144,
            176.45
          ],
          [
            1.553397,
            43.711326,
            176.0
          ],
          [
            1.553257,
            43.7114,
            176.0
          ],
          [
            1.551945,
            43.712237,
            175.05
          ],
          [
            1.550445,
            43.713047,
            171.37
          ],
          [
            1.550035,
            43.71328,
            169.81
          ],
          [
            1.549303,
            43.713769,
            166.62
          ],
          [
            1.54911,
            43.713871,
            165.81
          ],
          [
            1.549,
            43.713916,
            165.34
          ],
          [
            1.548844,
            43.713939,
            164.74
          ],
          [
            1.548678,
            43.713943,
            164.11
          ],
          [
            1.548428,
            43.713941,
            163.19
          ],
          [
            1.547991,
            43.713924,
            161.54
          ],
          [
            1.547637,
            43.713947,
            160.19
          ],
          [
            1.546892,
            43.714009,
            157.14
          ],
          [
            1.544811,
            43.714232,
            149.83
          ],
          [
            1.544339,
            43.714256,
            151.41
          ],
          [
            1.545181,
            43.714964,
            157.79
          ],
          [
            1.545592,
            43.71537,
            161.8
          ],
          [
            1.545647,
            43.715443,
            162.49
          ],
          [
            1.545647,
            43.715443,
            162.49
          ],
          [
            1.545592,
            43.71537,
            161.8
          ],
          [
            1.545181,
            43.714964,
            157.79
          ],
          [
            1.544339,
            43.714256,
            151.41
          ],
          [
            1.544811,
            43.714232,
            149.83
          ],
          [
            1.546892,
            43.714009,
            157.14
          ],
          [
            1.547637,
            43.713947,
            160.19
          ],
          [
            1.547991,
            43.713924,
            161.54
          ],
          [
            1.548428,
            43.713941,
            163.19
          ],
          [
            1.548678,
            43.713943,
            164.11
          ],
          [
            1.548844,
            43.713939,
            164.74
          ],
          [
            1.549,
            43.713916,
            165.34
          ],
          [
            1.54911,
            43.713871,
            165.81
          ],
          [
            1.549303,
            43.713769,
            166.62
          ],
          [
            1.550035,
            43.71328,
            169.81
          ],
          [
            1.550445,
            43.713047,
            171.37
          ],
          [
            1.551945,
            43.712237,
            175.05
          ],
          [
            1.553257,
            43.7114,
            176.0
          ],
          [
            1.553397,
            43.711326,
            176.0
          ],
          [
            1.55379,
            43.711144,
            176.45
          ],
          [
            1.554604,
            43.710869,
            177.19
          ],
          [
            1.554854,
            43.710773,
            177.36
          ],
          [
            1.55706,
            43.709639,
            178.37
          ],
          [
            1.55735,
            43.709499,
            178.19
          ],
          [
            1.557867,
            43.709299,
            178.24
          ],
          [
            1.558197,
            43.709189,
            178.44
          ],
          [
            1.558416,
            43.709138,
            178.84
          ],
          [
            1.55848,
            43.709131,
            179.03
          ],
          [
            1.558741,
            43.709054,
            178.75
          ],
          [
            1.559362,
            43.708862,
            179.42
          ],
          [
            1.561,
            43.708332,
            182.68
          ],
          [
            1.561132,
            43.70853,
            183.77
          ],
          [
            1.561185,
            43.708651,
            184.4
          ],
          [
            1.561279,
            43.708626,
            184.54
          ],
          [
            1.561521,
            43.708527,
            184.82
          ]
        ]
      }
    },
    {
      "type": "Feature",
      "properties": {
        "source": "Garidech.gpx",
        "type": "route"
      },
      "geometry": {
        "type": "LineString",
        "coordinates": [
          [
            1.561521,
            43.708527
          ],
          [
            1.561185,
            43.708651
          ],
          [
            1.561,
            43.708332
          ],
          [
            1.544339,
            43.714256
          ],
          [
            1.545647,
            43.715443
          ],
          [
            1.545647,
            43.715443
          ],
          [
            1.544339,
            43.714256
          ],
          [
            1.561,
            43.708332
          ],
          [
            1.561185,
            43.708651
          ],
          [
            1.561521,
            43.708527
          ]
        ]
      }
    }
  ]
}