{
  "type": "FeatureCollection",
  "features": [
    {
      "type": "Feature",
      "properties": {
        "name": "GraphHopper Track",
        "source": "Lanta_Village.gpx",
        "type": "track"
      },
      "geometry": {
        "type": "LineString",
        "coordinates": [
          [
            1.654707,
            43.55962,
            243.38
          ],
          [
            1.654963,
            43.559575,
            244.12
          ],
          [
            1.65514,
            43.559559,
            245.06
          ],
          [
            1.65516,
            43.559602,
            245.35
          ],
          [
            1.655194,
            43.559642,
            245.62
          ],
          [
            1.655938,
            43.560304,
            246.87
          ],
          [
            1.656206,
            43.560777,
            249.3
          ],
          [
            1.656279,
            43.560872,
            249.9
          ],
          [
            1.656366,
            43.560961,
            250.61
          ],
          [
            1.656688,
            43.561229,
            253.01
          ],
          [
            1.656737,
            43.561284,
            253.28
          ],
          [
            1.656787,
            43.561359,
            253.74
          ],
          [
            1.656834,
            43.561414,
            253.98
          ],
          [
            1.65691,
            43.561552,
            255.71
          ],
          [
            1.656943,
            43.561573,
            255.98
          ],
          [
            1.656951,
            43.561605,
            256.25
          ],
          [
            1.657098,
            43.561604,
            256.34
          ],
          [
            1.657341,
            43.561579,
            257.0
          ],
          [
            1.658178,
            43.561402,
            257.36
          ],
          [
            1.658433,
            43.561368,
            257.26
          ],
          [
            1.658785,
            43.56135,
            256.14
          ],
          [
            1.65895,
            43.561351,
            255.28
          ],
          [
            1.659137,
            43.561372,
            254.7
          ],
          [
            1.659233,
            43.561401,
            254.15
          ],
          [
            1.65931,
            43.561432,
            253.7
          ],
          [
            1.659329,
            43.561461,
            253.57
          ],
          [
            1.659359,
            43.561484,
            253.4
          ],
          [
            1.659398,
            43.561499,
            253.19
          ],
          [
            1.65948,
            43.561503,
            252.88
          ],
          [
            1.659489,
            43.561554,
            252.65
          ],
          [
            1.659507,
            43.561581,
            252.39
          ],
          [
            1.659536,
            43.561598,
            252.12
          ],
          [
            1.659892,
            43.561655,
            248.8
          ],
          [
            1.660378,
            43.561755,
            244.13
          ],
          [
            1.660814,
            43.561855,
            240.24
          ],
          [
            1.661435,
            43.562024,
            235.71
          ],
          [
            1.661571,
            43.562081,
            234.86
          ],
          [
            1.661928,
            43.562286,
            233.7
          ],
          [
            1.662047,
            43.56234,
            233.52
          ],
          [
            1.662361,
            43.562425,
            232.87
          ],
          [
            1.662728,
            43.5625,
            232.2
          ],
          [
            1.662929,
            43.562533,
            231.9
          ],
          [
            1.663811,
            43.562652,
            230.84
          ],
          [
            1.663955,
            43.562662,
            230.77
          ],
          [
            1.664104,
            43.56266,
            230.71
          ],
          [
            1.665911,
            43.562213,
            232.28
          ],
          [
            1.666111,
            43.56244,
            231.81
          ],
          [
            1.66643,
            43.562736,
            230.38
          ],
          [
            1.666474,
            43.562766,
            229.55
          ],
          [
            1.667221,
            43.563203,
            223.05
          ],
          [
            1.667985,
            43.563635,
            217.68
          ],
          [
            1.668165,
            43.563727,
            217.0
          ],
          [
            1.668386,
            43.563808,
            216.49
          ],
          [
            1.668761,
            43.563895,
            215.69
          ],
          [
            1.668881,
            43.563933,
            215.43
          ],
          [
            1.669017,
            43.563984,
            215.1
          ],
          [
            1.66912,
            43.564033,
            214.83
          ],
          [
            1.66923,
            43.564094,
            214.55
          ],
          [
            1.669812,
            43.564473,
            213.4
          ],
          [
            1.670354,
            43.564839,
            213.14
          ],
          [
            1.670702,
            43.565053,
            213.64
          ],
          [
            1.67079,
            43.565094,
            213.77
          ],
          [
            1.67087,
            43.565119,
            213.84
          ],
          [
            1.671057,
            43.565146,
            213.09
          ],
          [
            1.671553,
            43.565158,
            211.07
          ],
          [
            1.671923,
            43.565176,
            209.96
          ],
          [
            1.672302,
            43.565213,
            208.89
          ],
          [
            1.672447,
            43.565239,
            208.48
          ],
          [
            1.672715,
            43.565308,
            207.72
          ],
          [
            1.673188,
            43.565486,
            206.23
          ],
          [
            1.673275,
            43.565509,
            205.9
          ],
          [
            1.673371,
            43.565523,
            205.55
          ],
          [
            1.673472,
            43.565523,
            205.16
          ],
          [
            1.673591,
            43.565517,
            204.65
          ],
          [
            1.673737,
            43.565499,
            203.98
          ],
          [
            1.673938,
            43.565461,
            202.99
          ],
          [
            1.674124,
            43.56541,
            202.06
          ],
          [
            1.674246,
            43.565364,
            201.4
          ],
          [
            1.67471,
            43.565123,
            198.33
          ],
          [
            1.674873,
            43.565047,
            198.1
          ],
          [
            1.676519,
            43.566119,
            193.93
          ],
          [
            1.676619,
            43.566195,
            194.01
          ],
          [
            1.67692,
            43.566326,
            193.39
          ],
          [
            1.677822,
            43.566659,
            193.0
          ],
          [
            1.677895,
            43.566673,
            193.0
          ],
          [
            1.678023,
            43.56667,
            193.0
          ],
          [
            1.678095,
            43.566656,
            193.0
          ],
          [
            1.678162,
            43.566626,
            193.0
          ],
          [
            1.678962,
            43.566069,
            195.43
          ],
          [
            1.679092,
            43.566011,
            195.77
          ],
          [
            1.679233,
            43.565981,
            196.11
          ],
          [
            1.681658,
            43.565748,
            206.17
          ],
          [
            1.682001,
            43.56571,
            208.18
          ],
          [
            1.682245,
            43.565669,
            209.63
          ],
          [
            1.682465,
            43.565604,
            211.02
          ],
          [
            1.682626,
            43.565539,
            212.1
          ],
          [
            1.683313,
            43.56523,
            216.55
          ],
          [
            1.683651,
            43.565091,
            218.7
          ],
          [
            1.684018,
            43.564961,
            221.05
          ],
          [
            1.685001,
            43.56464,
            227.38
          ],
          [
            1.685145,
            43.564604,
            228.28
          ],
          [
            1.685349,
            43.564573,
            229.45
          ],
          [
            1.686345,
            43.564478,
            232.02
          ],
          [
            1.687974,
            43.564271,
            232.03
          ],
          [
            1.68826,
            43.564224,
            232.6
          ],
          [
            1.688514,
            43.564171,
            233.15
          ],
          [
            1.68909,
            43.564023,
            234.58
          ],
          [
            1.689304,
            43.563975,
            235.12
          ],
          [
            1.689674,
            43.563919,
            236.13
          ],
          [
            1.690708,
            43.563854,
            239.59
          ],
          [
            1.692323,
            43.563763,
            246.28
          ],
          [
            1.69276,
            43.56373,
            247.76
          ],
          [
            1.692861,
            43.563731,
            248.04
          ],
          [
            1.693007,
            43.563756,
            248.44
          ],
          [
            1.693065,
            43.563781,
            248.61
          ],
          [
            1.693162,
            43.563854,
            248.95
          ],
          [
            1.694414,
            43.565694,
            254.92
          ],
          [
            1.694016,
            43.56589,
            253.88
          ],
          [
            1.693572,
            43.566129,
            252.92
          ],
          [
            1.69345,
            43.566182,
            252.71
          ],
          [
            1.693336,
            43.566218,
            252.55
          ],
          [
            1.692983,
            43.566287,
            252.2
          ],
          [
            1.69181,
            43.566461,
            252.81
          ],
          [
            1.690907,
            43.566629,
            253.57
          ],
          [
            1.690907,
            43.566629,
            253.57
          ],
          [
            1.69181,
            43.566461,
            252.81
          ],
          [
            1.692983,
            43.566287,
            252.2
          ],
          [
            1.693336,
            43.566218,
            252.55
          ],
          [
            1.69345,
            43.566182,
            252.71
          ],
          [
            1.693572,
            43.566129,
            252.92
          ],
          [
            1.694016,
            43.56589,
            253.88
          ],
          [
            1.694414,
            43.565694,
            254.92
          ],
          [
            1.693162,
            43.563854,
            248.95
          ],
          [
            1.693065,
            43.563781,
            248.61
          ],
          [
            1.693007,
            43.563756,
            248.44
          ],
          [
            1.692861,
            43.563731,
            248.04
          ],
          [
            1.69276,
            43.56373,
            247.76
          ],
          [
            1.692323,
            43.563763,
            246.28
          ],
          [
            1.690708,
            43.563854,
            239.59
          ],
          [
            1.689674,
            43.563919,
            236.13
          ],
          [
            1.689304,
            43.563975,
            235.12
          ],
          [
            1.68909,
            43.564023,
            234.58
          ],
          [
            1.688514,
            43.564171,
            233.15
          ],
          [
            1.68826,
            43.564224,
            232.6
          ],
          [
            1.687974,
            43.564271,
            232.03
          ],
          [
            1.686345,
            43.564478,
            232.02
          ],
          [
            1.685349,
            43.564573,
            229.45
          ],
          [
            1.685145,
            43.564604,
            228.28
          ],
          [
            1.685001,
            43.56464,
            227.38
          ],
          [
            1.684018,
            43.564961,
            221.05
          ],
          [
            1.683651,
            43.565091,
            218.7
          ],
          [
            1.683313,
            43.56523,
            216.55
          ],
          [
            1.682626,
            43.565539,
            212.1
          ],
          [
            1.682465,
            43.565604,
            211.02
          ],
          [
            1.682245,
            43.565669,
            209.63
          ],
          [
            1.682001,
            43.56571,
            208.18
          ],
          [
            1.681658,
            43.565748,
            206.17
          ],
          [
            1.679233,
            43.565981,
            196.11
          ],
          [
            1.679092,
            43.566011,
            195.77
          ],
          [
            1.678962,
            43.566069,
            195.43
          ],
          [
            1.678162,
            43.566626,
            193.0
          ],
          [
            1.678095,
            43.566656,
            193.0
          ],
          [
            1.678023,
            43.56667,
            193.0
          ],
          [
            1.677895,
            43.566673,
            193.0
          ],
          [
            1.677822,
            43.566659,
            193.0
          ],
          [
            1.67692,
            43.566326,
            193.39
          ],
          [
            1.676619,
            43.566195,
            194.01
          ],
          [
            1.676519,
            43.566119,
            193.93
          ],
          [
            1.674873,
            43.565047,
            198.1
          ],
          [
            1.67471,
            43.565123,
            198.33
          ],
          [
            1.674246,
            43.565364,
            201.4
          ],
          [
            1.674124,
            43.56541,
            202.06
          ],
          [
            1.673938,
            43.565461,
            202.99
          ],
          [
            1.673737,
            43.565499,
            203.98
          ],
          [
            1.673591,
            43.565517,
            204.65
          ],
          [
            1.673472,
            43.565523,
            205.16
          ],
          [
            1.673371,
            43.565523,
            205.55
          ],
          [
            1.673275,
            43.565509,
            205.9
          ],
          [
            1.673188,
            43.565486,
            206.23
          ],
          [
            1.672715,
            43.565308,
            207.72
          ],
          [
            1.672447,
            43.565239,
            208.48
          ],
          [
            1.672302,
            43.565213,
            208.89
          ],
          [
            1.671923,
            43.565176,
            209.96
          ],
          [
            1.671553,
            43.565158,
            211.07
          ],
          [
            1.671057,
            43.565146,
            213.09
          ],
          [
            1.67087,
            43.565119,
            213.84
          ],
          [
            1.67079,
            43.565094,
            213.77
          ],
          [
            1.670702,
            43.565053,
            213.64
          ],
          [
            1.670354,
            43.564839,
            213.14
          ],
          [
            1.669812,
            43.564473,
            213.4
          ],
          [
            1.66923,
            43.564094,
            214.55
          ],
          [
            1.66912,
            43.564033,
            214.83
          ],
          [
            1.669017,
            43.563984,
            215.1
          ],
          [
            1.668881,
            43.563933,
            215.43
          ],
          [
            1.668761,
            43.563895,
            215.69
          ],
          [
            1.668386,
            43.563808,
            216.49
          ],
          [
            1.668165,
            43.563727,
            217.0
          ],
          [
            1.667985,
            43.563635,
            217.68
          ],
          [
            1.667221,
            43.563203,
            223.05
          ],
          [
            1.666474,
            43.562766,
            229.55
          ],
          [
            1.66643,
            43.562736,
            230.38
          ],
          [
            1.666111,
            43.56244,
            231.81
          ],
          [
            1.665911,
            43.562213,
            232.28
          ],
          [
            1.664104,
            43.56266,
            230.71
          ],
          [
            1.663955,
            43.562662,
            230.77
          ],
          [
            1.663811,
            43.562652,
            230.84
          ],
          [
            1.662929,
            43.562533,
            231.9
          ],
          [
            1.662728,
            43.5625,
            232.2
          ],
          [
            1.662361,
            43.562425,
            232.87
          ],
          [
            1.662047,
            43.56234,
            233.52
          ],
          [
            1.661928,
            43.562286,
            233.7
          ],
          [
            1.661571,
            43.562081,
            234.86
          ],
          [
            1.661435,
            43.562024,
            235.71
          ],
          [
            1.660814,
            43.561855,
            240.24
          ],
          [
            1.660378,
            43.561755,
            244.13
          ],
          [
            1.659892,
            43.561655,
            248.8
          ],
          [
            1.659536,
            43.561598,
            252.12
          ],
          [
            1.659507,
            43.561581,
            252.39
          ],
          [
            1.659489,
            43.561554,
            252.65
          ],
          [
            1.65948,
            43.561503,
            252.88
          ],
          [
            1.659398,
            43.561499,
            253.19
          ],
          [
            1.659359,
            43.561484,
            253.4
          ],
          [
            1.659329,
            43.561461,
            253.57
          ],
          [
            1.65931,
            43.561432,
            253.7
          ],
          [
            1.659233,
            43.561401,
            254.15
          ],
          [
            1.659137,
            43.561372,
            254.7
          ],
          [
            1.65895,
            43.561351,
            255.28
          ],
          [
            1.658785,
            43.56135,
            256.14
          ],
          [
            1.658433,
            43.561368,
            257.26
          ],
          [
            1.658178,
            43.561402,
            257.36
          ],
          [
            1.657341,
            43.561579,
            257.0
          ],
          [
            1.657098,
            43.561604,
            256.34
          ],
          [
            1.656951,
            43.561605,
            256.25
          ],
          [
            1.656943,
            43.561573,
            255.98
          ],
          [
            1.65691,
            43.561552,
            255.71
          ],
          [
            1.656834,
            43.561414,
            253.98
          ],
          [
            1.656688,
            43.561229,
            253.01
          ],
          [
            1.656366,
            43.560961,
            250.61
          ],
          [
            1.656279,
            43.560872,
            249.9
          ],
          [
            1.656206,
            43.560777,
            249.3
          ],
          [
            1.655938,
            43.560304,
            246.87
          ],
          [
            1.655194,
            43.559642,
            245.62
          ],
          [
            1.65516,
            43.559602,
            245.35
          ],
          [
            1.65514,
            43.559559,
            245.06
          ],
          [
            1.654963,
            43.559575,
            244.12
          ],
          [
            1.654707,
            43.55962,
            243.38
          ]
        ]
      }
    },
    {
      "type": "Feature",
      "properties": {
        "source": "Lanta_Village.gpx",
        "type": "route"
      },
      "geometry": {
        "type": "LineString",
        "coordinates": [
          [
            1.654707,
            43.55962
          ],
          [
            1.65514,
            43.559559
          ],
          [
            1.656787,
            43.561359
          ],
          [
            1.65691,
            43.561552
          ],
          [
            1.656951,
            43.561605
          ],
          [
            1.659137,
            43.561372
          ],
          [
            1.65931,
            43.561432
          ],
          [
            1.665911,
            43.562213
          ],
          [
            1.674873,
            43.565047
          ],
          [
            1.694414,
            43.565694
          ],
          [
            1.690907,
            43.566629
          ],
          [
            1.690907,
            43.566629
          ],
          [
            1.694414,
            43.565694
          ],
          [
            1.674873,
            43.565047
          ],
          [
            1.665911,
            43.562213
          ],
          [
            1.65948,
            43.561503
          ],
          [
            1.656951,
            43.561605
          ],
          [
            1.65691,
            43.561552
          ],
          [
            1.65514,
            43.559559
          ],
          [
            1.654707,
            43.55962
          ]
        ]
      }
    }
  ]
}