{
  "type": "FeatureCollection",
  "features": [
    {
      "type": "Feature",
      "properties": {
        "name": "GraphHopper Track",
        "source": "Pin-Balma.gpx",
        "type": "track"
      },
      "geometry": {
        "type": "LineString",
        "coordinates": [
          [
            1.535274,
            43.610197,
            221.01
          ],
          [
            1.535379,
            43.610156,
            220.95
          ],
          [
            1.53534,
            43.610099,
            220.5
          ],
          [
            1.533561,
            43.610797,
            222.0
          ],
          [
            1.533087,
            43.610991,
            221.36
          ],
          [
            1.53285,
            43.611063,
            221.51
          ],
          [
            1.532473,
            43.611139,
            221.63
          ],
          [
            1.532305,
            43.611181,
            221.93
          ],
          [
            1.532134,
            43.611255,
            222.48
          ],
          [
            1.531959,
            43.611366,
            222.82
          ],
          [
            1.531793,
            43.611399,
            223.84
          ],
          [
            1.531737,
            43.611398,
            223.92
          ],
          [
            1.531718,
            43.611427,
            224.0
          ],
          [
            1.53149,
            43.611373,
            223.21
          ],
          [
            1.531401,
            43.611359,
            223.0
          ],
          [
            1.531041,
            43.61125,
            222.36
          ],
          [
            1.530837,
            43.611207,
            222.04
          ],
          [
            1.530594,
            43.611173,
            221.57
          ],
          [
            1.530348,
            43.611165,
            221.12
          ],
          [
            1.530104,
            43.611175,
            220.7
          ],
          [
            1.529888,
            43.6112,
            220.26
          ],
          [
            1.529607,
            43.61126,
            219.71
          ],
          [
            1.529397,
            43.611323,
            219.31
          ],
          [
            1.529369,
            43.611285,
            218.83
          ],
          [
            1.529257,
            43.611201,
            217.51
          ],
          [
            1.52906,
            43.611244,
            216.74
          ],
          [
            1.528883,
            43.611292,
            216.08
          ],
          [
            1.528674,
            43.611402,
            216.74
          ],
          [
            1.52846,
            43.611491,
            216.21
          ],
          [
            1.528362,
            43.611543,
            216.06
          ],
          [
            1.528177,
            43.611615,
            215.77
          ],
          [
            1.527959,
            43.611686,
            215.74
          ],
          [
            1.52779,
            43.611728,
            215.83
          ],
          [
            1.527625,
            43.611759,
            215.85
          ],
          [
            1.527417,
            43.611785,
            215.96
          ],
          [
            1.52705,
            43.611796,
            216.12
          ],
          [
            1.526883,
            43.61179,
            216.05
          ],
          [
            1.526692,
            43.611768,
            216.12
          ],
          [
            1.526518,
            43.611739,
            216.34
          ],
          [
            1.526473,
            43.611694,
            216.3
          ],
          [
            1.526439,
            43.611744,
            216.71
          ],
          [
            1.526379,
            43.611887,
            217.85
          ],
          [
            1.526285,
            43.611877,
            217.81
          ],
          [
            1.526217,
            43.611891,
            217.88
          ],
          [
            1.526082,
            43.611871,
            217.49
          ],
          [
            1.526009,
            43.611851,
            217.29
          ],
          [
            1.525712,
            43.611732,
            216.61
          ],
          [
            1.523171,
            43.610431,
            211.12
          ],
          [
            1.52291,
            43.610318,
            210.45
          ],
          [
            1.52276,
            43.610264,
            210.09
          ],
          [
            1.522442,
            43.610174,
            209.5
          ],
          [
            1.522224,
            43.610134,
            209.0
          ],
          [
            1.521931,
            43.610095,
            208.81
          ],
          [
            1.521775,
            43.610086,
            208.71
          ],
          [
            1.521482,
            43.610085,
            208.4
          ],
          [
            1.521089,
            43.610108,
            207.96
          ],
          [
            1.520415,
            43.610167,
            207.0
          ],
          [
            1.519855,
            43.610191,
            206.53
          ],
          [
            1.519539,
            43.610186,
            205.73
          ],
          [
            1.519236,
            43.61015,
            204.61
          ],
          [
            1.51889,
            43.610071,
            203.02
          ],
          [
            1.518676,
            43.610003,
            201.96
          ],
          [
            1.518368,
            43.609883,
            200.28
          ],
          [
            1.516761,
            43.609059,
            190.79
          ],
          [
            1.51661,
            43.609026,
            190.43
          ],
          [
            1.516455,
            43.608952,
            189.75
          ],
          [
            1.516228,
            43.608868,
            188.75
          ],
          [
            1.516177,
            43.608857,
            188.62
          ],
          [
            1.516114,
            43.608854,
            188.49
          ],
          [
            1.516113,
            43.608786,
            188.05
          ],
          [
            1.516167,
            43.608714,
            188.06
          ],
          [
            1.516127,
            43.608693,
            187.86
          ],
          [
            1.516023,
            43.6086,
            187.59
          ],
          [
            1.515877,
            43.60852,
            186.87
          ],
          [
            1.5159,
            43.608478,
            187.28
          ],
          [
            1.515946,
            43.608437,
            187.66
          ],
          [
            1.516249,
            43.608239,
            189.12
          ],
          [
            1.516341,
            43.608166,
            189.1
          ],
          [
            1.516296,
            43.608156,
            189.1
          ],
          [
            1.516233,
            43.608124,
            189.05
          ],
          [
            1.515859,
            43.607766,
            187.38
          ],
          [
            1.51569,
            43.607586,
            186.55
          ],
          [
            1.515536,
            43.607468,
            185.62
          ],
          [
            1.515411,
            43.607411,
            185.12
          ],
          [
            1.515263,
            43.607304,
            184.65
          ],
          [
            1.514228,
            43.606398,
            184.44
          ],
          [
            1.514043,
            43.606273,
            184.8
          ],
          [
            1.513686,
            43.606071,
            185.32
          ],
          [
            1.513411,
            43.605835,
            185.54
          ],
          [
            1.513393,
            43.605796,
            185.54
          ],
          [
            1.513389,
            43.605753,
            185.54
          ],
          [
            1.513399,
            43.605719,
            185.53
          ],
          [
            1.51345,
            43.605665,
            185.5
          ],
          [
            1.513891,
            43.605359,
            184.89
          ],
          [
            1.51403,
            43.605285,
            184.54
          ],
          [
            1.514357,
            43.605164,
            183.0
          ],
          [
            1.515157,
            43.60581,
            184.08
          ],
          [
            1.515334,
            43.605844,
            184.47
          ],
          [
            1.515334,
            43.605844,
            184.47
          ],
          [
            1.515157,
            43.60581,
            184.08
          ],
          [
            1.514357,
            43.605164,
            183.0
          ],
          [
            1.51403,
            43.605285,
            184.54
          ],
          [
            1.513891,
            43.605359,
            184.89
          ],
          [
            1.51345,
            43.605665,
            185.5
          ],
          [
            1.513399,
            43.605719,
            185.53
          ],
          [
            1.513389,
            43.605753,
            185.54
          ],
          [
            1.513393,
            43.605796,
            185.54
          ],
          [
            1.513411,
            43.605835,
            185.54
          ],
          [
            1.513686,
            43.606071,
            185.32
          ],
          [
            1.514043,
            43.606273,
            184.8
          ],
          [
            1.514228,
            43.606398,
            184.44
          ],
          [
            1.515263,
            43.607304,
            184.65
          ],
          [
            1.515411,
            43.607411,
            185.12
          ],
          [
            1.515536,
            43.607468,
            185.62
          ],
          [
            1.51569,
            43.607586,
            186.55
          ],
          [
            1.515859,
            43.607766,
            187.38
          ],
          [
            1.516233,
            43.608124,
            189.05
          ],
          [
            1.516296,
            43.608156,
            189.1
          ],
          [
            1.516341,
            43.608166,
            189.1
          ],
          [
            1.516249,
            43.608239,
            189.12
          ],
          [
            1.515946,
            43.608437,
            187.66
          ],
          [
            1.5159,
            43.608478,
            187.28
          ],
          [
            1.515877,
            43.60852,
            186.87
          ],
          [
            1.516023,
            43.6086,
            187.59
          ],
          [
            1.516127,
            43.608693,
            187.86
          ],
          [
            1.51666,
            43.608955,
            190.54
          ],
          [
            1.516743,
            43.60902,
            190.64
          ],
          [
            1.516761,
            43.609059,
            190.79
          ],
          [
            1.518368,
            43.609883,
            200.28
          ],
          [
            1.518676,
            43.610003,
            201.96
          ],
          [
            1.51889,
            43.610071,
            203.02
          ],
          [
            1.519236,
            43.61015,
            204.61
          ],
          [
            1.519539,
            43.610186,
            205.73
          ],
          [
            1.519855,
            43.610191,
            206.53
          ],
          [
            1.520415,
            43.610167,
            207.0
          ],
          [
            1.521089,
            43.610108,
            207.96
          ],
          [
            1.521482,
            43.610085,
            208.4
          ],
          [
            1.521775,
            43.610086,
            208.71
          ],
          [
            1.521931,
            43.610095,
            208.81
          ],
          [
            1.522224,
            43.610134,
            209.0
          ],
          [
            1.522442,
            43.610174,
            209.5
          ],
          [
            1.52276,
            43.610264,
            210.09
          ],
          [
            1.52291,
            43.610318,
            210.45
          ],
          [
            1.523171,
            43.610431,
            211.12
          ],
          [
            1.525712,
            43.611732,
            216.61
          ],
          [
            1.526009,
            43.611851,
            217.29
          ],
          [
            1.526082,
            43.611871,
            217.49
          ],
          [
            1.526217,
            43.611891,
            217.88
          ],
          [
            1.526285,
            43.611877,
            217.81
          ],
          [
            1.526379,
            43.611887,
            217.85
          ],
          [
            1.526439,
            43.611744,
            216.71
          ],
          [
            1.526473,
            43.611694,
            216.3
          ],
          [
            1.526518,
            43.611739,
            216.34
          ],
          [
            1.526692,
            43.611768,
            216.12
          ],
          [
            1.526883,
            43.61179,
            216.05
          ],
          [
            1.52705,
            43.611796,
            216.12
          ],
          [
            1.527417,
            43.611785,
            215.96
          ],
          [
            1.527625,
            43.611759,
            215.85
          ],
          [
            1.52779,
            43.611728,
            215.83
          ],
          [
            1.527959,
            43.611686,
            215.74
          ],
          [
            1.528177,
            43.611615,
            215.77
          ],
          [
            1.528362,
            43.611543,
            216.06
          ],
          [
            1.52846,
            43.611491,
            216.21
          ],
          [
            1.528674,
            43.611402,
            216.74
          ],
          [
            1.528883,
            43.611292,
            216.08
          ],
          [
            1.52906,
            43.611244,
            216.74
          ],
          [
            1.529257,
            43.611201,
            217.51
          ],
          [
            1.529369,
            43.611285,
            218.83
          ],
          [
            1.529397,
            43.611323,
            219.31
          ],
          [
            1.529607,
            43.61126,
            219.71
          ],
          [
            1.529888,
            43.6112,
            220.26
          ],
          [
            1.530104,
            43.611175,
            220.7
          ],
          [
            1.530348,
            43.611165,
            221.12
          ],
          [
            1.530594,
            43.611173,
            221.57
          ],
          [
            1.530837,
            43.611207,
            222.04
          ],
          [
            1.531041,
            43.61125,
            222.36
          ],
          [
            1.531401,
            43.611359,
            223.0
          ],
          [
            1.53149,
            43.611373,
            223.21
          ],
          [
            1.531718,
            43.611427,
            224.0
          ],
          [
            1.531737,
            43.611398,
            223.92
          ],
          [
            1.531793,
            43.611399,
            223.84
          ],
          [
            1.531959,
            43.611366,
            222.82
          ],
          [
            1.532134,
            43.611255,
            222.48
          ],
          [
            1.532305,
            43.611181,
            221.93
          ],
          [
            1.532473,
            43.611139,
            221.63
          ],
          [
            1.53285,
            43.611063,
            221.51
          ],
          [
            1.533087,
            43.610991,
            221.36
          ],
          [
            1.533561,
            43.610797,
            222.0
          ],
          [
            1.53534,
            43.610099,
            220.5
          ],
          [
            1.535379,
            43.610156,
            220.95
          ],
          [
            1.535274,
            43.610197,
            221.01
          ]
        ]
      }
    },
    {
      "type": "Feature",
      "properties": {
        "source": "Pin-Balma.gpx",
        "type": "route"
      },
      "geometry": {
        "type": "LineString",
        "coordinates": [
          [
            1.535274,
            43.610197
          ],
          [
            1.535379,
            43.610156
          ],
          [
            1.53534,
            43.610099
          ],
          [
            1.532134,
            43.611255
          ],
          [
            1.531737,
            43.611398
          ],
          [
            1.531718,
            43.611427
          ],
          [
            1.529397,
            43.611323
          ],
          [
            1.529257,
            43.611201
          ],
          [
            1.526473,
            43.611694
          ],
          [
            1.526379,
            43.611887
          ],
          [
            1.520415,
            43.610167
          ],
          [
            1.516761,
            43.609059
          ],
          [
            1.516114,
            43.608854
          ],
          [
            1.516167,
            43.608714
          ],
          [
            1.515877,
            43.60852
          ],
          [
            1.516341,
            43.608166
          ],
          [
            1.514357,
            43.605164
          ],
          [
            1.515334,
            43.605844
          ],
          [
            1.515334,
            43.605844
          ],
          [
            1.514357,
            43.605164
          ],
          [
            1.516341,
            43.608166
          ],
          [
            1.515877,
            43.60852
          ],
          [
            1.516761,
            43.609059
          ],
          [
            1.518368,
            43.609883
          ],
          [
            1.525712,
            43.611732
          ],
          [
            1.526217,
            43.611891
          ],
          [
            1.526473,
            43.611694
          ],
          [
            1.52846,
            43.611491
          ],
          [
            1.528883,
            43.611292
          ],
          [
            1.529257,
            43.611201
          ],
          [
            1.529397,
            43.611323
          ],
          [
            1.531401,
            43.611359
          ],
          [
            1.531718,
            43.611427
          ],
          [
            1.531737,
            43.611398
          ],
          [
            1.532134,
            43.611255
          ],
          [
            1.53534,
            43.610099
          ],
          [
            1.535379,
            43.610156
          ],
          [
            1.535274,
            43.610197
          ]
        ]
      }
    }
  ]
}