{
  "type": "FeatureCollection",
  "features": [
    {
      "type": "Feature",
      "properties": {
        "name": "GraphHopper Track",
        "source": "Crêtes_de_la_Frau.gpx",
        "type": "track"
      },
      "geometry": {
        "type": "LineString",
        "coordinates": [
          [
            2.615396,
            42.961581,
            391.85
          ],
          [
            2.615083,
            42.961136,
            393.1
          ],
          [
            2.615005,
            42.961052,
            393.49
          ],
          [
            2.614912,
            42.960976,
            394.01
          ],
          [
            2.614785,
            42.9609,
            394.7
          ],
          [
            2.614017,
            42.9605,
            398.81
          ],
          [
            2.613816,
            42.960427,
            399.9
          ],
          [
            2.613049,
            42.9602,
            404.69
          ],
          [
            2.612778,
            42.960104,
            405.66
          ],
          [
            2.611784,
            42.959687,
            406.58
          ],
          [
            2.611055,
            42.95942,
            404.59
          ],
          [
            2.610894,
            42.959352,
            403.97
          ],
          [
            2.610747,
            42.959275,
            403.43
          ],
          [
            2.610625,
            42.959195,
            402.74
          ],
          [
            2.61026,
            42.958842,
            401.45
          ],
          [
            2.610179,
            42.958773,
            401.44
          ],
          [
            2.61006,
            42.958726,
            401.88
          ],
          [
            2.609907,
            42.958697,
            402.2
          ],
          [
            2.609774,
            42.958684,
            402.22
          ],
          [
            2.609506,
            42.958684,
            402.02
          ],
          [
            2.609304,
            42.958704,
            401.83
          ],
          [
            2.60915,
            42.958729,
            401.77
          ],
          [
            2.607498,
            42.959194,
            400.87
          ],
          [
            2.60696,
            42.959521,
            400.09
          ],
          [
            2.606896,
            42.959531,
            400.22
          ],
          [
            2.606719,
            42.959685,
            400.14
          ],
          [
            2.606476,
            42.959753,
            400.0
          ],
          [
            2.606368,
            42.959742,
            400.0
          ],
          [
            2.606297,
            42.959698,
            399.91
          ],
          [
            2.60606,
            42.95961,
            398.77
          ],
          [
            2.605968,
            42.95964,
            398.46
          ],
          [
            2.605771,
            42.959207,
            395.75
          ],
          [
            2.605712,
            42.959166,
            395.68
          ],
          [
            2.605615,
            42.959128,
            395.65
          ],
          [
            2.605492,
            42.959098,
            395.36
          ],
          [
            2.604926,
            42.959043,
            395.48
          ],
          [
            2.604771,
            42.959007,
            395.93
          ],
          [
            2.604492,
            42.959013,
            395.74
          ],
          [
            2.604152,
            42.959009,
            394.74
          ],
          [
            2.603988,
            42.95899,
            393.83
          ],
          [
            2.603611,
            42.958903,
            393.38
          ],
          [
            2.603454,
            42.958904,
            393.94
          ],
          [
            2.603311,
            42.958938,
            394.55
          ],
          [
            2.602899,
            42.9591,
            396.03
          ],
          [
            2.602738,
            42.959153,
            396.44
          ],
          [
            2.602541,
            42.959197,
            396.96
          ],
          [
            2.602318,
            42.959224,
            397.26
          ],
          [
            2.602148,
            42.959231,
            397.93
          ],
          [
            2.601763,
            42.959225,
            399.03
          ],
          [
            2.601333,
            42.959172,
            400.14
          ],
          [
            2.60114,
            42.959134,
            400.63
          ],
          [
            2.600952,
            42.959082,
            401.14
          ],
          [
            2.600859,
            42.95903,
            401.41
          ],
          [
            2.600769,
            42.958935,
            401.78
          ],
          [
            2.600546,
            42.958546,
            403.15
          ],
          [
            2.600495,
            42.958487,
            403.39
          ],
          [
            2.599887,
            42.958023,
            405.58
          ],
          [
            2.599787,
            42.957975,
            405.95
          ],
          [
            2.599691,
            42.957948,
            406.28
          ],
          [
            2.599568,
            42.957947,
            406.65
          ],
          [
            2.599442,
            42.957968,
            407.03
          ],
          [
            2.599343,
            42.958002,
            407.34
          ],
          [
            2.59927,
            42.958052,
            407.61
          ],
          [
            2.599225,
            42.958119,
            407.88
          ],
          [
            2.599148,
            42.958341,
            408.69
          ],
          [
            2.599098,
            42.958385,
            408.91
          ],
          [
            2.599017,
            42.95843,
            409.22
          ],
          [
            2.598898,
            42.958465,
            409.65
          ],
          [
            2.598735,
            42.958477,
            410.16
          ],
          [
            2.598127,
            42.958454,
            411.62
          ],
          [
            2.598014,
            42.958468,
            411.99
          ],
          [
            2.597921,
            42.958508,
            411.85
          ],
          [
            2.597845,
            42.958581,
            412.28
          ],
          [
            2.597817,
            42.958645,
            412.73
          ],
          [
            2.597808,
            42.958731,
            413.23
          ],
          [
            2.597876,
            42.959061,
            414.83
          ],
          [
            2.597867,
            42.959161,
            415.07
          ],
          [
            2.597815,
            42.959223,
            415.32
          ],
          [
            2.59771,
            42.95927,
            415.7
          ],
          [
            2.597586,
            42.959301,
            416.13
          ],
          [
            2.596736,
            42.959434,
            419.02
          ],
          [
            2.596615,
            42.959435,
            419.46
          ],
          [
            2.596497,
            42.959416,
            419.93
          ],
          [
            2.596104,
            42.959314,
            421.33
          ],
          [
            2.595583,
            42.959261,
            423.13
          ],
          [
            2.593744,
            42.958886,
            429.84
          ],
          [
            2.593584,
            42.958844,
            430.7
          ],
          [
            2.593246,
            42.958703,
            432.57
          ],
          [
            2.59303,
            42.958649,
            433.86
          ],
          [
            2.592938,
            42.958652,
            434.37
          ],
          [
            2.59287,
            42.958674,
            434.75
          ],
          [
            2.592794,
            42.958733,
            435.38
          ],
          [
            2.592496,
            42.959175,
            438.12
          ],
          [
            2.592472,
            42.959268,
            438.63
          ],
          [
            2.592501,
            42.959348,
            439.03
          ],
          [
            2.592617,
            42.959505,
            439.83
          ],
          [
            2.592644,
            42.95957,
            440.16
          ],
          [
            2.592644,
            42.959674,
            440.66
          ],
          [
            2.592608,
            42.959817,
            441.38
          ],
          [
            2.592494,
            42.960007,
            442.35
          ],
          [
            2.592332,
            42.960162,
            443.16
          ],
          [
            2.591976,
            42.960407,
            444.69
          ],
          [
            2.591884,
            42.960446,
            445.07
          ],
          [
            2.591764,
            42.960461,
            445.51
          ],
          [
            2.59157,
            42.960454,
            446.23
          ],
          [
            2.590495,
            42.960213,
            450.3
          ],
          [
            2.58914,
            42.96001,
            455.51
          ],
          [
            2.588792,
            42.959931,
            456.96
          ],
          [
            2.588653,
            42.959879,
            457.58
          ],
          [
            2.58842,
            42.959764,
            458.7
          ],
          [
            2.587694,
            42.959381,
            462.11
          ],
          [
            2.587587,
            42.959343,
            462.56
          ],
          [
            2.587494,
            42.959323,
            462.93
          ],
          [
            2.586586,
            42.959198,
            466.38
          ],
          [
            2.586402,
            42.959156,
            467.16
          ],
          [
            2.586295,
            42.959113,
            467.61
          ],
          [
            2.586221,
            42.959061,
            467.97
          ],
          [
            2.586073,
            42.958936,
            468.81
          ],
          [
            2.586085,
            42.958873,
            470.26
          ],
          [
            2.586083,
            42.958783,
            472.07
          ],
          [
            2.586014,
            42.958504,
            477.16
          ],
          [
            2.586002,
            42.958368,
            479.59
          ],
          [
            2.58601,
            42.958173,
            482.94
          ],
          [
            2.586028,
            42.958082,
            484.47
          ],
          [
            2.586103,
            42.957933,
            487.24
          ],
          [
            2.586449,
            42.9575,
            494.96
          ],
          [
            2.586681,
            42.957258,
            499.92
          ],
          [
            2.587039,
            42.956922,
            506.69
          ],
          [
            2.587064,
            42.956875,
            507.37
          ],
          [
            2.587064,
            42.956824,
            508.02
          ],
          [
            2.586878,
            42.956379,
            512.87
          ],
          [
            2.586895,
            42.956341,
            513.26
          ],
          [
            2.586895,
            42.956341,
            513.26
          ],
          [
            2.586878,
            42.956379,
            512.87
          ],
          [
            2.587064,
            42.956824,
            508.02
          ],
          [
            2.587064,
            42.956875,
            507.37
          ],
          [
            2.587039,
            42.956922,
            506.69
          ],
          [
            2.586681,
            42.957258,
            499.92
          ],
          [
            2.586449,
            42.9575,
            494.96
          ],
          [
            2.586103,
            42.957933,
            487.24
          ],
          [
            2.586028,
            42.958082,
            484.47
          ],
          [
            2.58601,
            42.958173,
            482.94
          ],
          [
            2.586002,
            42.958368,
            479.59
          ],
          [
            2.586014,
            42.958504,
            477.16
          ],
          [
            2.586083,
            42.958783,
            472.07
          ],
          [
            2.586085,
            42.958873,
            470.26
          ],
          [
            2.586073,
            42.958936,
            468.81
          ],
          [
            2.586221,
            42.959061,
            467.97
          ],
          [
            2.586295,
            42.959113,
            467.61
          ],
          [
            2.586402,
            42.959156,
            467.16
          ],
          [
            2.586586,
            42.959198,
            466.38
          ],
          [
            2.587494,
            42.959323,
            462.93
          ],
          [
            2.587587,
            42.959343,
            462.56
          ],
          [
            2.587694,
            42.959381,
            462.11
          ],
          [
            2.58842,
            42.959764,
            458.7
          ],
          [
            2.588653,
            42.959879,
            457.58
          ],
          [
            2.588792,
            42.959931,
            456.96
          ],
          [
            2.58914,
            42.96001,
            455.51
          ],
          [
            2.590495,
            42.960213,
            450.3
          ],
          [
            2.59157,
            42.960454,
            446.23
          ],
          [
            2.591764,
            42.960461,
            445.51
          ],
          [
            2.591884,
            42.960446,
            445.07
          ],
          [
            2.591976,
            42.960407,
            444.69
          ],
          [
            2.592332,
            42.960162,
            443.16
          ],
          [
            2.592494,
            42.960007,
            442.35
          ],
          [
            2.592608,
            42.959817,
            441.38
          ],
          [
            2.592644,
            42.959674,
            440.66
          ],
          [
            2.592644,
            42.95957,
            440.16
          ],
          [
            2.592617,
            42.959505,
            439.83
          ],
          [
            2.592501,
            42.959348,
            439.03
          ],
          [
            2.592472,
            42.959268,
            438.63
          ],
          [
            2.592496,
            42.959175,
            438.12
          ],
          [
            2.592794,
            42.958733,
            435.38
          ],
          [
            2.59287,
            42.958674,
            434.75
          ],
          [
            2.592938,
            42.958652,
            434.37
          ],
          [
            2.59303,
            42.958649,
            433.86
          ],
          [
            2.593246,
            42.958703,
            432.57
          ],
          [
            2.593584,
            42.958844,
            430.7
          ],
          [
            2.593744,
            42.958886,
            429.84
          ],
          [
            2.595583,
            42.959261,
            423.13
          ],
          [
            2.596104,
            42.959314,
            421.33
          ],
          [
            2.596497,
            42.959416,
            419.93
          ],
          [
            2.596615,
            42.959435,
            419.46
          ],
          [
            2.596736,
            42.959434,
            419.02
          ],
          [
            2.597586,
            42.959301,
            416.13
          ],
          [
            2.59771,
            42.95927,
            415.7
          ],
          [
            2.597815,
            42.959223,
            415.32
          ],
          [
            2.597867,
            42.959161,
            415.07
          ],
          [
            2.597876,
            42.959061,
            414.83
          ],
          [
            2.597846,
            42.95894,
            414.76
          ],
          [
            2.597951,
            42.959076,
            414.48
          ],
          [
            2.597963,
            42.959192,
            414.66
          ],
          [
            2.597893,
            42.959253,
            414.62
          ],
          [
            2.597761,
            42.95933,
            414.06
          ],
          [
            2.597646,
            42.959381,
            413.39
          ],
          [
            2.597637,
            42.959448,
            412.86
          ],
          [
            2.598461,
            42.960739,
            402.87
          ],
          [
            2.598496,
            42.960826,
            402.27
          ],
          [
            2.59869,
            42.960849,
            402.01
          ],
          [
            2.59903,
            42.960809,
            401.79
          ],
          [
            2.599457,
            42.960695,
            400.42
          ],
          [
            2.600063,
            42.960619,
            398.22
          ],
          [
            2.600627,
            42.960502,
            395.72
          ],
          [
            2.600939,
            42.960411,
            394.13
          ],
          [
            2.602313,
            42.96039,
            386.59
          ],
          [
            2.602835,
            42.960375,
            385.88
          ],
          [
            2.603021,
            42.960274,
            385.88
          ],
          [
            2.603275,
            42.960003,
            386.18
          ],
          [
            2.603364,
            42.959961,
            386.01
          ],
          [
            2.603431,
            42.959946,
            386.11
          ],
          [
            2.603804,
            42.959972,
            386.97
          ],
          [
            2.603875,
            42.959962,
            387.63
          ],
          [
            2.603936,
            42.959954,
            387.88
          ],
          [
            2.604043,
            42.959909,
            388.63
          ],
          [
            2.604284,
            42.959728,
            390.49
          ],
          [
            2.604598,
            42.959382,
            393.3
          ],
          [
            2.604771,
            42.959007,
            395.93
          ],
          [
            2.604926,
            42.959043,
            395.48
          ],
          [
            2.605492,
            42.959098,
            395.36
          ],
          [
            2.605615,
            42.959128,
            395.65
          ],
          [
            2.605712,
            42.959166,
            395.68
          ],
          [
            2.605771,
            42.959207,
            395.75
          ],
          [
            2.605968,
            42.95964,
            398.46
          ],
          [
            2.60606,
            42.95961,
            398.77
          ],
          [
            2.606297,
            42.959698,
            399.91
          ],
          [
            2.606368,
            42.959742,
            400.0
          ],
          [
            2.606476,
            42.959753,
            400.0
          ],
          [
            2.606719,
            42.959685,
            400.14
          ],
          [
            2.606896,
            42.959531,
            400.22
          ],
          [
            2.60696,
            42.959521,
            400.09
          ],
          [
            2.607498,
            42.959194,
            400.87
          ],
          [
            2.60915,
            42.958729,
            401.77
          ],
          [
            2.609304,
            42.958704,
            401.83
          ],
          [
            2.609506,
            42.958684,
            402.02
          ],
          [
            2.609774,
            42.958684,
            402.22
          ],
          [
            2.609907,
            42.958697,
            402.2
          ],
          [
            2.61006,
            42.958726,
            401.88
          ],
          [
            2.610179,
            42.958773,
            401.44
          ],
          [
            2.61026,
            42.958842,
            401.45
          ],
          [
            2.610625,
            42.959195,
            402.74
          ],
          [
            2.610747,
            42.959275,
            403.43
          ],
          [
            2.610894,
            42.959352,
            403.97
          ],
          [
            2.611055,
            42.95942,
            404.59
          ],
          [
            2.611784,
            42.959687,
            406.58
          ],
          [
            2.612778,
            42.960104,
            405.66
          ],
          [
            2.613049,
            42.9602,
            404.69
          ],
          [
            2.613816,
            42.960427,
            399.9
          ],
          [
            2.614017,
            42.9605,
            398.81
          ],
          [
            2.614785,
            42.9609,
            394.7
          ],
          [
            2.614912,
            42.960976,
            394.01
          ],
          [
            2.615005,
            42.961052,
            393.49
          ],
          [
            2.615083,
            42.961136,
            393.1
          ],
          [
            2.615396,
            42.961581,
            391.85
          ]
        ]
      }
    },
    {
      "type": "Feature",
      "properties": {
        "source": "Crêtes_de_la_Frau.gpx",
        "type": "route"
      },
      "geometry": {
        "type": "LineString",
        "coordinates": [
          [
            2.615396,
            42.961581
          ],
          [
            2.606719,
            42.959685
          ],
          [
            2.606368,
            42.959742
          ],
          [
            2.60606,
            42.95961
          ],
          [
            2.605968,
            42.95964
          ],
          [
            2.604771,
            42.959007
          ],
          [
            2.586073,
            42.958936
          ],
          [
            2.586895,
            42.956341
          ],
          [
            2.586895,
            42.956341
          ],
          [
            2.586073,
            42.958936
          ],
          [
            2.597846,
            42.95894
          ],
          [
            2.598496,
            42.960826
          ],
          [
            2.603875,
            42.959962
          ],
          [
            2.604771,
            42.959007
          ],
          [
            2.605968,
            42.95964
          ],
          [
            2.60606,
            42.95961
          ],
          [
            2.606368,
            42.959742
          ],
          [
            2.606719,
            42.959685
          ],
          [
            2.615396,
            42.961581
          ]
        ]
      }
    }
  ]
}