{
    "type": "FeatureCollection",
    "name": "Le_Montat",
    "crs": {
        "type": "name",
        "properties": {
            "name": "urn:ogc:def:crs:OGC:1.3:CRS84"
        }
    },
    "features": [
        {
            "type": "Feature",
            "properties": {
                "nom": "Le Montat"
            },
            "geometry": {
                "type": "MultiLineString",
                "coordinates": [
                    [
                        [
                            1.448786376384495,
                            44.38053644391143
                        ],
                        [
                            1.448351378765965,
                            44.38032644569589
                        ],
                        [
                            1.448030382350153,
                            44.380560445766484
                        ],
                        [
                            1.447849384963159,
                            44.38072344258668
                        ],
                        [
                            1.447700387418236,
                            44.38109743985565
                        ],
                        [
                            1.447487399035774,
                            44.38154843764846
                        ],
                        [
                            1.447292394544965,
                            44.38162543082334
                        ],
                        [
                            1.447076394826211,
                            44.381651433722986
                        ],
                        [
                            1.447059404827214,
                            44.382236432092576
                        ],
                        [
                            1.446878407853424,
                            44.382788422540955
                        ],
                        [
                            1.446816411342654,
                            44.38327742102578
                        ],
                        [
                            1.446736410916633,
                            44.38378341707681
                        ],
                        [
                            1.44679642089957,
                            44.38427341587035
                        ],
                        [
                            1.446635422326062,
                            44.384344416194956
                        ],
                        [
                            1.446305426272271,
                            44.38468041022585
                        ],
                        [
                            1.445574430273582,
                            44.385073405571404
                        ],
                        [
                            1.445289433126619,
                            44.38520340398173
                        ],
                        [
                            1.444986434568065,
                            44.38567240087497
                        ],
                        [
                            1.444809446401316,
                            44.38598539438522
                        ],
                        [
                            1.444733444348739,
                            44.386226392930766
                        ],
                        [
                            1.444798440632718,
                            44.38638139608921
                        ],
                        [
                            1.444809449669698,
                            44.38653239720246
                        ],
                        [
                            1.444749443219753,
                            44.38660439649961
                        ],
                        [
                            1.444485452641953,
                            44.38672339495743
                        ],
                        [
                            1.444594447894788,
                            44.386949387272246
                        ],
                        [
                            1.444614447235262,
                            44.38706539118495
                        ],
                        [
                            1.444514458825424,
                            44.388008387963346
                        ],
                        [
                            1.444421467671223,
                            44.388440384528295
                        ],
                        [
                            1.444347470752853,
                            44.3890513736061
                        ],
                        [
                            1.444235474912729,
                            44.38932137162923
                        ],
                        [
                            1.443940467758998,
                            44.38952737161073
                        ],
                        [
                            1.443157487160109,
                            44.3899463648294
                        ],
                        [
                            1.442961481196628,
                            44.39003836465359
                        ],
                        [
                            1.442843487438716,
                            44.38999036326203
                        ],
                        [
                            1.442545480195384,
                            44.38972536376134
                        ],
                        [
                            1.442375489219928,
                            44.389569369820464
                        ],
                        [
                            1.442152479199345,
                            44.389297365777416
                        ],
                        [
                            1.441771485165937,
                            44.38880636529259
                        ],
                        [
                            1.441325484901244,
                            44.388331372482554
                        ],
                        [
                            1.440941488254583,
                            44.38804236710168
                        ],
                        [
                            1.44067348716651,
                            44.38792437190625
                        ],
                        [
                            1.440437482725603,
                            44.387868371566434
                        ],
                        [
                            1.439595494605693,
                            44.387869360939284
                        ],
                        [
                            1.439067489139332,
                            44.387811362649636
                        ],
                        [
                            1.438542495836501,
                            44.387551362179266
                        ],
                        [
                            1.437806487665014,
                            44.38673836596953
                        ],
                        [
                            1.436757492053746,
                            44.38549236716954
                        ],
                        [
                            1.436449487084374,
                            44.38518837078179
                        ],
                        [
                            1.436349492191072,
                            44.38465437150983
                        ],
                        [
                            1.436108487350965,
                            44.38415737499895
                        ],
                        [
                            1.435936483917475,
                            44.383418375682055
                        ],
                        [
                            1.435688477865985,
                            44.38269738370826
                        ],
                        [
                            1.435413472962948,
                            44.382339378012894
                        ],
                        [
                            1.434836474623787,
                            44.38196338166171
                        ],
                        [
                            1.434485475999595,
                            44.381589385288954
                        ],
                        [
                            1.434403478655092,
                            44.38130238121071
                        ],
                        [
                            1.434608471785103,
                            44.38063139157695
                        ],
                        [
                            1.434710467114732,
                            44.38031539286192
                        ],
                        [
                            1.434467467971863,
                            44.37998039005076
                        ],
                        [
                            1.434106468078336,
                            44.3795523899609
                        ],
                        [
                            1.435531460519035,
                            44.37949440301735
                        ],
                        [
                            1.435945451983914,
                            44.37933339870614
                        ],
                        [
                            1.436585447712919,
                            44.37942540589893
                        ],
                        [
                            1.437104447967072,
                            44.379397406265845
                        ],
                        [
                            1.437851439086302,
                            44.3794464111333
                        ],
                        [
                            1.438277433430049,
                            44.37951540818564
                        ],
                        [
                            1.438583436471926,
                            44.37945241392738
                        ],
                        [
                            1.43894043340689,
                            44.37907241438553
                        ],
                        [
                            1.439739421688157,
                            44.37868442042862
                        ],
                        [
                            1.440353422698844,
                            44.37844942983109
                        ],
                        [
                            1.441013411914255,
                            44.37819142889313
                        ],
                        [
                            1.442003409332963,
                            44.37829743254402
                        ],
                        [
                            1.442854397843559,
                            44.37847943788274
                        ],
                        [
                            1.443615398456098,
                            44.3786164428562
                        ],
                        [
                            1.444041393058608,
                            44.378685436480254
                        ],
                        [
                            1.444560393441887,
                            44.378711444880345
                        ],
                        [
                            1.444452387522278,
                            44.377759447844284
                        ],
                        [
                            1.444235386044131,
                            44.376980452648745
                        ],
                        [
                            1.443987378130034,
                            44.37620245858753
                        ],
                        [
                            1.444196381637203,
                            44.37613245628318
                        ],
                        [
                            1.44409937446013,
                            44.37555746098513
                        ],
                        [
                            1.444130374922064,
                            44.37527846134337
                        ],
                        [
                            1.444445361485145,
                            44.37498546120646
                        ],
                        [
                            1.444723359036227,
                            44.374708464289085
                        ],
                        [
                            1.44496535861081,
                            44.37438946784589
                        ],
                        [
                            1.445082350451943,
                            44.373939474018286
                        ],
                        [
                            1.445208343744065,
                            44.373335474607536
                        ],
                        [
                            1.445111345408725,
                            44.372779480107866
                        ],
                        [
                            1.445109347418621,
                            44.3722264833809
                        ],
                        [
                            1.445072344974465,
                            44.37188648786482
                        ],
                        [
                            1.445236330854741,
                            44.371498487605976
                        ],
                        [
                            1.445494337092066,
                            44.37114549223642
                        ],
                        [
                            1.445376328273243,
                            44.37059149495214
                        ],
                        [
                            1.445185326694382,
                            44.37000450008523
                        ],
                        [
                            1.445277318953686,
                            44.369797503612666
                        ],
                        [
                            1.445422324930807,
                            44.369620505138194
                        ],
                        [
                            1.445616320429084,
                            44.37005250173927
                        ],
                        [
                            1.445912321025533,
                            44.370357497882026
                        ],
                        [
                            1.446328320276418,
                            44.371029494832634
                        ],
                        [
                            1.446844325537038,
                            44.37186649475071
                        ],
                        [
                            1.447249329692469,
                            44.3722244913964
                        ],
                        [
                            1.447599322214657,
                            44.372434492740815
                        ],
                        [
                            1.448043323813578,
                            44.373072488940636
                        ],
                        [
                            1.448510331335087,
                            44.373537494232245
                        ],
                        [
                            1.448903330637902,
                            44.3739324932419
                        ],
                        [
                            1.449396329330163,
                            44.37437148646983
                        ],
                        [
                            1.449823334449565,
                            44.374635487389426
                        ],
                        [
                            1.449443333874671,
                            44.37478748760156
                        ],
                        [
                            1.449358331980084,
                            44.375037483969884
                        ],
                        [
                            1.449246336044305,
                            44.37531748648647
                        ],
                        [
                            1.449189336755213,
                            44.37553948238799
                        ],
                        [
                            1.449349337704657,
                            44.375666478426176
                        ],
                        [
                            1.448764344780109,
                            44.37599048053941
                        ],
                        [
                            1.448465348130035,
                            44.37613347407547
                        ],
                        [
                            1.448247350832749,
                            44.37634447422355
                        ],
                        [
                            1.448095351473489,
                            44.37658447253686
                        ],
                        [
                            1.448023354880164,
                            44.37686446901991
                        ],
                        [
                            1.448151359169152,
                            44.37729046807513
                        ],
                        [
                            1.448294357062863,
                            44.377688464411634
                        ],
                        [
                            1.449075358320506,
                            44.377732466119674
                        ],
                        [
                            1.449642354233638,
                            44.37770847277721
                        ],
                        [
                            1.450142344694682,
                            44.3776544710938
                        ],
                        [
                            1.450599345385917,
                            44.3777254721349
                        ],
                        [
                            1.450846346047199,
                            44.37838447162879
                        ],
                        [
                            1.450367356597351,
                            44.37881546391117
                        ],
                        [
                            1.449967363506414,
                            44.3794024630605
                        ],
                        [
                            1.449920360488755,
                            44.379839456123335
                        ],
                        [
                            1.449999363322124,
                            44.37995645500122
                        ],
                        [
                            1.449565376871763,
                            44.38008745491406
                        ],
                        [
                            1.448777378111176,
                            44.38051644657922
                        ]
                    ]
                ]
            }
        }
    ]
}