{
  "type": "FeatureCollection",
  "features": [
    {
      "type": "Feature",
      "properties": {
        "name": "GraphHopper Track",
        "source": "St-Martin_des_Faux.gpx",
        "type": "track"
      },
      "geometry": {
        "type": "LineString",
        "coordinates": [
          [
            2.895277,
            44.155451,
            1031.35
          ],
          [
            2.895277,
            44.155451,
            1031.35
          ],
          [
            2.89512,
            44.155819,
            1034.01
          ],
          [
            2.894855,
            44.156285,
            1038.57
          ],
          [
            2.894672,
            44.156693,
            1043.0
          ],
          [
            2.894423,
            44.156911,
            1045.95
          ],
          [
            2.894317,
            44.157039,
            1047.31
          ],
          [
            2.894955,
            44.15718,
            1042.82
          ],
          [
            2.895202,
            44.157281,
            1041.1
          ],
          [
            2.895426,
            44.15741,
            1039.61
          ],
          [
            2.895587,
            44.157601,
            1038.27
          ],
          [
            2.895903,
            44.15822,
            1036.39
          ],
          [
            2.896072,
            44.158464,
            1035.81
          ],
          [
            2.89618,
            44.158538,
            1035.46
          ],
          [
            2.896343,
            44.158586,
            1034.97
          ],
          [
            2.896631,
            44.158618,
            1034.09
          ],
          [
            2.897169,
            44.158549,
            1032.53
          ],
          [
            2.897361,
            44.158547,
            1032.07
          ],
          [
            2.897967,
            44.158628,
            1030.56
          ],
          [
            2.898187,
            44.15862,
            1029.98
          ],
          [
            2.898324,
            44.158582,
            1029.56
          ],
          [
            2.898464,
            44.158518,
            1029.0
          ],
          [
            2.898958,
            44.158198,
            1026.13
          ],
          [
            2.899158,
            44.158091,
            1024.92
          ],
          [
            2.900944,
            44.157457,
            1017.49
          ],
          [
            2.901486,
            44.157282,
            1014.16
          ],
          [
            2.901856,
            44.157197,
            1011.59
          ],
          [
            2.90211,
            44.157173,
            1009.78
          ],
          [
            2.90235,
            44.157165,
            1007.99
          ],
          [
            2.902664,
            44.157182,
            1005.62
          ],
          [
            2.902997,
            44.157241,
            1003.26
          ],
          [
            2.903249,
            44.15732,
            1001.65
          ],
          [
            2.903493,
            44.157426,
            1000.35
          ],
          [
            2.904005,
            44.157718,
            999.12
          ],
          [
            2.904269,
            44.157843,
            999.12
          ],
          [
            2.904535,
            44.1579,
            999.14
          ],
          [
            2.904767,
            44.157888,
            999.12
          ],
          [
            2.905005,
            44.157801,
            999.03
          ],
          [
            2.906165,
            44.157255,
            996.73
          ],
          [
            2.907153,
            44.156775,
            994.82
          ],
          [
            2.907417,
            44.156617,
            993.97
          ],
          [
            2.907533,
            44.156642,
            994.38
          ],
          [
            2.907627,
            44.156636,
            994.47
          ],
          [
            2.908054,
            44.156483,
            994.83
          ],
          [
            2.908834,
            44.156233,
            995.6
          ],
          [
            2.909593,
            44.156048,
            995.41
          ],
          [
            2.910124,
            44.155987,
            994.16
          ],
          [
            2.910967,
            44.155915,
            990.51
          ],
          [
            2.911212,
            44.155911,
            989.08
          ],
          [
            2.911476,
            44.155949,
            987.24
          ],
          [
            2.912713,
            44.156208,
            979.57
          ],
          [
            2.913351,
            44.156425,
            975.2
          ],
          [
            2.914899,
            44.156769,
            963.97
          ],
          [
            2.915229,
            44.156793,
            961.45
          ],
          [
            2.915455,
            44.156879,
            959.33
          ],
          [
            2.915657,
            44.15692,
            957.51
          ],
          [
            2.915752,
            44.15698,
            956.34
          ],
          [
            2.916049,
            44.156989,
            953.47
          ],
          [
            2.916159,
            44.156969,
            952.35
          ],
          [
            2.916348,
            44.15698,
            950.41
          ],
          [
            2.916594,
            44.156942,
            947.66
          ],
          [
            2.917113,
            44.156907,
            940.87
          ],
          [
            2.917391,
            44.156908,
            937.03
          ],
          [
            2.917531,
            44.156844,
            934.79
          ],
          [
            2.91776,
            44.15679,
            931.78
          ],
          [
            2.918107,
            44.156826,
            928.24
          ],
          [
            2.918455,
            44.156897,
            924.9
          ],
          [
            2.918593,
            44.156984,
            923.36
          ],
          [
            2.918687,
            44.157077,
            922.07
          ],
          [
            2.918866,
            44.1571,
            921.03
          ],
          [
            2.919118,
            44.157036,
            919.84
          ],
          [
            2.919296,
            44.156963,
            917.56
          ],
          [
            2.919523,
            44.15685,
            913.73
          ],
          [
            2.919705,
            44.156731,
            910.21
          ],
          [
            2.919767,
            44.156702,
            909.57
          ],
          [
            2.919964,
            44.156724,
            907.38
          ],
          [
            2.920035,
            44.156714,
            906.48
          ],
          [
            2.920075,
            44.15669,
            905.79
          ],
          [
            2.920075,
            44.156664,
            905.31
          ],
          [
            2.919847,
            44.156387,
            899.71
          ],
          [
            2.919822,
            44.156338,
            898.63
          ],
          [
            2.919812,
            44.156295,
            897.7
          ],
          [
            2.919843,
            44.156187,
            895.52
          ],
          [
            2.921073,
            44.156451,
            891.27
          ],
          [
            2.921493,
            44.156945,
            895.53
          ],
          [
            2.921943,
            44.157519,
            900.64
          ],
          [
            2.922557,
            44.157966,
            904.57
          ],
          [
            2.922705,
            44.15811,
            905.35
          ],
          [
            2.922796,
            44.158319,
            906.34
          ],
          [
            2.922766,
            44.158623,
            908.08
          ],
          [
            2.92268,
            44.158941,
            910.28
          ],
          [
            2.922566,
            44.159198,
            912.67
          ],
          [
            2.922442,
            44.159386,
            914.78
          ],
          [
            2.921929,
            44.159859,
            920.2
          ],
          [
            2.921658,
            44.160196,
            921.83
          ],
          [
            2.921379,
            44.160306,
            924.94
          ],
          [
            2.920471,
            44.160639,
            934.93
          ],
          [
            2.919801,
            44.160841,
            941.98
          ],
          [
            2.919112,
            44.160998,
            948.78
          ],
          [
            2.918353,
            44.161118,
            954.83
          ],
          [
            2.917118,
            44.161441,
            959.97
          ],
          [
            2.916495,
            44.161524,
            961.07
          ],
          [
            2.915999,
            44.161563,
            961.98
          ],
          [
            2.91558,
            44.161555,
            962.98
          ],
          [
            2.915487,
            44.16154,
            963.29
          ]
        ]
      }
    },
    {
      "type": "Feature",
      "properties": {
        "source": "St-Martin_des_Faux.gpx",
        "type": "route"
      },
      "geometry": {
        "type": "LineString",
        "coordinates": [
          [
            2.895277,
            44.155451
          ],
          [
            2.895277,
            44.155451
          ],
          [
            2.894317,
            44.157039
          ],
          [
            2.907417,
            44.156617
          ],
          [
            2.919843,
            44.156187
          ],
          [
            2.921073,
            44.156451
          ],
          [
            2.921658,
            44.160196
          ],
          [
            2.915487,
            44.16154
          ]
        ]
      }
    }
  ]
}