{
  "type": "FeatureCollection",
  "features": [
    {
      "type": "Feature",
      "properties": {
        "name": "GraphHopper Track",
        "source": "Forêt_de_Barèges.gpx",
        "type": "track"
      },
      "geometry": {
        "type": "LineString",
        "coordinates": [
          [
            0.065324,
            42.897269,
            1221.93
          ],
          [
            0.065412,
            42.897309,
            1222.93
          ],
          [
            0.065454,
            42.897314,
            1223.33
          ],
          [
            0.0655,
            42.897306,
            1223.71
          ],
          [
            0.065537,
            42.897281,
            1224.0
          ],
          [
            0.065669,
            42.897159,
            1223.23
          ],
          [
            0.065733,
            42.897136,
            1223.35
          ],
          [
            0.065802,
            42.897137,
            1224.15
          ],
          [
            0.065874,
            42.89715,
            1224.99
          ],
          [
            0.065963,
            42.89701,
            1228.32
          ],
          [
            0.06602,
            42.896952,
            1229.79
          ],
          [
            0.066046,
            42.896944,
            1230.09
          ],
          [
            0.066074,
            42.896947,
            1230.35
          ],
          [
            0.066528,
            42.897099,
            1234.0
          ],
          [
            0.066547,
            42.897079,
            1235.01
          ],
          [
            0.06655,
            42.897062,
            1235.33
          ],
          [
            0.066291,
            42.896937,
            1236.17
          ],
          [
            0.066315,
            42.89691,
            1237.43
          ],
          [
            0.06624,
            42.896835,
            1238.55
          ],
          [
            0.066116,
            42.896759,
            1239.77
          ],
          [
            0.066042,
            42.896724,
            1240.93
          ],
          [
            0.066025,
            42.896706,
            1241.21
          ],
          [
            0.066026,
            42.89669,
            1241.39
          ],
          [
            0.06604,
            42.896681,
            1241.53
          ],
          [
            0.066062,
            42.896683,
            1241.71
          ],
          [
            0.066338,
            42.896711,
            1246.14
          ],
          [
            0.066377,
            42.8967,
            1247.45
          ],
          [
            0.06639,
            42.896644,
            1249.82
          ],
          [
            0.066375,
            42.896624,
            1250.0
          ],
          [
            0.06623,
            42.896576,
            1249.0
          ],
          [
            0.066068,
            42.896537,
            1249.55
          ],
          [
            0.065982,
            42.896505,
            1250.95
          ],
          [
            0.065929,
            42.896441,
            1252.7
          ],
          [
            0.065871,
            42.896146,
            1256.52
          ],
          [
            0.065778,
            42.895981,
            1258.57
          ],
          [
            0.065732,
            42.895954,
            1259.16
          ],
          [
            0.06564,
            42.895942,
            1260.22
          ],
          [
            0.065457,
            42.895961,
            1262.68
          ],
          [
            0.065104,
            42.895772,
            1264.91
          ],
          [
            0.064855,
            42.895662,
            1267.84
          ],
          [
            0.064521,
            42.895443,
            1275.34
          ],
          [
            0.064384,
            42.895198,
            1283.19
          ],
          [
            0.064263,
            42.895085,
            1286.3
          ],
          [
            0.064158,
            42.89497,
            1290.38
          ],
          [
            0.063998,
            42.894874,
            1293.93
          ],
          [
            0.0637,
            42.894663,
            1294.34
          ],
          [
            0.063578,
            42.894489,
            1292.85
          ],
          [
            0.063585,
            42.894083,
            1294.64
          ],
          [
            0.063473,
            42.893769,
            1296.63
          ],
          [
            0.063403,
            42.893711,
            1297.1
          ],
          [
            0.063271,
            42.893677,
            1297.64
          ],
          [
            0.062799,
            42.893675,
            1298.31
          ],
          [
            0.062365,
            42.8937,
            1301.57
          ],
          [
            0.06209,
            42.893762,
            1303.66
          ],
          [
            0.062079,
            42.893633,
            1304.34
          ],
          [
            0.062023,
            42.893491,
            1305.14
          ],
          [
            0.061933,
            42.893359,
            1306.67
          ],
          [
            0.061731,
            42.893271,
            1309.64
          ],
          [
            0.061564,
            42.893231,
            1312.4
          ],
          [
            0.061463,
            42.893185,
            1313.81
          ],
          [
            0.061428,
            42.893119,
            1314.56
          ],
          [
            0.061387,
            42.892821,
            1314.99
          ],
          [
            0.061348,
            42.892733,
            1315.19
          ],
          [
            0.061229,
            42.892685,
            1315.83
          ],
          [
            0.061111,
            42.89265,
            1316.94
          ],
          [
            0.06096,
            42.892685,
            1318.78
          ],
          [
            0.060846,
            42.892696,
            1320.2
          ],
          [
            0.060751,
            42.892631,
            1321.61
          ],
          [
            0.060685,
            42.89251,
            1322.82
          ],
          [
            0.060682,
            42.892341,
            1323.35
          ],
          [
            0.06084,
            42.892123,
            1323.72
          ],
          [
            0.060804,
            42.892065,
            1323.97
          ],
          [
            0.060804,
            42.892065,
            1323.97
          ],
          [
            0.06084,
            42.892123,
            1323.72
          ],
          [
            0.060682,
            42.892341,
            1323.35
          ],
          [
            0.060685,
            42.89251,
            1322.82
          ],
          [
            0.060751,
            42.892631,
            1321.61
          ],
          [
            0.060846,
            42.892696,
            1320.2
          ],
          [
            0.06096,
            42.892685,
            1318.78
          ],
          [
            0.061111,
            42.89265,
            1316.94
          ],
          [
            0.061229,
            42.892685,
            1315.83
          ],
          [
            0.061348,
            42.892733,
            1315.19
          ],
          [
            0.061387,
            42.892821,
            1314.99
          ],
          [
            0.061428,
            42.893119,
            1314.56
          ],
          [
            0.061463,
            42.893185,
            1313.81
          ],
          [
            0.061564,
            42.893231,
            1312.4
          ],
          [
            0.061731,
            42.893271,
            1309.64
          ],
          [
            0.061933,
            42.893359,
            1306.67
          ],
          [
            0.062023,
            42.893491,
            1305.14
          ],
          [
            0.062079,
            42.893633,
            1304.34
          ],
          [
            0.06209,
            42.893762,
            1303.66
          ],
          [
            0.062365,
            42.8937,
            1301.57
          ],
          [
            0.062799,
            42.893675,
            1298.31
          ],
          [
            0.063271,
            42.893677,
            1297.64
          ],
          [
            0.063403,
            42.893711,
            1297.1
          ],
          [
            0.063473,
            42.893769,
            1296.63
          ],
          [
            0.063585,
            42.894083,
            1294.64
          ],
          [
            0.063578,
            42.894489,
            1292.85
          ],
          [
            0.0637,
            42.894663,
            1294.34
          ],
          [
            0.063747,
            42.894608,
            1297.02
          ],
          [
            0.063663,
            42.894462,
            1299.17
          ],
          [
            0.063686,
            42.89445,
            1299.6
          ],
          [
            0.063831,
            42.894501,
            1302.33
          ],
          [
            0.063841,
            42.894488,
            1302.71
          ],
          [
            0.0638,
            42.894428,
            1304.47
          ],
          [
            0.063822,
            42.894421,
            1304.94
          ],
          [
            0.063881,
            42.894446,
            1306.33
          ],
          [
            0.064,
            42.894547,
            1309.75
          ],
          [
            0.064179,
            42.894557,
            1312.03
          ],
          [
            0.064502,
            42.894597,
            1314.97
          ],
          [
            0.064791,
            42.894692,
            1315.94
          ],
          [
            0.064941,
            42.894907,
            1317.19
          ],
          [
            0.065092,
            42.895079,
            1318.67
          ],
          [
            0.065268,
            42.895142,
            1319.58
          ],
          [
            0.06536,
            42.895142,
            1319.9
          ],
          [
            0.065417,
            42.895113,
            1320.2
          ],
          [
            0.065329,
            42.894961,
            1322.26
          ],
          [
            0.065239,
            42.894866,
            1324.69
          ],
          [
            0.065218,
            42.894799,
            1326.46
          ],
          [
            0.06527,
            42.894776,
            1327.72
          ],
          [
            0.065448,
            42.89482,
            1332.05
          ],
          [
            0.065563,
            42.894838,
            1335.18
          ],
          [
            0.065581,
            42.89481,
            1336.34
          ],
          [
            0.065511,
            42.89461,
            1343.59
          ],
          [
            0.065521,
            42.894539,
            1345.93
          ],
          [
            0.065609,
            42.894495,
            1348.3
          ],
          [
            0.06571,
            42.894492,
            1350.4
          ],
          [
            0.06578,
            42.89448,
            1351.87
          ],
          [
            0.065814,
            42.894388,
            1354.55
          ],
          [
            0.065762,
            42.894304,
            1357.07
          ],
          [
            0.065144,
            42.893766,
            1373.71
          ],
          [
            0.065162,
            42.893743,
            1374.28
          ],
          [
            0.065218,
            42.893742,
            1375.19
          ],
          [
            0.065268,
            42.893732,
            1376.0
          ],
          [
            0.065347,
            42.893749,
            1377.27
          ],
          [
            0.065472,
            42.89381,
            1379.73
          ],
          [
            0.065584,
            42.893833,
            1381.77
          ],
          [
            0.065611,
            42.89382,
            1382.36
          ],
          [
            0.065619,
            42.893787,
            1383.24
          ],
          [
            0.065563,
            42.893738,
            1384.93
          ],
          [
            0.065525,
            42.893651,
            1387.43
          ],
          [
            0.065581,
            42.893625,
            1388.87
          ],
          [
            0.065699,
            42.893666,
            1391.88
          ],
          [
            0.065783,
            42.893718,
            1394.29
          ],
          [
            0.065856,
            42.893718,
            1395.78
          ],
          [
            0.065822,
            42.893641,
            1398.02
          ],
          [
            0.065752,
            42.893551,
            1400.93
          ],
          [
            0.065776,
            42.893528,
            1401.75
          ],
          [
            0.065856,
            42.893551,
            1403.49
          ],
          [
            0.065954,
            42.8936,
            1405.94
          ],
          [
            0.065984,
            42.893576,
            1406.86
          ],
          [
            0.065874,
            42.893451,
            1410.75
          ],
          [
            0.065916,
            42.893429,
            1411.71
          ],
          [
            0.065998,
            42.893477,
            1413.77
          ],
          [
            0.066035,
            42.89347,
            1414.5
          ],
          [
            0.065912,
            42.893193,
            1421.49
          ],
          [
            0.065832,
            42.89306,
            1425.07
          ],
          [
            0.065731,
            42.892782,
            1431.85
          ],
          [
            0.065724,
            42.892655,
            1434.74
          ],
          [
            0.065867,
            42.892748,
            1438.05
          ],
          [
            0.065961,
            42.892756,
            1439.72
          ],
          [
            0.065968,
            42.892636,
            1442.53
          ],
          [
            0.06594,
            42.892465,
            1446.82
          ],
          [
            0.06623,
            42.892572,
            1453.12
          ],
          [
            0.066289,
            42.892544,
            1454.56
          ],
          [
            0.066286,
            42.892462,
            1456.7
          ],
          [
            0.066265,
            42.892375,
            1458.8
          ],
          [
            0.066345,
            42.892383,
            1460.1
          ],
          [
            0.066453,
            42.892439,
            1462.34
          ],
          [
            0.066461,
            42.8923,
            1465.96
          ],
          [
            0.06667,
            42.892365,
            1470.0
          ],
          [
            0.066527,
            42.892132,
            1475.99
          ],
          [
            0.066541,
            42.892101,
            1476.74
          ],
          [
            0.066729,
            42.892165,
            1480.02
          ],
          [
            0.067239,
            42.892365,
            1488.76
          ],
          [
            0.067254,
            42.892348,
            1489.23
          ],
          [
            0.067052,
            42.8921,
            1495.9
          ],
          [
            0.067043,
            42.892024,
            1497.47
          ],
          [
            0.067162,
            42.892042,
            1499.34
          ],
          [
            0.06727,
            42.892068,
            1501.14
          ],
          [
            0.067218,
            42.891922,
            1504.34
          ],
          [
            0.067295,
            42.89194,
            1505.62
          ],
          [
            0.067452,
            42.892037,
            1509.24
          ],
          [
            0.067519,
            42.892061,
            1510.39
          ],
          [
            0.067423,
            42.891774,
            1517.97
          ],
          [
            0.067437,
            42.891723,
            1520.19
          ],
          [
            0.067377,
            42.891636,
            1521.89
          ],
          [
            0.067364,
            42.891591,
            1523.42
          ],
          [
            0.067416,
            42.891474,
            1528.45
          ],
          [
            0.068328,
            42.891869,
            1531.02
          ],
          [
            0.068682,
            42.892051,
            1531.56
          ],
          [
            0.068858,
            42.892131,
            1531.87
          ],
          [
            0.069,
            42.892171,
            1532.14
          ],
          [
            0.069092,
            42.89219,
            1532.32
          ],
          [
            0.069526,
            42.892233,
            1533.1
          ],
          [
            0.069928,
            42.892279,
            1533.96
          ],
          [
            0.070057,
            42.8923,
            1534.37
          ],
          [
            0.070216,
            42.892356,
            1534.95
          ],
          [
            0.070348,
            42.892417,
            1535.53
          ],
          [
            0.070476,
            42.892451,
            1536.08
          ],
          [
            0.070611,
            42.892471,
            1536.59
          ],
          [
            0.071266,
            42.892456,
            1540.14
          ],
          [
            0.071499,
            42.892456,
            1542.23
          ],
          [
            0.071337,
            42.892377,
            1544.38
          ],
          [
            0.07055,
            42.892087,
            1552.17
          ],
          [
            0.069841,
            42.891796,
            1557.84
          ],
          [
            0.069393,
            42.89166,
            1561.83
          ],
          [
            0.069006,
            42.891425,
            1566.12
          ],
          [
            0.068712,
            42.891089,
            1570.9
          ],
          [
            0.068396,
            42.890933,
            1575.03
          ],
          [
            0.068339,
            42.890823,
            1576.43
          ],
          [
            0.068381,
            42.890789,
            1576.78
          ],
          [
            0.068497,
            42.890784,
            1577.34
          ]
        ]
      }
    },
    {
      "type": "Feature",
      "properties": {
        "source": "Forêt_de_Barèges.gpx",
        "type": "route"
      },
      "geometry": {
        "type": "LineString",
        "coordinates": [
          [
            0.065324,
            42.897269
          ],
          [
            0.065733,
            42.897136
          ],
          [
            0.065874,
            42.89715
          ],
          [
            0.066528,
            42.897099
          ],
          [
            0.066291,
            42.896937
          ],
          [
            0.066377,
            42.8967
          ],
          [
            0.064855,
            42.895662
          ],
          [
            0.060804,
            42.892065
          ],
          [
            0.060804,
            42.892065
          ],
          [
            0.0637,
            42.894663
          ],
          [
            0.067437,
            42.891723
          ],
          [
            0.067416,
            42.891474
          ],
          [
            0.071499,
            42.892456
          ],
          [
            0.068497,
            42.890784
          ]
        ]
      }
    }
  ]
}