{
  "type": "FeatureCollection",
  "features": [
    {
      "type": "Feature",
      "properties": {
        "name": "GraphHopper Track",
        "source": "Boucle_de_Lassouts.gpx",
        "type": "track"
      },
      "geometry": {
        "type": "LineString",
        "coordinates": [
          [
            2.863488,
            44.484507,
            652.03
          ],
          [
            2.863402,
            44.484427,
            652.06
          ],
          [
            2.863307,
            44.484316,
            652.33
          ],
          [
            2.863274,
            44.484427,
            651.78
          ],
          [
            2.863342,
            44.484579,
            650.87
          ],
          [
            2.863698,
            44.484873,
            649.9
          ],
          [
            2.86386,
            44.485033,
            649.33
          ],
          [
            2.863925,
            44.48515,
            649.08
          ],
          [
            2.863922,
            44.48534,
            648.67
          ],
          [
            2.863739,
            44.485652,
            647.82
          ],
          [
            2.863551,
            44.485931,
            646.78
          ],
          [
            2.863177,
            44.486598,
            647.0
          ],
          [
            2.862836,
            44.487099,
            650.06
          ],
          [
            2.862654,
            44.487429,
            650.97
          ],
          [
            2.862625,
            44.487511,
            650.11
          ],
          [
            2.862599,
            44.487539,
            649.81
          ],
          [
            2.862551,
            44.487557,
            649.87
          ],
          [
            2.861798,
            44.487697,
            651.63
          ],
          [
            2.86152,
            44.487738,
            652.92
          ],
          [
            2.861213,
            44.487753,
            654.13
          ],
          [
            2.861098,
            44.487803,
            653.77
          ],
          [
            2.860972,
            44.487837,
            653.52
          ],
          [
            2.860396,
            44.488176,
            648.58
          ],
          [
            2.860087,
            44.488452,
            644.32
          ],
          [
            2.859924,
            44.48858,
            642.56
          ],
          [
            2.859746,
            44.488668,
            640.98
          ],
          [
            2.859602,
            44.488728,
            639.83
          ],
          [
            2.859449,
            44.488772,
            638.82
          ],
          [
            2.859302,
            44.488852,
            638.07
          ],
          [
            2.859162,
            44.488969,
            637.48
          ],
          [
            2.859031,
            44.489093,
            637.01
          ],
          [
            2.858859,
            44.489171,
            636.89
          ],
          [
            2.858639,
            44.489334,
            637.11
          ],
          [
            2.858622,
            44.489395,
            637.16
          ],
          [
            2.858652,
            44.489484,
            637.15
          ],
          [
            2.858623,
            44.489663,
            636.79
          ],
          [
            2.85863,
            44.489845,
            635.99
          ],
          [
            2.858666,
            44.489947,
            635.36
          ],
          [
            2.858669,
            44.490018,
            634.88
          ],
          [
            2.858631,
            44.490102,
            634.32
          ],
          [
            2.85815,
            44.490554,
            631.52
          ],
          [
            2.858032,
            44.490702,
            630.86
          ],
          [
            2.857937,
            44.490853,
            631.43
          ],
          [
            2.857898,
            44.490992,
            632.29
          ],
          [
            2.857922,
            44.491076,
            631.74
          ],
          [
            2.857867,
            44.491394,
            633.68
          ],
          [
            2.857839,
            44.492023,
            633.58
          ],
          [
            2.857816,
            44.492107,
            633.2
          ],
          [
            2.857766,
            44.492181,
            632.75
          ],
          [
            2.856518,
            44.493347,
            620.48
          ],
          [
            2.854771,
            44.494913,
            615.34
          ],
          [
            2.854032,
            44.495226,
            614.22
          ],
          [
            2.853805,
            44.495362,
            613.59
          ],
          [
            2.853674,
            44.495475,
            613.0
          ],
          [
            2.853426,
            44.49592,
            611.11
          ],
          [
            2.852954,
            44.49652,
            610.08
          ],
          [
            2.852638,
            44.497026,
            611.07
          ],
          [
            2.852509,
            44.497205,
            611.32
          ],
          [
            2.85225,
            44.49745,
            610.98
          ],
          [
            2.852129,
            44.497629,
            610.14
          ],
          [
            2.852043,
            44.497839,
            608.68
          ],
          [
            2.851871,
            44.497987,
            607.03
          ],
          [
            2.851671,
            44.498067,
            605.55
          ],
          [
            2.851408,
            44.498136,
            603.74
          ],
          [
            2.850761,
            44.498172,
            599.68
          ],
          [
            2.850591,
            44.498222,
            599.01
          ],
          [
            2.850355,
            44.498351,
            599.19
          ],
          [
            2.850089,
            44.49854,
            599.05
          ],
          [
            2.849961,
            44.498671,
            599.3
          ],
          [
            2.849685,
            44.499008,
            599.82
          ],
          [
            2.849258,
            44.49944,
            601.27
          ],
          [
            2.849071,
            44.499833,
            603.01
          ],
          [
            2.848875,
            44.499984,
            603.57
          ],
          [
            2.848657,
            44.500122,
            603.21
          ],
          [
            2.848411,
            44.500199,
            602.2
          ],
          [
            2.847993,
            44.500289,
            600.33
          ],
          [
            2.84721,
            44.500553,
            594.93
          ],
          [
            2.84701,
            44.500648,
            593.02
          ],
          [
            2.846928,
            44.500754,
            592.51
          ],
          [
            2.846761,
            44.501016,
            589.68
          ],
          [
            2.846797,
            44.501129,
            588.09
          ],
          [
            2.846915,
            44.501279,
            586.32
          ],
          [
            2.847003,
            44.501494,
            584.34
          ],
          [
            2.847019,
            44.501699,
            582.77
          ],
          [
            2.847116,
            44.501923,
            581.54
          ],
          [
            2.847136,
            44.502091,
            580.77
          ],
          [
            2.847105,
            44.502181,
            580.28
          ],
          [
            2.84702,
            44.502295,
            579.5
          ],
          [
            2.846952,
            44.502454,
            578.32
          ],
          [
            2.847019,
            44.502567,
            577.29
          ],
          [
            2.847027,
            44.502643,
            576.58
          ],
          [
            2.846979,
            44.502746,
            575.43
          ],
          [
            2.846749,
            44.502962,
            571.83
          ],
          [
            2.846242,
            44.503359,
            562.83
          ],
          [
            2.846073,
            44.503452,
            560.32
          ],
          [
            2.846048,
            44.503656,
            557.0
          ],
          [
            2.845979,
            44.503954,
            552.34
          ],
          [
            2.846007,
            44.504126,
            549.83
          ],
          [
            2.846025,
            44.504365,
            546.57
          ],
          [
            2.845997,
            44.504645,
            542.87
          ],
          [
            2.845963,
            44.504815,
            540.6
          ],
          [
            2.845863,
            44.505019,
            537.58
          ],
          [
            2.845847,
            44.505182,
            535.17
          ],
          [
            2.845893,
            44.505399,
            531.78
          ],
          [
            2.84581,
            44.505574,
            528.71
          ],
          [
            2.84581,
            44.505574,
            528.71
          ],
          [
            2.845893,
            44.505399,
            531.78
          ],
          [
            2.845847,
            44.505182,
            535.17
          ],
          [
            2.845863,
            44.505019,
            537.58
          ],
          [
            2.845963,
            44.504815,
            540.6
          ],
          [
            2.845997,
            44.504645,
            542.87
          ],
          [
            2.846025,
            44.504365,
            546.57
          ],
          [
            2.846007,
            44.504126,
            549.83
          ],
          [
            2.845979,
            44.503954,
            552.34
          ],
          [
            2.846048,
            44.503656,
            557.0
          ],
          [
            2.846073,
            44.503452,
            560.32
          ],
          [
            2.846242,
            44.503359,
            562.83
          ],
          [
            2.846749,
            44.502962,
            571.83
          ],
          [
            2.846979,
            44.502746,
            575.43
          ],
          [
            2.847027,
            44.502643,
            576.58
          ],
          [
            2.847019,
            44.502567,
            577.29
          ],
          [
            2.846952,
            44.502454,
            578.32
          ],
          [
            2.84702,
            44.502295,
            579.5
          ],
          [
            2.847105,
            44.502181,
            580.28
          ],
          [
            2.847136,
            44.502091,
            580.77
          ],
          [
            2.847116,
            44.501923,
            581.54
          ],
          [
            2.847019,
            44.501699,
            582.77
          ],
          [
            2.847003,
            44.501494,
            584.34
          ],
          [
            2.846915,
            44.501279,
            586.32
          ],
          [
            2.846797,
            44.501129,
            588.09
          ],
          [
            2.846761,
            44.501016,
            589.68
          ],
          [
            2.846928,
            44.500754,
            592.51
          ],
          [
            2.84701,
            44.500648,
            593.02
          ],
          [
            2.84721,
            44.500553,
            594.93
          ],
          [
            2.847993,
            44.500289,
            600.33
          ],
          [
            2.848411,
            44.500199,
            602.2
          ],
          [
            2.848657,
            44.500122,
            603.21
          ],
          [
            2.848875,
            44.499984,
            603.57
          ],
          [
            2.849071,
            44.499833,
            603.01
          ],
          [
            2.849258,
            44.49944,
            601.27
          ],
          [
            2.849685,
            44.499008,
            599.82
          ],
          [
            2.849961,
            44.498671,
            599.3
          ],
          [
            2.850089,
            44.49854,
            599.05
          ],
          [
            2.850355,
            44.498351,
            599.19
          ],
          [
            2.850591,
            44.498222,
            599.01
          ],
          [
            2.850761,
            44.498172,
            599.68
          ],
          [
            2.851408,
            44.498136,
            603.74
          ],
          [
            2.851671,
            44.498067,
            605.55
          ],
          [
            2.851871,
            44.497987,
            607.03
          ],
          [
            2.852043,
            44.497839,
            608.68
          ],
          [
            2.852129,
            44.497629,
            610.14
          ],
          [
            2.85225,
            44.49745,
            610.98
          ],
          [
            2.852509,
            44.497205,
            611.32
          ],
          [
            2.852638,
            44.497026,
            611.07
          ],
          [
            2.852954,
            44.49652,
            610.08
          ],
          [
            2.853426,
            44.49592,
            611.11
          ],
          [
            2.853674,
            44.495475,
            613.0
          ],
          [
            2.853805,
            44.495362,
            613.59
          ],
          [
            2.854032,
            44.495226,
            614.22
          ],
          [
            2.854771,
            44.494913,
            615.34
          ],
          [
            2.856518,
            44.493347,
            620.48
          ],
          [
            2.857766,
            44.492181,
            632.75
          ],
          [
            2.857816,
            44.492107,
            633.2
          ],
          [
            2.857839,
            44.492023,
            633.58
          ],
          [
            2.857867,
            44.491394,
            633.68
          ],
          [
            2.857922,
            44.491076,
            631.74
          ],
          [
            2.857898,
            44.490992,
            632.29
          ],
          [
            2.857937,
            44.490853,
            631.43
          ],
          [
            2.858032,
            44.490702,
            630.86
          ],
          [
            2.85815,
            44.490554,
            631.52
          ],
          [
            2.858631,
            44.490102,
            634.32
          ],
          [
            2.858669,
            44.490018,
            634.88
          ],
          [
            2.858666,
            44.489947,
            635.36
          ],
          [
            2.85863,
            44.489845,
            635.99
          ],
          [
            2.858623,
            44.489663,
            636.79
          ],
          [
            2.858652,
            44.489484,
            637.15
          ],
          [
            2.858622,
            44.489395,
            637.16
          ],
          [
            2.858639,
            44.489334,
            637.11
          ],
          [
            2.858859,
            44.489171,
            636.89
          ],
          [
            2.859031,
            44.489093,
            637.01
          ],
          [
            2.859162,
            44.488969,
            637.48
          ],
          [
            2.859302,
            44.488852,
            638.07
          ],
          [
            2.859449,
            44.488772,
            638.82
          ],
          [
            2.859602,
            44.488728,
            639.83
          ],
          [
            2.859746,
            44.488668,
            640.98
          ],
          [
            2.859924,
            44.48858,
            642.56
          ],
          [
            2.860087,
            44.488452,
            644.32
          ],
          [
            2.860396,
            44.488176,
            648.58
          ],
          [
            2.860972,
            44.487837,
            653.52
          ],
          [
            2.861098,
            44.487803,
            653.77
          ],
          [
            2.861213,
            44.487753,
            654.13
          ],
          [
            2.86152,
            44.487738,
            652.92
          ],
          [
            2.861798,
            44.487697,
            651.63
          ],
          [
            2.862551,
            44.487557,
            649.87
          ],
          [
            2.862599,
            44.487539,
            649.81
          ],
          [
            2.862625,
            44.487511,
            650.11
          ],
          [
            2.862654,
            44.487429,
            650.97
          ],
          [
            2.862836,
            44.487099,
            650.06
          ],
          [
            2.863177,
            44.486598,
            647.0
          ],
          [
            2.863551,
            44.485931,
            646.78
          ],
          [
            2.863739,
            44.485652,
            647.82
          ],
          [
            2.863922,
            44.48534,
            648.67
          ],
          [
            2.863925,
            44.48515,
            649.08
          ],
          [
            2.86386,
            44.485033,
            649.33
          ],
          [
            2.863698,
            44.484873,
            649.9
          ],
          [
            2.863342,
            44.484579,
            650.87
          ],
          [
            2.863274,
            44.484427,
            651.78
          ],
          [
            2.863307,
            44.484316,
            652.33
          ],
          [
            2.863402,
            44.484427,
            652.06
          ],
          [
            2.863488,
            44.484507,
            652.03
          ]
        ]
      }
    },
    {
      "type": "Feature",
      "properties": {
        "source": "Boucle_de_Lassouts.gpx",
        "type": "route"
      },
      "geometry": {
        "type": "LineString",
        "coordinates": [
          [
            2.863488,
            44.484507
          ],
          [
            2.863307,
            44.484316
          ],
          [
            2.863739,
            44.485652
          ],
          [
            2.862551,
            44.487557
          ],
          [
            2.861213,
            44.487753
          ],
          [
            2.860972,
            44.487837
          ],
          [
            2.857922,
            44.491076
          ],
          [
            2.84701,
            44.500648
          ],
          [
            2.84581,
            44.505574
          ],
          [
            2.84581,
            44.505574
          ],
          [
            2.84701,
            44.500648
          ],
          [
            2.857922,
            44.491076
          ],
          [
            2.861213,
            44.487753
          ],
          [
            2.863739,
            44.485652
          ],
          [
            2.863307,
            44.484316
          ],
          [
            2.863488,
            44.484507
          ]
        ]
      }
    }
  ]
}