{
  "type": "FeatureCollection",
  "features": [
    {
      "type": "Feature",
      "properties": {
        "name": "GraphHopper Track",
        "source": "Crêtes_Aubrac.gpx",
        "type": "track"
      },
      "geometry": {
        "type": "LineString",
        "coordinates": [
          [
            2.979786,
            44.539474,
            960.16
          ],
          [
            2.979792,
            44.539513,
            960.19
          ],
          [
            2.979893,
            44.53965,
            960.74
          ],
          [
            2.979952,
            44.539747,
            961.01
          ],
          [
            2.980082,
            44.540092,
            961.88
          ],
          [
            2.980146,
            44.540165,
            961.8
          ],
          [
            2.980243,
            44.540216,
            962.05
          ],
          [
            2.980322,
            44.540227,
            962.36
          ],
          [
            2.980402,
            44.540271,
            962.86
          ],
          [
            2.980472,
            44.540335,
            963.3
          ],
          [
            2.98054,
            44.540374,
            964.0
          ],
          [
            2.98058,
            44.540411,
            964.89
          ],
          [
            2.980586,
            44.540469,
            966.41
          ],
          [
            2.980537,
            44.540553,
            969.7
          ],
          [
            2.980686,
            44.54078,
            973.47
          ],
          [
            2.980841,
            44.540973,
            974.14
          ],
          [
            2.980849,
            44.541424,
            978.42
          ],
          [
            2.980843,
            44.541736,
            979.66
          ],
          [
            2.980963,
            44.54221,
            980.9
          ],
          [
            2.981263,
            44.543177,
            980.29
          ],
          [
            2.981372,
            44.543417,
            979.95
          ],
          [
            2.981525,
            44.543693,
            979.6
          ],
          [
            2.981693,
            44.543897,
            979.56
          ],
          [
            2.981826,
            44.544086,
            979.74
          ],
          [
            2.981914,
            44.544314,
            980.22
          ],
          [
            2.982064,
            44.54488,
            982.75
          ],
          [
            2.982143,
            44.545097,
            984.16
          ],
          [
            2.982299,
            44.545314,
            985.51
          ],
          [
            2.982508,
            44.545523,
            985.57
          ],
          [
            2.982597,
            44.545637,
            985.99
          ],
          [
            2.982597,
            44.54586,
            987.04
          ],
          [
            2.98257,
            44.545975,
            987.64
          ],
          [
            2.98242,
            44.546232,
            988.84
          ],
          [
            2.982081,
            44.546969,
            992.5
          ],
          [
            2.982037,
            44.547228,
            994.47
          ],
          [
            2.982143,
            44.547471,
            995.4
          ],
          [
            2.982369,
            44.547894,
            994.16
          ],
          [
            2.982519,
            44.548239,
            993.49
          ],
          [
            2.982967,
            44.549063,
            994.81
          ],
          [
            2.983081,
            44.54932,
            995.36
          ],
          [
            2.983432,
            44.550002,
            997.99
          ],
          [
            2.983476,
            44.550135,
            998.94
          ],
          [
            2.983473,
            44.550263,
            1000.06
          ],
          [
            2.983511,
            44.550387,
            1001.35
          ],
          [
            2.983602,
            44.550556,
            1003.31
          ],
          [
            2.983688,
            44.550941,
            1007.42
          ],
          [
            2.983891,
            44.551247,
            1009.81
          ],
          [
            2.984017,
            44.551419,
            1010.74
          ],
          [
            2.984294,
            44.551699,
            1011.44
          ],
          [
            2.984653,
            44.552083,
            1012.99
          ],
          [
            2.984739,
            44.552192,
            1013.85
          ],
          [
            2.984806,
            44.55238,
            1015.65
          ],
          [
            2.984909,
            44.552538,
            1017.4
          ],
          [
            2.984974,
            44.552685,
            1019.05
          ],
          [
            2.985118,
            44.552963,
            1022.09
          ],
          [
            2.985478,
            44.553249,
            1025.56
          ],
          [
            2.985663,
            44.553308,
            1026.65
          ],
          [
            2.98581,
            44.55338,
            1027.5
          ],
          [
            2.98599,
            44.553547,
            1029.02
          ],
          [
            2.98612,
            44.553641,
            1030.17
          ],
          [
            2.986175,
            44.553723,
            1031.0
          ],
          [
            2.986423,
            44.553974,
            1034.36
          ],
          [
            2.98685,
            44.554345,
            1039.52
          ],
          [
            2.987068,
            44.554482,
            1041.69
          ],
          [
            2.987403,
            44.55464,
            1043.85
          ],
          [
            2.987607,
            44.554755,
            1044.35
          ],
          [
            2.987742,
            44.554814,
            1044.31
          ],
          [
            2.98791,
            44.554865,
            1044.22
          ],
          [
            2.98809,
            44.555017,
            1045.53
          ],
          [
            2.988187,
            44.555181,
            1046.7
          ],
          [
            2.988272,
            44.555385,
            1046.6
          ],
          [
            2.988354,
            44.555549,
            1046.57
          ],
          [
            2.988369,
            44.555642,
            1046.54
          ],
          [
            2.988386,
            44.555672,
            1046.54
          ],
          [
            2.988448,
            44.55571,
            1046.5
          ],
          [
            2.988523,
            44.555695,
            1046.43
          ],
          [
            2.988601,
            44.555697,
            1046.33
          ],
          [
            2.988783,
            44.555667,
            1045.99
          ],
          [
            2.989046,
            44.555667,
            1045.38
          ],
          [
            2.989122,
            44.555657,
            1045.21
          ],
          [
            2.989188,
            44.555627,
            1045.02
          ],
          [
            2.989256,
            44.555568,
            1044.72
          ],
          [
            2.989364,
            44.555385,
            1044.13
          ],
          [
            2.989394,
            44.555318,
            1044.04
          ],
          [
            2.989419,
            44.555206,
            1044.02
          ],
          [
            2.989405,
            44.554983,
            1044.21
          ],
          [
            2.989484,
            44.554657,
            1044.43
          ],
          [
            2.989484,
            44.55453,
            1044.46
          ],
          [
            2.989442,
            44.554462,
            1044.43
          ],
          [
            2.989063,
            44.554098,
            1044.6
          ],
          [
            2.988967,
            44.554022,
            1044.74
          ],
          [
            2.988713,
            44.553875,
            1045.01
          ],
          [
            2.98858,
            44.55378,
            1045.13
          ],
          [
            2.988443,
            44.553641,
            1045.44
          ],
          [
            2.988323,
            44.553491,
            1045.98
          ],
          [
            2.988285,
            44.55341,
            1046.38
          ],
          [
            2.988214,
            44.553224,
            1047.53
          ],
          [
            2.988152,
            44.552976,
            1049.31
          ],
          [
            2.988126,
            44.552444,
            1053.55
          ],
          [
            2.98813,
            44.55228,
            1054.95
          ],
          [
            2.988188,
            44.551676,
            1060.57
          ],
          [
            2.988208,
            44.551599,
            1061.19
          ],
          [
            2.988293,
            44.551447,
            1062.44
          ],
          [
            2.988306,
            44.551393,
            1062.84
          ],
          [
            2.988291,
            44.551131,
            1064.52
          ],
          [
            2.988308,
            44.551046,
            1064.98
          ],
          [
            2.988516,
            44.550675,
            1066.2
          ],
          [
            2.988583,
            44.550518,
            1066.51
          ],
          [
            2.988609,
            44.550414,
            1066.51
          ],
          [
            2.98866,
            44.550332,
            1066.46
          ],
          [
            2.988804,
            44.55016,
            1066.16
          ],
          [
            2.988941,
            44.550032,
            1065.81
          ],
          [
            2.989096,
            44.549911,
            1065.64
          ],
          [
            2.989268,
            44.549824,
            1065.39
          ],
          [
            2.989471,
            44.549761,
            1064.87
          ],
          [
            2.989616,
            44.549733,
            1064.52
          ],
          [
            2.989873,
            44.549722,
            1064.07
          ],
          [
            2.990107,
            44.549737,
            1063.33
          ],
          [
            2.990226,
            44.549763,
            1062.85
          ],
          [
            2.990422,
            44.549765,
            1061.87
          ],
          [
            2.990483,
            44.549743,
            1061.1
          ],
          [
            2.99053,
            44.549699,
            1059.64
          ],
          [
            2.990582,
            44.549672,
            1058.64
          ],
          [
            2.990664,
            44.549656,
            1057.77
          ],
          [
            2.990748,
            44.549666,
            1056.74
          ],
          [
            2.990895,
            44.549662,
            1055.78
          ],
          [
            2.990888,
            44.549712,
            1056.56
          ],
          [
            2.990907,
            44.549751,
            1057.02
          ],
          [
            2.990946,
            44.549789,
            1057.45
          ],
          [
            2.991055,
            44.54984,
            1058.3
          ],
          [
            2.991389,
            44.549937,
            1059.76
          ],
          [
            2.991489,
            44.549993,
            1060.52
          ],
          [
            2.991571,
            44.550051,
            1061.18
          ],
          [
            2.991845,
            44.550376,
            1064.68
          ],
          [
            2.992081,
            44.550562,
            1065.16
          ],
          [
            2.992138,
            44.550672,
            1065.9
          ],
          [
            2.992202,
            44.550708,
            1066.19
          ],
          [
            2.992309,
            44.550734,
            1066.87
          ],
          [
            2.9924,
            44.550775,
            1067.54
          ],
          [
            2.992484,
            44.550855,
            1068.23
          ],
          [
            2.992543,
            44.550931,
            1068.87
          ],
          [
            2.992575,
            44.551004,
            1069.48
          ],
          [
            2.992595,
            44.551299,
            1071.73
          ],
          [
            2.992619,
            44.551437,
            1072.77
          ],
          [
            2.992741,
            44.551671,
            1074.6
          ],
          [
            2.993264,
            44.552461,
            1079.06
          ],
          [
            2.993623,
            44.552845,
            1080.97
          ],
          [
            2.994483,
            44.553617,
            1085.29
          ],
          [
            2.994645,
            44.553784,
            1086.11
          ],
          [
            2.995124,
            44.554524,
            1090.96
          ],
          [
            2.995298,
            44.55484,
            1093.24
          ],
          [
            2.995439,
            44.555147,
            1095.38
          ],
          [
            2.995546,
            44.555301,
            1096.56
          ],
          [
            2.995645,
            44.555488,
            1097.87
          ],
          [
            2.995645,
            44.555488,
            1097.87
          ],
          [
            2.995546,
            44.555301,
            1096.56
          ],
          [
            2.995439,
            44.555147,
            1095.38
          ],
          [
            2.995298,
            44.55484,
            1093.24
          ],
          [
            2.995124,
            44.554524,
            1090.96
          ],
          [
            2.994645,
            44.553784,
            1086.11
          ],
          [
            2.994483,
            44.553617,
            1085.29
          ],
          [
            2.993623,
            44.552845,
            1080.97
          ],
          [
            2.993264,
            44.552461,
            1079.06
          ],
          [
            2.992741,
            44.551671,
            1074.6
          ],
          [
            2.992619,
            44.551437,
            1072.77
          ],
          [
            2.992595,
            44.551299,
            1071.73
          ],
          [
            2.992575,
            44.551004,
            1069.48
          ],
          [
            2.992543,
            44.550931,
            1068.87
          ],
          [
            2.992484,
            44.550855,
            1068.23
          ],
          [
            2.9924,
            44.550775,
            1067.54
          ],
          [
            2.992309,
            44.550734,
            1066.87
          ],
          [
            2.992202,
            44.550708,
            1066.19
          ],
          [
            2.992138,
            44.550672,
            1065.9
          ],
          [
            2.992081,
            44.550562,
            1065.16
          ],
          [
            2.991845,
            44.550376,
            1064.68
          ],
          [
            2.991571,
            44.550051,
            1061.18
          ],
          [
            2.991489,
            44.549993,
            1060.52
          ],
          [
            2.991389,
            44.549937,
            1059.76
          ],
          [
            2.991055,
            44.54984,
            1058.3
          ],
          [
            2.990946,
            44.549789,
            1057.45
          ],
          [
            2.990907,
            44.549751,
            1057.02
          ],
          [
            2.990888,
            44.549712,
            1056.56
          ],
          [
            2.990895,
            44.549662,
            1055.78
          ],
          [
            2.990748,
            44.549666,
            1056.74
          ],
          [
            2.990664,
            44.549656,
            1057.77
          ],
          [
            2.990582,
            44.549672,
            1058.64
          ],
          [
            2.99053,
            44.549699,
            1059.64
          ],
          [
            2.990483,
            44.549743,
            1061.1
          ],
          [
            2.990422,
            44.549765,
            1061.87
          ],
          [
            2.990226,
            44.549763,
            1062.85
          ],
          [
            2.990107,
            44.549737,
            1063.33
          ],
          [
            2.989873,
            44.549722,
            1064.07
          ],
          [
            2.989616,
            44.549733,
            1064.52
          ],
          [
            2.989471,
            44.549761,
            1064.87
          ],
          [
            2.989268,
            44.549824,
            1065.39
          ],
          [
            2.989096,
            44.549911,
            1065.64
          ],
          [
            2.988941,
            44.550032,
            1065.81
          ],
          [
            2.988804,
            44.55016,
            1066.16
          ],
          [
            2.98866,
            44.550332,
            1066.46
          ],
          [
            2.988609,
            44.550414,
            1066.51
          ],
          [
            2.988583,
            44.550518,
            1066.51
          ],
          [
            2.988516,
            44.550675,
            1066.2
          ],
          [
            2.988308,
            44.551046,
            1064.98
          ],
          [
            2.988291,
            44.551131,
            1064.52
          ],
          [
            2.988306,
            44.551393,
            1062.84
          ],
          [
            2.988293,
            44.551447,
            1062.44
          ],
          [
            2.988208,
            44.551599,
            1061.19
          ],
          [
            2.988188,
            44.551676,
            1060.57
          ],
          [
            2.98813,
            44.55228,
            1054.95
          ],
          [
            2.988126,
            44.552444,
            1053.55
          ],
          [
            2.988152,
            44.552976,
            1049.31
          ],
          [
            2.988214,
            44.553224,
            1047.53
          ],
          [
            2.988323,
            44.553491,
            1045.98
          ],
          [
            2.988443,
            44.553641,
            1045.44
          ],
          [
            2.98858,
            44.55378,
            1045.13
          ],
          [
            2.988713,
            44.553875,
            1045.01
          ],
          [
            2.988967,
            44.554022,
            1044.74
          ],
          [
            2.989063,
            44.554098,
            1044.6
          ],
          [
            2.989442,
            44.554462,
            1044.43
          ],
          [
            2.989484,
            44.55453,
            1044.46
          ],
          [
            2.989484,
            44.554657,
            1044.43
          ],
          [
            2.989405,
            44.554983,
            1044.21
          ],
          [
            2.989419,
            44.555206,
            1044.02
          ],
          [
            2.989394,
            44.555318,
            1044.04
          ],
          [
            2.989364,
            44.555385,
            1044.13
          ],
          [
            2.989256,
            44.555568,
            1044.72
          ],
          [
            2.989188,
            44.555627,
            1045.02
          ],
          [
            2.989122,
            44.555657,
            1045.21
          ],
          [
            2.989046,
            44.555667,
            1045.38
          ],
          [
            2.988783,
            44.555667,
            1045.99
          ],
          [
            2.988601,
            44.555697,
            1046.33
          ],
          [
            2.988523,
            44.555695,
            1046.43
          ],
          [
            2.988448,
            44.55571,
            1046.5
          ],
          [
            2.988386,
            44.555672,
            1046.54
          ],
          [
            2.988369,
            44.555642,
            1046.54
          ],
          [
            2.988354,
            44.555549,
            1046.57
          ],
          [
            2.988272,
            44.555385,
            1046.6
          ],
          [
            2.988187,
            44.555181,
            1046.7
          ],
          [
            2.98809,
            44.555017,
            1045.53
          ],
          [
            2.98791,
            44.554865,
            1044.22
          ],
          [
            2.987742,
            44.554814,
            1044.31
          ],
          [
            2.987607,
            44.554755,
            1044.35
          ],
          [
            2.987403,
            44.55464,
            1043.85
          ],
          [
            2.987068,
            44.554482,
            1041.69
          ],
          [
            2.98685,
            44.554345,
            1039.52
          ],
          [
            2.986423,
            44.553974,
            1034.36
          ],
          [
            2.986175,
            44.553723,
            1031.0
          ],
          [
            2.98612,
            44.553641,
            1030.17
          ],
          [
            2.98599,
            44.553547,
            1029.02
          ],
          [
            2.98581,
            44.55338,
            1027.5
          ],
          [
            2.985663,
            44.553308,
            1026.65
          ],
          [
            2.985478,
            44.553249,
            1025.56
          ],
          [
            2.985118,
            44.552963,
            1022.09
          ],
          [
            2.984974,
            44.552685,
            1019.05
          ],
          [
            2.984909,
            44.552538,
            1017.4
          ],
          [
            2.984806,
            44.55238,
            1015.65
          ],
          [
            2.984739,
            44.552192,
            1013.85
          ],
          [
            2.984653,
            44.552083,
            1012.99
          ],
          [
            2.984294,
            44.551699,
            1011.44
          ],
          [
            2.984017,
            44.551419,
            1010.74
          ],
          [
            2.983891,
            44.551247,
            1009.81
          ],
          [
            2.983688,
            44.550941,
            1007.42
          ],
          [
            2.983602,
            44.550556,
            1003.31
          ],
          [
            2.983511,
            44.550387,
            1001.35
          ],
          [
            2.983473,
            44.550263,
            1000.06
          ],
          [
            2.983476,
            44.550135,
            998.94
          ],
          [
            2.983432,
            44.550002,
            997.99
          ],
          [
            2.983081,
            44.54932,
            995.36
          ],
          [
            2.982967,
            44.549063,
            994.81
          ],
          [
            2.982519,
            44.548239,
            993.49
          ],
          [
            2.982369,
            44.547894,
            994.16
          ],
          [
            2.982143,
            44.547471,
            995.4
          ],
          [
            2.982037,
            44.547228,
            994.47
          ],
          [
            2.982081,
            44.546969,
            992.5
          ],
          [
            2.98242,
            44.546232,
            988.84
          ],
          [
            2.98257,
            44.545975,
            987.64
          ],
          [
            2.982597,
            44.54586,
            987.04
          ],
          [
            2.982597,
            44.545637,
            985.99
          ],
          [
            2.982508,
            44.545523,
            985.57
          ],
          [
            2.982299,
            44.545314,
            985.51
          ],
          [
            2.982143,
            44.545097,
            984.16
          ],
          [
            2.982064,
            44.54488,
            982.75
          ],
          [
            2.981914,
            44.544314,
            980.22
          ],
          [
            2.981826,
            44.544086,
            979.74
          ],
          [
            2.981693,
            44.543897,
            979.56
          ],
          [
            2.981525,
            44.543693,
            979.6
          ],
          [
            2.981372,
            44.543417,
            979.95
          ],
          [
            2.981263,
            44.543177,
            980.29
          ],
          [
            2.980963,
            44.54221,
            980.9
          ],
          [
            2.980843,
            44.541736,
            979.66
          ],
          [
            2.980849,
            44.541424,
            978.42
          ],
          [
            2.980841,
            44.540973,
            974.14
          ],
          [
            2.980686,
            44.54078,
            973.47
          ],
          [
            2.980537,
            44.540553,
            969.7
          ],
          [
            2.980586,
            44.540469,
            966.41
          ],
          [
            2.98058,
            44.540411,
            964.89
          ],
          [
            2.98054,
            44.540374,
            964.0
          ],
          [
            2.980472,
            44.540335,
            963.3
          ],
          [
            2.980402,
            44.540271,
            962.86
          ],
          [
            2.980322,
            44.540227,
            962.36
          ],
          [
            2.980243,
            44.540216,
            962.05
          ],
          [
            2.980146,
            44.540165,
            961.8
          ],
          [
            2.980082,
            44.540092,
            961.88
          ],
          [
            2.979952,
            44.539747,
            961.01
          ],
          [
            2.979893,
            44.53965,
            960.74
          ],
          [
            2.979792,
            44.539513,
            960.19
          ],
          [
            2.979786,
            44.539474,
            960.16
          ]
        ]
      }
    },
    {
      "type": "Feature",
      "properties": {
        "source": "Crêtes_Aubrac.gpx",
        "type": "route"
      },
      "geometry": {
        "type": "LineString",
        "coordinates": [
          [
            2.979786,
            44.539474
          ],
          [
            2.980537,
            44.540553
          ],
          [
            2.980841,
            44.540973
          ],
          [
            2.990483,
            44.549743
          ],
          [
            2.990895,
            44.549662
          ],
          [
            2.995645,
            44.555488
          ],
          [
            2.995645,
            44.555488
          ],
          [
            2.990895,
            44.549662
          ],
          [
            2.982037,
            44.547228
          ],
          [
            2.980841,
            44.540973
          ],
          [
            2.980537,
            44.540553
          ],
          [
            2.979786,
            44.539474
          ]
        ]
      }
    }
  ]
}