{
  "type": "FeatureCollection",
  "features": [
    {
      "type": "Feature",
      "properties": {
        "name": "GraphHopper Track",
        "source": "Castanet__Escalquens.gpx",
        "type": "track"
      },
      "geometry": {
        "type": "LineString",
        "coordinates": [
          [
            1.515578,
            43.518417,
            151.13
          ],
          [
            1.515442,
            43.51835,
            151.1
          ],
          [
            1.515088,
            43.51819,
            152.0
          ],
          [
            1.514199,
            43.517908,
            151.48
          ],
          [
            1.512729,
            43.517488,
            150.62
          ],
          [
            1.512519,
            43.517841,
            149.96
          ],
          [
            1.512478,
            43.517938,
            149.61
          ],
          [
            1.512399,
            43.517912,
            149.32
          ],
          [
            1.511887,
            43.517553,
            150.0
          ],
          [
            1.51128,
            43.517109,
            150.0
          ],
          [
            1.511205,
            43.517085,
            150.0
          ],
          [
            1.511149,
            43.517076,
            150.0
          ],
          [
            1.510622,
            43.517151,
            150.0
          ],
          [
            1.510017,
            43.517257,
            150.87
          ],
          [
            1.509366,
            43.517387,
            152.29
          ],
          [
            1.50829,
            43.517581,
            153.0
          ],
          [
            1.508097,
            43.51763,
            153.0
          ],
          [
            1.50805,
            43.517603,
            153.05
          ],
          [
            1.507967,
            43.517587,
            153.14
          ],
          [
            1.507912,
            43.517594,
            153.23
          ],
          [
            1.50786,
            43.517614,
            153.31
          ],
          [
            1.507823,
            43.517644,
            153.36
          ],
          [
            1.507686,
            43.517594,
            153.24
          ],
          [
            1.507111,
            43.517345,
            154.0
          ],
          [
            1.507046,
            43.517288,
            154.0
          ],
          [
            1.505925,
            43.516807,
            154.0
          ],
          [
            1.505858,
            43.516765,
            154.0
          ],
          [
            1.505852,
            43.516726,
            154.0
          ],
          [
            1.505807,
            43.516699,
            154.0
          ],
          [
            1.505688,
            43.516658,
            154.0
          ],
          [
            1.50564,
            43.516673,
            154.0
          ],
          [
            1.505622,
            43.516689,
            154.0
          ],
          [
            1.50559,
            43.516673,
            154.0
          ],
          [
            1.505282,
            43.516578,
            154.3
          ],
          [
            1.505232,
            43.516525,
            154.5
          ],
          [
            1.505214,
            43.516476,
            154.6
          ],
          [
            1.50523,
            43.516434,
            154.58
          ],
          [
            1.505464,
            43.516068,
            154.99
          ],
          [
            1.505472,
            43.516024,
            155.0
          ],
          [
            1.505647,
            43.515689,
            155.1
          ],
          [
            1.505717,
            43.515625,
            155.05
          ],
          [
            1.505717,
            43.515625,
            155.05
          ],
          [
            1.505853,
            43.515502,
            154.96
          ],
          [
            1.506029,
            43.515401,
            154.88
          ],
          [
            1.505641,
            43.514485,
            155.0
          ],
          [
            1.505618,
            43.5144,
            155.0
          ],
          [
            1.505148,
            43.514309,
            155.0
          ],
          [
            1.504989,
            43.51423,
            155.09
          ],
          [
            1.503493,
            43.51368,
            156.37
          ],
          [
            1.502943,
            43.513524,
            156.89
          ],
          [
            1.502022,
            43.513214,
            158.1
          ],
          [
            1.50143,
            43.513076,
            159.0
          ],
          [
            1.501338,
            43.513031,
            159.0
          ],
          [
            1.501291,
            43.512967,
            159.0
          ],
          [
            1.50122,
            43.512985,
            159.02
          ],
          [
            1.501164,
            43.512988,
            159.17
          ],
          [
            1.501067,
            43.512967,
            159.66
          ],
          [
            1.500903,
            43.512895,
            160.33
          ],
          [
            1.500772,
            43.512822,
            161.0
          ],
          [
            1.500932,
            43.512634,
            160.76
          ],
          [
            1.501716,
            43.511827,
            160.47
          ]
        ]
      }
    },
    {
      "type": "Feature",
      "properties": {
        "source": "Castanet__Escalquens.gpx",
        "type": "route"
      },
      "geometry": {
        "type": "LineString",
        "coordinates": [
          [
            1.515578,
            43.518417
          ],
          [
            1.515442,
            43.51835
          ],
          [
            1.515088,
            43.51819
          ],
          [
            1.512729,
            43.517488
          ],
          [
            1.512478,
            43.517938
          ],
          [
            1.512399,
            43.517912
          ],
          [
            1.508097,
            43.51763
          ],
          [
            1.507111,
            43.517345
          ],
          [
            1.505858,
            43.516765
          ],
          [
            1.505472,
            43.516024
          ],
          [
            1.505717,
            43.515625
          ],
          [
            1.505717,
            43.515625
          ],
          [
            1.506029,
            43.515401
          ],
          [
            1.505618,
            43.5144
          ],
          [
            1.505148,
            43.514309
          ],
          [
            1.501291,
            43.512967
          ],
          [
            1.501164,
            43.512988
          ],
          [
            1.500772,
            43.512822
          ],
          [
            1.501716,
            43.511827
          ]
        ]
      }
    }
  ]
}