{
  "type": "FeatureCollection",
  "features": [
    {
      "type": "Feature",
      "properties": {
        "name": "GraphHopper Track",
        "source": "Circuit_de_Carmaux.gpx",
        "type": "track"
      },
      "geometry": {
        "type": "LineString",
        "coordinates": [
          [
            2.158503,
            44.048511,
            246.21
          ],
          [
            2.158024,
            44.048581,
            246.0
          ],
          [
            2.156401,
            44.049098,
            242.43
          ],
          [
            2.155006,
            44.049533,
            239.91
          ],
          [
            2.155042,
            44.049814,
            239.0
          ],
          [
            2.153718,
            44.049894,
            237.99
          ],
          [
            2.153938,
            44.051971,
            237.0
          ],
          [
            2.152229,
            44.05211,
            231.99
          ],
          [
            2.151781,
            44.052121,
            233.69
          ],
          [
            2.151275,
            44.052028,
            235.76
          ],
          [
            2.149476,
            44.051669,
            238.0
          ],
          [
            2.14871,
            44.053492,
            236.35
          ],
          [
            2.148945,
            44.053882,
            235.1
          ],
          [
            2.148983,
            44.05397,
            235.0
          ],
          [
            2.14963,
            44.05502,
            227.93
          ],
          [
            2.148702,
            44.055298,
            227.8
          ],
          [
            2.148221,
            44.055442,
            228.1
          ],
          [
            2.147653,
            44.055613,
            227.6
          ],
          [
            2.147796,
            44.055795,
            227.0
          ],
          [
            2.147906,
            44.055988,
            227.0
          ],
          [
            2.147903,
            44.056126,
            226.58
          ],
          [
            2.147419,
            44.056273,
            226.88
          ],
          [
            2.147225,
            44.05592,
            227.71
          ],
          [
            2.147095,
            44.055766,
            227.43
          ],
          [
            2.146418,
            44.055472,
            228.87
          ],
          [
            2.146003,
            44.055294,
            230.8
          ],
          [
            2.14598,
            44.055269,
            230.97
          ],
          [
            2.14598,
            44.055269,
            230.97
          ],
          [
            2.145926,
            44.055211,
            231.38
          ],
          [
            2.145844,
            44.054946,
            233.12
          ],
          [
            2.145616,
            44.054747,
            233.9
          ],
          [
            2.145241,
            44.054373,
            234.83
          ],
          [
            2.145129,
            44.054307,
            235.08
          ],
          [
            2.144045,
            44.053738,
            236.51
          ],
          [
            2.143493,
            44.053318,
            237.82
          ],
          [
            2.143154,
            44.052997,
            240.47
          ],
          [
            2.142813,
            44.052377,
            243.6
          ],
          [
            2.142459,
            44.051132,
            248.23
          ],
          [
            2.142308,
            44.050319,
            251.79
          ],
          [
            2.142232,
            44.050316,
            251.99
          ],
          [
            2.142097,
            44.050277,
            252.55
          ],
          [
            2.141687,
            44.050252,
            253.09
          ],
          [
            2.141633,
            44.050278,
            252.88
          ],
          [
            2.141582,
            44.050278,
            252.89
          ],
          [
            2.141493,
            44.050243,
            253.46
          ],
          [
            2.141081,
            44.050222,
            254.75
          ],
          [
            2.141044,
            44.05025,
            254.89
          ],
          [
            2.140866,
            44.050232,
            255.0
          ],
          [
            2.14077,
            44.050196,
            255.47
          ],
          [
            2.140742,
            44.050145,
            255.66
          ],
          [
            2.140579,
            44.050078,
            256.38
          ],
          [
            2.13995,
            44.04965,
            260.24
          ],
          [
            2.139953,
            44.049614,
            260.43
          ],
          [
            2.13979,
            44.04942,
            261.85
          ],
          [
            2.139453,
            44.049201,
            263.0
          ],
          [
            2.138938,
            44.048961,
            264.52
          ],
          [
            2.138783,
            44.049033,
            264.97
          ],
          [
            2.138767,
            44.04912,
            265.11
          ],
          [
            2.138421,
            44.049024,
            266.28
          ],
          [
            2.137164,
            44.048491,
            271.63
          ],
          [
            2.135608,
            44.047797,
            278.49
          ],
          [
            2.133478,
            44.046808,
            288.09
          ],
          [
            2.133087,
            44.046582,
            290.14
          ],
          [
            2.13237,
            44.045959,
            293.13
          ],
          [
            2.131785,
            44.045437,
            293.07
          ],
          [
            2.130093,
            44.043966,
            300.09
          ],
          [
            2.129732,
            44.043609,
            302.24
          ],
          [
            2.129504,
            44.043727,
            302.97
          ],
          [
            2.129398,
            44.043645,
            303.59
          ],
          [
            2.129144,
            44.043566,
            305.11
          ],
          [
            2.128533,
            44.043482,
            310.38
          ],
          [
            2.127298,
            44.043587,
            319.66
          ],
          [
            2.126704,
            44.04362,
            322.13
          ],
          [
            2.126312,
            44.043626,
            323.21
          ],
          [
            2.125932,
            44.043605,
            324.09
          ],
          [
            2.125526,
            44.043517,
            325.08
          ],
          [
            2.125394,
            44.0435,
            325.39
          ],
          [
            2.125285,
            44.043531,
            325.19
          ],
          [
            2.12497,
            44.043239,
            325.01
          ],
          [
            2.124753,
            44.042921,
            325.21
          ],
          [
            2.124438,
            44.042255,
            326.32
          ],
          [
            2.124273,
            44.042054,
            326.46
          ],
          [
            2.123996,
            44.041919,
            326.77
          ],
          [
            2.123735,
            44.041874,
            327.0
          ],
          [
            2.12345,
            44.041874,
            327.27
          ],
          [
            2.122807,
            44.041939,
            328.34
          ],
          [
            2.12159,
            44.041965,
            330.11
          ],
          [
            2.120213,
            44.041973,
            333.41
          ],
          [
            2.119261,
            44.041938,
            333.79
          ],
          [
            2.118183,
            44.041846,
            333.81
          ],
          [
            2.117319,
            44.04182,
            332.47
          ],
          [
            2.114832,
            44.041986,
            327.31
          ],
          [
            2.113321,
            44.042069,
            325.71
          ],
          [
            2.109677,
            44.042109,
            326.0
          ],
          [
            2.10847,
            44.042105,
            325.91
          ],
          [
            2.10835,
            44.042065,
            325.65
          ],
          [
            2.108318,
            44.042041,
            325.46
          ],
          [
            2.108157,
            44.041853,
            324.43
          ],
          [
            2.10806,
            44.041791,
            323.82
          ],
          [
            2.107942,
            44.041753,
            323.22
          ],
          [
            2.107425,
            44.041693,
            320.96
          ],
          [
            2.106988,
            44.041672,
            319.09
          ],
          [
            2.106412,
            44.041729,
            316.95
          ],
          [
            2.105329,
            44.04175,
            313.87
          ],
          [
            2.104863,
            44.04172,
            311.94
          ],
          [
            2.104654,
            44.04165,
            311.06
          ],
          [
            2.103955,
            44.041236,
            303.54
          ],
          [
            2.103828,
            44.041202,
            302.43
          ],
          [
            2.103375,
            44.041233,
            298.96
          ],
          [
            2.102994,
            44.041304,
            295.78
          ],
          [
            2.102855,
            44.041351,
            294.22
          ],
          [
            2.102707,
            44.04146,
            292.55
          ],
          [
            2.102566,
            44.04164,
            290.62
          ],
          [
            2.102314,
            44.04202,
            286.99
          ],
          [
            2.102125,
            44.042255,
            284.83
          ],
          [
            2.101914,
            44.042415,
            283.2
          ],
          [
            2.101632,
            44.042565,
            281.45
          ],
          [
            2.10131,
            44.042639,
            279.75
          ],
          [
            2.101084,
            44.04266,
            278.64
          ],
          [
            2.100895,
            44.042644,
            277.77
          ],
          [
            2.100236,
            44.042443,
            274.16
          ],
          [
            2.100054,
            44.042356,
            272.75
          ],
          [
            2.099765,
            44.042145,
            270.18
          ],
          [
            2.099547,
            44.042036,
            268.25
          ],
          [
            2.099281,
            44.041972,
            265.7
          ],
          [
            2.099036,
            44.041984,
            264.85
          ],
          [
            2.09882,
            44.042018,
            262.99
          ],
          [
            2.098558,
            44.0421,
            261.14
          ],
          [
            2.098365,
            44.042148,
            260.08
          ],
          [
            2.098152,
            44.042169,
            258.77
          ],
          [
            2.09789,
            44.042165,
            257.29
          ],
          [
            2.097576,
            44.04212,
            255.56
          ],
          [
            2.097383,
            44.04212,
            254.59
          ],
          [
            2.097113,
            44.04215,
            253.23
          ],
          [
            2.096812,
            44.042217,
            251.67
          ],
          [
            2.09657,
            44.042316,
            250.48
          ],
          [
            2.096321,
            44.042469,
            249.09
          ],
          [
            2.09616,
            44.042529,
            248.28
          ],
          [
            2.095991,
            44.042576,
            247.52
          ],
          [
            2.095782,
            44.042607,
            246.62
          ],
          [
            2.095443,
            44.042631,
            245.12
          ],
          [
            2.095222,
            44.042623,
            244.1
          ],
          [
            2.094826,
            44.04256,
            242.17
          ],
          [
            2.093655,
            44.042232,
            237.17
          ],
          [
            2.092549,
            44.042055,
            234.48
          ],
          [
            2.092054,
            44.04195,
            233.63
          ],
          [
            2.091024,
            44.04195,
            232.94
          ],
          [
            2.090538,
            44.041967,
            232.75
          ],
          [
            2.090442,
            44.04196,
            232.72
          ],
          [
            2.090358,
            44.041946,
            232.64
          ],
          [
            2.090272,
            44.041913,
            232.4
          ],
          [
            2.090227,
            44.041884,
            232.15
          ],
          [
            2.090127,
            44.041728,
            230.96
          ],
          [
            2.090001,
            44.041354,
            231.3
          ],
          [
            2.089862,
            44.04116,
            232.47
          ],
          [
            2.089716,
            44.041077,
            233.37
          ],
          [
            2.08955,
            44.04105,
            233.22
          ],
          [
            2.089385,
            44.041046,
            232.81
          ],
          [
            2.088779,
            44.041112,
            231.77
          ],
          [
            2.087411,
            44.041247,
            230.99
          ],
          [
            2.087098,
            44.041301,
            230.77
          ],
          [
            2.086425,
            44.041475,
            229.88
          ],
          [
            2.085,
            44.042021,
            228.01
          ],
          [
            2.084898,
            44.042074,
            227.8
          ],
          [
            2.08478,
            44.042108,
            227.92
          ],
          [
            2.084325,
            44.042281,
            228.66
          ],
          [
            2.083888,
            44.042486,
            228.96
          ],
          [
            2.083669,
            44.0428,
            228.86
          ],
          [
            2.083308,
            44.043463,
            227.65
          ],
          [
            2.08288,
            44.043886,
            227.0
          ],
          [
            2.08212,
            44.044562,
            227.16
          ],
          [
            2.081036,
            44.045437,
            228.35
          ],
          [
            2.080181,
            44.046099,
            227.38
          ],
          [
            2.079706,
            44.046489,
            226.75
          ],
          [
            2.079566,
            44.046543,
            226.63
          ],
          [
            2.079441,
            44.046567,
            226.76
          ],
          [
            2.079301,
            44.046569,
            226.14
          ],
          [
            2.079029,
            44.046527,
            225.67
          ],
          [
            2.078876,
            44.046543,
            225.48
          ],
          [
            2.078517,
            44.046706,
            225.64
          ],
          [
            2.078378,
            44.046802,
            225.69
          ],
          [
            2.07829,
            44.046947,
            225.76
          ],
          [
            2.078227,
            44.047155,
            226.3
          ],
          [
            2.078129,
            44.047312,
            226.96
          ],
          [
            2.077977,
            44.04744,
            226.66
          ],
          [
            2.077516,
            44.047706,
            224.88
          ],
          [
            2.076703,
            44.048279,
            222.1
          ],
          [
            2.076161,
            44.048764,
            220.47
          ],
          [
            2.075752,
            44.049078,
            219.97
          ],
          [
            2.0748,
            44.049431,
            219.82
          ],
          [
            2.073844,
            44.049819,
            218.78
          ],
          [
            2.073565,
            44.049912,
            218.44
          ],
          [
            2.073429,
            44.049947,
            218.21
          ],
          [
            2.073287,
            44.049972,
            218.06
          ],
          [
            2.073018,
            44.04997,
            217.78
          ],
          [
            2.072836,
            44.049977,
            217.94
          ],
          [
            2.072597,
            44.050012,
            218.11
          ],
          [
            2.071807,
            44.050259,
            219.76
          ],
          [
            2.071519,
            44.050246,
            220.91
          ],
          [
            2.071184,
            44.050025,
            223.88
          ],
          [
            2.070441,
            44.049357,
            229.13
          ],
          [
            2.06952,
            44.048642,
            234.66
          ],
          [
            2.069186,
            44.048308,
            236.68
          ],
          [
            2.068488,
            44.047192,
            242.85
          ],
          [
            2.068321,
            44.046758,
            245.13
          ],
          [
            2.067986,
            44.046077,
            248.68
          ],
          [
            2.067726,
            44.045776,
            250.59
          ],
          [
            2.06728,
            44.045562,
            252.55
          ],
          [
            2.066843,
            44.045428,
            254.18
          ],
          [
            2.066759,
            44.045235,
            255.17
          ],
          [
            2.066704,
            44.044994,
            256.41
          ],
          [
            2.066546,
            44.044754,
            257.75
          ],
          [
            2.066155,
            44.044513,
            260.02
          ],
          [
            2.065263,
            44.044279,
            263.88
          ],
          [
            2.064008,
            44.044172,
            267.85
          ],
          [
            2.062827,
            44.044092,
            274.97
          ],
          [
            2.062534,
            44.044105,
            277.17
          ],
          [
            2.062447,
            44.044021,
            275.59
          ],
          [
            2.062232,
            44.043958,
            274.3
          ],
          [
            2.061535,
            44.043897,
            272.13
          ],
          [
            2.060784,
            44.04382,
            270.88
          ],
          [
            2.060076,
            44.043705,
            270.37
          ],
          [
            2.059835,
            44.043647,
            270.2
          ],
          [
            2.059411,
            44.043508,
            270.0
          ],
          [
            2.05874,
            44.043172,
            269.64
          ],
          [
            2.058402,
            44.042922,
            270.35
          ],
          [
            2.058236,
            44.042879,
            270.86
          ],
          [
            2.058064,
            44.042913,
            271.47
          ],
          [
            2.057844,
            44.043037,
            272.65
          ],
          [
            2.057694,
            44.043161,
            273.89
          ],
          [
            2.057356,
            44.043562,
            278.17
          ],
          [
            2.057174,
            44.043739,
            280.1
          ],
          [
            2.056841,
            44.043901,
            282.44
          ],
          [
            2.056535,
            44.044013,
            284.11
          ],
          [
            2.056374,
            44.044055,
            285.01
          ],
          [
            2.056122,
            44.044032,
            286.64
          ],
          [
            2.055865,
            44.043963,
            288.87
          ],
          [
            2.055677,
            44.043894,
            290.32
          ],
          [
            2.055457,
            44.043847,
            292.05
          ],
          [
            2.055184,
            44.043851,
            296.11
          ],
          [
            2.054733,
            44.043835,
            302.09
          ],
          [
            2.05439,
            44.04389,
            304.0
          ],
          [
            2.053531,
            44.044112,
            309.72
          ],
          [
            2.052565,
            44.044266,
            318.08
          ],
          [
            2.052324,
            44.044291,
            320.65
          ],
          [
            2.051782,
            44.044289,
            323.09
          ],
          [
            2.051386,
            44.044345,
            324.49
          ],
          [
            2.050887,
            44.044398,
            324.56
          ],
          [
            2.049927,
            44.044537,
            322.37
          ],
          [
            2.049379,
            44.044729,
            320.45
          ],
          [
            2.048854,
            44.044892,
            318.59
          ],
          [
            2.046037,
            44.045164,
            312.07
          ],
          [
            2.045693,
            44.045237,
            311.55
          ],
          [
            2.044993,
            44.045414,
            311.13
          ],
          [
            2.04453,
            44.045555,
            311.92
          ],
          [
            2.044409,
            44.045519,
            311.71
          ],
          [
            2.044213,
            44.045527,
            311.68
          ],
          [
            2.04415,
            44.045639,
            312.72
          ],
          [
            2.043832,
            44.045567,
            313.39
          ],
          [
            2.043741,
            44.045579,
            313.74
          ],
          [
            2.043688,
            44.045648,
            314.57
          ],
          [
            2.043565,
            44.045607,
            315.06
          ],
          [
            2.043484,
            44.045615,
            315.6
          ],
          [
            2.043429,
            44.045645,
            316.08
          ],
          [
            2.04324,
            44.045968,
            319.13
          ],
          [
            2.04287,
            44.045758,
            317.72
          ],
          [
            2.042566,
            44.045625,
            316.39
          ],
          [
            2.042462,
            44.045594,
            316.03
          ],
          [
            2.042356,
            44.045576,
            315.7
          ],
          [
            2.041581,
            44.045524,
            313.47
          ],
          [
            2.041502,
            44.045498,
            313.27
          ],
          [
            2.041435,
            44.04546,
            313.1
          ],
          [
            2.040916,
            44.04508,
            312.68
          ],
          [
            2.040831,
            44.045035,
            312.58
          ],
          [
            2.040743,
            44.045008,
            312.53
          ],
          [
            2.040631,
            44.044995,
            312.5
          ],
          [
            2.040199,
            44.044982,
            312.28
          ],
          [
            2.039996,
            44.04496,
            311.72
          ],
          [
            2.03978,
            44.044926,
            310.22
          ],
          [
            2.039273,
            44.044892,
            307.55
          ],
          [
            2.039218,
            44.044876,
            307.37
          ],
          [
            2.039187,
            44.044856,
            307.19
          ],
          [
            2.03892,
            44.044657,
            305.65
          ],
          [
            2.036784,
            44.04608,
            317.24
          ],
          [
            2.036311,
            44.046302,
            319.18
          ],
          [
            2.035302,
            44.046742,
            321.6
          ],
          [
            2.035095,
            44.046824,
            321.95
          ],
          [
            2.035038,
            44.046873,
            322.0
          ],
          [
            2.034155,
            44.046732,
            323.01
          ],
          [
            2.033298,
            44.046615,
            323.73
          ],
          [
            2.032852,
            44.046623,
            323.96
          ],
          [
            2.032266,
            44.046686,
            324.19
          ],
          [
            2.031032,
            44.04691,
            324.0
          ],
          [
            2.030739,
            44.046978,
            323.98
          ],
          [
            2.030388,
            44.047035,
            323.87
          ],
          [
            2.030116,
            44.047062,
            323.69
          ],
          [
            2.028942,
            44.047041,
            323.97
          ],
          [
            2.027617,
            44.046982,
            323.75
          ],
          [
            2.026679,
            44.046902,
            323.0
          ],
          [
            2.026621,
            44.046829,
            322.97
          ],
          [
            2.025721,
            44.046411,
            322.72
          ],
          [
            2.025642,
            44.046358,
            322.41
          ],
          [
            2.024729,
            44.04585,
            320.12
          ],
          [
            2.024516,
            44.045684,
            319.74
          ],
          [
            2.023908,
            44.045136,
            319.49
          ],
          [
            2.023582,
            44.044893,
            319.31
          ],
          [
            2.023158,
            44.044546,
            318.65
          ],
          [
            2.022491,
            44.043899,
            316.55
          ],
          [
            2.021879,
            44.043204,
            314.22
          ],
          [
            2.02139,
            44.042818,
            312.82
          ],
          [
            2.021084,
            44.04263,
            312.02
          ],
          [
            2.020435,
            44.042162,
            311.32
          ],
          [
            2.020159,
            44.042013,
            311.84
          ],
          [
            2.019958,
            44.041944,
            312.15
          ],
          [
            2.019014,
            44.041737,
            313.87
          ],
          [
            2.017922,
            44.041536,
            315.89
          ],
          [
            2.017716,
            44.041521,
            316.13
          ],
          [
            2.017314,
            44.041511,
            317.17
          ],
          [
            2.017024,
            44.041461,
            317.99
          ],
          [
            2.016552,
            44.041314,
            317.37
          ],
          [
            2.015381,
            44.040931,
            316.15
          ],
          [
            2.015164,
            44.040879,
            315.88
          ],
          [
            2.014901,
            44.040855,
            315.58
          ],
          [
            2.014599,
            44.040837,
            315.18
          ],
          [
            2.01399,
            44.040729,
            314.88
          ],
          [
            2.013735,
            44.040607,
            314.86
          ],
          [
            2.012953,
            44.040094,
            314.05
          ],
          [
            2.012765,
            44.040009,
            314.0
          ],
          [
            2.011343,
            44.039761,
            314.0
          ],
          [
            2.010923,
            44.039639,
            314.0
          ],
          [
            2.009593,
            44.039181,
            313.08
          ],
          [
            2.008755,
            44.038978,
            313.41
          ],
          [
            2.008445,
            44.03889,
            313.73
          ],
          [
            2.007336,
            44.038541,
            314.13
          ],
          [
            2.006421,
            44.038239,
            310.42
          ],
          [
            2.005295,
            44.037853,
            305.32
          ],
          [
            2.004864,
            44.037734,
            303.98
          ],
          [
            2.004585,
            44.037691,
            303.21
          ],
          [
            2.003617,
            44.037716,
            300.38
          ],
          [
            2.002766,
            44.037793,
            297.04
          ],
          [
            2.002074,
            44.037874,
            293.97
          ],
          [
            2.001855,
            44.03786,
            293.15
          ],
          [
            2.001669,
            44.037816,
            292.43
          ],
          [
            2.000864,
            44.037381,
            288.97
          ],
          [
            2.000565,
            44.037205,
            287.44
          ],
          [
            2.000412,
            44.037071,
            286.41
          ],
          [
            2.00018,
            44.036681,
            284.14
          ],
          [
            2.000069,
            44.036555,
            283.2
          ],
          [
            2.000007,
            44.036498,
            282.87
          ],
          [
            1.999939,
            44.036459,
            282.72
          ],
          [
            1.999769,
            44.036404,
            283.04
          ],
          [
            1.999307,
            44.036333,
            284.85
          ],
          [
            1.999163,
            44.036302,
            285.66
          ],
          [
            1.999024,
            44.036255,
            286.52
          ],
          [
            1.998743,
            44.036121,
            288.71
          ],
          [
            1.997783,
            44.035586,
            297.43
          ],
          [
            1.997313,
            44.035349,
            301.56
          ],
          [
            1.996306,
            44.035005,
            307.5
          ],
          [
            1.995215,
            44.034612,
            309.53
          ],
          [
            1.99433,
            44.034153,
            309.28
          ],
          [
            1.993768,
            44.033956,
            308.1
          ],
          [
            1.993287,
            44.033808,
            307.03
          ],
          [
            1.993119,
            44.033726,
            306.94
          ],
          [
            1.992731,
            44.033477,
            307.27
          ],
          [
            1.992052,
            44.032875,
            309.47
          ],
          [
            1.99182,
            44.032731,
            310.4
          ],
          [
            1.991563,
            44.03262,
            311.26
          ],
          [
            1.990311,
            44.03234,
            306.92
          ],
          [
            1.989804,
            44.032278,
            305.0
          ],
          [
            1.989476,
            44.032273,
            303.65
          ],
          [
            1.989179,
            44.032281,
            302.31
          ],
          [
            1.988451,
            44.032334,
            298.67
          ],
          [
            1.987576,
            44.03238,
            295.24
          ],
          [
            1.987406,
            44.032355,
            294.94
          ],
          [
            1.987233,
            44.03229,
            294.86
          ],
          [
            1.986997,
            44.032124,
            294.8
          ],
          [
            1.986171,
            44.031468,
            297.92
          ],
          [
            1.985584,
            44.031128,
            299.42
          ],
          [
            1.984331,
            44.030462,
            298.84
          ],
          [
            1.983561,
            44.030188,
            297.78
          ],
          [
            1.98294,
            44.030038,
            297.84
          ],
          [
            1.982523,
            44.029986,
            298.21
          ],
          [
            1.981918,
            44.029945,
            298.98
          ],
          [
            1.980335,
            44.029611,
            301.06
          ],
          [
            1.979634,
            44.029534,
            302.3
          ],
          [
            1.978165,
            44.029471,
            303.19
          ],
          [
            1.977829,
            44.029424,
            303.37
          ],
          [
            1.97636,
            44.029109,
            297.13
          ],
          [
            1.975394,
            44.028836,
            292.31
          ],
          [
            1.973182,
            44.028122,
            284.92
          ],
          [
            1.972339,
            44.027857,
            286.55
          ],
          [
            1.972013,
            44.027795,
            287.53
          ],
          [
            1.971641,
            44.027756,
            288.74
          ],
          [
            1.971002,
            44.027665,
            291.51
          ],
          [
            1.970577,
            44.027565,
            293.98
          ],
          [
            1.968997,
            44.027163,
            298.18
          ],
          [
            1.96881,
            44.027124,
            298.47
          ],
          [
            1.96865,
            44.0271,
            298.76
          ],
          [
            1.968362,
            44.027085,
            299.27
          ],
          [
            1.968263,
            44.027096,
            299.33
          ],
          [
            1.968213,
            44.02712,
            299.18
          ],
          [
            1.959703,
            44.024142,
            297.94
          ],
          [
            1.95937,
            44.024044,
            297.81
          ],
          [
            1.959155,
            44.024001,
            297.2
          ],
          [
            1.958885,
            44.023966,
            297.05
          ],
          [
            1.958579,
            44.023967,
            297.04
          ],
          [
            1.958484,
            44.023978,
            297.17
          ],
          [
            1.958346,
            44.023844,
            297.79
          ],
          [
            1.958125,
            44.023786,
            298.02
          ],
          [
            1.957724,
            44.023637,
            297.77
          ],
          [
            1.957335,
            44.023528,
            297.22
          ],
          [
            1.957077,
            44.023495,
            296.67
          ],
          [
            1.956311,
            44.023335,
            294.05
          ],
          [
            1.955076,
            44.023141,
            289.32
          ],
          [
            1.954303,
            44.023062,
            284.79
          ],
          [
            1.953779,
            44.022936,
            281.02
          ],
          [
            1.953148,
            44.02275,
            276.83
          ],
          [
            1.952867,
            44.022634,
            275.49
          ],
          [
            1.952743,
            44.022553,
            274.95
          ],
          [
            1.95253,
            44.022231,
            273.72
          ],
          [
            1.951966,
            44.02142,
            271.83
          ],
          [
            1.951908,
            44.021376,
            271.76
          ],
          [
            1.951051,
            44.021146,
            271.5
          ],
          [
            1.950977,
            44.02103,
            271.69
          ],
          [
            1.950911,
            44.020875,
            271.41
          ],
          [
            1.950944,
            44.020645,
            271.45
          ],
          [
            1.951453,
            44.01829,
            271.59
          ],
          [
            1.950859,
            44.018595,
            274.79
          ],
          [
            1.94972,
            44.019052,
            281.24
          ],
          [
            1.949377,
            44.018564,
            279.65
          ],
          [
            1.949211,
            44.018298,
            277.16
          ],
          [
            1.948903,
            44.017633,
            270.37
          ],
          [
            1.948749,
            44.017376,
            268.41
          ],
          [
            1.948508,
            44.017061,
            267.37
          ],
          [
            1.948354,
            44.016822,
            267.79
          ],
          [
            1.948213,
            44.016623,
            268.85
          ],
          [
            1.948077,
            44.016472,
            270.06
          ],
          [
            1.947905,
            44.016313,
            271.7
          ],
          [
            1.94743,
            44.015927,
            276.74
          ],
          [
            1.947159,
            44.015728,
            279.65
          ],
          [
            1.946974,
            44.015575,
            281.73
          ],
          [
            1.946409,
            44.014986,
            288.84
          ],
          [
            1.946248,
            44.014762,
            291.4
          ],
          [
            1.945755,
            44.014253,
            294.96
          ],
          [
            1.94569,
            44.014226,
            295.0
          ],
          [
            1.945438,
            44.014388,
            295.8
          ],
          [
            1.945087,
            44.014562,
            296.0
          ],
          [
            1.944999,
            44.014596,
            295.94
          ],
          [
            1.944618,
            44.014697,
            294.97
          ],
          [
            1.94444,
            44.014724,
            294.44
          ],
          [
            1.944293,
            44.014801,
            294.5
          ],
          [
            1.944,
            44.015059,
            293.83
          ],
          [
            1.943689,
            44.015395,
            292.82
          ],
          [
            1.943579,
            44.015542,
            291.99
          ],
          [
            1.943326,
            44.01545,
            292.4
          ],
          [
            1.943047,
            44.015298,
            291.81
          ],
          [
            1.942713,
            44.014986,
            290.07
          ],
          [
            1.9423,
            44.014674,
            287.58
          ],
          [
            1.942104,
            44.014551,
            286.4
          ],
          [
            1.94188,
            44.014513,
            285.33
          ],
          [
            1.941377,
            44.014565,
            283.21
          ],
          [
            1.940659,
            44.014608,
            280.37
          ],
          [
            1.940347,
            44.014608,
            279.02
          ],
          [
            1.940032,
            44.014562,
            277.47
          ],
          [
            1.938652,
            44.014281,
            269.2
          ],
          [
            1.938363,
            44.014212,
            267.58
          ],
          [
            1.936593,
            44.013646,
            261.39
          ],
          [
            1.936415,
            44.013559,
            261.23
          ],
          [
            1.936285,
            44.013448,
            261.09
          ],
          [
            1.93614,
            44.013263,
            260.85
          ],
          [
            1.935425,
            44.012285,
            261.21
          ],
          [
            1.935282,
            44.012049,
            262.22
          ],
          [
            1.934925,
            44.011051,
            268.98
          ],
          [
            1.934848,
            44.010955,
            269.74
          ],
          [
            1.934738,
            44.010875,
            270.58
          ],
          [
            1.934596,
            44.010836,
            271.53
          ],
          [
            1.934374,
            44.010839,
            273.26
          ],
          [
            1.934258,
            44.010827,
            274.01
          ],
          [
            1.93368,
            44.010934,
            276.36
          ],
          [
            1.933111,
            44.011022,
            279.8
          ],
          [
            1.93192,
            44.011179,
            286.15
          ],
          [
            1.931324,
            44.011282,
            288.08
          ],
          [
            1.931112,
            44.011351,
            288.61
          ],
          [
            1.930885,
            44.011492,
            289.27
          ],
          [
            1.93055,
            44.011752,
            289.96
          ],
          [
            1.930435,
            44.01177,
            290.0
          ],
          [
            1.930431,
            44.011644,
            289.56
          ],
          [
            1.930409,
            44.011508,
            288.77
          ],
          [
            1.930291,
            44.011187,
            287.0
          ],
          [
            1.929539,
            44.009625,
            282.73
          ],
          [
            1.92891,
            44.008288,
            281.55
          ],
          [
            1.928738,
            44.007964,
            280.55
          ],
          [
            1.928527,
            44.007685,
            280.19
          ],
          [
            1.928353,
            44.007514,
            279.91
          ],
          [
            1.928175,
            44.00736,
            279.79
          ],
          [
            1.927062,
            44.006691,
            278.67
          ],
          [
            1.926521,
            44.007039,
            278.33
          ],
          [
            1.926303,
            44.007168,
            278.21
          ],
          [
            1.925638,
            44.007343,
            277.52
          ],
          [
            1.925255,
            44.007484,
            276.65
          ],
          [
            1.924341,
            44.008165,
            272.9
          ]
        ]
      }
    },
    {
      "type": "Feature",
      "properties": {
        "source": "Circuit_de_Carmaux.gpx",
        "type": "route"
      },
      "geometry": {
        "type": "LineString",
        "coordinates": [
          [
            2.158503,
            44.048511
          ],
          [
            2.158024,
            44.048581
          ],
          [
            2.155006,
            44.049533
          ],
          [
            2.155042,
            44.049814
          ],
          [
            2.153718,
            44.049894
          ],
          [
            2.153938,
            44.051971
          ],
          [
            2.149476,
            44.051669
          ],
          [
            2.14963,
            44.05502
          ],
          [
            2.148702,
            44.055298
          ],
          [
            2.148221,
            44.055442
          ],
          [
            2.147653,
            44.055613
          ],
          [
            2.147796,
            44.055795
          ],
          [
            2.147906,
            44.055988
          ],
          [
            2.147903,
            44.056126
          ],
          [
            2.147419,
            44.056273
          ],
          [
            2.147225,
            44.05592
          ],
          [
            2.146418,
            44.055472
          ],
          [
            2.14598,
            44.055269
          ],
          [
            2.14598,
            44.055269
          ],
          [
            2.145844,
            44.054946
          ],
          [
            2.142308,
            44.050319
          ],
          [
            2.14077,
            44.050196
          ],
          [
            2.13995,
            44.04965
          ],
          [
            2.138767,
            44.04912
          ],
          [
            2.129732,
            44.043609
          ],
          [
            2.129504,
            44.043727
          ],
          [
            2.125285,
            44.043531
          ],
          [
            2.062534,
            44.044105
          ],
          [
            2.04453,
            44.045555
          ],
          [
            2.044213,
            44.045527
          ],
          [
            2.04415,
            44.045639
          ],
          [
            2.04324,
            44.045968
          ],
          [
            2.03892,
            44.044657
          ],
          [
            2.035038,
            44.046873
          ],
          [
            2.026679,
            44.046902
          ],
          [
            1.968213,
            44.02712
          ],
          [
            1.958484,
            44.023978
          ],
          [
            1.951453,
            44.01829
          ],
          [
            1.94972,
            44.019052
          ],
          [
            1.94569,
            44.014226
          ],
          [
            1.943579,
            44.015542
          ],
          [
            1.930435,
            44.01177
          ],
          [
            1.927062,
            44.006691
          ],
          [
            1.924341,
            44.008165
          ]
        ]
      }
    }
  ]
}