{
  "type": "FeatureCollection",
  "features": [
    {
      "type": "Feature",
      "properties": {
        "name": "GraphHopper Track",
        "source": "Vallée_du_Dourdou.gpx",
        "type": "track"
      },
      "geometry": {
        "type": "LineString",
        "coordinates": [
          [
            2.395565,
            44.594505,
            261.38
          ],
          [
            2.395613,
            44.594319,
            262.82
          ],
          [
            2.395753,
            44.594159,
            264.42
          ],
          [
            2.395971,
            44.593985,
            266.58
          ],
          [
            2.396143,
            44.5939,
            268.08
          ],
          [
            2.396329,
            44.59383,
            269.61
          ],
          [
            2.397126,
            44.593655,
            275.14
          ],
          [
            2.397302,
            44.593596,
            276.38
          ],
          [
            2.397786,
            44.593369,
            280.21
          ],
          [
            2.39801,
            44.593291,
            281.43
          ],
          [
            2.398248,
            44.593165,
            282.87
          ],
          [
            2.398372,
            44.593064,
            283.8
          ],
          [
            2.398469,
            44.59294,
            284.84
          ],
          [
            2.398522,
            44.592773,
            286.26
          ],
          [
            2.398551,
            44.592718,
            286.77
          ],
          [
            2.398584,
            44.592712,
            286.98
          ],
          [
            2.398584,
            44.592712,
            286.98
          ],
          [
            2.398551,
            44.592718,
            286.77
          ],
          [
            2.398522,
            44.592773,
            286.26
          ],
          [
            2.398469,
            44.59294,
            284.84
          ],
          [
            2.398372,
            44.593064,
            283.8
          ],
          [
            2.398248,
            44.593165,
            282.87
          ],
          [
            2.39801,
            44.593291,
            281.43
          ],
          [
            2.397786,
            44.593369,
            280.21
          ],
          [
            2.397302,
            44.593596,
            276.38
          ],
          [
            2.397126,
            44.593655,
            275.14
          ],
          [
            2.396329,
            44.59383,
            269.61
          ],
          [
            2.396143,
            44.5939,
            268.08
          ],
          [
            2.395971,
            44.593985,
            266.58
          ],
          [
            2.395753,
            44.594159,
            264.42
          ],
          [
            2.395613,
            44.594319,
            262.82
          ],
          [
            2.395565,
            44.594505,
            261.38
          ]
        ]
      }
    },
    {
      "type": "Feature",
      "properties": {
        "source": "Vallée_du_Dourdou.gpx",
        "type": "route"
      },
      "geometry": {
        "type": "LineString",
        "coordinates": [
          [
            2.395565,
            44.594505
          ],
          [
            2.398584,
            44.592712
          ],
          [
            2.398584,
            44.592712
          ],
          [
            2.395565,
            44.594505
          ]
        ]
      }
    }
  ]
}