{
  "type": "FeatureCollection",
  "features": [
    {
      "type": "Feature",
      "properties": {
        "name": "GraphHopper Track",
        "source": "Parcours_forestiers.gpx",
        "type": "track"
      },
      "geometry": {
        "type": "LineString",
        "coordinates": [
          [
            1.165551,
            43.845465,
            153.58
          ],
          [
            1.166589,
            43.846243,
            152.21
          ],
          [
            1.167005,
            43.846492,
            152.0
          ],
          [
            1.168017,
            43.847071,
            149.0
          ],
          [
            1.16872,
            43.847488,
            147.99
          ],
          [
            1.168261,
            43.847686,
            146.37
          ],
          [
            1.168036,
            43.847766,
            146.46
          ],
          [
            1.167818,
            43.847867,
            145.99
          ],
          [
            1.16722,
            43.84821,
            142.2
          ],
          [
            1.167028,
            43.848309,
            140.61
          ],
          [
            1.166853,
            43.848381,
            139.07
          ],
          [
            1.166635,
            43.848437,
            137.24
          ],
          [
            1.16498,
            43.848803,
            127.33
          ],
          [
            1.16461,
            43.848892,
            126.17
          ],
          [
            1.164391,
            43.848955,
            125.67
          ],
          [
            1.163518,
            43.849297,
            126.37
          ],
          [
            1.163451,
            43.849313,
            126.65
          ],
          [
            1.163407,
            43.849304,
            126.9
          ],
          [
            1.163383,
            43.849403,
            126.98
          ],
          [
            1.163398,
            43.849508,
            126.86
          ],
          [
            1.163475,
            43.84967,
            126.64
          ],
          [
            1.164011,
            43.850521,
            126.32
          ],
          [
            1.164019,
            43.850775,
            126.76
          ],
          [
            1.16391,
            43.853128,
            130.95
          ],
          [
            1.165215,
            43.853062,
            128.79
          ],
          [
            1.16545,
            43.853067,
            128.44
          ],
          [
            1.165646,
            43.853085,
            128.17
          ],
          [
            1.165848,
            43.853118,
            127.87
          ],
          [
            1.166015,
            43.853154,
            127.67
          ],
          [
            1.166634,
            43.853336,
            127.31
          ],
          [
            1.169482,
            43.854201,
            125.98
          ],
          [
            1.17009,
            43.854369,
            126.07
          ],
          [
            1.170459,
            43.854453,
            126.1
          ],
          [
            1.170939,
            43.854532,
            125.99
          ],
          [
            1.173773,
            43.854819,
            122.34
          ],
          [
            1.173955,
            43.854846,
            121.92
          ],
          [
            1.174247,
            43.85491,
            121.8
          ],
          [
            1.174684,
            43.85503,
            121.42
          ],
          [
            1.175007,
            43.855108,
            121.36
          ],
          [
            1.175601,
            43.855218,
            121.31
          ],
          [
            1.175601,
            43.855218,
            121.31
          ],
          [
            1.175007,
            43.855108,
            121.36
          ],
          [
            1.174684,
            43.85503,
            121.42
          ],
          [
            1.174247,
            43.85491,
            121.8
          ],
          [
            1.173955,
            43.854846,
            121.92
          ],
          [
            1.173773,
            43.854819,
            122.34
          ],
          [
            1.170939,
            43.854532,
            125.99
          ],
          [
            1.170459,
            43.854453,
            126.1
          ],
          [
            1.17009,
            43.854369,
            126.07
          ],
          [
            1.169482,
            43.854201,
            125.98
          ],
          [
            1.166634,
            43.853336,
            127.31
          ],
          [
            1.166015,
            43.853154,
            127.67
          ],
          [
            1.165848,
            43.853118,
            127.87
          ],
          [
            1.165646,
            43.853085,
            128.17
          ],
          [
            1.16545,
            43.853067,
            128.44
          ],
          [
            1.165215,
            43.853062,
            128.79
          ],
          [
            1.16391,
            43.853128,
            130.95
          ],
          [
            1.164019,
            43.850775,
            126.76
          ],
          [
            1.164011,
            43.850521,
            126.32
          ],
          [
            1.163475,
            43.84967,
            126.64
          ],
          [
            1.163398,
            43.849508,
            126.86
          ],
          [
            1.163383,
            43.849403,
            126.98
          ],
          [
            1.163407,
            43.849304,
            126.9
          ],
          [
            1.163451,
            43.849313,
            126.65
          ],
          [
            1.163518,
            43.849297,
            126.37
          ],
          [
            1.164391,
            43.848955,
            125.67
          ],
          [
            1.16461,
            43.848892,
            126.17
          ],
          [
            1.16498,
            43.848803,
            127.33
          ],
          [
            1.166635,
            43.848437,
            137.24
          ],
          [
            1.166853,
            43.848381,
            139.07
          ],
          [
            1.167028,
            43.848309,
            140.61
          ],
          [
            1.16722,
            43.84821,
            142.2
          ],
          [
            1.167818,
            43.847867,
            145.99
          ],
          [
            1.168036,
            43.847766,
            146.46
          ],
          [
            1.168261,
            43.847686,
            146.37
          ],
          [
            1.16872,
            43.847488,
            147.99
          ],
          [
            1.168017,
            43.847071,
            149.0
          ],
          [
            1.167005,
            43.846492,
            152.0
          ],
          [
            1.166589,
            43.846243,
            152.21
          ],
          [
            1.165551,
            43.845465,
            153.58
          ]
        ]
      }
    },
    {
      "type": "Feature",
      "properties": {
        "source": "Parcours_forestiers.gpx",
        "type": "route"
      },
      "geometry": {
        "type": "LineString",
        "coordinates": [
          [
            1.165551,
            43.845465
          ],
          [
            1.16872,
            43.847488
          ],
          [
            1.163407,
            43.849304
          ],
          [
            1.16391,
            43.853128
          ],
          [
            1.175601,
            43.855218
          ],
          [
            1.175601,
            43.855218
          ],
          [
            1.16391,
            43.853128
          ],
          [
            1.163407,
            43.849304
          ],
          [
            1.16872,
            43.847488
          ],
          [
            1.165551,
            43.845465
          ]
        ]
      }
    }
  ]
}