{
  "type": "FeatureCollection",
  "features": [
    {
      "type": "Feature",
      "properties": {
        "name": "GraphHopper Track",
        "source": "Boucle_de_Blagnac.gpx",
        "type": "track"
      },
      "geometry": {
        "type": "LineString",
        "coordinates": [
          [
            1.329376,
            43.585261,
            161.31
          ],
          [
            1.329614,
            43.5854,
            161.0
          ],
          [
            1.3304,
            43.584753,
            160.0
          ],
          [
            1.330448,
            43.584758,
            160.0
          ],
          [
            1.330489,
            43.58474,
            160.0
          ],
          [
            1.330554,
            43.584768,
            160.0
          ],
          [
            1.330726,
            43.584885,
            160.0
          ],
          [
            1.33226,
            43.585633,
            159.83
          ],
          [
            1.332663,
            43.585209,
            159.0
          ],
          [
            1.333103,
            43.585449,
            159.17
          ],
          [
            1.333275,
            43.585631,
            159.27
          ],
          [
            1.333364,
            43.585686,
            159.0
          ],
          [
            1.333567,
            43.585793,
            159.0
          ],
          [
            1.333649,
            43.58586,
            158.99
          ],
          [
            1.333882,
            43.586014,
            158.78
          ],
          [
            1.334348,
            43.586354,
            158.98
          ],
          [
            1.334389,
            43.586392,
            159.0
          ],
          [
            1.334423,
            43.586451,
            159.0
          ],
          [
            1.334431,
            43.586487,
            159.0
          ],
          [
            1.334514,
            43.586493,
            159.0
          ],
          [
            1.334624,
            43.586566,
            159.0
          ],
          [
            1.334721,
            43.586648,
            159.0
          ],
          [
            1.334732,
            43.586708,
            159.0
          ],
          [
            1.334829,
            43.586723,
            159.0
          ],
          [
            1.334923,
            43.586771,
            159.0
          ],
          [
            1.336082,
            43.587625,
            159.89
          ],
          [
            1.336146,
            43.587692,
            160.0
          ],
          [
            1.336187,
            43.58776,
            160.0
          ],
          [
            1.336244,
            43.588009,
            160.0
          ],
          [
            1.336267,
            43.588059,
            160.0
          ],
          [
            1.336309,
            43.588105,
            160.0
          ],
          [
            1.337432,
            43.589078,
            159.0
          ],
          [
            1.337788,
            43.588866,
            159.0
          ],
          [
            1.337817,
            43.588858,
            159.0
          ],
          [
            1.337875,
            43.588858,
            159.0
          ],
          [
            1.337948,
            43.58888,
            159.0
          ],
          [
            1.338255,
            43.589155,
            159.0
          ],
          [
            1.338399,
            43.589221,
            159.0
          ],
          [
            1.338781,
            43.588976,
            158.0
          ],
          [
            1.338822,
            43.589007,
            158.12
          ],
          [
            1.339084,
            43.589033,
            158.19
          ],
          [
            1.339577,
            43.58945,
            158.0
          ],
          [
            1.339638,
            43.589517,
            158.2
          ],
          [
            1.340607,
            43.590355,
            158.03
          ],
          [
            1.340667,
            43.59039,
            158.08
          ],
          [
            1.340689,
            43.590445,
            158.12
          ],
          [
            1.340691,
            43.590496,
            158.12
          ],
          [
            1.340678,
            43.590532,
            158.15
          ],
          [
            1.34064,
            43.590577,
            158.22
          ],
          [
            1.340176,
            43.59087,
            159.0
          ],
          [
            1.340242,
            43.590927,
            159.0
          ],
          [
            1.340172,
            43.590976,
            159.0
          ],
          [
            1.340168,
            43.590992,
            159.0
          ],
          [
            1.340126,
            43.59102,
            159.0
          ],
          [
            1.340866,
            43.591702,
            158.97
          ],
          [
            1.341607,
            43.592268,
            158.95
          ],
          [
            1.341756,
            43.592377,
            158.5
          ],
          [
            1.341829,
            43.592412,
            158.44
          ],
          [
            1.342248,
            43.592426,
            158.17
          ],
          [
            1.342295,
            43.592417,
            158.13
          ],
          [
            1.342369,
            43.59238,
            158.09
          ],
          [
            1.343355,
            43.591707,
            157.04
          ],
          [
            1.343472,
            43.591655,
            157.0
          ],
          [
            1.343596,
            43.591679,
            157.0
          ],
          [
            1.344396,
            43.591718,
            157.0
          ],
          [
            1.344447,
            43.591712,
            157.0
          ],
          [
            1.344504,
            43.591687,
            156.99
          ],
          [
            1.344543,
            43.591652,
            156.99
          ],
          [
            1.344559,
            43.591624,
            156.98
          ],
          [
            1.344575,
            43.59137,
            156.94
          ],
          [
            1.344587,
            43.591312,
            156.93
          ],
          [
            1.344609,
            43.591266,
            156.92
          ],
          [
            1.34465,
            43.591221,
            156.91
          ],
          [
            1.345169,
            43.590829,
            156.71
          ],
          [
            1.345441,
            43.591026,
            157.0
          ],
          [
            1.345493,
            43.591056,
            157.0
          ],
          [
            1.34554,
            43.591067,
            157.0
          ],
          [
            1.345812,
            43.59126,
            156.88
          ],
          [
            1.345686,
            43.591393,
            156.31
          ],
          [
            1.345708,
            43.591401,
            156.36
          ],
          [
            1.346475,
            43.59193,
            156.62
          ],
          [
            1.34654,
            43.591881,
            156.22
          ],
          [
            1.346648,
            43.591953,
            156.77
          ],
          [
            1.346668,
            43.591982,
            156.83
          ],
          [
            1.346733,
            43.592311,
            157.0
          ],
          [
            1.346799,
            43.592306,
            157.0
          ],
          [
            1.346917,
            43.592318,
            156.73
          ],
          [
            1.346972,
            43.592316,
            156.62
          ],
          [
            1.347096,
            43.592295,
            156.0
          ],
          [
            1.347154,
            43.592677,
            156.58
          ],
          [
            1.347025,
            43.593381,
            156.77
          ],
          [
            1.347021,
            43.593512,
            156.42
          ],
          [
            1.347064,
            43.593617,
            156.25
          ],
          [
            1.347204,
            43.593763,
            156.49
          ],
          [
            1.347327,
            43.59385,
            156.67
          ],
          [
            1.347636,
            43.594483,
            156.09
          ],
          [
            1.348012,
            43.595127,
            157.0
          ],
          [
            1.348364,
            43.595629,
            156.38
          ],
          [
            1.348789,
            43.596127,
            156.0
          ],
          [
            1.3492,
            43.596542,
            156.0
          ],
          [
            1.349544,
            43.596849,
            156.0
          ],
          [
            1.349599,
            43.596931,
            155.99
          ],
          [
            1.349627,
            43.597137,
            155.91
          ],
          [
            1.349738,
            43.597294,
            156.0
          ],
          [
            1.349833,
            43.597357,
            156.0
          ],
          [
            1.349911,
            43.597391,
            156.0
          ],
          [
            1.350281,
            43.597486,
            156.0
          ],
          [
            1.350578,
            43.597581,
            155.95
          ],
          [
            1.350881,
            43.597699,
            155.86
          ],
          [
            1.351211,
            43.597859,
            155.8
          ],
          [
            1.351792,
            43.598215,
            156.0
          ],
          [
            1.352255,
            43.598531,
            155.4
          ],
          [
            1.352972,
            43.59908,
            155.76
          ],
          [
            1.353285,
            43.59934,
            155.0
          ],
          [
            1.353568,
            43.599593,
            155.0
          ],
          [
            1.354062,
            43.600103,
            155.05
          ],
          [
            1.354521,
            43.600619,
            155.0
          ],
          [
            1.354804,
            43.600473,
            154.2
          ],
          [
            1.354925,
            43.600598,
            154.86
          ],
          [
            1.355021,
            43.60068,
            155.0
          ],
          [
            1.355089,
            43.600715,
            154.97
          ],
          [
            1.355195,
            43.600726,
            154.78
          ],
          [
            1.355279,
            43.600708,
            154.41
          ],
          [
            1.355637,
            43.600558,
            154.34
          ],
          [
            1.356639,
            43.600113,
            154.3
          ],
          [
            1.356765,
            43.600268,
            154.39
          ],
          [
            1.357026,
            43.600183,
            154.0
          ],
          [
            1.357092,
            43.600165,
            154.0
          ],
          [
            1.357164,
            43.60016,
            154.0
          ],
          [
            1.357235,
            43.600183,
            154.01
          ],
          [
            1.357339,
            43.600202,
            154.03
          ],
          [
            1.357522,
            43.600194,
            154.06
          ],
          [
            1.357641,
            43.600224,
            154.17
          ],
          [
            1.357667,
            43.600213,
            154.11
          ],
          [
            1.358072,
            43.600382,
            154.54
          ],
          [
            1.358147,
            43.600427,
            154.66
          ],
          [
            1.358319,
            43.60056,
            154.21
          ],
          [
            1.358423,
            43.600661,
            154.08
          ],
          [
            1.35846,
            43.600713,
            154.05
          ],
          [
            1.358471,
            43.60075,
            154.01
          ],
          [
            1.358477,
            43.600881,
            154.0
          ],
          [
            1.358476,
            43.600916,
            154.0
          ],
          [
            1.358456,
            43.600963,
            154.0
          ],
          [
            1.35856,
            43.601028,
            154.0
          ],
          [
            1.35858,
            43.601063,
            154.0
          ],
          [
            1.35866,
            43.601055,
            154.0
          ],
          [
            1.358735,
            43.601069,
            154.0
          ],
          [
            1.358827,
            43.601076,
            154.0
          ],
          [
            1.358911,
            43.601109,
            154.0
          ],
          [
            1.358946,
            43.60109,
            154.0
          ],
          [
            1.359038,
            43.601157,
            154.0
          ],
          [
            1.360836,
            43.604084,
            153.0
          ],
          [
            1.361001,
            43.604251,
            153.0
          ],
          [
            1.361134,
            43.604303,
            153.0
          ],
          [
            1.361209,
            43.604334,
            153.18
          ],
          [
            1.361268,
            43.604389,
            153.3
          ],
          [
            1.36129,
            43.604472,
            153.28
          ],
          [
            1.361233,
            43.604627,
            153.01
          ],
          [
            1.361245,
            43.604765,
            153.0
          ],
          [
            1.361311,
            43.604874,
            153.0
          ],
          [
            1.361395,
            43.604965,
            153.0
          ],
          [
            1.361487,
            43.605036,
            153.0
          ],
          [
            1.361618,
            43.605114,
            153.0
          ],
          [
            1.361781,
            43.605179,
            153.0
          ],
          [
            1.362048,
            43.605249,
            153.0
          ],
          [
            1.362616,
            43.605395,
            152.28
          ],
          [
            1.363501,
            43.605602,
            153.0
          ],
          [
            1.363565,
            43.605651,
            153.0
          ],
          [
            1.363541,
            43.605676,
            153.0
          ],
          [
            1.36354,
            43.605708,
            153.0
          ],
          [
            1.363563,
            43.605736,
            153.0
          ],
          [
            1.363611,
            43.60575,
            153.0
          ],
          [
            1.363614,
            43.605967,
            153.0
          ],
          [
            1.363644,
            43.606046,
            153.0
          ],
          [
            1.363738,
            43.606234,
            153.0
          ],
          [
            1.363896,
            43.606579,
            153.0
          ],
          [
            1.363942,
            43.606706,
            153.0
          ],
          [
            1.364265,
            43.607352,
            153.0
          ],
          [
            1.364295,
            43.607421,
            153.0
          ],
          [
            1.364306,
            43.607472,
            153.0
          ],
          [
            1.364376,
            43.607508,
            153.0
          ],
          [
            1.364576,
            43.607926,
            153.0
          ],
          [
            1.364556,
            43.607978,
            153.0
          ],
          [
            1.364659,
            43.608199,
            153.0
          ],
          [
            1.364615,
            43.608237,
            153.0
          ],
          [
            1.364695,
            43.608296,
            152.91
          ],
          [
            1.364735,
            43.608358,
            152.67
          ],
          [
            1.364749,
            43.608412,
            152.38
          ],
          [
            1.364745,
            43.608474,
            152.16
          ],
          [
            1.364655,
            43.608674,
            151.16
          ],
          [
            1.364658,
            43.608768,
            151.18
          ],
          [
            1.364705,
            43.608863,
            151.19
          ],
          [
            1.364772,
            43.608969,
            151.19
          ],
          [
            1.36483,
            43.609036,
            151.19
          ],
          [
            1.364924,
            43.609122,
            151.38
          ],
          [
            1.364992,
            43.609142,
            151.31
          ],
          [
            1.365116,
            43.609151,
            151.56
          ],
          [
            1.365303,
            43.609151,
            151.93
          ],
          [
            1.365415,
            43.609134,
            152.15
          ],
          [
            1.365613,
            43.609088,
            152.56
          ],
          [
            1.365721,
            43.609117,
            152.61
          ],
          [
            1.36571,
            43.609161,
            152.38
          ],
          [
            1.365722,
            43.609183,
            152.41
          ],
          [
            1.365771,
            43.60921,
            152.54
          ],
          [
            1.365833,
            43.609206,
            152.67
          ],
          [
            1.365893,
            43.609233,
            152.53
          ],
          [
            1.366531,
            43.609194,
            152.0
          ],
          [
            1.366608,
            43.609219,
            152.0
          ],
          [
            1.366983,
            43.609194,
            152.0
          ],
          [
            1.367034,
            43.609171,
            152.0
          ],
          [
            1.367463,
            43.609145,
            152.17
          ],
          [
            1.368116,
            43.609115,
            152.01
          ],
          [
            1.368325,
            43.609113,
            152.0
          ],
          [
            1.368701,
            43.609117,
            151.73
          ],
          [
            1.368909,
            43.609135,
            151.8
          ],
          [
            1.369247,
            43.609199,
            152.0
          ],
          [
            1.369264,
            43.609223,
            152.0
          ],
          [
            1.369537,
            43.609295,
            152.0
          ],
          [
            1.369731,
            43.609356,
            152.0
          ],
          [
            1.370145,
            43.609539,
            151.83
          ],
          [
            1.370251,
            43.609669,
            151.67
          ],
          [
            1.370265,
            43.609789,
            151.08
          ],
          [
            1.370337,
            43.609873,
            151.0
          ],
          [
            1.370453,
            43.609913,
            151.0
          ],
          [
            1.370559,
            43.609916,
            151.16
          ],
          [
            1.370751,
            43.60986,
            151.77
          ],
          [
            1.370891,
            43.609883,
            151.94
          ],
          [
            1.371186,
            43.609973,
            152.0
          ],
          [
            1.371771,
            43.61023,
            151.81
          ],
          [
            1.371855,
            43.610289,
            151.79
          ],
          [
            1.371902,
            43.610334,
            151.74
          ],
          [
            1.371921,
            43.610364,
            151.62
          ],
          [
            1.37192,
            43.610392,
            151.5
          ],
          [
            1.371949,
            43.610399,
            151.59
          ],
          [
            1.372042,
            43.610671,
            152.0
          ],
          [
            1.372085,
            43.610761,
            152.0
          ],
          [
            1.372138,
            43.610791,
            151.98
          ],
          [
            1.372105,
            43.610826,
            151.83
          ],
          [
            1.372284,
            43.610889,
            151.93
          ],
          [
            1.372328,
            43.610912,
            151.87
          ],
          [
            1.372363,
            43.610955,
            151.84
          ],
          [
            1.372355,
            43.611103,
            151.41
          ],
          [
            1.372371,
            43.611262,
            151.0
          ],
          [
            1.372834,
            43.611217,
            151.0
          ],
          [
            1.372966,
            43.611197,
            151.0
          ],
          [
            1.373083,
            43.6112,
            151.0
          ],
          [
            1.373242,
            43.611187,
            151.0
          ],
          [
            1.373394,
            43.61116,
            150.91
          ],
          [
            1.374629,
            43.61091,
            150.01
          ],
          [
            1.37461,
            43.610841,
            150.0
          ],
          [
            1.374971,
            43.610768,
            149.86
          ],
          [
            1.375128,
            43.610716,
            149.81
          ],
          [
            1.375276,
            43.610721,
            149.84
          ],
          [
            1.375404,
            43.610751,
            149.8
          ],
          [
            1.375752,
            43.610887,
            150.4
          ],
          [
            1.376002,
            43.611004,
            150.5
          ],
          [
            1.376485,
            43.611208,
            151.07
          ],
          [
            1.376904,
            43.611338,
            151.29
          ],
          [
            1.377477,
            43.611487,
            151.28
          ],
          [
            1.378181,
            43.611634,
            150.96
          ],
          [
            1.378306,
            43.611677,
            150.91
          ],
          [
            1.378505,
            43.61179,
            151.07
          ],
          [
            1.378637,
            43.611926,
            151.38
          ],
          [
            1.378669,
            43.611981,
            151.26
          ],
          [
            1.37875,
            43.612027,
            151.14
          ],
          [
            1.378766,
            43.612053,
            151.19
          ],
          [
            1.378772,
            43.612115,
            151.31
          ],
          [
            1.378875,
            43.612192,
            151.64
          ],
          [
            1.379013,
            43.612284,
            151.69
          ],
          [
            1.379089,
            43.612317,
            151.65
          ],
          [
            1.379311,
            43.612379,
            151.6
          ],
          [
            1.3815,
            43.612809,
            150.85
          ],
          [
            1.38158,
            43.612818,
            150.79
          ],
          [
            1.381755,
            43.612822,
            150.64
          ],
          [
            1.381866,
            43.612811,
            150.54
          ],
          [
            1.381957,
            43.612794,
            150.49
          ],
          [
            1.382663,
            43.612529,
            149.0
          ],
          [
            1.382719,
            43.612602,
            149.0
          ],
          [
            1.383135,
            43.612454,
            147.98
          ],
          [
            1.383295,
            43.612404,
            147.62
          ],
          [
            1.383477,
            43.612366,
            147.23
          ],
          [
            1.383557,
            43.612358,
            147.12
          ],
          [
            1.383703,
            43.612363,
            146.74
          ],
          [
            1.383772,
            43.612385,
            146.83
          ],
          [
            1.3839,
            43.612403,
            146.81
          ],
          [
            1.384058,
            43.612443,
            146.83
          ],
          [
            1.384208,
            43.612507,
            146.77
          ],
          [
            1.385402,
            43.613202,
            145.83
          ],
          [
            1.385937,
            43.613552,
            145.74
          ],
          [
            1.386445,
            43.613944,
            145.98
          ],
          [
            1.386602,
            43.613836,
            144.12
          ],
          [
            1.386761,
            43.613966,
            144.69
          ],
          [
            1.386753,
            43.614012,
            144.67
          ],
          [
            1.386762,
            43.614031,
            144.66
          ],
          [
            1.386925,
            43.614208,
            144.35
          ],
          [
            1.387066,
            43.61439,
            144.24
          ],
          [
            1.38742,
            43.615004,
            143.61
          ],
          [
            1.387495,
            43.615169,
            143.47
          ],
          [
            1.387594,
            43.615548,
            143.39
          ],
          [
            1.387675,
            43.615782,
            143.85
          ],
          [
            1.387709,
            43.615803,
            143.85
          ],
          [
            1.387756,
            43.615808,
            143.68
          ],
          [
            1.387778,
            43.615866,
            143.88
          ],
          [
            1.387727,
            43.615917,
            144.0
          ],
          [
            1.388034,
            43.616605,
            144.98
          ],
          [
            1.388386,
            43.617337,
            146.15
          ],
          [
            1.388417,
            43.617377,
            146.16
          ],
          [
            1.388461,
            43.617399,
            146.05
          ],
          [
            1.388485,
            43.617453,
            145.96
          ],
          [
            1.388747,
            43.617391,
            142.77
          ],
          [
            1.388768,
            43.61744,
            142.65
          ],
          [
            1.389063,
            43.617933,
            141.97
          ],
          [
            1.389264,
            43.6183,
            141.56
          ],
          [
            1.389401,
            43.618615,
            141.32
          ],
          [
            1.389506,
            43.619029,
            141.29
          ],
          [
            1.389589,
            43.619137,
            140.81
          ],
          [
            1.389599,
            43.619293,
            141.76
          ],
          [
            1.389726,
            43.619591,
            143.04
          ],
          [
            1.389747,
            43.619714,
            143.63
          ],
          [
            1.389768,
            43.620026,
            145.0
          ],
          [
            1.389795,
            43.6201,
            145.36
          ],
          [
            1.389866,
            43.620245,
            146.1
          ],
          [
            1.390009,
            43.620488,
            146.96
          ],
          [
            1.390289,
            43.620813,
            147.91
          ],
          [
            1.39042,
            43.620866,
            147.96
          ],
          [
            1.390533,
            43.621017,
            147.49
          ],
          [
            1.390752,
            43.62113,
            147.26
          ],
          [
            1.390732,
            43.621147,
            147.6
          ],
          [
            1.390944,
            43.621271,
            147.28
          ],
          [
            1.39107,
            43.621359,
            146.79
          ],
          [
            1.391253,
            43.621522,
            145.98
          ],
          [
            1.391348,
            43.621689,
            145.28
          ],
          [
            1.391389,
            43.6218,
            144.81
          ],
          [
            1.391425,
            43.62197,
            144.19
          ],
          [
            1.391375,
            43.621989,
            144.45
          ],
          [
            1.391441,
            43.622109,
            144.78
          ],
          [
            1.391506,
            43.622171,
            144.77
          ],
          [
            1.391493,
            43.622253,
            144.94
          ],
          [
            1.391447,
            43.622289,
            145.08
          ],
          [
            1.390319,
            43.622808,
            146.61
          ],
          [
            1.390185,
            43.622806,
            147.88
          ],
          [
            1.390057,
            43.622858,
            148.82
          ],
          [
            1.389792,
            43.622862,
            148.95
          ],
          [
            1.389675,
            43.622891,
            148.98
          ],
          [
            1.389563,
            43.62294,
            149.0
          ],
          [
            1.389462,
            43.622999,
            149.0
          ],
          [
            1.389538,
            43.62306,
            149.0
          ],
          [
            1.389549,
            43.623089,
            149.0
          ],
          [
            1.389519,
            43.623113,
            148.99
          ],
          [
            1.389224,
            43.623294,
            148.18
          ],
          [
            1.387801,
            43.623965,
            148.98
          ],
          [
            1.387121,
            43.624277,
            150.0
          ],
          [
            1.387084,
            43.624293,
            150.0
          ],
          [
            1.387025,
            43.624223,
            150.0
          ],
          [
            1.386322,
            43.624526,
            150.05
          ],
          [
            1.386268,
            43.624465,
            150.0
          ],
          [
            1.385908,
            43.624588,
            150.0
          ],
          [
            1.385789,
            43.624634,
            150.0
          ],
          [
            1.385724,
            43.624668,
            150.0
          ],
          [
            1.385679,
            43.624659,
            150.0
          ],
          [
            1.385658,
            43.624647,
            150.0
          ],
          [
            1.385494,
            43.624743,
            150.0
          ],
          [
            1.384454,
            43.624955,
            150.0
          ],
          [
            1.383966,
            43.62504,
            150.0
          ],
          [
            1.383747,
            43.625062,
            150.0
          ],
          [
            1.383523,
            43.625066,
            150.0
          ],
          [
            1.383525,
            43.625186,
            150.0
          ],
          [
            1.38311,
            43.625245,
            150.0
          ],
          [
            1.382942,
            43.625276,
            150.0
          ],
          [
            1.38282,
            43.625262,
            150.0
          ],
          [
            1.382796,
            43.625245,
            150.0
          ],
          [
            1.382781,
            43.62522,
            150.0
          ],
          [
            1.382666,
            43.625255,
            150.0
          ],
          [
            1.382686,
            43.625307,
            150.0
          ],
          [
            1.382609,
            43.625341,
            150.0
          ],
          [
            1.382562,
            43.625379,
            150.0
          ],
          [
            1.38252,
            43.62544,
            150.0
          ],
          [
            1.382497,
            43.625495,
            150.0
          ],
          [
            1.382376,
            43.625502,
            150.0
          ],
          [
            1.382387,
            43.625596,
            150.0
          ],
          [
            1.382279,
            43.625604,
            150.0
          ],
          [
            1.382165,
            43.625631,
            150.0
          ],
          [
            1.382027,
            43.625688,
            150.0
          ],
          [
            1.381993,
            43.625715,
            150.0
          ],
          [
            1.381972,
            43.625698,
            150.0
          ],
          [
            1.381902,
            43.625673,
            150.0
          ],
          [
            1.381751,
            43.625685,
            150.0
          ],
          [
            1.381625,
            43.625977,
            150.0
          ],
          [
            1.38126,
            43.626644,
            150.0
          ],
          [
            1.381074,
            43.626973,
            150.0
          ],
          [
            1.381015,
            43.627054,
            150.0
          ],
          [
            1.380929,
            43.627203,
            149.91
          ],
          [
            1.380896,
            43.627295,
            149.71
          ],
          [
            1.380425,
            43.628134,
            149.0
          ],
          [
            1.38031,
            43.628293,
            149.0
          ],
          [
            1.380263,
            43.62828,
            149.0
          ],
          [
            1.380133,
            43.628518,
            149.0
          ],
          [
            1.38007,
            43.628619,
            149.0
          ],
          [
            1.380035,
            43.628656,
            149.0
          ],
          [
            1.379855,
            43.628714,
            149.0
          ],
          [
            1.378818,
            43.628906,
            149.0
          ],
          [
            1.378801,
            43.628872,
            149.0
          ],
          [
            1.378704,
            43.62883,
            149.0
          ],
          [
            1.377873,
            43.629821,
            149.0
          ],
          [
            1.377505,
            43.630156,
            149.0
          ],
          [
            1.376857,
            43.630671,
            149.82
          ],
          [
            1.376745,
            43.630746,
            149.68
          ],
          [
            1.376592,
            43.630796,
            149.16
          ],
          [
            1.37654,
            43.630815,
            149.04
          ],
          [
            1.376668,
            43.631015,
            148.75
          ],
          [
            1.375769,
            43.631891,
            149.0
          ],
          [
            1.37571,
            43.632008,
            149.0
          ],
          [
            1.375672,
            43.632111,
            149.0
          ],
          [
            1.375548,
            43.632048,
            149.0
          ],
          [
            1.375496,
            43.632179,
            149.0
          ],
          [
            1.375347,
            43.632101,
            148.87
          ],
          [
            1.375263,
            43.632177,
            148.21
          ],
          [
            1.375229,
            43.632161,
            148.18
          ],
          [
            1.375174,
            43.63215,
            148.11
          ],
          [
            1.375118,
            43.632158,
            148.08
          ],
          [
            1.37507,
            43.632185,
            148.03
          ],
          [
            1.374969,
            43.632267,
            148.0
          ],
          [
            1.374275,
            43.632839,
            148.0
          ],
          [
            1.374268,
            43.632855,
            148.0
          ],
          [
            1.371819,
            43.635204,
            147.86
          ],
          [
            1.371288,
            43.635722,
            148.0
          ],
          [
            1.371219,
            43.63578,
            148.0
          ],
          [
            1.37113,
            43.635835,
            148.0
          ],
          [
            1.370978,
            43.635894,
            147.99
          ],
          [
            1.370434,
            43.636021,
            147.88
          ],
          [
            1.370344,
            43.636032,
            147.83
          ],
          [
            1.370243,
            43.636024,
            147.72
          ],
          [
            1.370133,
            43.635963,
            147.29
          ],
          [
            1.370003,
            43.635929,
            147.19
          ],
          [
            1.369865,
            43.635923,
            147.54
          ],
          [
            1.369742,
            43.635945,
            147.98
          ],
          [
            1.369641,
            43.635984,
            147.62
          ],
          [
            1.369557,
            43.63604,
            147.24
          ],
          [
            1.369494,
            43.63611,
            147.0
          ],
          [
            1.369457,
            43.636188,
            147.0
          ],
          [
            1.369447,
            43.636271,
            147.0
          ],
          [
            1.369322,
            43.636283,
            147.7
          ],
          [
            1.368599,
            43.6363,
            147.86
          ],
          [
            1.368528,
            43.636311,
            147.92
          ],
          [
            1.3684,
            43.636362,
            148.0
          ],
          [
            1.368311,
            43.636443,
            148.0
          ],
          [
            1.367767,
            43.636153,
            148.0
          ],
          [
            1.367721,
            43.636149,
            148.0
          ],
          [
            1.367522,
            43.636211,
            148.0
          ],
          [
            1.367458,
            43.636213,
            148.0
          ],
          [
            1.367355,
            43.636192,
            148.0
          ],
          [
            1.367287,
            43.636154,
            148.0
          ],
          [
            1.367264,
            43.636132,
            148.0
          ],
          [
            1.367221,
            43.636047,
            148.0
          ],
          [
            1.367241,
            43.635931,
            148.0
          ],
          [
            1.367286,
            43.635872,
            148.0
          ],
          [
            1.367409,
            43.635763,
            148.0
          ],
          [
            1.367262,
            43.635663,
            148.0
          ],
          [
            1.367125,
            43.635532,
            148.0
          ],
          [
            1.367003,
            43.635584,
            148.0
          ],
          [
            1.366537,
            43.636047,
            148.0
          ],
          [
            1.366537,
            43.636047,
            148.0
          ],
          [
            1.367003,
            43.635584,
            148.0
          ],
          [
            1.367125,
            43.635532,
            148.0
          ],
          [
            1.367262,
            43.635663,
            148.0
          ],
          [
            1.367409,
            43.635763,
            148.0
          ],
          [
            1.367286,
            43.635872,
            148.0
          ],
          [
            1.367241,
            43.635931,
            148.0
          ],
          [
            1.367221,
            43.636047,
            148.0
          ],
          [
            1.367264,
            43.636132,
            148.0
          ],
          [
            1.367287,
            43.636154,
            148.0
          ],
          [
            1.367355,
            43.636192,
            148.0
          ],
          [
            1.367458,
            43.636213,
            148.0
          ],
          [
            1.367522,
            43.636211,
            148.0
          ],
          [
            1.367721,
            43.636149,
            148.0
          ],
          [
            1.367767,
            43.636153,
            148.0
          ],
          [
            1.368085,
            43.636319,
            148.0
          ],
          [
            1.369551,
            43.637116,
            148.0
          ],
          [
            1.369222,
            43.637397,
            147.98
          ],
          [
            1.369155,
            43.637517,
            148.0
          ],
          [
            1.369189,
            43.637532,
            148.0
          ],
          [
            1.369212,
            43.637555,
            148.0
          ],
          [
            1.369222,
            43.637582,
            148.0
          ],
          [
            1.369218,
            43.63761,
            148.0
          ],
          [
            1.369379,
            43.637638,
            147.58
          ],
          [
            1.369791,
            43.637634,
            147.02
          ],
          [
            1.370275,
            43.637659,
            147.01
          ],
          [
            1.370499,
            43.637693,
            147.01
          ],
          [
            1.370607,
            43.637719,
            147.01
          ],
          [
            1.370808,
            43.637803,
            147.01
          ],
          [
            1.370941,
            43.637878,
            147.01
          ],
          [
            1.371032,
            43.637935,
            147.02
          ],
          [
            1.371191,
            43.638051,
            147.0
          ],
          [
            1.371091,
            43.638289,
            147.05
          ],
          [
            1.371077,
            43.638364,
            147.13
          ],
          [
            1.371086,
            43.638787,
            147.39
          ],
          [
            1.371071,
            43.63888,
            147.28
          ],
          [
            1.370986,
            43.639104,
            147.01
          ],
          [
            1.370638,
            43.639817,
            147.05
          ],
          [
            1.370483,
            43.640028,
            147.11
          ],
          [
            1.370406,
            43.640093,
            147.16
          ],
          [
            1.370246,
            43.640182,
            147.0
          ],
          [
            1.370124,
            43.640239,
            147.0
          ],
          [
            1.369627,
            43.640401,
            147.05
          ],
          [
            1.369452,
            43.64049,
            147.04
          ],
          [
            1.369328,
            43.640579,
            147.03
          ],
          [
            1.369241,
            43.640659,
            147.0
          ],
          [
            1.369169,
            43.640765,
            147.0
          ],
          [
            1.368818,
            43.641417,
            147.0
          ],
          [
            1.368878,
            43.641438,
            147.0
          ],
          [
            1.369279,
            43.642125,
            147.0
          ],
          [
            1.369263,
            43.64215,
            147.0
          ],
          [
            1.370443,
            43.642512,
            144.77
          ],
          [
            1.373349,
            43.643338,
            148.0
          ],
          [
            1.373331,
            43.643369,
            148.0
          ],
          [
            1.373248,
            43.643425,
            148.0
          ],
          [
            1.37329,
            43.643452,
            148.0
          ],
          [
            1.373367,
            43.643556,
            147.85
          ],
          [
            1.373413,
            43.643555,
            147.74
          ],
          [
            1.373535,
            43.643607,
            147.47
          ],
          [
            1.373657,
            43.643627,
            147.28
          ],
          [
            1.373736,
            43.643605,
            147.38
          ],
          [
            1.373859,
            43.643831,
            147.0
          ],
          [
            1.374408,
            43.644696,
            147.08
          ],
          [
            1.374461,
            43.644691,
            146.94
          ],
          [
            1.374514,
            43.644697,
            146.84
          ],
          [
            1.374607,
            43.644678,
            146.77
          ],
          [
            1.374637,
            43.64468,
            146.73
          ],
          [
            1.374675,
            43.644703,
            146.64
          ],
          [
            1.374783,
            43.644897,
            146.68
          ],
          [
            1.374993,
            43.645455,
            146.92
          ],
          [
            1.375052,
            43.645585,
            146.86
          ],
          [
            1.375236,
            43.645684,
            146.21
          ],
          [
            1.375295,
            43.645674,
            146.0
          ],
          [
            1.375659,
            43.645565,
            145.61
          ],
          [
            1.375758,
            43.645549,
            145.41
          ],
          [
            1.376004,
            43.645565,
            145.0
          ],
          [
            1.376086,
            43.645552,
            145.02
          ],
          [
            1.376344,
            43.645452,
            145.01
          ],
          [
            1.37638,
            43.64543,
            145.0
          ],
          [
            1.376619,
            43.645779,
            144.82
          ],
          [
            1.376643,
            43.645837,
            144.72
          ],
          [
            1.376661,
            43.645947,
            144.59
          ],
          [
            1.376651,
            43.646014,
            144.54
          ],
          [
            1.375933,
            43.647592,
            145.09
          ],
          [
            1.37579,
            43.647859,
            145.02
          ],
          [
            1.376039,
            43.647923,
            145.0
          ],
          [
            1.376014,
            43.647984,
            145.0
          ],
          [
            1.376049,
            43.648046,
            145.0
          ],
          [
            1.376082,
            43.648074,
            145.0
          ],
          [
            1.376505,
            43.648695,
            145.0
          ],
          [
            1.376528,
            43.648709,
            145.0
          ],
          [
            1.376994,
            43.648829,
            144.63
          ],
          [
            1.378647,
            43.649225,
            143.48
          ],
          [
            1.379078,
            43.649338,
            142.36
          ],
          [
            1.379628,
            43.649453,
            142.97
          ],
          [
            1.37972,
            43.649458,
            143.0
          ],
          [
            1.379792,
            43.649472,
            142.96
          ],
          [
            1.379856,
            43.649491,
            142.95
          ],
          [
            1.379947,
            43.64956,
            142.97
          ],
          [
            1.381244,
            43.649996,
            143.09
          ],
          [
            1.38137,
            43.650009,
            143.35
          ],
          [
            1.381562,
            43.64996,
            143.76
          ],
          [
            1.381735,
            43.649903,
            144.0
          ],
          [
            1.381766,
            43.649934,
            144.0
          ],
          [
            1.381892,
            43.650013,
            144.0
          ],
          [
            1.38192,
            43.650073,
            144.0
          ],
          [
            1.381963,
            43.650109,
            144.0
          ],
          [
            1.382195,
            43.650142,
            143.84
          ],
          [
            1.382307,
            43.650167,
            143.75
          ],
          [
            1.385033,
            43.651006,
            143.0
          ],
          [
            1.384993,
            43.651079,
            143.0
          ],
          [
            1.385102,
            43.651128,
            142.94
          ],
          [
            1.38513,
            43.651174,
            142.65
          ],
          [
            1.385164,
            43.651194,
            142.68
          ],
          [
            1.385205,
            43.651203,
            142.77
          ],
          [
            1.385272,
            43.651194,
            143.0
          ],
          [
            1.385393,
            43.651226,
            143.0
          ],
          [
            1.385371,
            43.651248,
            143.0
          ],
          [
            1.385673,
            43.651307,
            142.47
          ],
          [
            1.38605,
            43.651401,
            142.01
          ],
          [
            1.386151,
            43.651416,
            142.0
          ],
          [
            1.385997,
            43.651706,
            141.15
          ],
          [
            1.385975,
            43.651736,
            141.13
          ],
          [
            1.38592,
            43.651753,
            141.14
          ],
          [
            1.385446,
            43.651628,
            141.48
          ]
        ]
      }
    },
    {
      "type": "Feature",
      "properties": {
        "source": "Boucle_de_Blagnac.gpx",
        "type": "route"
      },
      "geometry": {
        "type": "LineString",
        "coordinates": [
          [
            1.329376,
            43.585261
          ],
          [
            1.329614,
            43.5854
          ],
          [
            1.3304,
            43.584753
          ],
          [
            1.33226,
            43.585633
          ],
          [
            1.332663,
            43.585209
          ],
          [
            1.333882,
            43.586014
          ],
          [
            1.334431,
            43.586487
          ],
          [
            1.334732,
            43.586708
          ],
          [
            1.337432,
            43.589078
          ],
          [
            1.338399,
            43.589221
          ],
          [
            1.338781,
            43.588976
          ],
          [
            1.340667,
            43.59039
          ],
          [
            1.340176,
            43.59087
          ],
          [
            1.340242,
            43.590927
          ],
          [
            1.340126,
            43.59102
          ],
          [
            1.341607,
            43.592268
          ],
          [
            1.343472,
            43.591655
          ],
          [
            1.345169,
            43.590829
          ],
          [
            1.34554,
            43.591067
          ],
          [
            1.345686,
            43.591393
          ],
          [
            1.346475,
            43.59193
          ],
          [
            1.34654,
            43.591881
          ],
          [
            1.346733,
            43.592311
          ],
          [
            1.347096,
            43.592295
          ],
          [
            1.354521,
            43.600619
          ],
          [
            1.354804,
            43.600473
          ],
          [
            1.356639,
            43.600113
          ],
          [
            1.356765,
            43.600268
          ],
          [
            1.357667,
            43.600213
          ],
          [
            1.358911,
            43.601109
          ],
          [
            1.358946,
            43.60109
          ],
          [
            1.360836,
            43.604084
          ],
          [
            1.361134,
            43.604303
          ],
          [
            1.363565,
            43.605651
          ],
          [
            1.363738,
            43.606234
          ],
          [
            1.364306,
            43.607472
          ],
          [
            1.364615,
            43.608237
          ],
          [
            1.365721,
            43.609117
          ],
          [
            1.369247,
            43.609199
          ],
          [
            1.370751,
            43.60986
          ],
          [
            1.37192,
            43.610392
          ],
          [
            1.372371,
            43.611262
          ],
          [
            1.382663,
            43.612529
          ],
          [
            1.382719,
            43.612602
          ],
          [
            1.386445,
            43.613944
          ],
          [
            1.387778,
            43.615866
          ],
          [
            1.388485,
            43.617453
          ],
          [
            1.388747,
            43.617391
          ],
          [
            1.390009,
            43.620488
          ],
          [
            1.390289,
            43.620813
          ],
          [
            1.39042,
            43.620866
          ],
          [
            1.390752,
            43.62113
          ],
          [
            1.390732,
            43.621147
          ],
          [
            1.391425,
            43.62197
          ],
          [
            1.389519,
            43.623113
          ],
          [
            1.387121,
            43.624277
          ],
          [
            1.387084,
            43.624293
          ],
          [
            1.387025,
            43.624223
          ],
          [
            1.386268,
            43.624465
          ],
          [
            1.383523,
            43.625066
          ],
          [
            1.382781,
            43.62522
          ],
          [
            1.382387,
            43.625596
          ],
          [
            1.381993,
            43.625715
          ],
          [
            1.381751,
            43.625685
          ],
          [
            1.38031,
            43.628293
          ],
          [
            1.380263,
            43.62828
          ],
          [
            1.380035,
            43.628656
          ],
          [
            1.378818,
            43.628906
          ],
          [
            1.376592,
            43.630796
          ],
          [
            1.375672,
            43.632111
          ],
          [
            1.375548,
            43.632048
          ],
          [
            1.375496,
            43.632179
          ],
          [
            1.375347,
            43.632101
          ],
          [
            1.374969,
            43.632267
          ],
          [
            1.370243,
            43.636024
          ],
          [
            1.369322,
            43.636283
          ],
          [
            1.368311,
            43.636443
          ],
          [
            1.367409,
            43.635763
          ],
          [
            1.367125,
            43.635532
          ],
          [
            1.366537,
            43.636047
          ],
          [
            1.366537,
            43.636047
          ],
          [
            1.367125,
            43.635532
          ],
          [
            1.367409,
            43.635763
          ],
          [
            1.369551,
            43.637116
          ],
          [
            1.369155,
            43.637517
          ],
          [
            1.371191,
            43.638051
          ],
          [
            1.368818,
            43.641417
          ],
          [
            1.368878,
            43.641438
          ],
          [
            1.369279,
            43.642125
          ],
          [
            1.369263,
            43.64215
          ],
          [
            1.373349,
            43.643338
          ],
          [
            1.373331,
            43.643369
          ],
          [
            1.373248,
            43.643425
          ],
          [
            1.373736,
            43.643605
          ],
          [
            1.374408,
            43.644696
          ],
          [
            1.37638,
            43.64543
          ],
          [
            1.37579,
            43.647859
          ],
          [
            1.376039,
            43.647923
          ],
          [
            1.376528,
            43.648709
          ],
          [
            1.381735,
            43.649903
          ],
          [
            1.381892,
            43.650013
          ],
          [
            1.381963,
            43.650109
          ],
          [
            1.385033,
            43.651006
          ],
          [
            1.384993,
            43.651079
          ],
          [
            1.385102,
            43.651128
          ],
          [
            1.385393,
            43.651226
          ],
          [
            1.385371,
            43.651248
          ],
          [
            1.386151,
            43.651416
          ],
          [
            1.385446,
            43.651628
          ]
        ]
      }
    }
  ]
}