{
  "type": "FeatureCollection",
  "features": [
    {
      "type": "Feature",
      "properties": {
        "name": "GraphHopper Track",
        "source": "Lac_de_la_Ramée.gpx",
        "type": "track"
      },
      "geometry": {
        "type": "LineString",
        "coordinates": [
          [
            1.34518,
            43.569704,
            160.5
          ],
          [
            1.345208,
            43.569728,
            160.47
          ],
          [
            1.345739,
            43.56996,
            160.39
          ],
          [
            1.345542,
            43.569705,
            160.28
          ],
          [
            1.345156,
            43.569316,
            160.88
          ],
          [
            1.344763,
            43.568962,
            161.87
          ],
          [
            1.344501,
            43.568858,
            161.89
          ],
          [
            1.344248,
            43.568713,
            160.98
          ],
          [
            1.343992,
            43.568533,
            160.8
          ],
          [
            1.343901,
            43.568507,
            161.2
          ],
          [
            1.343781,
            43.568363,
            161.3
          ],
          [
            1.343681,
            43.568277,
            160.95
          ],
          [
            1.343702,
            43.56824,
            160.79
          ],
          [
            1.343727,
            43.568225,
            160.61
          ],
          [
            1.343873,
            43.568234,
            159.62
          ],
          [
            1.34378,
            43.568095,
            159.56
          ],
          [
            1.343636,
            43.56783,
            159.25
          ],
          [
            1.343623,
            43.56778,
            159.14
          ],
          [
            1.343625,
            43.567734,
            159.1
          ],
          [
            1.343679,
            43.567588,
            159.33
          ],
          [
            1.343756,
            43.56746,
            159.36
          ],
          [
            1.343817,
            43.567395,
            159.29
          ],
          [
            1.343766,
            43.567385,
            159.66
          ],
          [
            1.34381,
            43.567137,
            161.26
          ],
          [
            1.343813,
            43.566978,
            161.99
          ],
          [
            1.344314,
            43.566569,
            162.0
          ],
          [
            1.345306,
            43.5658,
            162.0
          ],
          [
            1.345654,
            43.565504,
            162.0
          ],
          [
            1.345703,
            43.565365,
            162.0
          ],
          [
            1.345689,
            43.565238,
            162.0
          ],
          [
            1.345698,
            43.565177,
            162.0
          ],
          [
            1.345751,
            43.565093,
            162.0
          ],
          [
            1.345843,
            43.564982,
            162.11
          ],
          [
            1.345966,
            43.564879,
            162.27
          ],
          [
            1.346121,
            43.564773,
            162.41
          ],
          [
            1.346338,
            43.564658,
            162.58
          ],
          [
            1.34737,
            43.564171,
            162.67
          ],
          [
            1.347455,
            43.564137,
            162.91
          ],
          [
            1.347515,
            43.564105,
            162.86
          ],
          [
            1.347652,
            43.563996,
            162.86
          ],
          [
            1.347911,
            43.563609,
            163.0
          ],
          [
            1.348028,
            43.563413,
            163.0
          ],
          [
            1.348061,
            43.563316,
            162.98
          ],
          [
            1.348061,
            43.563265,
            162.57
          ],
          [
            1.34802,
            43.563197,
            162.02
          ],
          [
            1.347962,
            43.563096,
            162.7
          ],
          [
            1.347926,
            43.562795,
            162.94
          ],
          [
            1.347971,
            43.56242,
            162.87
          ],
          [
            1.34803,
            43.56242,
            162.6
          ],
          [
            1.348289,
            43.562061,
            162.63
          ],
          [
            1.348385,
            43.561869,
            162.44
          ],
          [
            1.348442,
            43.561675,
            162.41
          ],
          [
            1.348469,
            43.561501,
            162.23
          ],
          [
            1.348475,
            43.561359,
            162.27
          ],
          [
            1.348461,
            43.561281,
            162.43
          ],
          [
            1.348433,
            43.561224,
            162.74
          ],
          [
            1.348443,
            43.561155,
            163.0
          ],
          [
            1.348475,
            43.560826,
            163.0
          ],
          [
            1.348593,
            43.560804,
            162.93
          ],
          [
            1.350082,
            43.560801,
            162.05
          ],
          [
            1.350184,
            43.560823,
            162.02
          ],
          [
            1.350368,
            43.560823,
            162.0
          ],
          [
            1.35054,
            43.560799,
            162.0
          ],
          [
            1.350532,
            43.560714,
            162.0
          ],
          [
            1.350768,
            43.560712,
            162.0
          ],
          [
            1.351251,
            43.560688,
            162.07
          ],
          [
            1.351684,
            43.560653,
            162.1
          ],
          [
            1.35172,
            43.560642,
            162.03
          ],
          [
            1.35173,
            43.560628,
            162.01
          ],
          [
            1.351721,
            43.560591,
            162.03
          ],
          [
            1.351153,
            43.559866,
            162.0
          ],
          [
            1.350311,
            43.558828,
            162.23
          ],
          [
            1.349025,
            43.559179,
            162.93
          ],
          [
            1.349025,
            43.559179,
            162.93
          ],
          [
            1.350311,
            43.558828,
            162.23
          ],
          [
            1.351153,
            43.559866,
            162.0
          ],
          [
            1.351721,
            43.560591,
            162.03
          ],
          [
            1.35173,
            43.560628,
            162.01
          ],
          [
            1.35172,
            43.560642,
            162.03
          ],
          [
            1.351684,
            43.560653,
            162.1
          ],
          [
            1.351251,
            43.560688,
            162.07
          ],
          [
            1.350768,
            43.560712,
            162.0
          ],
          [
            1.350532,
            43.560714,
            162.0
          ],
          [
            1.35054,
            43.560799,
            162.0
          ],
          [
            1.350368,
            43.560823,
            162.0
          ],
          [
            1.350184,
            43.560823,
            162.02
          ],
          [
            1.350082,
            43.560801,
            162.05
          ],
          [
            1.348593,
            43.560804,
            162.93
          ],
          [
            1.348475,
            43.560826,
            163.0
          ],
          [
            1.348433,
            43.561224,
            162.74
          ],
          [
            1.348461,
            43.561281,
            162.43
          ],
          [
            1.348475,
            43.561359,
            162.27
          ],
          [
            1.348469,
            43.561501,
            162.23
          ],
          [
            1.348442,
            43.561675,
            162.41
          ],
          [
            1.348385,
            43.561869,
            162.44
          ],
          [
            1.348289,
            43.562061,
            162.63
          ],
          [
            1.34803,
            43.56242,
            162.6
          ],
          [
            1.347998,
            43.562495,
            162.68
          ],
          [
            1.347977,
            43.562837,
            162.74
          ],
          [
            1.347992,
            43.563032,
            162.67
          ],
          [
            1.348023,
            43.563133,
            162.26
          ],
          [
            1.348137,
            43.563294,
            162.7
          ],
          [
            1.348113,
            43.563358,
            162.93
          ],
          [
            1.348065,
            43.563438,
            162.96
          ],
          [
            1.347721,
            43.56397,
            162.84
          ],
          [
            1.347666,
            43.564041,
            162.69
          ],
          [
            1.347591,
            43.564101,
            162.72
          ],
          [
            1.347502,
            43.564153,
            162.69
          ],
          [
            1.347455,
            43.564137,
            162.91
          ],
          [
            1.34737,
            43.564171,
            162.67
          ],
          [
            1.346338,
            43.564658,
            162.58
          ],
          [
            1.346121,
            43.564773,
            162.41
          ],
          [
            1.345966,
            43.564879,
            162.27
          ],
          [
            1.345843,
            43.564982,
            162.11
          ],
          [
            1.345751,
            43.565093,
            162.0
          ],
          [
            1.345698,
            43.565177,
            162.0
          ],
          [
            1.345689,
            43.565238,
            162.0
          ],
          [
            1.345703,
            43.565365,
            162.0
          ],
          [
            1.345654,
            43.565504,
            162.0
          ],
          [
            1.345306,
            43.5658,
            162.0
          ],
          [
            1.344314,
            43.566569,
            162.0
          ],
          [
            1.343813,
            43.566978,
            161.99
          ],
          [
            1.343111,
            43.567584,
            161.93
          ],
          [
            1.343197,
            43.567676,
            161.61
          ],
          [
            1.34332,
            43.567945,
            161.16
          ],
          [
            1.343376,
            43.568025,
            161.03
          ],
          [
            1.343781,
            43.568363,
            161.3
          ],
          [
            1.343901,
            43.568507,
            161.2
          ],
          [
            1.343992,
            43.568533,
            160.8
          ],
          [
            1.344248,
            43.568713,
            160.98
          ],
          [
            1.344501,
            43.568858,
            161.89
          ],
          [
            1.344763,
            43.568962,
            161.87
          ],
          [
            1.345156,
            43.569316,
            160.88
          ],
          [
            1.345542,
            43.569705,
            160.28
          ],
          [
            1.345739,
            43.56996,
            160.39
          ],
          [
            1.345208,
            43.569728,
            160.47
          ],
          [
            1.34518,
            43.569704,
            160.5
          ]
        ]
      }
    },
    {
      "type": "Feature",
      "properties": {
        "source": "Lac_de_la_Ramée.gpx",
        "type": "route"
      },
      "geometry": {
        "type": "LineString",
        "coordinates": [
          [
            1.34518,
            43.569704
          ],
          [
            1.345739,
            43.56996
          ],
          [
            1.344501,
            43.568858
          ],
          [
            1.343681,
            43.568277
          ],
          [
            1.343873,
            43.568234
          ],
          [
            1.343817,
            43.567395
          ],
          [
            1.343766,
            43.567385
          ],
          [
            1.343813,
            43.566978
          ],
          [
            1.347652,
            43.563996
          ],
          [
            1.34802,
            43.563197
          ],
          [
            1.347971,
            43.56242
          ],
          [
            1.34803,
            43.56242
          ],
          [
            1.348443,
            43.561155
          ],
          [
            1.348475,
            43.560826
          ],
          [
            1.35054,
            43.560799
          ],
          [
            1.350532,
            43.560714
          ],
          [
            1.35173,
            43.560628
          ],
          [
            1.350311,
            43.558828
          ],
          [
            1.349025,
            43.559179
          ],
          [
            1.349025,
            43.559179
          ],
          [
            1.350311,
            43.558828
          ],
          [
            1.35173,
            43.560628
          ],
          [
            1.350532,
            43.560714
          ],
          [
            1.35054,
            43.560799
          ],
          [
            1.348475,
            43.560826
          ],
          [
            1.348137,
            43.563294
          ],
          [
            1.347666,
            43.564041
          ],
          [
            1.347502,
            43.564153
          ],
          [
            1.347455,
            43.564137
          ],
          [
            1.345689,
            43.565238
          ],
          [
            1.343813,
            43.566978
          ],
          [
            1.343111,
            43.567584
          ],
          [
            1.343992,
            43.568533
          ],
          [
            1.345739,
            43.56996
          ],
          [
            1.34518,
            43.569704
          ]
        ]
      }
    }
  ]
}