{
  "type": "FeatureCollection",
  "features": [
    {
      "type": "Feature",
      "properties": {
        "name": "GraphHopper Track",
        "source": "Portet-sur-Garonne.gpx",
        "type": "track"
      },
      "geometry": {
        "type": "LineString",
        "coordinates": [
          [
            1.335761,
            43.55143,
            165.0
          ],
          [
            1.335904,
            43.55115,
            165.0
          ],
          [
            1.336521,
            43.549706,
            165.0
          ],
          [
            1.336578,
            43.549684,
            165.0
          ],
          [
            1.336645,
            43.549561,
            165.0
          ],
          [
            1.336661,
            43.549497,
            165.0
          ],
          [
            1.336881,
            43.549098,
            165.12
          ],
          [
            1.336963,
            43.549016,
            165.15
          ],
          [
            1.337197,
            43.548647,
            165.48
          ],
          [
            1.33722,
            43.54862,
            165.36
          ],
          [
            1.337284,
            43.548592,
            165.15
          ],
          [
            1.337305,
            43.548557,
            165.37
          ],
          [
            1.337538,
            43.548619,
            165.06
          ],
          [
            1.337697,
            43.548627,
            165.0
          ],
          [
            1.337788,
            43.548618,
            165.0
          ],
          [
            1.337913,
            43.548588,
            165.0
          ],
          [
            1.340534,
            43.547597,
            164.13
          ],
          [
            1.340957,
            43.547435,
            164.73
          ],
          [
            1.341098,
            43.547369,
            164.79
          ],
          [
            1.341345,
            43.547211,
            164.84
          ],
          [
            1.341981,
            43.546773,
            164.89
          ],
          [
            1.342676,
            43.546343,
            164.91
          ],
          [
            1.343239,
            43.546061,
            164.79
          ],
          [
            1.343539,
            43.545922,
            164.67
          ],
          [
            1.344032,
            43.545738,
            164.03
          ],
          [
            1.344664,
            43.54535,
            164.21
          ],
          [
            1.345134,
            43.545057,
            164.43
          ],
          [
            1.345324,
            43.544903,
            164.2
          ],
          [
            1.34566,
            43.544556,
            164.01
          ],
          [
            1.345733,
            43.544501,
            164.0
          ],
          [
            1.345824,
            43.544462,
            164.25
          ],
          [
            1.345924,
            43.544439,
            164.6
          ],
          [
            1.346083,
            43.544422,
            165.0
          ],
          [
            1.346107,
            43.544458,
            165.0
          ],
          [
            1.346146,
            43.544487,
            165.0
          ],
          [
            1.346223,
            43.544511,
            165.0
          ],
          [
            1.34628,
            43.54451,
            164.98
          ],
          [
            1.346363,
            43.544482,
            165.0
          ],
          [
            1.346534,
            43.544534,
            164.13
          ],
          [
            1.346523,
            43.544595,
            164.05
          ],
          [
            1.346623,
            43.544596,
            164.04
          ],
          [
            1.346953,
            43.544688,
            164.23
          ],
          [
            1.347267,
            43.544795,
            164.0
          ],
          [
            1.347738,
            43.544928,
            164.46
          ],
          [
            1.347798,
            43.544821,
            164.39
          ],
          [
            1.347982,
            43.544874,
            164.24
          ],
          [
            1.348,
            43.54485,
            164.38
          ],
          [
            1.348304,
            43.544723,
            164.1
          ],
          [
            1.348593,
            43.544621,
            164.0
          ],
          [
            1.348625,
            43.54466,
            164.0
          ],
          [
            1.348733,
            43.54471,
            164.0
          ],
          [
            1.349128,
            43.54454,
            164.0
          ],
          [
            1.349146,
            43.544491,
            164.0
          ],
          [
            1.349186,
            43.544462,
            164.0
          ],
          [
            1.349597,
            43.544294,
            164.0
          ],
          [
            1.34967,
            43.544238,
            164.0
          ],
          [
            1.349742,
            43.544294,
            164.0
          ],
          [
            1.350173,
            43.54403,
            164.24
          ],
          [
            1.350503,
            43.543853,
            164.98
          ],
          [
            1.352071,
            43.542956,
            165.0
          ],
          [
            1.352091,
            43.54289,
            165.0
          ],
          [
            1.352332,
            43.542858,
            164.91
          ],
          [
            1.353521,
            43.542373,
            164.48
          ],
          [
            1.353557,
            43.542342,
            164.64
          ],
          [
            1.35377,
            43.542392,
            165.0
          ],
          [
            1.354003,
            43.542186,
            165.0
          ],
          [
            1.354087,
            43.542092,
            165.0
          ],
          [
            1.35417,
            43.542027,
            165.0
          ],
          [
            1.354416,
            43.541836,
            165.0
          ],
          [
            1.35466,
            43.541641,
            165.0
          ],
          [
            1.355425,
            43.540959,
            165.0
          ],
          [
            1.355697,
            43.540683,
            165.0
          ],
          [
            1.356106,
            43.540211,
            165.0
          ],
          [
            1.356388,
            43.539851,
            165.0
          ],
          [
            1.356734,
            43.539372,
            165.0
          ],
          [
            1.357554,
            43.538151,
            165.0
          ],
          [
            1.357702,
            43.537946,
            165.0
          ],
          [
            1.357847,
            43.537769,
            165.0
          ],
          [
            1.358071,
            43.537546,
            165.0
          ],
          [
            1.358272,
            43.537386,
            164.99
          ],
          [
            1.358371,
            43.53732,
            164.98
          ],
          [
            1.358709,
            43.537125,
            164.98
          ],
          [
            1.358893,
            43.537042,
            164.98
          ],
          [
            1.359045,
            43.536983,
            164.98
          ],
          [
            1.359203,
            43.536927,
            164.98
          ],
          [
            1.359507,
            43.536842,
            164.98
          ],
          [
            1.359728,
            43.536799,
            164.99
          ],
          [
            1.360109,
            43.536746,
            165.0
          ],
          [
            1.363165,
            43.536471,
            165.0
          ],
          [
            1.363787,
            43.536443,
            165.0
          ],
          [
            1.364301,
            43.536456,
            165.0
          ],
          [
            1.364428,
            43.536452,
            165.0
          ],
          [
            1.364556,
            43.536442,
            165.0
          ],
          [
            1.364676,
            43.536422,
            165.0
          ],
          [
            1.364741,
            43.536403,
            165.0
          ],
          [
            1.364776,
            43.536376,
            165.0
          ],
          [
            1.364839,
            43.536423,
            165.0
          ],
          [
            1.364926,
            43.536534,
            165.0
          ],
          [
            1.364951,
            43.536542,
            165.0
          ],
          [
            1.365326,
            43.53653,
            165.0
          ],
          [
            1.365641,
            43.536492,
            165.0
          ],
          [
            1.366165,
            43.536491,
            164.99
          ],
          [
            1.36628,
            43.536503,
            164.98
          ],
          [
            1.367644,
            43.537125,
            164.25
          ],
          [
            1.368311,
            43.537439,
            164.01
          ],
          [
            1.368631,
            43.537615,
            164.0
          ],
          [
            1.368757,
            43.53771,
            164.0
          ],
          [
            1.369244,
            43.537983,
            164.0
          ],
          [
            1.369352,
            43.538063,
            164.0
          ],
          [
            1.369514,
            43.53814,
            163.99
          ],
          [
            1.369585,
            43.538134,
            163.93
          ],
          [
            1.369619,
            43.538146,
            163.8
          ],
          [
            1.369683,
            43.538188,
            163.36
          ],
          [
            1.369842,
            43.538036,
            163.0
          ],
          [
            1.370386,
            43.538352,
            163.0
          ],
          [
            1.370908,
            43.538675,
            163.0
          ],
          [
            1.371918,
            43.53924,
            162.67
          ],
          [
            1.372559,
            43.539256,
            161.72
          ],
          [
            1.372773,
            43.539241,
            161.49
          ],
          [
            1.372991,
            43.539214,
            161.13
          ],
          [
            1.373248,
            43.539154,
            160.65
          ],
          [
            1.373532,
            43.539066,
            160.08
          ],
          [
            1.373881,
            43.538917,
            158.98
          ],
          [
            1.37413,
            43.538769,
            158.12
          ],
          [
            1.374337,
            43.538596,
            157.32
          ],
          [
            1.374517,
            43.538413,
            156.65
          ],
          [
            1.374651,
            43.538213,
            156.08
          ],
          [
            1.374836,
            43.537859,
            155.5
          ],
          [
            1.37547,
            43.536366,
            154.11
          ],
          [
            1.375576,
            43.536188,
            154.0
          ],
          [
            1.375708,
            43.536001,
            154.0
          ],
          [
            1.375834,
            43.53586,
            154.0
          ],
          [
            1.37595,
            43.53575,
            154.0
          ],
          [
            1.37595,
            43.53575,
            154.0
          ],
          [
            1.376001,
            43.535702,
            154.0
          ],
          [
            1.376188,
            43.535575,
            154.0
          ],
          [
            1.376376,
            43.535489,
            154.0
          ],
          [
            1.376638,
            43.535404,
            154.0
          ],
          [
            1.377089,
            43.535308,
            154.0
          ],
          [
            1.377348,
            43.535267,
            154.0
          ],
          [
            1.377748,
            43.535189,
            154.0
          ],
          [
            1.37838,
            43.535083,
            154.0
          ],
          [
            1.378383,
            43.535025,
            154.0
          ],
          [
            1.380241,
            43.534687,
            154.0
          ],
          [
            1.380492,
            43.534667,
            154.0
          ],
          [
            1.380538,
            43.534684,
            154.0
          ],
          [
            1.380564,
            43.534704,
            154.0
          ],
          [
            1.380602,
            43.534783,
            154.0
          ],
          [
            1.381456,
            43.534613,
            153.99
          ],
          [
            1.384735,
            43.533927,
            152.79
          ],
          [
            1.385651,
            43.533711,
            152.35
          ],
          [
            1.385888,
            43.533645,
            152.25
          ],
          [
            1.386113,
            43.533563,
            152.12
          ],
          [
            1.386684,
            43.533277,
            152.0
          ],
          [
            1.387038,
            43.533127,
            152.0
          ],
          [
            1.387103,
            43.533115,
            152.0
          ],
          [
            1.38715,
            43.533093,
            152.0
          ],
          [
            1.387186,
            43.533062,
            152.0
          ],
          [
            1.387211,
            43.53301,
            152.0
          ],
          [
            1.387273,
            43.532972,
            152.0
          ],
          [
            1.387377,
            43.532933,
            152.0
          ],
          [
            1.387778,
            43.532749,
            152.0
          ],
          [
            1.388039,
            43.532611,
            152.0
          ],
          [
            1.388379,
            43.532453,
            152.11
          ],
          [
            1.389119,
            43.532152,
            152.0
          ],
          [
            1.3893,
            43.532058,
            152.0
          ],
          [
            1.389425,
            43.532021,
            152.0
          ],
          [
            1.3896,
            43.531985,
            152.1
          ],
          [
            1.389651,
            43.531961,
            152.26
          ],
          [
            1.389679,
            43.531922,
            152.57
          ],
          [
            1.389721,
            43.531891,
            152.82
          ],
          [
            1.389775,
            43.53187,
            152.94
          ],
          [
            1.389835,
            43.531862,
            152.83
          ],
          [
            1.389895,
            43.531867,
            152.74
          ],
          [
            1.38995,
            43.531886,
            152.66
          ],
          [
            1.390015,
            43.531789,
            152.03
          ],
          [
            1.390042,
            43.531762,
            152.0
          ],
          [
            1.390108,
            43.531718,
            152.0
          ],
          [
            1.391219,
            43.531238,
            152.0
          ],
          [
            1.391333,
            43.531183,
            152.0
          ],
          [
            1.391398,
            43.531135,
            152.0
          ],
          [
            1.391455,
            43.531171,
            152.0
          ],
          [
            1.391571,
            43.53109,
            152.43
          ],
          [
            1.391832,
            43.530968,
            152.41
          ],
          [
            1.391829,
            43.530849,
            152.0
          ],
          [
            1.391943,
            43.530866,
            152.0
          ],
          [
            1.392224,
            43.530775,
            151.73
          ],
          [
            1.392497,
            43.530676,
            151.36
          ],
          [
            1.392953,
            43.530542,
            151.0
          ],
          [
            1.393142,
            43.530499,
            151.0
          ],
          [
            1.393675,
            43.530402,
            151.0
          ],
          [
            1.394435,
            43.530302,
            151.0
          ],
          [
            1.394939,
            43.530226,
            151.0
          ],
          [
            1.395237,
            43.530141,
            151.0
          ],
          [
            1.395469,
            43.530033,
            151.0
          ],
          [
            1.395507,
            43.530024,
            151.0
          ],
          [
            1.395676,
            43.529938,
            150.9
          ],
          [
            1.396062,
            43.529703,
            150.73
          ],
          [
            1.396816,
            43.529164,
            150.82
          ],
          [
            1.397235,
            43.52885,
            150.96
          ],
          [
            1.397429,
            43.528736,
            150.97
          ],
          [
            1.397881,
            43.528494,
            151.0
          ],
          [
            1.398327,
            43.528237,
            151.0
          ],
          [
            1.399439,
            43.527508,
            151.0
          ],
          [
            1.399835,
            43.52722,
            151.0
          ],
          [
            1.400265,
            43.526894,
            151.0
          ],
          [
            1.400353,
            43.526789,
            151.0
          ],
          [
            1.400448,
            43.526705,
            151.0
          ],
          [
            1.400455,
            43.52668,
            151.0
          ],
          [
            1.400914,
            43.526361,
            151.0
          ],
          [
            1.401372,
            43.526018,
            151.0
          ],
          [
            1.401406,
            43.525985,
            151.0
          ],
          [
            1.401449,
            43.525917,
            151.0
          ],
          [
            1.401696,
            43.525747,
            151.7
          ],
          [
            1.401858,
            43.525733,
            151.78
          ],
          [
            1.401988,
            43.525693,
            151.15
          ],
          [
            1.402136,
            43.525605,
            151.0
          ],
          [
            1.402534,
            43.525395,
            150.61
          ],
          [
            1.404006,
            43.524709,
            150.0
          ],
          [
            1.404537,
            43.524478,
            149.97
          ],
          [
            1.405061,
            43.524296,
            150.0
          ],
          [
            1.405593,
            43.524171,
            150.0
          ],
          [
            1.405776,
            43.524135,
            149.83
          ],
          [
            1.405714,
            43.523967,
            150.0
          ],
          [
            1.405607,
            43.523762,
            149.79
          ],
          [
            1.405118,
            43.523187,
            150.0
          ],
          [
            1.405012,
            43.523075,
            150.0
          ],
          [
            1.404707,
            43.522683,
            150.0
          ],
          [
            1.404638,
            43.522607,
            150.0
          ],
          [
            1.405265,
            43.52227,
            149.57
          ]
        ]
      }
    },
    {
      "type": "Feature",
      "properties": {
        "source": "Portet-sur-Garonne.gpx",
        "type": "route"
      },
      "geometry": {
        "type": "LineString",
        "coordinates": [
          [
            1.335761,
            43.55143
          ],
          [
            1.336521,
            43.549706
          ],
          [
            1.337284,
            43.548592
          ],
          [
            1.337305,
            43.548557
          ],
          [
            1.345733,
            43.544501
          ],
          [
            1.346083,
            43.544422
          ],
          [
            1.346534,
            43.544534
          ],
          [
            1.346523,
            43.544595
          ],
          [
            1.347738,
            43.544928
          ],
          [
            1.347798,
            43.544821
          ],
          [
            1.347982,
            43.544874
          ],
          [
            1.348593,
            43.544621
          ],
          [
            1.348733,
            43.54471
          ],
          [
            1.34967,
            43.544238
          ],
          [
            1.349742,
            43.544294
          ],
          [
            1.352091,
            43.54289
          ],
          [
            1.353557,
            43.542342
          ],
          [
            1.35377,
            43.542392
          ],
          [
            1.35417,
            43.542027
          ],
          [
            1.354416,
            43.541836
          ],
          [
            1.364776,
            43.536376
          ],
          [
            1.364926,
            43.536534
          ],
          [
            1.369683,
            43.538188
          ],
          [
            1.369842,
            43.538036
          ],
          [
            1.37595,
            43.53575
          ],
          [
            1.37595,
            43.53575
          ],
          [
            1.37838,
            43.535083
          ],
          [
            1.378383,
            43.535025
          ],
          [
            1.380602,
            43.534783
          ],
          [
            1.386684,
            43.533277
          ],
          [
            1.387038,
            43.533127
          ],
          [
            1.389119,
            43.532152
          ],
          [
            1.389651,
            43.531961
          ],
          [
            1.391398,
            43.531135
          ],
          [
            1.391455,
            43.531171
          ],
          [
            1.391832,
            43.530968
          ],
          [
            1.391829,
            43.530849
          ],
          [
            1.391943,
            43.530866
          ],
          [
            1.401696,
            43.525747
          ],
          [
            1.405776,
            43.524135
          ],
          [
            1.404638,
            43.522607
          ],
          [
            1.405265,
            43.52227
          ]
        ]
      }
    }
  ]
}