{
  "type": "FeatureCollection",
  "features": [
    {
      "type": "Feature",
      "properties": {
        "name": "GraphHopper Track",
        "source": "Boucle_St-Cyprien.gpx",
        "type": "track"
      },
      "geometry": {
        "type": "LineString",
        "coordinates": [
          [
            2.411502,
            44.5475,
            260.46
          ],
          [
            2.411558,
            44.547229,
            259.55
          ],
          [
            2.41159,
            44.54713,
            258.88
          ],
          [
            2.411688,
            44.546967,
            258.65
          ],
          [
            2.411645,
            44.54691,
            257.66
          ],
          [
            2.41163,
            44.54685,
            256.76
          ],
          [
            2.411603,
            44.546805,
            256.18
          ],
          [
            2.41153,
            44.546744,
            255.38
          ],
          [
            2.411454,
            44.546526,
            253.6
          ],
          [
            2.411538,
            44.54649,
            254.58
          ],
          [
            2.41149,
            44.546485,
            254.05
          ],
          [
            2.411379,
            44.546421,
            252.98
          ],
          [
            2.411235,
            44.546318,
            250.96
          ],
          [
            2.410865,
            44.546146,
            246.44
          ],
          [
            2.410704,
            44.546047,
            244.15
          ],
          [
            2.410606,
            44.545922,
            242.47
          ],
          [
            2.410277,
            44.546002,
            243.0
          ],
          [
            2.410127,
            44.546019,
            243.0
          ],
          [
            2.409299,
            44.546155,
            241.0
          ],
          [
            2.409252,
            44.546184,
            241.0
          ],
          [
            2.409062,
            44.545599,
            239.32
          ],
          [
            2.409016,
            44.545524,
            239.03
          ],
          [
            2.408983,
            44.545503,
            239.1
          ],
          [
            2.408869,
            44.545506,
            239.37
          ],
          [
            2.40819,
            44.545641,
            239.46
          ],
          [
            2.408048,
            44.545662,
            239.54
          ],
          [
            2.407907,
            44.545646,
            239.58
          ],
          [
            2.40784,
            44.545592,
            239.61
          ],
          [
            2.407481,
            44.544711,
            239.95
          ],
          [
            2.407481,
            44.544711,
            239.95
          ],
          [
            2.40784,
            44.545592,
            239.61
          ],
          [
            2.407907,
            44.545646,
            239.58
          ],
          [
            2.408048,
            44.545662,
            239.54
          ],
          [
            2.40819,
            44.545641,
            239.46
          ],
          [
            2.408869,
            44.545506,
            239.37
          ],
          [
            2.408983,
            44.545503,
            239.1
          ],
          [
            2.409016,
            44.545524,
            239.03
          ],
          [
            2.409062,
            44.545599,
            239.32
          ],
          [
            2.409252,
            44.546184,
            241.0
          ],
          [
            2.409299,
            44.546155,
            241.0
          ],
          [
            2.410127,
            44.546019,
            243.0
          ],
          [
            2.410277,
            44.546002,
            243.0
          ],
          [
            2.410606,
            44.545922,
            242.47
          ],
          [
            2.410704,
            44.546047,
            244.15
          ],
          [
            2.410865,
            44.546146,
            246.44
          ],
          [
            2.411235,
            44.546318,
            250.96
          ],
          [
            2.411379,
            44.546421,
            252.98
          ],
          [
            2.41149,
            44.546485,
            254.05
          ],
          [
            2.411538,
            44.54649,
            254.58
          ],
          [
            2.411608,
            44.546481,
            255.16
          ],
          [
            2.411686,
            44.546487,
            255.75
          ],
          [
            2.411795,
            44.546537,
            257.05
          ],
          [
            2.411762,
            44.546728,
            258.04
          ],
          [
            2.411762,
            44.546824,
            258.18
          ],
          [
            2.41159,
            44.54713,
            258.88
          ],
          [
            2.411558,
            44.547229,
            259.55
          ],
          [
            2.411502,
            44.5475,
            260.46
          ]
        ]
      }
    },
    {
      "type": "Feature",
      "properties": {
        "source": "Boucle_St-Cyprien.gpx",
        "type": "route"
      },
      "geometry": {
        "type": "LineString",
        "coordinates": [
          [
            2.411502,
            44.5475
          ],
          [
            2.411688,
            44.546967
          ],
          [
            2.411454,
            44.546526
          ],
          [
            2.411538,
            44.54649
          ],
          [
            2.410606,
            44.545922
          ],
          [
            2.409252,
            44.546184
          ],
          [
            2.407481,
            44.544711
          ],
          [
            2.407481,
            44.544711
          ],
          [
            2.409252,
            44.546184
          ],
          [
            2.410606,
            44.545922
          ],
          [
            2.411538,
            44.54649
          ],
          [
            2.411795,
            44.546537
          ],
          [
            2.411502,
            44.5475
          ]
        ]
      }
    }
  ]
}