{
  "type": "FeatureCollection",
  "features": [
    {
      "type": "Feature",
      "properties": {
        "name": "GraphHopper Track",
        "source": "Sentier_du_Moulin.gpx",
        "type": "track"
      },
      "geometry": {
        "type": "LineString",
        "coordinates": [
          [
            2.214264,
            43.31115,
            180.54
          ],
          [
            2.214261,
            43.311146,
            180.56
          ],
          [
            2.214398,
            43.311059,
            182.97
          ],
          [
            2.214538,
            43.311179,
            183.85
          ],
          [
            2.214854,
            43.311111,
            182.33
          ],
          [
            2.21492,
            43.311107,
            181.92
          ],
          [
            2.214925,
            43.310891,
            179.37
          ],
          [
            2.214947,
            43.310737,
            177.28
          ],
          [
            2.214952,
            43.310545,
            176.69
          ],
          [
            2.214893,
            43.310284,
            178.52
          ],
          [
            2.214641,
            43.309774,
            177.88
          ],
          [
            2.214905,
            43.30961,
            175.78
          ],
          [
            2.215147,
            43.309502,
            173.77
          ],
          [
            2.215236,
            43.309427,
            173.07
          ],
          [
            2.215282,
            43.309372,
            173.0
          ],
          [
            2.215278,
            43.309269,
            172.87
          ],
          [
            2.215158,
            43.308951,
            170.36
          ],
          [
            2.215128,
            43.30882,
            170.04
          ],
          [
            2.21559,
            43.30872,
            166.96
          ],
          [
            2.21559,
            43.30872,
            166.96
          ],
          [
            2.215128,
            43.30882,
            170.04
          ],
          [
            2.215158,
            43.308951,
            170.36
          ],
          [
            2.214869,
            43.309155,
            172.0
          ],
          [
            2.214769,
            43.309217,
            172.59
          ],
          [
            2.214675,
            43.309264,
            172.87
          ],
          [
            2.214449,
            43.309258,
            172.98
          ],
          [
            2.214439,
            43.309305,
            173.02
          ],
          [
            2.21405,
            43.309402,
            175.34
          ],
          [
            2.213976,
            43.30948,
            176.84
          ],
          [
            2.213672,
            43.30976,
            178.14
          ],
          [
            2.213705,
            43.30982,
            178.85
          ],
          [
            2.213742,
            43.309941,
            179.8
          ],
          [
            2.213801,
            43.31007,
            180.16
          ],
          [
            2.213841,
            43.310128,
            180.37
          ],
          [
            2.213978,
            43.310478,
            181.17
          ],
          [
            2.214032,
            43.310587,
            181.68
          ],
          [
            2.214266,
            43.310922,
            182.83
          ],
          [
            2.214366,
            43.311032,
            183.0
          ],
          [
            2.214398,
            43.311059,
            182.97
          ],
          [
            2.214261,
            43.311146,
            180.56
          ],
          [
            2.214264,
            43.31115,
            180.54
          ]
        ]
      }
    },
    {
      "type": "Feature",
      "properties": {
        "source": "Sentier_du_Moulin.gpx",
        "type": "route"
      },
      "geometry": {
        "type": "LineString",
        "coordinates": [
          [
            2.214264,
            43.31115
          ],
          [
            2.214398,
            43.311059
          ],
          [
            2.214538,
            43.311179
          ],
          [
            2.214854,
            43.311111
          ],
          [
            2.21492,
            43.311107
          ],
          [
            2.214641,
            43.309774
          ],
          [
            2.214905,
            43.30961
          ],
          [
            2.215147,
            43.309502
          ],
          [
            2.215236,
            43.309427
          ],
          [
            2.215158,
            43.308951
          ],
          [
            2.215128,
            43.30882
          ],
          [
            2.21559,
            43.30872
          ],
          [
            2.21559,
            43.30872
          ],
          [
            2.215128,
            43.30882
          ],
          [
            2.215158,
            43.308951
          ],
          [
            2.214449,
            43.309258
          ],
          [
            2.214439,
            43.309305
          ],
          [
            2.213672,
            43.30976
          ],
          [
            2.213841,
            43.310128
          ],
          [
            2.214032,
            43.310587
          ],
          [
            2.214366,
            43.311032
          ],
          [
            2.214398,
            43.311059
          ],
          [
            2.214264,
            43.31115
          ]
        ]
      }
    }
  ]
}