{
  "type": "FeatureCollection",
  "features": [
    {
      "type": "Feature",
      "properties": {
        "name": "GraphHopper Track",
        "source": "Voie_Verte_Rail.gpx",
        "type": "track"
      },
      "geometry": {
        "type": "LineString",
        "coordinates": [
          [
            1.529816,
            43.86184,
            200.9
          ],
          [
            1.529729,
            43.861855,
            200.89
          ],
          [
            1.529187,
            43.861883,
            200.64
          ],
          [
            1.528356,
            43.861857,
            199.81
          ],
          [
            1.527229,
            43.861657,
            198.93
          ],
          [
            1.527135,
            43.861653,
            199.0
          ],
          [
            1.526944,
            43.861549,
            199.0
          ],
          [
            1.526529,
            43.861467,
            199.13
          ],
          [
            1.526431,
            43.861402,
            199.26
          ],
          [
            1.526337,
            43.861249,
            198.96
          ],
          [
            1.526095,
            43.860422,
            193.83
          ],
          [
            1.526046,
            43.86016,
            192.32
          ],
          [
            1.52606,
            43.859666,
            191.14
          ],
          [
            1.526166,
            43.859152,
            190.37
          ],
          [
            1.526264,
            43.858928,
            190.22
          ],
          [
            1.526521,
            43.858532,
            190.17
          ],
          [
            1.526578,
            43.8583,
            190.25
          ],
          [
            1.526576,
            43.858265,
            190.37
          ],
          [
            1.526203,
            43.857354,
            186.36
          ],
          [
            1.526063,
            43.856832,
            183.96
          ],
          [
            1.525948,
            43.856623,
            183.8
          ],
          [
            1.525278,
            43.85603,
            185.17
          ],
          [
            1.525053,
            43.855712,
            187.2
          ],
          [
            1.524616,
            43.854882,
            192.11
          ],
          [
            1.524431,
            43.854576,
            193.49
          ],
          [
            1.524223,
            43.854301,
            194.41
          ],
          [
            1.523823,
            43.853809,
            195.65
          ],
          [
            1.523774,
            43.853721,
            196.08
          ],
          [
            1.523699,
            43.853664,
            196.18
          ],
          [
            1.523345,
            43.853288,
            197.69
          ],
          [
            1.523218,
            43.853179,
            198.0
          ],
          [
            1.52314,
            43.853145,
            198.0
          ],
          [
            1.52313,
            43.853092,
            198.5
          ],
          [
            1.523084,
            43.85302,
            198.94
          ],
          [
            1.522334,
            43.852281,
            196.84
          ],
          [
            1.522188,
            43.852079,
            195.79
          ],
          [
            1.521983,
            43.851602,
            193.23
          ],
          [
            1.521871,
            43.851042,
            189.95
          ],
          [
            1.521669,
            43.850157,
            186.78
          ],
          [
            1.521715,
            43.849971,
            186.83
          ],
          [
            1.522011,
            43.84948,
            188.19
          ],
          [
            1.522126,
            43.849209,
            189.35
          ],
          [
            1.522222,
            43.849075,
            189.95
          ],
          [
            1.522399,
            43.848945,
            189.49
          ],
          [
            1.522691,
            43.848748,
            188.74
          ],
          [
            1.52353,
            43.848104,
            187.43
          ],
          [
            1.523884,
            43.847851,
            187.31
          ],
          [
            1.52426,
            43.847562,
            187.6
          ],
          [
            1.524505,
            43.847291,
            188.23
          ],
          [
            1.524903,
            43.846913,
            189.26
          ],
          [
            1.525189,
            43.846709,
            189.55
          ],
          [
            1.525605,
            43.846545,
            189.48
          ],
          [
            1.525916,
            43.846451,
            189.11
          ],
          [
            1.526291,
            43.846269,
            188.32
          ],
          [
            1.526751,
            43.846027,
            187.8
          ],
          [
            1.526886,
            43.845981,
            186.93
          ],
          [
            1.527436,
            43.845852,
            183.73
          ],
          [
            1.527668,
            43.845785,
            181.87
          ],
          [
            1.528067,
            43.84575,
            179.42
          ],
          [
            1.528307,
            43.845697,
            179.01
          ],
          [
            1.528568,
            43.845576,
            178.44
          ],
          [
            1.529164,
            43.845269,
            177.69
          ],
          [
            1.529433,
            43.845203,
            177.56
          ],
          [
            1.529684,
            43.845157,
            176.76
          ],
          [
            1.529921,
            43.845094,
            175.79
          ],
          [
            1.530171,
            43.845028,
            175.04
          ],
          [
            1.530423,
            43.844927,
            174.83
          ],
          [
            1.53065,
            43.844805,
            174.44
          ],
          [
            1.531176,
            43.844461,
            173.33
          ],
          [
            1.531326,
            43.844379,
            172.88
          ],
          [
            1.531326,
            43.844379,
            172.88
          ],
          [
            1.531414,
            43.844331,
            172.62
          ],
          [
            1.532389,
            43.843899,
            168.11
          ],
          [
            1.532625,
            43.843811,
            166.22
          ],
          [
            1.532901,
            43.843739,
            164.11
          ],
          [
            1.533196,
            43.843678,
            161.01
          ],
          [
            1.533855,
            43.843611,
            154.09
          ],
          [
            1.53423,
            43.843525,
            149.72
          ],
          [
            1.534376,
            43.843447,
            147.49
          ],
          [
            1.534454,
            43.843419,
            146.39
          ],
          [
            1.534548,
            43.84341,
            145.17
          ],
          [
            1.534678,
            43.84343,
            143.45
          ],
          [
            1.534796,
            43.843477,
            141.66
          ],
          [
            1.534927,
            43.843484,
            139.87
          ],
          [
            1.535004,
            43.843417,
            138.22
          ],
          [
            1.535015,
            43.843288,
            135.72
          ],
          [
            1.534943,
            43.843029,
            130.18
          ],
          [
            1.534853,
            43.842869,
            126.38
          ],
          [
            1.53477,
            43.842766,
            123.83
          ],
          [
            1.534654,
            43.84264,
            120.71
          ],
          [
            1.534501,
            43.84251,
            117.33
          ],
          [
            1.534461,
            43.842449,
            116.05
          ],
          [
            1.534426,
            43.842318,
            113.67
          ],
          [
            1.534387,
            43.842022,
            108.93
          ],
          [
            1.534391,
            43.84193,
            107.64
          ],
          [
            1.53441,
            43.841884,
            106.99
          ],
          [
            1.534522,
            43.841849,
            105.91
          ],
          [
            1.534707,
            43.841869,
            104.45
          ],
          [
            1.535382,
            43.841814,
            100.48
          ],
          [
            1.535605,
            43.841786,
            99.9
          ],
          [
            1.535685,
            43.841767,
            99.61
          ],
          [
            1.535755,
            43.841778,
            99.47
          ],
          [
            1.535811,
            43.841719,
            99.37
          ],
          [
            1.536106,
            43.841609,
            99.27
          ],
          [
            1.536186,
            43.841554,
            99.15
          ],
          [
            1.536253,
            43.84147,
            98.94
          ],
          [
            1.536404,
            43.841077,
            100.04
          ],
          [
            1.536499,
            43.84096,
            101.59
          ],
          [
            1.536752,
            43.840735,
            103.33
          ],
          [
            1.53725,
            43.840395,
            105.0
          ],
          [
            1.536922,
            43.840051,
            104.07
          ],
          [
            1.536879,
            43.839982,
            104.0
          ],
          [
            1.537648,
            43.839529,
            104.11
          ],
          [
            1.53777,
            43.839478,
            104.08
          ],
          [
            1.537849,
            43.839467,
            104.0
          ],
          [
            1.537985,
            43.839482,
            104.0
          ],
          [
            1.538061,
            43.839356,
            103.79
          ],
          [
            1.538306,
            43.839163,
            103.29
          ],
          [
            1.538973,
            43.838876,
            104.08
          ],
          [
            1.539277,
            43.838762,
            104.5
          ],
          [
            1.539761,
            43.8386,
            104.83
          ],
          [
            1.540848,
            43.838259,
            104.92
          ],
          [
            1.542347,
            43.83795,
            105.02
          ],
          [
            1.542466,
            43.837687,
            103.14
          ],
          [
            1.542508,
            43.837408,
            102.45
          ],
          [
            1.54241,
            43.836932,
            102.0
          ],
          [
            1.542326,
            43.836465,
            102.0
          ],
          [
            1.542283,
            43.836161,
            102.0
          ],
          [
            1.54198,
            43.835516,
            102.0
          ],
          [
            1.541745,
            43.835086,
            102.0
          ],
          [
            1.541562,
            43.834775,
            102.12
          ],
          [
            1.541371,
            43.834531,
            102.24
          ],
          [
            1.54128,
            43.834328,
            102.35
          ],
          [
            1.541127,
            43.833538,
            102.91
          ],
          [
            1.540972,
            43.833308,
            103.0
          ],
          [
            1.541262,
            43.833003,
            102.58
          ],
          [
            1.541614,
            43.832785,
            102.25
          ],
          [
            1.543381,
            43.831954,
            102.08
          ],
          [
            1.543829,
            43.831733,
            102.2
          ],
          [
            1.544115,
            43.831475,
            102.73
          ],
          [
            1.544136,
            43.831408,
            102.59
          ],
          [
            1.544761,
            43.831189,
            102.35
          ],
          [
            1.545462,
            43.830783,
            102.43
          ],
          [
            1.546193,
            43.830403,
            102.86
          ],
          [
            1.547165,
            43.82988,
            103.87
          ],
          [
            1.546739,
            43.829369,
            103.82
          ],
          [
            1.546475,
            43.828982,
            103.52
          ],
          [
            1.546281,
            43.828654,
            103.28
          ],
          [
            1.546098,
            43.828293,
            103.03
          ],
          [
            1.545899,
            43.827855,
            102.83
          ],
          [
            1.545801,
            43.827732,
            102.74
          ],
          [
            1.545559,
            43.827493,
            102.53
          ],
          [
            1.544913,
            43.826768,
            102.03
          ],
          [
            1.54414,
            43.82595,
            102.0
          ],
          [
            1.543521,
            43.825395,
            102.0
          ],
          [
            1.543322,
            43.825243,
            102.0
          ],
          [
            1.545503,
            43.823804,
            102.06
          ],
          [
            1.546053,
            43.823506,
            102.3
          ],
          [
            1.546637,
            43.823223,
            102.92
          ],
          [
            1.546619,
            43.823191,
            102.69
          ],
          [
            1.546624,
            43.823142,
            102.43
          ],
          [
            1.546669,
            43.8231,
            102.37
          ],
          [
            1.542474,
            43.818862,
            101.0
          ],
          [
            1.542408,
            43.818753,
            101.14
          ],
          [
            1.54239,
            43.818674,
            101.32
          ],
          [
            1.542392,
            43.818606,
            101.46
          ],
          [
            1.542322,
            43.818546,
            101.8
          ],
          [
            1.542121,
            43.818489,
            101.77
          ],
          [
            1.542179,
            43.818398,
            101.46
          ],
          [
            1.542572,
            43.818109,
            101.75
          ],
          [
            1.544608,
            43.816705,
            102.0
          ],
          [
            1.544886,
            43.816241,
            101.87
          ],
          [
            1.544903,
            43.816098,
            101.49
          ],
          [
            1.544517,
            43.815782,
            101.81
          ],
          [
            1.544468,
            43.815691,
            101.52
          ],
          [
            1.544459,
            43.815631,
            101.32
          ],
          [
            1.54447,
            43.815522,
            101.16
          ],
          [
            1.544495,
            43.81547,
            101.13
          ],
          [
            1.544713,
            43.815149,
            101.04
          ],
          [
            1.544767,
            43.815048,
            101.01
          ],
          [
            1.545208,
            43.813172,
            103.56
          ],
          [
            1.545232,
            43.81303,
            104.27
          ],
          [
            1.545233,
            43.812882,
            105.39
          ],
          [
            1.545217,
            43.812776,
            106.35
          ],
          [
            1.544416,
            43.813291,
            106.73
          ],
          [
            1.54383,
            43.812756,
            110.23
          ],
          [
            1.543161,
            43.812103,
            116.0
          ],
          [
            1.542802,
            43.812299,
            115.98
          ],
          [
            1.542613,
            43.812377,
            115.95
          ],
          [
            1.542486,
            43.812448,
            115.93
          ],
          [
            1.542315,
            43.812571,
            115.84
          ],
          [
            1.542251,
            43.812536,
            115.96
          ],
          [
            1.542165,
            43.812508,
            115.98
          ],
          [
            1.5421,
            43.812496,
            115.99
          ],
          [
            1.54202,
            43.812497,
            115.99
          ],
          [
            1.541931,
            43.812508,
            115.99
          ],
          [
            1.541764,
            43.81258,
            115.99
          ],
          [
            1.541667,
            43.812598,
            115.99
          ],
          [
            1.541113,
            43.812652,
            115.78
          ],
          [
            1.540968,
            43.812692,
            115.7
          ],
          [
            1.54005,
            43.813034,
            115.15
          ],
          [
            1.53993,
            43.813068,
            115.09
          ]
        ]
      }
    },
    {
      "type": "Feature",
      "properties": {
        "source": "Voie_Verte_Rail.gpx",
        "type": "route"
      },
      "geometry": {
        "type": "LineString",
        "coordinates": [
          [
            1.529816,
            43.86184
          ],
          [
            1.527135,
            43.861653
          ],
          [
            1.52314,
            43.853145
          ],
          [
            1.529921,
            43.845094
          ],
          [
            1.531326,
            43.844379
          ],
          [
            1.531326,
            43.844379
          ],
          [
            1.535755,
            43.841778
          ],
          [
            1.53725,
            43.840395
          ],
          [
            1.536879,
            43.839982
          ],
          [
            1.537985,
            43.839482
          ],
          [
            1.538306,
            43.839163
          ],
          [
            1.542347,
            43.83795
          ],
          [
            1.540972,
            43.833308
          ],
          [
            1.547165,
            43.82988
          ],
          [
            1.543322,
            43.825243
          ],
          [
            1.546637,
            43.823223
          ],
          [
            1.542474,
            43.818862
          ],
          [
            1.542392,
            43.818606
          ],
          [
            1.542121,
            43.818489
          ],
          [
            1.544608,
            43.816705
          ],
          [
            1.544903,
            43.816098
          ],
          [
            1.545217,
            43.812776
          ],
          [
            1.544416,
            43.813291
          ],
          [
            1.543161,
            43.812103
          ],
          [
            1.542315,
            43.812571
          ],
          [
            1.53993,
            43.813068
          ]
        ]
      }
    }
  ]
}