{
  "type": "FeatureCollection",
  "features": [
    {
      "type": "Feature",
      "properties": {
        "name": "GraphHopper Track",
        "source": "Boucle_de_Coubisou.gpx",
        "type": "track"
      },
      "geometry": {
        "type": "LineString",
        "coordinates": [
          [
            2.738604,
            44.551556,
            464.63
          ],
          [
            2.738515,
            44.551699,
            466.54
          ],
          [
            2.73845,
            44.551944,
            469.46
          ],
          [
            2.738509,
            44.552231,
            472.96
          ],
          [
            2.738697,
            44.552487,
            476.62
          ],
          [
            2.738965,
            44.552647,
            479.27
          ],
          [
            2.739411,
            44.552758,
            483.19
          ],
          [
            2.739958,
            44.552766,
            487.42
          ],
          [
            2.740398,
            44.55272,
            490.8
          ],
          [
            2.740923,
            44.552582,
            494.98
          ],
          [
            2.741513,
            44.55248,
            499.25
          ],
          [
            2.741964,
            44.552441,
            501.72
          ],
          [
            2.742329,
            44.552475,
            504.53
          ],
          [
            2.743198,
            44.552808,
            512.46
          ],
          [
            2.743636,
            44.552958,
            516.24
          ],
          [
            2.744394,
            44.553037,
            520.53
          ],
          [
            2.744634,
            44.553055,
            521.9
          ],
          [
            2.745131,
            44.553163,
            522.53
          ],
          [
            2.745866,
            44.553389,
            522.22
          ],
          [
            2.746059,
            44.553485,
            521.66
          ],
          [
            2.746328,
            44.553756,
            523.32
          ],
          [
            2.746472,
            44.55389,
            524.77
          ],
          [
            2.746826,
            44.55402,
            527.17
          ],
          [
            2.747164,
            44.554192,
            531.7
          ],
          [
            2.74776,
            44.554616,
            540.17
          ],
          [
            2.747981,
            44.554796,
            543.48
          ],
          [
            2.748072,
            44.554933,
            545.54
          ],
          [
            2.748024,
            44.55504,
            547.02
          ],
          [
            2.747466,
            44.555469,
            553.87
          ],
          [
            2.747283,
            44.55574,
            557.27
          ],
          [
            2.747235,
            44.555946,
            559.76
          ],
          [
            2.7473,
            44.556179,
            562.69
          ],
          [
            2.747396,
            44.556405,
            565.79
          ],
          [
            2.747621,
            44.556864,
            572.63
          ],
          [
            2.747708,
            44.556926,
            573.54
          ],
          [
            2.747881,
            44.5568,
            572.75
          ],
          [
            2.747994,
            44.556785,
            573.26
          ],
          [
            2.748117,
            44.556802,
            573.85
          ],
          [
            2.748215,
            44.556839,
            574.14
          ],
          [
            2.74822,
            44.556867,
            574.29
          ],
          [
            2.748054,
            44.557127,
            576.28
          ],
          [
            2.748555,
            44.557319,
            581.12
          ],
          [
            2.748973,
            44.557449,
            585.5
          ],
          [
            2.749955,
            44.5578,
            594.74
          ],
          [
            2.750931,
            44.557972,
            601.01
          ],
          [
            2.751285,
            44.557991,
            602.37
          ],
          [
            2.751688,
            44.557961,
            604.56
          ],
          [
            2.752165,
            44.557823,
            607.68
          ],
          [
            2.752973,
            44.557513,
            612.91
          ],
          [
            2.753061,
            44.557479,
            613.51
          ],
          [
            2.753214,
            44.557456,
            614.51
          ],
          [
            2.753498,
            44.557491,
            616.63
          ],
          [
            2.754772,
            44.558112,
            628.5
          ],
          [
            2.755701,
            44.558644,
            637.47
          ],
          [
            2.756238,
            44.558964,
            642.82
          ],
          [
            2.756868,
            44.559236,
            646.09
          ],
          [
            2.757128,
            44.55938,
            647.71
          ],
          [
            2.757312,
            44.559608,
            649.87
          ],
          [
            2.757382,
            44.559964,
            653.38
          ],
          [
            2.757527,
            44.560189,
            656.55
          ],
          [
            2.757784,
            44.56035,
            659.78
          ],
          [
            2.758251,
            44.560522,
            664.2
          ],
          [
            2.758648,
            44.560636,
            666.98
          ],
          [
            2.758787,
            44.560629,
            667.63
          ],
          [
            2.75897,
            44.560583,
            668.38
          ],
          [
            2.759034,
            44.560426,
            669.08
          ],
          [
            2.758884,
            44.560338,
            669.69
          ],
          [
            2.758825,
            44.560246,
            670.18
          ],
          [
            2.758948,
            44.560178,
            670.77
          ],
          [
            2.759329,
            44.560189,
            672.27
          ],
          [
            2.760847,
            44.560376,
            682.21
          ],
          [
            2.761089,
            44.560415,
            683.82
          ],
          [
            2.761293,
            44.560487,
            685.25
          ],
          [
            2.761459,
            44.560591,
            686.65
          ],
          [
            2.761786,
            44.561068,
            691.73
          ],
          [
            2.761953,
            44.561221,
            693.41
          ],
          [
            2.762167,
            44.561397,
            695.33
          ],
          [
            2.762806,
            44.562104,
            702.33
          ],
          [
            2.763093,
            44.561975,
            699.08
          ],
          [
            2.763248,
            44.561783,
            699.54
          ],
          [
            2.763543,
            44.561482,
            700.95
          ],
          [
            2.763688,
            44.561203,
            702.72
          ],
          [
            2.763854,
            44.561122,
            703.67
          ],
          [
            2.765458,
            44.561115,
            707.59
          ],
          [
            2.765989,
            44.561195,
            707.39
          ],
          [
            2.766418,
            44.561283,
            706.61
          ],
          [
            2.766622,
            44.561485,
            705.57
          ],
          [
            2.76718,
            44.561841,
            703.49
          ],
          [
            2.767406,
            44.561902,
            703.13
          ],
          [
            2.767497,
            44.561803,
            702.98
          ],
          [
            2.767583,
            44.5616,
            702.88
          ],
          [
            2.767926,
            44.561432,
            702.68
          ],
          [
            2.768163,
            44.56139,
            702.37
          ],
          [
            2.76843,
            44.561443,
            702.2
          ],
          [
            2.768699,
            44.56155,
            700.94
          ],
          [
            2.769,
            44.561703,
            699.31
          ],
          [
            2.769056,
            44.561694,
            699.52
          ],
          [
            2.769109,
            44.561651,
            699.82
          ],
          [
            2.769248,
            44.561346,
            702.63
          ],
          [
            2.769281,
            44.56112,
            703.58
          ],
          [
            2.769217,
            44.560831,
            704.47
          ],
          [
            2.769207,
            44.560566,
            704.68
          ],
          [
            2.76928,
            44.560465,
            704.51
          ],
          [
            2.769488,
            44.560291,
            703.47
          ],
          [
            2.769947,
            44.560035,
            699.75
          ],
          [
            2.770346,
            44.559725,
            695.9
          ],
          [
            2.770529,
            44.559653,
            694.8
          ],
          [
            2.770735,
            44.559616,
            693.89
          ],
          [
            2.771057,
            44.559614,
            693.06
          ],
          [
            2.771146,
            44.559555,
            692.95
          ],
          [
            2.771146,
            44.559423,
            692.97
          ],
          [
            2.771063,
            44.559311,
            693.13
          ],
          [
            2.770368,
            44.558676,
            693.92
          ],
          [
            2.770333,
            44.558563,
            693.94
          ],
          [
            2.770349,
            44.558437,
            694.01
          ],
          [
            2.770529,
            44.558172,
            694.43
          ],
          [
            2.770539,
            44.558026,
            694.47
          ],
          [
            2.770375,
            44.557747,
            695.14
          ],
          [
            2.770678,
            44.557879,
            697.99
          ],
          [
            2.771381,
            44.558125,
            706.6
          ],
          [
            2.77203,
            44.558284,
            713.21
          ],
          [
            2.772642,
            44.558399,
            717.57
          ],
          [
            2.773366,
            44.558522,
            720.89
          ],
          [
            2.774243,
            44.558643,
            724.15
          ],
          [
            2.774571,
            44.558701,
            724.91
          ],
          [
            2.774861,
            44.558769,
            725.48
          ],
          [
            2.775075,
            44.558852,
            725.93
          ],
          [
            2.775234,
            44.558932,
            726.3
          ],
          [
            2.775364,
            44.559022,
            726.66
          ],
          [
            2.775489,
            44.559139,
            727.48
          ],
          [
            2.775544,
            44.559203,
            727.84
          ],
          [
            2.775657,
            44.559385,
            728.76
          ],
          [
            2.775856,
            44.55966,
            729.71
          ],
          [
            2.775915,
            44.559781,
            730.25
          ],
          [
            2.775982,
            44.560013,
            731.6
          ],
          [
            2.77596,
            44.560388,
            732.94
          ],
          [
            2.775863,
            44.560616,
            733.4
          ],
          [
            2.775702,
            44.560889,
            733.83
          ],
          [
            2.775607,
            44.56119,
            732.97
          ],
          [
            2.77563,
            44.561412,
            732.16
          ],
          [
            2.775732,
            44.561655,
            732.08
          ],
          [
            2.776035,
            44.562097,
            731.69
          ],
          [
            2.776054,
            44.562313,
            731.64
          ],
          [
            2.775971,
            44.562536,
            731.49
          ],
          [
            2.775686,
            44.563032,
            731.09
          ],
          [
            2.775662,
            44.563239,
            731.27
          ],
          [
            2.775753,
            44.563368,
            731.58
          ],
          [
            2.775914,
            44.56339,
            731.96
          ],
          [
            2.77608,
            44.563323,
            732.59
          ],
          [
            2.776266,
            44.563185,
            733.74
          ],
          [
            2.776405,
            44.563169,
            734.42
          ],
          [
            2.776536,
            44.563222,
            735.24
          ],
          [
            2.776617,
            44.563318,
            736.18
          ],
          [
            2.776708,
            44.563511,
            737.92
          ],
          [
            2.776762,
            44.563797,
            740.33
          ],
          [
            2.776829,
            44.563929,
            741.35
          ],
          [
            2.776943,
            44.564045,
            742.32
          ],
          [
            2.777163,
            44.564197,
            743.77
          ],
          [
            2.777359,
            44.564244,
            744.75
          ],
          [
            2.777659,
            44.564247,
            746.1
          ],
          [
            2.777871,
            44.564292,
            747.12
          ],
          [
            2.77813,
            44.564363,
            748.92
          ],
          [
            2.778326,
            44.564406,
            749.99
          ],
          [
            2.778371,
            44.56444,
            750.68
          ],
          [
            2.77844,
            44.56439,
            750.22
          ],
          [
            2.778516,
            44.564049,
            748.14
          ],
          [
            2.778548,
            44.563832,
            747.2
          ],
          [
            2.778668,
            44.563456,
            745.59
          ],
          [
            2.778754,
            44.563315,
            745.12
          ],
          [
            2.778857,
            44.563212,
            745.0
          ],
          [
            2.778933,
            44.563174,
            745.0
          ],
          [
            2.77905,
            44.5631,
            744.99
          ],
          [
            2.779106,
            44.563024,
            744.8
          ],
          [
            2.779287,
            44.562825,
            743.48
          ],
          [
            2.779685,
            44.562469,
            739.41
          ],
          [
            2.780065,
            44.562311,
            736.57
          ],
          [
            2.78038,
            44.562141,
            734.03
          ],
          [
            2.780582,
            44.561961,
            732.08
          ],
          [
            2.781225,
            44.561431,
            726.8
          ],
          [
            2.781407,
            44.561268,
            724.92
          ],
          [
            2.781778,
            44.560997,
            720.59
          ],
          [
            2.781778,
            44.560997,
            720.59
          ],
          [
            2.781407,
            44.561268,
            724.92
          ],
          [
            2.781225,
            44.561431,
            726.8
          ],
          [
            2.780582,
            44.561961,
            732.08
          ],
          [
            2.78038,
            44.562141,
            734.03
          ],
          [
            2.780065,
            44.562311,
            736.57
          ],
          [
            2.779685,
            44.562469,
            739.41
          ],
          [
            2.779287,
            44.562825,
            743.48
          ],
          [
            2.779106,
            44.563024,
            744.8
          ],
          [
            2.77905,
            44.5631,
            744.99
          ],
          [
            2.778933,
            44.563174,
            745.0
          ],
          [
            2.778857,
            44.563212,
            745.0
          ],
          [
            2.778754,
            44.563315,
            745.12
          ],
          [
            2.778668,
            44.563456,
            745.59
          ],
          [
            2.778548,
            44.563832,
            747.2
          ],
          [
            2.778516,
            44.564049,
            748.14
          ],
          [
            2.77844,
            44.56439,
            750.22
          ],
          [
            2.778371,
            44.56444,
            750.68
          ],
          [
            2.778402,
            44.5645,
            751.74
          ],
          [
            2.778342,
            44.564694,
            754.23
          ],
          [
            2.778385,
            44.564828,
            755.96
          ],
          [
            2.778525,
            44.564943,
            757.84
          ],
          [
            2.778616,
            44.565007,
            759.01
          ],
          [
            2.77892,
            44.565177,
            762.44
          ],
          [
            2.779063,
            44.565318,
            763.97
          ],
          [
            2.779149,
            44.565547,
            766.06
          ],
          [
            2.778643,
            44.565652,
            767.79
          ],
          [
            2.777902,
            44.565903,
            768.03
          ],
          [
            2.777756,
            44.565981,
            768.0
          ],
          [
            2.777355,
            44.56603,
            768.0
          ],
          [
            2.77711,
            44.566087,
            768.0
          ],
          [
            2.776813,
            44.566451,
            767.95
          ],
          [
            2.776585,
            44.566666,
            767.92
          ],
          [
            2.776302,
            44.566844,
            767.7
          ],
          [
            2.776025,
            44.566967,
            767.38
          ],
          [
            2.775336,
            44.567174,
            766.47
          ],
          [
            2.775072,
            44.567228,
            766.06
          ],
          [
            2.774853,
            44.567245,
            765.75
          ],
          [
            2.774464,
            44.567245,
            765.41
          ],
          [
            2.774098,
            44.567216,
            765.22
          ],
          [
            2.773789,
            44.567167,
            765.2
          ],
          [
            2.773397,
            44.567076,
            765.28
          ],
          [
            2.773024,
            44.566937,
            765.34
          ],
          [
            2.772784,
            44.56679,
            765.29
          ],
          [
            2.772599,
            44.566648,
            765.3
          ],
          [
            2.772373,
            44.566407,
            765.43
          ],
          [
            2.772095,
            44.566031,
            765.16
          ],
          [
            2.77204,
            44.565871,
            764.93
          ],
          [
            2.771855,
            44.56573,
            764.61
          ],
          [
            2.77162,
            44.565612,
            764.2
          ],
          [
            2.77133,
            44.565488,
            763.49
          ],
          [
            2.771109,
            44.565429,
            762.87
          ],
          [
            2.770228,
            44.565346,
            761.17
          ],
          [
            2.769307,
            44.565245,
            760.05
          ],
          [
            2.769147,
            44.56521,
            760.0
          ],
          [
            2.768927,
            44.565078,
            759.66
          ],
          [
            2.768452,
            44.564626,
            755.88
          ],
          [
            2.768286,
            44.56445,
            754.31
          ],
          [
            2.768163,
            44.564344,
            753.24
          ],
          [
            2.768031,
            44.564272,
            752.31
          ],
          [
            2.767815,
            44.564219,
            751.03
          ],
          [
            2.767498,
            44.564199,
            749.16
          ],
          [
            2.767167,
            44.564115,
            747.07
          ],
          [
            2.766998,
            44.564021,
            745.76
          ],
          [
            2.766912,
            44.563897,
            744.53
          ],
          [
            2.766792,
            44.56341,
            739.96
          ],
          [
            2.766727,
            44.56298,
            736.05
          ],
          [
            2.766678,
            44.56276,
            734.05
          ],
          [
            2.766583,
            44.56259,
            732.42
          ],
          [
            2.766398,
            44.562383,
            730.34
          ],
          [
            2.766095,
            44.562132,
            727.65
          ],
          [
            2.765824,
            44.561975,
            725.54
          ],
          [
            2.765521,
            44.561848,
            723.71
          ],
          [
            2.765331,
            44.56178,
            722.35
          ],
          [
            2.765141,
            44.561731,
            720.82
          ],
          [
            2.764798,
            44.561673,
            718.71
          ],
          [
            2.76443,
            44.561635,
            716.59
          ],
          [
            2.764157,
            44.56163,
            715.04
          ],
          [
            2.764018,
            44.561668,
            714.2
          ],
          [
            2.763886,
            44.561731,
            713.29
          ],
          [
            2.763796,
            44.561838,
            712.25
          ],
          [
            2.763726,
            44.562003,
            710.83
          ],
          [
            2.763557,
            44.562267,
            708.51
          ],
          [
            2.76346,
            44.562358,
            707.6
          ],
          [
            2.763356,
            44.562397,
            706.89
          ],
          [
            2.763254,
            44.562409,
            706.25
          ],
          [
            2.763129,
            44.562378,
            705.43
          ],
          [
            2.76296,
            44.562272,
            704.29
          ],
          [
            2.762167,
            44.561397,
            695.33
          ],
          [
            2.761953,
            44.561221,
            693.41
          ],
          [
            2.761786,
            44.561068,
            691.73
          ],
          [
            2.761459,
            44.560591,
            686.65
          ],
          [
            2.761293,
            44.560487,
            685.25
          ],
          [
            2.761089,
            44.560415,
            683.82
          ],
          [
            2.760847,
            44.560376,
            682.21
          ],
          [
            2.759329,
            44.560189,
            672.27
          ],
          [
            2.758948,
            44.560178,
            670.77
          ],
          [
            2.758825,
            44.560246,
            670.18
          ],
          [
            2.758884,
            44.560338,
            669.69
          ],
          [
            2.759034,
            44.560426,
            669.08
          ],
          [
            2.75897,
            44.560583,
            668.38
          ],
          [
            2.758787,
            44.560629,
            667.63
          ],
          [
            2.758648,
            44.560636,
            666.98
          ],
          [
            2.758251,
            44.560522,
            664.2
          ],
          [
            2.757784,
            44.56035,
            659.78
          ],
          [
            2.757527,
            44.560189,
            656.55
          ],
          [
            2.757382,
            44.559964,
            653.38
          ],
          [
            2.757312,
            44.559608,
            649.87
          ],
          [
            2.757128,
            44.55938,
            647.71
          ],
          [
            2.756868,
            44.559236,
            646.09
          ],
          [
            2.756238,
            44.558964,
            642.82
          ],
          [
            2.755655,
            44.558616,
            636.66
          ],
          [
            2.754772,
            44.558112,
            628.5
          ],
          [
            2.753498,
            44.557491,
            616.63
          ],
          [
            2.753214,
            44.557456,
            614.51
          ],
          [
            2.753061,
            44.557479,
            613.51
          ],
          [
            2.752165,
            44.557823,
            607.68
          ],
          [
            2.751688,
            44.557961,
            604.56
          ],
          [
            2.751285,
            44.557991,
            602.37
          ],
          [
            2.750931,
            44.557972,
            601.01
          ],
          [
            2.749955,
            44.5578,
            594.74
          ],
          [
            2.748973,
            44.557449,
            585.5
          ],
          [
            2.748555,
            44.557319,
            581.12
          ],
          [
            2.748054,
            44.557127,
            576.28
          ],
          [
            2.747906,
            44.55707,
            575.37
          ],
          [
            2.747621,
            44.556864,
            572.63
          ],
          [
            2.747396,
            44.556405,
            565.79
          ],
          [
            2.7473,
            44.556179,
            562.69
          ],
          [
            2.747235,
            44.555946,
            559.76
          ],
          [
            2.747283,
            44.55574,
            557.27
          ],
          [
            2.747466,
            44.555469,
            553.87
          ],
          [
            2.748024,
            44.55504,
            547.02
          ],
          [
            2.748072,
            44.554933,
            545.54
          ],
          [
            2.747981,
            44.554796,
            543.48
          ],
          [
            2.74776,
            44.554616,
            540.17
          ],
          [
            2.747164,
            44.554192,
            531.7
          ],
          [
            2.746826,
            44.55402,
            527.17
          ],
          [
            2.746472,
            44.55389,
            524.77
          ],
          [
            2.746328,
            44.553756,
            523.32
          ],
          [
            2.746059,
            44.553485,
            521.66
          ],
          [
            2.745866,
            44.553389,
            522.22
          ],
          [
            2.745131,
            44.553163,
            522.53
          ],
          [
            2.744634,
            44.553055,
            521.9
          ],
          [
            2.744394,
            44.553037,
            520.53
          ],
          [
            2.743636,
            44.552958,
            516.24
          ],
          [
            2.743198,
            44.552808,
            512.46
          ],
          [
            2.742329,
            44.552475,
            504.53
          ],
          [
            2.741964,
            44.552441,
            501.72
          ],
          [
            2.741513,
            44.55248,
            499.25
          ],
          [
            2.740923,
            44.552582,
            494.98
          ],
          [
            2.740398,
            44.55272,
            490.8
          ],
          [
            2.739958,
            44.552766,
            487.42
          ],
          [
            2.739411,
            44.552758,
            483.19
          ],
          [
            2.738965,
            44.552647,
            479.27
          ],
          [
            2.738697,
            44.552487,
            476.62
          ],
          [
            2.738509,
            44.552231,
            472.96
          ],
          [
            2.73845,
            44.551944,
            469.46
          ],
          [
            2.738515,
            44.551699,
            466.54
          ],
          [
            2.738604,
            44.551556,
            464.63
          ]
        ]
      }
    },
    {
      "type": "Feature",
      "properties": {
        "source": "Boucle_de_Coubisou.gpx",
        "type": "route"
      },
      "geometry": {
        "type": "LineString",
        "coordinates": [
          [
            2.738604,
            44.551556
          ],
          [
            2.752973,
            44.557513
          ],
          [
            2.755701,
            44.558644
          ],
          [
            2.762806,
            44.562104
          ],
          [
            2.770375,
            44.557747
          ],
          [
            2.778371,
            44.56444
          ],
          [
            2.781778,
            44.560997
          ],
          [
            2.781778,
            44.560997
          ],
          [
            2.778371,
            44.56444
          ],
          [
            2.779149,
            44.565547
          ],
          [
            2.77711,
            44.566087
          ],
          [
            2.769147,
            44.56521
          ],
          [
            2.738604,
            44.551556
          ]
        ]
      }
    }
  ]
}