{
  "type": "FeatureCollection",
  "features": [
    {
      "type": "Feature",
      "properties": {
        "name": "GraphHopper Track",
        "source": "Église_de_Coubisou.gpx",
        "type": "track"
      },
      "geometry": {
        "type": "LineString",
        "coordinates": [
          [
            2.738604,
            44.551556,
            464.63
          ],
          [
            2.738837,
            44.551336,
            461.29
          ],
          [
            2.739169,
            44.550874,
            455.09
          ],
          [
            2.739271,
            44.550667,
            452.29
          ],
          [
            2.739223,
            44.550576,
            451.54
          ],
          [
            2.739143,
            44.550541,
            451.35
          ],
          [
            2.738102,
            44.550083,
            462.06
          ],
          [
            2.737533,
            44.54978,
            466.41
          ],
          [
            2.73727,
            44.549574,
            468.4
          ],
          [
            2.737179,
            44.549417,
            469.57
          ],
          [
            2.737173,
            44.549237,
            470.89
          ],
          [
            2.737351,
            44.548884,
            473.43
          ],
          [
            2.737327,
            44.548753,
            474.5
          ],
          [
            2.737398,
            44.548727,
            474.41
          ],
          [
            2.737918,
            44.548396,
            476.48
          ],
          [
            2.738305,
            44.548115,
            478.02
          ],
          [
            2.738742,
            44.547873,
            479.49
          ],
          [
            2.738805,
            44.547804,
            479.73
          ],
          [
            2.738793,
            44.547685,
            480.0
          ],
          [
            2.738833,
            44.547633,
            480.12
          ],
          [
            2.739028,
            44.547556,
            480.43
          ],
          [
            2.739128,
            44.547544,
            480.56
          ],
          [
            2.739496,
            44.54763,
            481.03
          ],
          [
            2.739632,
            44.547622,
            481.17
          ],
          [
            2.739886,
            44.54754,
            481.34
          ],
          [
            2.740457,
            44.547313,
            481.11
          ],
          [
            2.740695,
            44.547124,
            480.72
          ],
          [
            2.740856,
            44.547032,
            480.48
          ],
          [
            2.741144,
            44.546924,
            479.61
          ],
          [
            2.741238,
            44.546914,
            479.34
          ],
          [
            2.741341,
            44.546968,
            479.03
          ],
          [
            2.741433,
            44.54708,
            479.17
          ],
          [
            2.741465,
            44.546839,
            478.64
          ],
          [
            2.741424,
            44.546657,
            477.45
          ],
          [
            2.741211,
            44.546416,
            475.83
          ],
          [
            2.741137,
            44.546299,
            475.12
          ],
          [
            2.741094,
            44.546027,
            473.35
          ],
          [
            2.741111,
            44.545606,
            470.22
          ],
          [
            2.741047,
            44.545306,
            467.59
          ],
          [
            2.741149,
            44.544684,
            459.74
          ],
          [
            2.741472,
            44.544658,
            457.95
          ],
          [
            2.742084,
            44.544681,
            454.07
          ],
          [
            2.742721,
            44.544729,
            449.6
          ],
          [
            2.742792,
            44.544724,
            449.05
          ],
          [
            2.742852,
            44.544683,
            448.39
          ],
          [
            2.743082,
            44.54435,
            444.05
          ],
          [
            2.743178,
            44.544179,
            441.52
          ],
          [
            2.743256,
            44.544131,
            440.47
          ],
          [
            2.743351,
            44.544123,
            439.48
          ],
          [
            2.743553,
            44.544156,
            437.45
          ],
          [
            2.743673,
            44.544164,
            436.33
          ],
          [
            2.743808,
            44.544214,
            434.97
          ],
          [
            2.743999,
            44.544335,
            432.81
          ],
          [
            2.744455,
            44.544736,
            427.65
          ],
          [
            2.744618,
            44.544847,
            426.3
          ],
          [
            2.74463,
            44.544905,
            426.63
          ],
          [
            2.744721,
            44.544924,
            425.32
          ],
          [
            2.744914,
            44.545264,
            424.01
          ],
          [
            2.745177,
            44.545956,
            419.39
          ],
          [
            2.745274,
            44.546082,
            418.28
          ],
          [
            2.745692,
            44.546228,
            415.77
          ],
          [
            2.746041,
            44.546683,
            410.6
          ],
          [
            2.746256,
            44.546774,
            408.8
          ],
          [
            2.746631,
            44.547053,
            404.72
          ],
          [
            2.747457,
            44.547631,
            396.38
          ],
          [
            2.747699,
            44.547734,
            394.64
          ],
          [
            2.747822,
            44.547722,
            393.6
          ],
          [
            2.747983,
            44.547466,
            392.73
          ],
          [
            2.747854,
            44.547073,
            393.39
          ],
          [
            2.747699,
            44.546809,
            392.92
          ],
          [
            2.747232,
            44.546178,
            390.83
          ],
          [
            2.747178,
            44.546056,
            391.18
          ],
          [
            2.747168,
            44.545754,
            392.83
          ],
          [
            2.747092,
            44.545417,
            391.29
          ],
          [
            2.746964,
            44.545257,
            390.63
          ],
          [
            2.74676,
            44.545104,
            389.29
          ],
          [
            2.746572,
            44.544679,
            385.68
          ],
          [
            2.746368,
            44.544454,
            383.07
          ],
          [
            2.746293,
            44.54429,
            383.54
          ],
          [
            2.746244,
            44.544062,
            383.85
          ],
          [
            2.74615,
            44.543982,
            383.35
          ],
          [
            2.745676,
            44.543819,
            382.08
          ],
          [
            2.745485,
            44.543686,
            381.14
          ],
          [
            2.74526,
            44.543412,
            378.99
          ],
          [
            2.744951,
            44.542986,
            375.62
          ],
          [
            2.744312,
            44.542576,
            371.32
          ],
          [
            2.744064,
            44.542368,
            370.5
          ],
          [
            2.744064,
            44.542368,
            370.5
          ],
          [
            2.744312,
            44.542576,
            371.32
          ],
          [
            2.744951,
            44.542986,
            375.62
          ],
          [
            2.74526,
            44.543412,
            378.99
          ],
          [
            2.745485,
            44.543686,
            381.14
          ],
          [
            2.745676,
            44.543819,
            382.08
          ],
          [
            2.74615,
            44.543982,
            383.35
          ],
          [
            2.746244,
            44.544062,
            383.85
          ],
          [
            2.746293,
            44.54429,
            383.54
          ],
          [
            2.746368,
            44.544454,
            383.07
          ],
          [
            2.746572,
            44.544679,
            385.68
          ],
          [
            2.74676,
            44.545104,
            389.29
          ],
          [
            2.746964,
            44.545257,
            390.63
          ],
          [
            2.747092,
            44.545417,
            391.29
          ],
          [
            2.747168,
            44.545754,
            392.83
          ],
          [
            2.747178,
            44.546056,
            391.18
          ],
          [
            2.747232,
            44.546178,
            390.83
          ],
          [
            2.747699,
            44.546809,
            392.92
          ],
          [
            2.747854,
            44.547073,
            393.39
          ],
          [
            2.747983,
            44.547466,
            392.73
          ],
          [
            2.747822,
            44.547722,
            393.6
          ],
          [
            2.747699,
            44.547734,
            394.64
          ],
          [
            2.747457,
            44.547631,
            396.38
          ],
          [
            2.746631,
            44.547053,
            404.72
          ],
          [
            2.746256,
            44.546774,
            408.8
          ],
          [
            2.746041,
            44.546683,
            410.6
          ],
          [
            2.745692,
            44.546228,
            415.77
          ],
          [
            2.745274,
            44.546082,
            418.28
          ],
          [
            2.745177,
            44.545956,
            419.39
          ],
          [
            2.744914,
            44.545264,
            424.01
          ],
          [
            2.744721,
            44.544924,
            425.32
          ],
          [
            2.74463,
            44.544905,
            426.63
          ],
          [
            2.744618,
            44.544847,
            426.3
          ],
          [
            2.744455,
            44.544736,
            427.65
          ],
          [
            2.743999,
            44.544335,
            432.81
          ],
          [
            2.743808,
            44.544214,
            434.97
          ],
          [
            2.743673,
            44.544164,
            436.33
          ],
          [
            2.743553,
            44.544156,
            437.45
          ],
          [
            2.743351,
            44.544123,
            439.48
          ],
          [
            2.743256,
            44.544131,
            440.47
          ],
          [
            2.743178,
            44.544179,
            441.52
          ],
          [
            2.743082,
            44.54435,
            444.05
          ],
          [
            2.742852,
            44.544683,
            448.39
          ],
          [
            2.742792,
            44.544724,
            449.05
          ],
          [
            2.742721,
            44.544729,
            449.6
          ],
          [
            2.742084,
            44.544681,
            454.07
          ],
          [
            2.741472,
            44.544658,
            457.95
          ],
          [
            2.741149,
            44.544684,
            459.74
          ],
          [
            2.741127,
            44.544787,
            461.41
          ],
          [
            2.741047,
            44.545306,
            467.59
          ],
          [
            2.741111,
            44.545606,
            470.22
          ],
          [
            2.741094,
            44.546027,
            473.35
          ],
          [
            2.741137,
            44.546299,
            475.12
          ],
          [
            2.741211,
            44.546416,
            475.83
          ],
          [
            2.741424,
            44.546657,
            477.45
          ],
          [
            2.741465,
            44.546839,
            478.64
          ],
          [
            2.741433,
            44.54708,
            479.17
          ],
          [
            2.741341,
            44.546968,
            479.03
          ],
          [
            2.741238,
            44.546914,
            479.34
          ],
          [
            2.741144,
            44.546924,
            479.61
          ],
          [
            2.740856,
            44.547032,
            480.48
          ],
          [
            2.740695,
            44.547124,
            480.72
          ],
          [
            2.740457,
            44.547313,
            481.11
          ],
          [
            2.739886,
            44.54754,
            481.34
          ],
          [
            2.739632,
            44.547622,
            481.17
          ],
          [
            2.739496,
            44.54763,
            481.03
          ],
          [
            2.739128,
            44.547544,
            480.56
          ],
          [
            2.739028,
            44.547556,
            480.43
          ],
          [
            2.738833,
            44.547633,
            480.12
          ],
          [
            2.738793,
            44.547685,
            480.0
          ],
          [
            2.738805,
            44.547804,
            479.73
          ],
          [
            2.738742,
            44.547873,
            479.49
          ],
          [
            2.738305,
            44.548115,
            478.02
          ],
          [
            2.737918,
            44.548396,
            476.48
          ],
          [
            2.737398,
            44.548727,
            474.41
          ],
          [
            2.737327,
            44.548753,
            474.5
          ],
          [
            2.737351,
            44.548884,
            473.43
          ],
          [
            2.737173,
            44.549237,
            470.89
          ],
          [
            2.737179,
            44.549417,
            469.57
          ],
          [
            2.73727,
            44.549574,
            468.4
          ],
          [
            2.737533,
            44.54978,
            466.41
          ],
          [
            2.738102,
            44.550083,
            462.06
          ],
          [
            2.739143,
            44.550541,
            451.35
          ],
          [
            2.739223,
            44.550576,
            451.54
          ],
          [
            2.739271,
            44.550667,
            452.29
          ],
          [
            2.739169,
            44.550874,
            455.09
          ],
          [
            2.738837,
            44.551336,
            461.29
          ],
          [
            2.738604,
            44.551556,
            464.63
          ]
        ]
      }
    },
    {
      "type": "Feature",
      "properties": {
        "source": "Église_de_Coubisou.gpx",
        "type": "route"
      },
      "geometry": {
        "type": "LineString",
        "coordinates": [
          [
            2.738604,
            44.551556
          ],
          [
            2.739143,
            44.550541
          ],
          [
            2.737327,
            44.548753
          ],
          [
            2.741433,
            44.54708
          ],
          [
            2.741149,
            44.544684
          ],
          [
            2.74463,
            44.544905
          ],
          [
            2.744064,
            44.542368
          ],
          [
            2.744064,
            44.542368
          ],
          [
            2.746368,
            44.544454
          ],
          [
            2.74463,
            44.544905
          ],
          [
            2.741149,
            44.544684
          ],
          [
            2.741127,
            44.544787
          ],
          [
            2.741433,
            44.54708
          ],
          [
            2.737327,
            44.548753
          ],
          [
            2.739143,
            44.550541
          ],
          [
            2.738604,
            44.551556
          ]
        ]
      }
    }
  ]
}