{
  "type": "FeatureCollection",
  "features": [
    {
      "type": "Feature",
      "properties": {
        "name": "GraphHopper Track",
        "source": "Pic_de_Bugarach.gpx",
        "type": "track"
      },
      "geometry": {
        "type": "LineString",
        "coordinates": [
          [
            2.378085,
            42.863194,
            1181.56
          ],
          [
            2.378211,
            42.863162,
            1182.55
          ],
          [
            2.378356,
            42.863139,
            1182.92
          ],
          [
            2.37851,
            42.863078,
            1184.38
          ],
          [
            2.378557,
            42.863079,
            1184.52
          ],
          [
            2.378617,
            42.863063,
            1184.69
          ],
          [
            2.378769,
            42.863055,
            1185.9
          ],
          [
            2.378857,
            42.86303,
            1186.87
          ],
          [
            2.37908,
            42.863006,
            1187.82
          ],
          [
            2.379244,
            42.862967,
            1187.57
          ],
          [
            2.379394,
            42.862942,
            1186.74
          ],
          [
            2.3795,
            42.862868,
            1185.56
          ],
          [
            2.379567,
            42.86284,
            1184.74
          ],
          [
            2.380013,
            42.86279,
            1175.52
          ],
          [
            2.380156,
            42.862756,
            1170.68
          ],
          [
            2.380218,
            42.862695,
            1166.81
          ],
          [
            2.380342,
            42.862605,
            1159.49
          ],
          [
            2.380368,
            42.862563,
            1156.58
          ],
          [
            2.380325,
            42.862499,
            1151.88
          ],
          [
            2.380319,
            42.862438,
            1147.82
          ],
          [
            2.38038,
            42.862335,
            1140.37
          ],
          [
            2.380458,
            42.8623,
            1135.96
          ],
          [
            2.38043,
            42.862241,
            1131.97
          ],
          [
            2.380469,
            42.862139,
            1125.2
          ],
          [
            2.380568,
            42.862056,
            1118.11
          ],
          [
            2.380548,
            42.862018,
            1115.5
          ],
          [
            2.380495,
            42.861997,
            1112.73
          ],
          [
            2.380487,
            42.861975,
            1111.31
          ],
          [
            2.380517,
            42.861955,
            1109.57
          ],
          [
            2.3806,
            42.861941,
            1106.11
          ],
          [
            2.38074,
            42.861943,
            1100.37
          ],
          [
            2.380804,
            42.861911,
            1097.17
          ],
          [
            2.380762,
            42.861868,
            1094.39
          ],
          [
            2.380829,
            42.861837,
            1091.51
          ],
          [
            2.380894,
            42.861702,
            1085.88
          ],
          [
            2.381114,
            42.861491,
            1084.04
          ],
          [
            2.381238,
            42.861467,
            1087.2
          ],
          [
            2.381409,
            42.861481,
            1089.87
          ],
          [
            2.381493,
            42.861476,
            1090.68
          ],
          [
            2.381826,
            42.861399,
            1091.39
          ],
          [
            2.382065,
            42.861306,
            1090.63
          ],
          [
            2.382175,
            42.86125,
            1090.64
          ],
          [
            2.382191,
            42.861199,
            1090.58
          ],
          [
            2.382315,
            42.861088,
            1090.2
          ],
          [
            2.382406,
            42.861061,
            1089.93
          ],
          [
            2.382538,
            42.860994,
            1089.38
          ],
          [
            2.38262,
            42.860929,
            1088.81
          ],
          [
            2.382752,
            42.860872,
            1088.01
          ],
          [
            2.382911,
            42.860771,
            1086.78
          ],
          [
            2.383063,
            42.860621,
            1085.21
          ],
          [
            2.38321,
            42.860554,
            1083.92
          ],
          [
            2.383238,
            42.860496,
            1083.16
          ],
          [
            2.383311,
            42.860448,
            1082.15
          ],
          [
            2.383374,
            42.860369,
            1080.69
          ],
          [
            2.383439,
            42.860319,
            1079.41
          ],
          [
            2.383574,
            42.860246,
            1076.79
          ],
          [
            2.383671,
            42.860209,
            1074.9
          ],
          [
            2.383815,
            42.860116,
            1071.23
          ],
          [
            2.383999,
            42.860049,
            1066.96
          ],
          [
            2.384042,
            42.860014,
            1065.56
          ],
          [
            2.384153,
            42.859978,
            1062.8
          ],
          [
            2.384285,
            42.85991,
            1059.17
          ],
          [
            2.38439,
            42.859917,
            1056.84
          ],
          [
            2.384449,
            42.859937,
            1055.3
          ],
          [
            2.384589,
            42.859904,
            1051.86
          ],
          [
            2.384701,
            42.859934,
            1049.21
          ],
          [
            2.384952,
            42.859976,
            1043.5
          ],
          [
            2.38512,
            42.859966,
            1040.04
          ],
          [
            2.385294,
            42.859892,
            1036.06
          ],
          [
            2.385488,
            42.859783,
            1031.44
          ],
          [
            2.385614,
            42.859668,
            1027.9
          ],
          [
            2.38585,
            42.859656,
            1024.06
          ],
          [
            2.385989,
            42.859603,
            1021.42
          ],
          [
            2.386067,
            42.859519,
            1019.15
          ],
          [
            2.38622,
            42.859483,
            1016.48
          ],
          [
            2.386265,
            42.859462,
            1015.6
          ],
          [
            2.386303,
            42.859435,
            1014.77
          ],
          [
            2.386475,
            42.859274,
            1010.96
          ],
          [
            2.386488,
            42.859194,
            1009.66
          ],
          [
            2.386518,
            42.859152,
            1008.99
          ],
          [
            2.386566,
            42.859119,
            1008.41
          ],
          [
            2.386575,
            42.859071,
            1007.92
          ],
          [
            2.386692,
            42.858987,
            1007.15
          ],
          [
            2.386848,
            42.858961,
            1006.89
          ],
          [
            2.386859,
            42.858942,
            1006.88
          ],
          [
            2.386952,
            42.858927,
            1006.91
          ],
          [
            2.38701,
            42.858905,
            1006.95
          ],
          [
            2.387148,
            42.858916,
            1007.13
          ],
          [
            2.387199,
            42.858904,
            1007.32
          ],
          [
            2.38729,
            42.858877,
            1007.77
          ],
          [
            2.387324,
            42.858848,
            1008.06
          ],
          [
            2.387409,
            42.858803,
            1008.81
          ],
          [
            2.387466,
            42.858787,
            1009.34
          ],
          [
            2.387522,
            42.85879,
            1009.85
          ],
          [
            2.387684,
            42.858769,
            1011.54
          ],
          [
            2.387808,
            42.858736,
            1012.86
          ],
          [
            2.387846,
            42.85875,
            1013.28
          ],
          [
            2.387903,
            42.858736,
            1013.86
          ],
          [
            2.387973,
            42.858674,
            1014.86
          ],
          [
            2.3881,
            42.858618,
            1016.06
          ],
          [
            2.388159,
            42.858603,
            1016.46
          ],
          [
            2.388211,
            42.858571,
            1016.78
          ],
          [
            2.388351,
            42.858379,
            1017.2
          ],
          [
            2.388391,
            42.858348,
            1017.11
          ],
          [
            2.388586,
            42.85825,
            1016.46
          ],
          [
            2.388689,
            42.858221,
            1015.85
          ],
          [
            2.388731,
            42.858191,
            1015.44
          ],
          [
            2.388768,
            42.858147,
            1014.88
          ],
          [
            2.388873,
            42.858068,
            1013.39
          ],
          [
            2.389027,
            42.858005,
            1011.25
          ],
          [
            2.389104,
            42.857959,
            1009.83
          ],
          [
            2.389219,
            42.857908,
            1007.79
          ],
          [
            2.389363,
            42.857817,
            1004.71
          ],
          [
            2.38945,
            42.85773,
            1002.13
          ],
          [
            2.389648,
            42.857697,
            998.41
          ],
          [
            2.389873,
            42.857589,
            993.33
          ],
          [
            2.389992,
            42.857549,
            990.92
          ],
          [
            2.390091,
            42.857497,
            988.81
          ],
          [
            2.390233,
            42.857475,
            986.53
          ],
          [
            2.390348,
            42.857433,
            984.74
          ],
          [
            2.390478,
            42.857334,
            982.43
          ],
          [
            2.390528,
            42.857265,
            981.3
          ],
          [
            2.390607,
            42.857226,
            980.46
          ],
          [
            2.3909,
            42.857184,
            978.61
          ],
          [
            2.390963,
            42.85715,
            978.29
          ],
          [
            2.391074,
            42.857128,
            977.95
          ],
          [
            2.391211,
            42.857087,
            977.78
          ],
          [
            2.391248,
            42.857108,
            977.75
          ],
          [
            2.391317,
            42.857124,
            977.75
          ],
          [
            2.391375,
            42.857099,
            977.79
          ],
          [
            2.39141,
            42.857073,
            977.86
          ],
          [
            2.391484,
            42.857076,
            977.97
          ],
          [
            2.391527,
            42.85707,
            978.05
          ],
          [
            2.391573,
            42.857045,
            978.16
          ],
          [
            2.391671,
            42.857038,
            978.35
          ],
          [
            2.391834,
            42.856977,
            978.69
          ],
          [
            2.391883,
            42.856931,
            978.76
          ],
          [
            2.392053,
            42.856895,
            978.79
          ],
          [
            2.392098,
            42.856858,
            978.78
          ],
          [
            2.392152,
            42.856797,
            978.76
          ],
          [
            2.392191,
            42.856774,
            978.72
          ],
          [
            2.392243,
            42.85676,
            978.66
          ],
          [
            2.392375,
            42.856684,
            978.31
          ],
          [
            2.392466,
            42.856672,
            978.0
          ],
          [
            2.392585,
            42.856631,
            977.52
          ],
          [
            2.392635,
            42.856595,
            977.23
          ],
          [
            2.392708,
            42.856586,
            976.86
          ],
          [
            2.392751,
            42.856592,
            976.63
          ],
          [
            2.392903,
            42.856569,
            975.67
          ],
          [
            2.392978,
            42.85657,
            975.07
          ],
          [
            2.393087,
            42.85654,
            973.99
          ],
          [
            2.393186,
            42.856533,
            972.99
          ],
          [
            2.393241,
            42.856514,
            972.39
          ],
          [
            2.393285,
            42.856521,
            971.95
          ],
          [
            2.39337,
            42.856514,
            971.12
          ],
          [
            2.39353,
            42.85648,
            969.77
          ],
          [
            2.393562,
            42.856438,
            969.34
          ],
          [
            2.393617,
            42.856424,
            968.96
          ],
          [
            2.393702,
            42.856369,
            968.28
          ],
          [
            2.393712,
            42.856321,
            967.91
          ],
          [
            2.393795,
            42.856251,
            967.23
          ],
          [
            2.393846,
            42.856232,
            966.94
          ],
          [
            2.393883,
            42.856182,
            966.6
          ],
          [
            2.393998,
            42.856186,
            966.17
          ],
          [
            2.394018,
            42.856207,
            966.03
          ],
          [
            2.394067,
            42.856205,
            965.86
          ],
          [
            2.394109,
            42.856174,
            965.64
          ],
          [
            2.394242,
            42.856166,
            965.15
          ],
          [
            2.39456,
            42.856108,
            964.66
          ],
          [
            2.394753,
            42.856055,
            964.87
          ],
          [
            2.39483,
            42.855995,
            964.88
          ],
          [
            2.395049,
            42.855875,
            964.04
          ],
          [
            2.39523,
            42.855872,
            962.76
          ],
          [
            2.395324,
            42.855837,
            961.83
          ],
          [
            2.395466,
            42.855809,
            960.31
          ],
          [
            2.395535,
            42.855787,
            959.43
          ],
          [
            2.395561,
            42.855746,
            958.67
          ],
          [
            2.395578,
            42.855689,
            957.62
          ],
          [
            2.395638,
            42.855654,
            956.57
          ],
          [
            2.395737,
            42.855579,
            954.54
          ],
          [
            2.395806,
            42.855551,
            953.41
          ],
          [
            2.395952,
            42.855437,
            950.31
          ],
          [
            2.395995,
            42.855355,
            948.56
          ],
          [
            2.396098,
            42.855263,
            946.22
          ],
          [
            2.396214,
            42.855221,
            944.49
          ],
          [
            2.396377,
            42.855121,
            942.04
          ],
          [
            2.396433,
            42.855064,
            941.08
          ],
          [
            2.396708,
            42.854925,
            938.47
          ],
          [
            2.396863,
            42.854872,
            937.2
          ],
          [
            2.39694,
            42.854806,
            936.36
          ],
          [
            2.397,
            42.85474,
            935.65
          ],
          [
            2.397254,
            42.854639,
            933.98
          ],
          [
            2.397494,
            42.854487,
            931.89
          ],
          [
            2.397628,
            42.854421,
            930.68
          ],
          [
            2.397739,
            42.854343,
            929.35
          ],
          [
            2.397993,
            42.854324,
            926.93
          ],
          [
            2.3981,
            42.854251,
            925.43
          ],
          [
            2.39842,
            42.853995,
            921.09
          ],
          [
            2.398734,
            42.853831,
            917.53
          ],
          [
            2.39897,
            42.853736,
            915.22
          ],
          [
            2.399138,
            42.853655,
            913.42
          ],
          [
            2.399212,
            42.853635,
            912.67
          ],
          [
            2.399287,
            42.853643,
            912.3
          ],
          [
            2.399267,
            42.853521,
            909.36
          ],
          [
            2.399358,
            42.853346,
            902.74
          ],
          [
            2.399302,
            42.85326,
            899.8
          ],
          [
            2.399306,
            42.853201,
            898.28
          ],
          [
            2.39925,
            42.853141,
            896.53
          ],
          [
            2.399202,
            42.853018,
            893.54
          ],
          [
            2.399134,
            42.852959,
            891.6
          ],
          [
            2.398897,
            42.852853,
            886.35
          ],
          [
            2.398722,
            42.852683,
            881.85
          ],
          [
            2.398696,
            42.85262,
            880.54
          ],
          [
            2.39856,
            42.852385,
            875.02
          ],
          [
            2.398508,
            42.852147,
            870.27
          ],
          [
            2.398471,
            42.852089,
            869.1
          ],
          [
            2.398355,
            42.852077,
            869.8
          ],
          [
            2.398149,
            42.85212,
            870.88
          ],
          [
            2.397866,
            42.85216,
            871.47
          ],
          [
            2.397538,
            42.852243,
            871.59
          ],
          [
            2.397263,
            42.852336,
            871.49
          ],
          [
            2.396824,
            42.852627,
            869.26
          ],
          [
            2.396326,
            42.852688,
            866.05
          ],
          [
            2.395973,
            42.852768,
            863.11
          ],
          [
            2.395387,
            42.852929,
            858.33
          ],
          [
            2.395238,
            42.852964,
            857.34
          ],
          [
            2.39432,
            42.852986,
            851.2
          ],
          [
            2.394147,
            42.852966,
            849.81
          ],
          [
            2.393858,
            42.852869,
            846.98
          ],
          [
            2.393753,
            42.852852,
            845.85
          ],
          [
            2.393161,
            42.852898,
            838.14
          ],
          [
            2.393068,
            42.852894,
            836.79
          ],
          [
            2.392852,
            42.852814,
            833.18
          ],
          [
            2.392629,
            42.85277,
            829.75
          ],
          [
            2.392532,
            42.852738,
            828.2
          ],
          [
            2.392273,
            42.852457,
            821.13
          ],
          [
            2.392184,
            42.852383,
            819.08
          ],
          [
            2.392108,
            42.852276,
            816.69
          ],
          [
            2.392042,
            42.852212,
            815.36
          ],
          [
            2.391898,
            42.852186,
            813.75
          ],
          [
            2.391726,
            42.852187,
            811.44
          ],
          [
            2.391651,
            42.852167,
            810.53
          ],
          [
            2.391479,
            42.852059,
            808.7
          ],
          [
            2.391224,
            42.851919,
            806.72
          ],
          [
            2.39074,
            42.851605,
            803.68
          ],
          [
            2.390531,
            42.851392,
            802.19
          ],
          [
            2.390308,
            42.851333,
            801.5
          ],
          [
            2.390151,
            42.851252,
            801.28
          ],
          [
            2.389932,
            42.851191,
            800.16
          ],
          [
            2.389928,
            42.851173,
            799.86
          ],
          [
            2.389816,
            42.851164,
            799.51
          ],
          [
            2.38969,
            42.851179,
            799.2
          ],
          [
            2.389605,
            42.85116,
            798.99
          ],
          [
            2.389426,
            42.851142,
            799.22
          ],
          [
            2.389304,
            42.851106,
            799.83
          ],
          [
            2.389044,
            42.851068,
            802.38
          ],
          [
            2.388879,
            42.850942,
            804.23
          ],
          [
            2.38871,
            42.850968,
            805.49
          ],
          [
            2.38842,
            42.850917,
            809.17
          ],
          [
            2.388325,
            42.850915,
            810.65
          ],
          [
            2.388196,
            42.850869,
            812.56
          ],
          [
            2.387986,
            42.850881,
            814.04
          ],
          [
            2.387828,
            42.850929,
            814.46
          ],
          [
            2.387614,
            42.850941,
            814.97
          ],
          [
            2.387195,
            42.850884,
            816.11
          ],
          [
            2.387023,
            42.850838,
            817.05
          ],
          [
            2.386878,
            42.850837,
            818.02
          ],
          [
            2.386735,
            42.850849,
            818.41
          ],
          [
            2.386374,
            42.850972,
            818.79
          ],
          [
            2.385985,
            42.851218,
            819.96
          ],
          [
            2.385838,
            42.851338,
            822.24
          ],
          [
            2.385609,
            42.851431,
            825.02
          ],
          [
            2.385332,
            42.851421,
            828.01
          ],
          [
            2.385049,
            42.851344,
            831.53
          ],
          [
            2.384877,
            42.85117,
            835.13
          ],
          [
            2.384706,
            42.850977,
            839.15
          ],
          [
            2.384403,
            42.850561,
            847.62
          ],
          [
            2.384173,
            42.850288,
            853.28
          ],
          [
            2.384137,
            42.850181,
            854.65
          ],
          [
            2.384215,
            42.850063,
            854.58
          ],
          [
            2.384134,
            42.850083,
            855.05
          ],
          [
            2.383725,
            42.85012,
            860.11
          ],
          [
            2.383475,
            42.850096,
            863.24
          ],
          [
            2.383317,
            42.850122,
            863.44
          ],
          [
            2.383227,
            42.850073,
            863.74
          ],
          [
            2.383047,
            42.850142,
            863.95
          ],
          [
            2.382818,
            42.850184,
            863.58
          ],
          [
            2.382631,
            42.850182,
            862.65
          ],
          [
            2.382346,
            42.850115,
            859.94
          ],
          [
            2.382164,
            42.85006,
            857.33
          ],
          [
            2.38203,
            42.849945,
            854.28
          ],
          [
            2.381994,
            42.85001,
            852.87
          ],
          [
            2.382005,
            42.850094,
            851.25
          ],
          [
            2.382057,
            42.850192,
            849.31
          ],
          [
            2.382125,
            42.850294,
            847.26
          ],
          [
            2.382162,
            42.850389,
            845.51
          ],
          [
            2.382158,
            42.850604,
            841.61
          ],
          [
            2.382188,
            42.85078,
            838.42
          ],
          [
            2.382058,
            42.851244,
            829.48
          ],
          [
            2.381826,
            42.851648,
            820.57
          ],
          [
            2.38153,
            42.852244,
            807.3
          ],
          [
            2.381402,
            42.852858,
            795.24
          ],
          [
            2.381339,
            42.853004,
            792.51
          ],
          [
            2.38117,
            42.853132,
            789.56
          ],
          [
            2.381081,
            42.853302,
            786.78
          ],
          [
            2.380965,
            42.853443,
            784.23
          ],
          [
            2.380886,
            42.853606,
            781.52
          ],
          [
            2.380896,
            42.853909,
            776.49
          ],
          [
            2.380735,
            42.854122,
            772.47
          ],
          [
            2.380735,
            42.854234,
            770.22
          ],
          [
            2.380605,
            42.854376,
            766.35
          ],
          [
            2.380524,
            42.85449,
            762.88
          ],
          [
            2.380419,
            42.854518,
            760.73
          ],
          [
            2.380201,
            42.85454,
            761.81
          ],
          [
            2.380195,
            42.85448,
            760.87
          ],
          [
            2.380231,
            42.854424,
            760.03
          ],
          [
            2.380081,
            42.854207,
            760.58
          ],
          [
            2.380023,
            42.854176,
            760.92
          ],
          [
            2.37997,
            42.85417,
            761.13
          ],
          [
            2.379473,
            42.8543,
            763.91
          ],
          [
            2.379329,
            42.854387,
            764.9
          ],
          [
            2.37912,
            42.854736,
            766.78
          ],
          [
            2.379028,
            42.854824,
            767.02
          ],
          [
            2.378824,
            42.854923,
            767.3
          ],
          [
            2.378626,
            42.854978,
            767.19
          ],
          [
            2.377951,
            42.855194,
            763.31
          ],
          [
            2.377755,
            42.855403,
            760.22
          ],
          [
            2.377308,
            42.855741,
            753.01
          ],
          [
            2.377202,
            42.855797,
            751.41
          ],
          [
            2.377007,
            42.855812,
            749.05
          ],
          [
            2.376932,
            42.855865,
            747.83
          ],
          [
            2.376834,
            42.855916,
            746.45
          ],
          [
            2.376767,
            42.855986,
            745.15
          ],
          [
            2.376492,
            42.856073,
            741.8
          ],
          [
            2.376314,
            42.856159,
            739.53
          ],
          [
            2.375974,
            42.856232,
            736.17
          ],
          [
            2.375745,
            42.856264,
            734.02
          ],
          [
            2.375576,
            42.856268,
            732.78
          ],
          [
            2.375287,
            42.85622,
            730.83
          ],
          [
            2.374944,
            42.856052,
            728.07
          ],
          [
            2.374857,
            42.856003,
            727.41
          ],
          [
            2.374737,
            42.855976,
            726.7
          ],
          [
            2.374529,
            42.855973,
            725.6
          ],
          [
            2.373981,
            42.856025,
            721.92
          ],
          [
            2.373703,
            42.856043,
            719.26
          ],
          [
            2.373413,
            42.856097,
            716.39
          ],
          [
            2.373156,
            42.856214,
            712.23
          ],
          [
            2.373015,
            42.856243,
            706.94
          ],
          [
            2.372806,
            42.856299,
            703.28
          ],
          [
            2.372627,
            42.856387,
            699.69
          ],
          [
            2.372601,
            42.856436,
            698.99
          ],
          [
            2.372594,
            42.85649,
            698.57
          ],
          [
            2.372465,
            42.856821,
            695.57
          ],
          [
            2.372448,
            42.856899,
            694.63
          ],
          [
            2.372355,
            42.856996,
            691.9
          ],
          [
            2.372304,
            42.856993,
            690.83
          ],
          [
            2.372206,
            42.856961,
            688.94
          ],
          [
            2.372125,
            42.857008,
            687.38
          ],
          [
            2.372082,
            42.857064,
            686.11
          ],
          [
            2.372002,
            42.857089,
            684.87
          ],
          [
            2.37187,
            42.857052,
            682.95
          ],
          [
            2.371738,
            42.85707,
            681.19
          ],
          [
            2.371666,
            42.857114,
            679.93
          ],
          [
            2.371606,
            42.857183,
            678.42
          ],
          [
            2.371598,
            42.857258,
            677.1
          ],
          [
            2.371564,
            42.857329,
            675.93
          ],
          [
            2.37156,
            42.857407,
            674.81
          ],
          [
            2.371483,
            42.857482,
            673.5
          ],
          [
            2.37116,
            42.85774,
            670.94
          ],
          [
            2.371024,
            42.857797,
            670.66
          ],
          [
            2.370875,
            42.857812,
            670.34
          ],
          [
            2.370743,
            42.857847,
            670.01
          ],
          [
            2.370641,
            42.857859,
            669.8
          ],
          [
            2.370565,
            42.857896,
            669.62
          ],
          [
            2.370497,
            42.857896,
            669.49
          ],
          [
            2.37034,
            42.857916,
            669.24
          ],
          [
            2.370277,
            42.857941,
            669.17
          ],
          [
            2.370214,
            42.857931,
            669.13
          ],
          [
            2.370077,
            42.857941,
            669.01
          ],
          [
            2.370012,
            42.85798,
            668.86
          ],
          [
            2.369772,
            42.858058,
            667.81
          ],
          [
            2.36968,
            42.858034,
            667.24
          ],
          [
            2.369663,
            42.858022,
            667.1
          ],
          [
            2.369625,
            42.858011,
            666.83
          ],
          [
            2.369562,
            42.858023,
            666.4
          ],
          [
            2.369478,
            42.858056,
            665.7
          ],
          [
            2.369447,
            42.858077,
            665.37
          ],
          [
            2.369411,
            42.858077,
            665.08
          ],
          [
            2.369207,
            42.858119,
            663.42
          ],
          [
            2.369135,
            42.858073,
            662.63
          ],
          [
            2.369086,
            42.858008,
            661.73
          ],
          [
            2.369025,
            42.857986,
            661.04
          ],
          [
            2.369007,
            42.857926,
            660.12
          ],
          [
            2.369026,
            42.857902,
            659.68
          ],
          [
            2.369016,
            42.857885,
            659.37
          ],
          [
            2.368875,
            42.857901,
            657.53
          ],
          [
            2.368735,
            42.85796,
            654.92
          ],
          [
            2.36859,
            42.858041,
            651.77
          ],
          [
            2.368463,
            42.858081,
            649.72
          ],
          [
            2.368335,
            42.858091,
            647.87
          ],
          [
            2.368119,
            42.858066,
            644.12
          ],
          [
            2.367855,
            42.858206,
            640.02
          ],
          [
            2.367787,
            42.858334,
            638.4
          ],
          [
            2.367655,
            42.858536,
            636.17
          ],
          [
            2.367546,
            42.858733,
            634.68
          ],
          [
            2.367536,
            42.85886,
            635.08
          ],
          [
            2.3675,
            42.858891,
            634.3
          ],
          [
            2.367434,
            42.858901,
            633.62
          ],
          [
            2.367358,
            42.858966,
            632.85
          ],
          [
            2.367309,
            42.859024,
            631.6
          ],
          [
            2.367205,
            42.859098,
            629.52
          ],
          [
            2.367096,
            42.859081,
            627.93
          ],
          [
            2.367035,
            42.859052,
            626.85
          ],
          [
            2.366933,
            42.859076,
            625.54
          ],
          [
            2.36688,
            42.859119,
            624.77
          ],
          [
            2.366811,
            42.85921,
            623.44
          ],
          [
            2.366758,
            42.859247,
            622.87
          ],
          [
            2.366694,
            42.859268,
            622.39
          ],
          [
            2.366674,
            42.859298,
            622.07
          ],
          [
            2.366631,
            42.859299,
            621.73
          ],
          [
            2.366598,
            42.859268,
            621.26
          ],
          [
            2.36656,
            42.859285,
            620.86
          ],
          [
            2.366547,
            42.859331,
            620.22
          ],
          [
            2.366442,
            42.85944,
            618.35
          ],
          [
            2.36639,
            42.859521,
            617.03
          ],
          [
            2.366423,
            42.859637,
            615.27
          ],
          [
            2.366526,
            42.859742,
            614.12
          ],
          [
            2.366387,
            42.859809,
            613.34
          ],
          [
            2.3662,
            42.859847,
            610.52
          ],
          [
            2.366086,
            42.859952,
            605.28
          ],
          [
            2.366025,
            42.860054,
            600.66
          ],
          [
            2.366183,
            42.860324,
            599.64
          ],
          [
            2.366197,
            42.860405,
            599.92
          ],
          [
            2.366188,
            42.860471,
            600.0
          ],
          [
            2.36617,
            42.86051,
            599.99
          ],
          [
            2.366124,
            42.860555,
            599.99
          ],
          [
            2.366067,
            42.860581,
            599.98
          ],
          [
            2.365936,
            42.860578,
            599.92
          ],
          [
            2.365798,
            42.860543,
            599.81
          ],
          [
            2.365671,
            42.860532,
            599.76
          ],
          [
            2.365235,
            42.860592,
            599.51
          ],
          [
            2.364936,
            42.860577,
            599.16
          ],
          [
            2.364796,
            42.860581,
            599.0
          ],
          [
            2.364607,
            42.86062,
            598.82
          ],
          [
            2.364334,
            42.86072,
            598.56
          ],
          [
            2.364192,
            42.86075,
            598.46
          ],
          [
            2.364085,
            42.860762,
            598.37
          ],
          [
            2.363927,
            42.860766,
            598.23
          ],
          [
            2.363728,
            42.860756,
            598.09
          ],
          [
            2.363406,
            42.860692,
            597.82
          ],
          [
            2.363186,
            42.86062,
            597.57
          ],
          [
            2.36304,
            42.860596,
            597.33
          ],
          [
            2.362934,
            42.860599,
            597.06
          ],
          [
            2.362851,
            42.860619,
            596.99
          ],
          [
            2.362751,
            42.860657,
            596.89
          ],
          [
            2.362672,
            42.860715,
            596.93
          ],
          [
            2.362639,
            42.86077,
            596.75
          ],
          [
            2.362642,
            42.860851,
            596.13
          ],
          [
            2.36268,
            42.860928,
            595.55
          ],
          [
            2.36276,
            42.861032,
            594.95
          ],
          [
            2.363015,
            42.861212,
            593.07
          ],
          [
            2.363086,
            42.861274,
            592.45
          ],
          [
            2.363131,
            42.861331,
            591.96
          ],
          [
            2.363156,
            42.861408,
            591.39
          ],
          [
            2.363155,
            42.861484,
            590.84
          ],
          [
            2.36314,
            42.861549,
            590.38
          ],
          [
            2.363037,
            42.861825,
            588.26
          ],
          [
            2.362974,
            42.862087,
            586.24
          ],
          [
            2.362921,
            42.862195,
            585.51
          ],
          [
            2.362604,
            42.862567,
            582.97
          ],
          [
            2.362484,
            42.862833,
            581.48
          ],
          [
            2.362422,
            42.862929,
            580.93
          ],
          [
            2.362274,
            42.863092,
            579.96
          ],
          [
            2.36183,
            42.863638,
            576.8
          ],
          [
            2.361578,
            42.86397,
            574.77
          ],
          [
            2.361316,
            42.864254,
            572.85
          ],
          [
            2.361029,
            42.864446,
            570.05
          ],
          [
            2.360903,
            42.864577,
            568.83
          ],
          [
            2.360774,
            42.864765,
            567.7
          ],
          [
            2.360736,
            42.864888,
            567.56
          ],
          [
            2.360721,
            42.864992,
            567.17
          ],
          [
            2.36076,
            42.865329,
            565.6
          ],
          [
            2.360737,
            42.865414,
            565.2
          ],
          [
            2.36068,
            42.865488,
            564.82
          ],
          [
            2.360558,
            42.86557,
            564.26
          ],
          [
            2.360484,
            42.865638,
            563.83
          ],
          [
            2.360438,
            42.865719,
            563.36
          ],
          [
            2.360422,
            42.865788,
            562.94
          ],
          [
            2.360409,
            42.865912,
            562.11
          ],
          [
            2.360363,
            42.865998,
            561.5
          ],
          [
            2.360283,
            42.866098,
            560.78
          ],
          [
            2.360145,
            42.866218,
            559.88
          ],
          [
            2.360028,
            42.866303,
            559.17
          ],
          [
            2.359934,
            42.866338,
            558.68
          ],
          [
            2.35966,
            42.866366,
            557.55
          ],
          [
            2.359541,
            42.866408,
            556.92
          ],
          [
            2.359408,
            42.866484,
            556.29
          ],
          [
            2.359268,
            42.866624,
            555.37
          ],
          [
            2.359205,
            42.866767,
            555.22
          ],
          [
            2.35919,
            42.866881,
            554.91
          ],
          [
            2.359219,
            42.867075,
            553.91
          ],
          [
            2.359269,
            42.867295,
            552.96
          ],
          [
            2.359372,
            42.867648,
            551.32
          ],
          [
            2.359409,
            42.867713,
            551.08
          ],
          [
            2.359758,
            42.867984,
            549.08
          ],
          [
            2.359802,
            42.868038,
            548.53
          ],
          [
            2.359831,
            42.86813,
            547.69
          ],
          [
            2.359809,
            42.868251,
            545.45
          ],
          [
            2.359761,
            42.868307,
            545.19
          ],
          [
            2.359693,
            42.868345,
            545.07
          ],
          [
            2.359354,
            42.868457,
            543.27
          ],
          [
            2.359019,
            42.868593,
            541.38
          ],
          [
            2.358887,
            42.868689,
            540.81
          ],
          [
            2.358663,
            42.868896,
            538.98
          ],
          [
            2.358467,
            42.869048,
            537.61
          ],
          [
            2.358387,
            42.869153,
            537.09
          ],
          [
            2.358312,
            42.869305,
            536.28
          ],
          [
            2.358224,
            42.869528,
            535.02
          ],
          [
            2.35809,
            42.869752,
            533.87
          ],
          [
            2.35778,
            42.870027,
            532.03
          ],
          [
            2.357718,
            42.870104,
            531.47
          ],
          [
            2.357634,
            42.870345,
            529.86
          ],
          [
            2.357517,
            42.870473,
            528.92
          ],
          [
            2.357382,
            42.870564,
            528.11
          ],
          [
            2.357199,
            42.870664,
            527.14
          ],
          [
            2.356979,
            42.870796,
            526.07
          ],
          [
            2.356849,
            42.870915,
            525.27
          ],
          [
            2.356809,
            42.870985,
            524.85
          ],
          [
            2.356777,
            42.871069,
            524.4
          ],
          [
            2.356752,
            42.871422,
            522.87
          ],
          [
            2.356732,
            42.871477,
            522.63
          ],
          [
            2.356678,
            42.871606,
            522.01
          ],
          [
            2.356459,
            42.871998,
            519.73
          ],
          [
            2.35631,
            42.872492,
            516.87
          ],
          [
            2.356289,
            42.872611,
            516.17
          ],
          [
            2.356232,
            42.872763,
            515.27
          ],
          [
            2.356067,
            42.873011,
            513.86
          ],
          [
            2.356012,
            42.873129,
            513.24
          ],
          [
            2.355985,
            42.873411,
            511.92
          ],
          [
            2.356023,
            42.873672,
            511.24
          ],
          [
            2.356007,
            42.873946,
            509.39
          ],
          [
            2.35609,
            42.874091,
            508.5
          ],
          [
            2.356112,
            42.874187,
            507.88
          ],
          [
            2.355956,
            42.874726,
            504.54
          ],
          [
            2.355924,
            42.875058,
            502.98
          ],
          [
            2.356219,
            42.875072,
            506.99
          ],
          [
            2.356463,
            42.875123,
            509.22
          ],
          [
            2.356559,
            42.875219,
            510.52
          ],
          [
            2.356661,
            42.875339,
            511.97
          ],
          [
            2.357015,
            42.875561,
            515.96
          ],
          [
            2.3572,
            42.875646,
            517.72
          ],
          [
            2.357283,
            42.875646,
            518.38
          ],
          [
            2.357914,
            42.875388,
            522.68
          ],
          [
            2.358185,
            42.875321,
            523.64
          ],
          [
            2.358418,
            42.87529,
            523.97
          ],
          [
            2.358643,
            42.87527,
            524.17
          ],
          [
            2.358898,
            42.875264,
            524.34
          ],
          [
            2.359083,
            42.875306,
            524.41
          ],
          [
            2.359469,
            42.875488,
            524.95
          ],
          [
            2.359743,
            42.875559,
            525.72
          ],
          [
            2.359813,
            42.875626,
            526.27
          ],
          [
            2.359861,
            42.87571,
            527.06
          ],
          [
            2.360025,
            42.875915,
            529.58
          ],
          [
            2.360159,
            42.875992,
            530.98
          ],
          [
            2.360483,
            42.876039,
            533.81
          ],
          [
            2.36058,
            42.87608,
            534.84
          ],
          [
            2.360693,
            42.876155,
            536.31
          ],
          [
            2.360693,
            42.876155,
            536.31
          ],
          [
            2.36058,
            42.87608,
            534.84
          ],
          [
            2.360483,
            42.876039,
            533.81
          ],
          [
            2.360159,
            42.875992,
            530.98
          ],
          [
            2.360025,
            42.875915,
            529.58
          ],
          [
            2.359861,
            42.87571,
            527.06
          ],
          [
            2.359813,
            42.875626,
            526.27
          ],
          [
            2.359743,
            42.875559,
            525.72
          ],
          [
            2.359469,
            42.875488,
            524.95
          ],
          [
            2.359083,
            42.875306,
            524.41
          ],
          [
            2.358898,
            42.875264,
            524.34
          ],
          [
            2.358643,
            42.87527,
            524.17
          ],
          [
            2.358418,
            42.87529,
            523.97
          ],
          [
            2.358185,
            42.875321,
            523.64
          ],
          [
            2.357914,
            42.875388,
            522.68
          ],
          [
            2.357283,
            42.875646,
            518.38
          ],
          [
            2.3572,
            42.875646,
            517.72
          ],
          [
            2.357015,
            42.875561,
            515.96
          ],
          [
            2.356661,
            42.875339,
            511.97
          ],
          [
            2.356559,
            42.875219,
            510.52
          ],
          [
            2.356463,
            42.875123,
            509.22
          ],
          [
            2.356219,
            42.875072,
            506.99
          ],
          [
            2.355924,
            42.875058,
            502.98
          ],
          [
            2.355861,
            42.875708,
            498.76
          ],
          [
            2.355888,
            42.875785,
            498.31
          ],
          [
            2.356021,
            42.87592,
            497.46
          ],
          [
            2.356127,
            42.875983,
            496.94
          ],
          [
            2.356317,
            42.876033,
            496.03
          ],
          [
            2.356819,
            42.876076,
            494.91
          ],
          [
            2.356878,
            42.876116,
            494.74
          ],
          [
            2.356908,
            42.87623,
            493.62
          ],
          [
            2.356589,
            42.876189,
            491.76
          ],
          [
            2.35627,
            42.876126,
            490.06
          ],
          [
            2.355891,
            42.87607,
            488.3
          ],
          [
            2.355732,
            42.876057,
            487.59
          ],
          [
            2.355199,
            42.876111,
            485.38
          ],
          [
            2.355044,
            42.876103,
            484.87
          ],
          [
            2.354951,
            42.876083,
            484.82
          ],
          [
            2.354794,
            42.876011,
            484.53
          ],
          [
            2.354652,
            42.875922,
            484.54
          ],
          [
            2.354459,
            42.875784,
            483.81
          ],
          [
            2.354386,
            42.875719,
            483.38
          ],
          [
            2.35431,
            42.875585,
            482.58
          ],
          [
            2.354179,
            42.875397,
            481.6
          ],
          [
            2.354009,
            42.875236,
            480.34
          ],
          [
            2.35371,
            42.875126,
            478.72
          ],
          [
            2.353518,
            42.875044,
            477.82
          ],
          [
            2.353391,
            42.874916,
            476.97
          ],
          [
            2.353359,
            42.874765,
            476.44
          ],
          [
            2.353371,
            42.874424,
            475.15
          ],
          [
            2.353341,
            42.874342,
            474.8
          ],
          [
            2.353286,
            42.874303,
            474.11
          ],
          [
            2.353238,
            42.87429,
            473.21
          ],
          [
            2.353447,
            42.873912,
            474.24
          ],
          [
            2.353699,
            42.873528,
            476.08
          ],
          [
            2.353999,
            42.873041,
            477.26
          ],
          [
            2.354038,
            42.872917,
            477.27
          ],
          [
            2.35411,
            42.872061,
            475.32
          ],
          [
            2.354201,
            42.871918,
            475.69
          ],
          [
            2.354258,
            42.871758,
            476.39
          ],
          [
            2.354306,
            42.871541,
            476.87
          ],
          [
            2.354289,
            42.871494,
            476.84
          ],
          [
            2.354212,
            42.871431,
            476.84
          ],
          [
            2.354255,
            42.871301,
            476.72
          ],
          [
            2.354287,
            42.87111,
            476.63
          ],
          [
            2.354336,
            42.870952,
            476.65
          ],
          [
            2.354335,
            42.870849,
            476.66
          ],
          [
            2.354451,
            42.870574,
            476.61
          ],
          [
            2.354719,
            42.87032,
            477.27
          ],
          [
            2.354699,
            42.870238,
            477.52
          ],
          [
            2.354672,
            42.870182,
            477.46
          ],
          [
            2.354738,
            42.870052,
            480.2
          ],
          [
            2.354807,
            42.869772,
            482.63
          ],
          [
            2.354738,
            42.869607,
            483.24
          ],
          [
            2.354735,
            42.869483,
            483.84
          ],
          [
            2.354756,
            42.869366,
            484.44
          ],
          [
            2.354945,
            42.869051,
            485.24
          ],
          [
            2.355077,
            42.868621,
            484.75
          ],
          [
            2.355063,
            42.868471,
            484.28
          ],
          [
            2.354843,
            42.86792,
            480.59
          ],
          [
            2.354666,
            42.867631,
            478.11
          ],
          [
            2.354643,
            42.867574,
            478.56
          ],
          [
            2.354665,
            42.867525,
            478.95
          ],
          [
            2.355075,
            42.867304,
            480.54
          ],
          [
            2.355337,
            42.867015,
            484.99
          ],
          [
            2.355427,
            42.866611,
            490.4
          ],
          [
            2.355489,
            42.866401,
            493.7
          ],
          [
            2.355688,
            42.866068,
            498.46
          ],
          [
            2.355819,
            42.865574,
            503.47
          ],
          [
            2.356001,
            42.865312,
            506.14
          ],
          [
            2.356079,
            42.865119,
            507.94
          ],
          [
            2.356304,
            42.864832,
            510.97
          ],
          [
            2.356537,
            42.864555,
            513.78
          ],
          [
            2.35668,
            42.86445,
            515.01
          ],
          [
            2.356795,
            42.864393,
            515.82
          ],
          [
            2.356946,
            42.864223,
            517.38
          ],
          [
            2.357045,
            42.863949,
            519.3
          ],
          [
            2.357189,
            42.86375,
            520.86
          ],
          [
            2.357255,
            42.863482,
            523.09
          ],
          [
            2.357436,
            42.863194,
            525.6
          ]
        ]
      }
    },
    {
      "type": "Feature",
      "properties": {
        "source": "Pic_de_Bugarach.gpx",
        "type": "route"
      },
      "geometry": {
        "type": "LineString",
        "coordinates": [
          [
            2.378085,
            42.863194
          ],
          [
            2.399287,
            42.853643
          ],
          [
            2.398471,
            42.852089
          ],
          [
            2.389932,
            42.851191
          ],
          [
            2.389928,
            42.851173
          ],
          [
            2.387986,
            42.850881
          ],
          [
            2.387023,
            42.850838
          ],
          [
            2.384215,
            42.850063
          ],
          [
            2.372601,
            42.856436
          ],
          [
            2.366025,
            42.860054
          ],
          [
            2.355924,
            42.875058
          ],
          [
            2.360693,
            42.876155
          ],
          [
            2.360693,
            42.876155
          ],
          [
            2.355924,
            42.875058
          ],
          [
            2.356908,
            42.87623
          ],
          [
            2.353238,
            42.87429
          ],
          [
            2.354672,
            42.870182
          ],
          [
            2.357436,
            42.863194
          ]
        ]
      }
    }
  ]
}