{
  "type": "FeatureCollection",
  "features": [
    {
      "type": "Feature",
      "properties": {
        "name": "GraphHopper Track",
        "source": "Moyrazès.gpx",
        "type": "track"
      },
      "geometry": {
        "type": "LineString",
        "coordinates": [
          [
            2.434969,
            44.343303,
            724.69
          ],
          [
            2.435726,
            44.343596,
            724.33
          ],
          [
            2.436502,
            44.343612,
            725.86
          ],
          [
            2.437401,
            44.343617,
            727.06
          ],
          [
            2.437663,
            44.343606,
            727.16
          ],
          [
            2.438154,
            44.343539,
            727.0
          ],
          [
            2.438292,
            44.34351,
            726.53
          ],
          [
            2.438447,
            44.343452,
            725.62
          ],
          [
            2.438636,
            44.343332,
            724.26
          ],
          [
            2.438708,
            44.343272,
            723.49
          ],
          [
            2.438851,
            44.343119,
            721.82
          ],
          [
            2.438967,
            44.343046,
            720.73
          ],
          [
            2.439202,
            44.342477,
            720.44
          ],
          [
            2.439326,
            44.342508,
            717.42
          ],
          [
            2.439415,
            44.342559,
            715.83
          ],
          [
            2.439607,
            44.34264,
            713.01
          ],
          [
            2.439678,
            44.342659,
            712.15
          ],
          [
            2.43969,
            44.342617,
            712.24
          ],
          [
            2.439835,
            44.342462,
            712.57
          ],
          [
            2.440456,
            44.342123,
            714.25
          ],
          [
            2.44063,
            44.342074,
            713.67
          ],
          [
            2.440817,
            44.341955,
            713.54
          ],
          [
            2.441243,
            44.341734,
            713.24
          ],
          [
            2.441664,
            44.341504,
            712.69
          ],
          [
            2.442439,
            44.34094,
            706.91
          ],
          [
            2.443386,
            44.340007,
            688.5
          ],
          [
            2.443451,
            44.33992,
            686.64
          ],
          [
            2.443486,
            44.339837,
            685.09
          ],
          [
            2.443541,
            44.339573,
            681.5
          ],
          [
            2.443602,
            44.33937,
            679.67
          ],
          [
            2.443695,
            44.339216,
            679.14
          ],
          [
            2.443792,
            44.338985,
            679.24
          ],
          [
            2.443841,
            44.338838,
            679.21
          ],
          [
            2.443892,
            44.338743,
            679.46
          ],
          [
            2.44405,
            44.338553,
            681.34
          ],
          [
            2.444097,
            44.338521,
            681.94
          ],
          [
            2.444484,
            44.338173,
            686.97
          ],
          [
            2.44476,
            44.337859,
            690.98
          ],
          [
            2.445445,
            44.337246,
            697.71
          ],
          [
            2.445314,
            44.336989,
            698.86
          ],
          [
            2.445063,
            44.336734,
            699.69
          ],
          [
            2.444758,
            44.336537,
            700.9
          ],
          [
            2.444758,
            44.336537,
            700.9
          ],
          [
            2.444415,
            44.336421,
            702.33
          ],
          [
            2.444075,
            44.336348,
            703.95
          ],
          [
            2.443262,
            44.336254,
            708.56
          ],
          [
            2.442648,
            44.336105,
            712.07
          ],
          [
            2.442194,
            44.336029,
            714.17
          ],
          [
            2.441336,
            44.335973,
            717.19
          ],
          [
            2.441392,
            44.336868,
            706.07
          ],
          [
            2.441585,
            44.337121,
            702.91
          ],
          [
            2.44121,
            44.337382,
            700.24
          ],
          [
            2.440738,
            44.337505,
            699.17
          ],
          [
            2.440351,
            44.337536,
            699.6
          ],
          [
            2.440233,
            44.337723,
            700.51
          ],
          [
            2.440185,
            44.338027,
            702.03
          ],
          [
            2.439665,
            44.338464,
            710.46
          ],
          [
            2.439721,
            44.33851,
            710.69
          ],
          [
            2.439762,
            44.3386,
            711.54
          ],
          [
            2.439717,
            44.338675,
            713.05
          ],
          [
            2.43882,
            44.339347,
            723.18
          ],
          [
            2.438569,
            44.340183,
            726.54
          ],
          [
            2.438415,
            44.340343,
            726.97
          ],
          [
            2.438384,
            44.340514,
            727.02
          ],
          [
            2.43838,
            44.340653,
            726.57
          ],
          [
            2.438351,
            44.340755,
            726.99
          ],
          [
            2.438731,
            44.341142,
            726.11
          ],
          [
            2.438823,
            44.341257,
            725.68
          ],
          [
            2.438895,
            44.3414,
            725.16
          ],
          [
            2.438766,
            44.341562,
            725.92
          ],
          [
            2.438658,
            44.341759,
            726.81
          ],
          [
            2.438644,
            44.341884,
            727.2
          ],
          [
            2.438652,
            44.341954,
            727.45
          ],
          [
            2.438571,
            44.342007,
            727.75
          ],
          [
            2.438536,
            44.342087,
            728.01
          ],
          [
            2.438539,
            44.342203,
            728.41
          ],
          [
            2.438524,
            44.342413,
            728.46
          ],
          [
            2.438488,
            44.342429,
            728.8
          ],
          [
            2.43845,
            44.342551,
            729.37
          ],
          [
            2.438461,
            44.342583,
            729.3
          ],
          [
            2.438481,
            44.342602,
            729.34
          ],
          [
            2.438632,
            44.342657,
            728.64
          ],
          [
            2.438474,
            44.342898,
            728.94
          ],
          [
            2.438347,
            44.343059,
            728.91
          ],
          [
            2.43808,
            44.343235,
            728.55
          ],
          [
            2.437993,
            44.343304,
            728.41
          ],
          [
            2.437978,
            44.343335,
            728.34
          ],
          [
            2.43799,
            44.34338,
            728.18
          ],
          [
            2.438039,
            44.343448,
            727.74
          ],
          [
            2.438154,
            44.343539,
            727.0
          ],
          [
            2.437663,
            44.343606,
            727.16
          ],
          [
            2.437401,
            44.343617,
            727.06
          ],
          [
            2.436502,
            44.343612,
            725.86
          ],
          [
            2.435726,
            44.343596,
            724.33
          ],
          [
            2.434969,
            44.343303,
            724.69
          ]
        ]
      }
    },
    {
      "type": "Feature",
      "properties": {
        "source": "Moyrazès.gpx",
        "type": "route"
      },
      "geometry": {
        "type": "LineString",
        "coordinates": [
          [
            2.434969,
            44.343303
          ],
          [
            2.439202,
            44.342477
          ],
          [
            2.439678,
            44.342659
          ],
          [
            2.444097,
            44.338521
          ],
          [
            2.445445,
            44.337246
          ],
          [
            2.444758,
            44.336537
          ],
          [
            2.444758,
            44.336537
          ],
          [
            2.441336,
            44.335973
          ],
          [
            2.439665,
            44.338464
          ],
          [
            2.439762,
            44.3386
          ],
          [
            2.438351,
            44.340755
          ],
          [
            2.438895,
            44.3414
          ],
          [
            2.438524,
            44.342413
          ],
          [
            2.438488,
            44.342429
          ],
          [
            2.438632,
            44.342657
          ],
          [
            2.438154,
            44.343539
          ],
          [
            2.435726,
            44.343596
          ],
          [
            2.434969,
            44.343303
          ]
        ]
      }
    }
  ]
}