{
  "type": "FeatureCollection",
  "features": [
    {
      "type": "Feature",
      "properties": {
        "name": "GraphHopper Track",
        "source": "Vers_Beaumont.gpx",
        "type": "track"
      },
      "geometry": {
        "type": "LineString",
        "coordinates": [
          [
            0.945422,
            43.94421,
            158.79
          ],
          [
            0.94592,
            43.944194,
            162.11
          ],
          [
            0.94604,
            43.944156,
            163.03
          ],
          [
            0.946125,
            43.944099,
            163.83
          ],
          [
            0.946166,
            43.944031,
            164.52
          ],
          [
            0.94618,
            43.943933,
            165.41
          ],
          [
            0.94611,
            43.943623,
            168.12
          ],
          [
            0.946135,
            43.943516,
            169.04
          ],
          [
            0.946203,
            43.943409,
            170.0
          ],
          [
            0.946334,
            43.943292,
            171.13
          ],
          [
            0.946697,
            43.9431,
            173.27
          ],
          [
            0.947403,
            43.942828,
            177.31
          ],
          [
            0.947722,
            43.942757,
            178.82
          ],
          [
            0.948088,
            43.942691,
            180.48
          ],
          [
            0.948395,
            43.942627,
            181.88
          ],
          [
            0.949405,
            43.942393,
            186.34
          ],
          [
            0.949645,
            43.94238,
            187.58
          ],
          [
            0.950519,
            43.942456,
            192.56
          ],
          [
            0.950677,
            43.942438,
            193.55
          ],
          [
            0.950847,
            43.942375,
            194.68
          ],
          [
            0.951025,
            43.94227,
            195.97
          ],
          [
            0.951268,
            43.942077,
            197.92
          ],
          [
            0.951507,
            43.94183,
            200.18
          ],
          [
            0.951795,
            43.941488,
            203.35
          ],
          [
            0.952192,
            43.940959,
            208.48
          ],
          [
            0.952345,
            43.940716,
            210.94
          ],
          [
            0.952434,
            43.940536,
            212.71
          ],
          [
            0.952483,
            43.940306,
            214.93
          ],
          [
            0.952519,
            43.939998,
            217.94
          ],
          [
            0.952551,
            43.939947,
            218.41
          ],
          [
            0.952603,
            43.93991,
            218.95
          ],
          [
            0.952668,
            43.940241,
            218.22
          ],
          [
            0.952704,
            43.940656,
            217.14
          ],
          [
            0.952693,
            43.940892,
            216.39
          ],
          [
            0.952608,
            43.941166,
            215.37
          ],
          [
            0.951708,
            43.942714,
            209.78
          ],
          [
            0.951666,
            43.942924,
            209.01
          ],
          [
            0.951666,
            43.943124,
            208.15
          ],
          [
            0.951791,
            43.943522,
            206.24
          ],
          [
            0.951897,
            43.9438,
            205.42
          ],
          [
            0.952067,
            43.943998,
            205.32
          ],
          [
            0.952262,
            43.944127,
            205.69
          ],
          [
            0.952507,
            43.944234,
            206.52
          ],
          [
            0.954246,
            43.944618,
            211.62
          ],
          [
            0.954608,
            43.944752,
            210.83
          ],
          [
            0.954778,
            43.944867,
            210.15
          ],
          [
            0.954902,
            43.945018,
            209.23
          ],
          [
            0.955036,
            43.945435,
            206.13
          ],
          [
            0.955042,
            43.9456,
            204.52
          ],
          [
            0.955033,
            43.945885,
            201.31
          ],
          [
            0.955044,
            43.946055,
            199.25
          ],
          [
            0.955088,
            43.946234,
            196.97
          ],
          [
            0.956186,
            43.947877,
            180.54
          ],
          [
            0.956345,
            43.948047,
            179.96
          ],
          [
            0.95638,
            43.947717,
            179.71
          ],
          [
            0.956453,
            43.947485,
            180.12
          ],
          [
            0.956967,
            43.946304,
            180.27
          ],
          [
            0.957116,
            43.946035,
            178.78
          ],
          [
            0.957261,
            43.945851,
            177.62
          ],
          [
            0.957434,
            43.945715,
            176.74
          ],
          [
            0.958385,
            43.945284,
            176.26
          ],
          [
            0.959763,
            43.944575,
            185.24
          ],
          [
            0.960096,
            43.944445,
            187.73
          ],
          [
            0.960464,
            43.944326,
            190.44
          ],
          [
            0.960692,
            43.944217,
            192.29
          ],
          [
            0.962302,
            43.943299,
            204.75
          ],
          [
            0.96351,
            43.942499,
            211.78
          ],
          [
            0.963608,
            43.942455,
            212.0
          ],
          [
            0.963847,
            43.942864,
            212.0
          ],
          [
            0.965146,
            43.942447,
            212.09
          ],
          [
            0.965964,
            43.942253,
            211.27
          ],
          [
            0.966633,
            43.942164,
            210.81
          ],
          [
            0.96682,
            43.942074,
            210.62
          ],
          [
            0.967514,
            43.941608,
            209.63
          ],
          [
            0.968024,
            43.9413,
            207.81
          ],
          [
            0.969234,
            43.940752,
            195.71
          ],
          [
            0.969623,
            43.940553,
            190.48
          ],
          [
            0.969793,
            43.940441,
            188.11
          ],
          [
            0.969977,
            43.940229,
            184.84
          ],
          [
            0.970105,
            43.940048,
            182.47
          ],
          [
            0.970225,
            43.939939,
            180.98
          ],
          [
            0.971159,
            43.939309,
            172.35
          ],
          [
            0.971464,
            43.939083,
            169.83
          ],
          [
            0.971596,
            43.938966,
            168.61
          ],
          [
            0.971665,
            43.938987,
            168.11
          ],
          [
            0.971805,
            43.938989,
            167.04
          ],
          [
            0.972142,
            43.938976,
            164.98
          ],
          [
            0.972256,
            43.938951,
            164.25
          ],
          [
            0.972425,
            43.938875,
            163.03
          ],
          [
            0.973259,
            43.938446,
            156.96
          ],
          [
            0.973962,
            43.938117,
            152.46
          ],
          [
            0.974078,
            43.938094,
            151.91
          ],
          [
            0.974242,
            43.938107,
            151.42
          ],
          [
            0.974172,
            43.937924,
            151.07
          ],
          [
            0.973905,
            43.937011,
            148.96
          ],
          [
            0.973857,
            43.936873,
            148.72
          ],
          [
            0.973838,
            43.936757,
            148.57
          ],
          [
            0.973836,
            43.936521,
            148.35
          ],
          [
            0.973853,
            43.936443,
            148.29
          ],
          [
            0.97389,
            43.936386,
            148.24
          ],
          [
            0.974342,
            43.935887,
            148.77
          ],
          [
            0.974392,
            43.935796,
            149.03
          ],
          [
            0.974416,
            43.935678,
            149.42
          ],
          [
            0.974386,
            43.935561,
            149.86
          ],
          [
            0.974202,
            43.935282,
            151.27
          ],
          [
            0.974136,
            43.935112,
            152.31
          ],
          [
            0.974111,
            43.934952,
            153.37
          ],
          [
            0.974122,
            43.9348,
            154.31
          ],
          [
            0.974267,
            43.93434,
            157.11
          ],
          [
            0.974332,
            43.934225,
            157.88
          ],
          [
            0.974419,
            43.93412,
            158.65
          ],
          [
            0.974499,
            43.933996,
            159.5
          ],
          [
            0.974723,
            43.933472,
            162.86
          ],
          [
            0.974759,
            43.933363,
            163.56
          ],
          [
            0.974792,
            43.933081,
            165.27
          ],
          [
            0.974832,
            43.932965,
            165.99
          ],
          [
            0.974937,
            43.932823,
            166.96
          ],
          [
            0.975128,
            43.932617,
            168.56
          ],
          [
            0.975378,
            43.932168,
            171.79
          ],
          [
            0.975465,
            43.932049,
            172.7
          ],
          [
            0.97557,
            43.931951,
            173.57
          ],
          [
            0.975715,
            43.931853,
            174.56
          ],
          [
            0.975849,
            43.931792,
            175.37
          ],
          [
            0.976627,
            43.931585,
            179.5
          ],
          [
            0.97675,
            43.931545,
            180.15
          ],
          [
            0.976968,
            43.93143,
            181.44
          ],
          [
            0.977044,
            43.931354,
            182.04
          ],
          [
            0.977388,
            43.930666,
            185.93
          ],
          [
            0.977431,
            43.930532,
            186.43
          ],
          [
            0.977431,
            43.930409,
            186.19
          ],
          [
            0.977399,
            43.930304,
            185.85
          ],
          [
            0.977018,
            43.92966,
            187.87
          ],
          [
            0.976916,
            43.929459,
            189.23
          ],
          [
            0.976777,
            43.929276,
            190.98
          ],
          [
            0.976638,
            43.929115,
            193.3
          ],
          [
            0.975825,
            43.928261,
            205.44
          ],
          [
            0.975642,
            43.928046,
            208.0
          ],
          [
            0.975504,
            43.927863,
            209.94
          ],
          [
            0.975347,
            43.927598,
            212.33
          ],
          [
            0.975159,
            43.927308,
            214.7
          ],
          [
            0.975008,
            43.927124,
            216.0
          ],
          [
            0.974805,
            43.926929,
            217.22
          ],
          [
            0.973843,
            43.92572,
            222.88
          ],
          [
            0.973624,
            43.925503,
            223.94
          ],
          [
            0.973239,
            43.925266,
            225.12
          ],
          [
            0.970996,
            43.924413,
            228.0
          ],
          [
            0.970546,
            43.92426,
            227.85
          ],
          [
            0.97008,
            43.924082,
            227.36
          ],
          [
            0.970224,
            43.923891,
            226.47
          ],
          [
            0.970397,
            43.923724,
            224.44
          ],
          [
            0.970562,
            43.923647,
            222.73
          ],
          [
            0.970847,
            43.923566,
            220.34
          ],
          [
            0.971312,
            43.923486,
            216.3
          ],
          [
            0.971724,
            43.923426,
            212.41
          ],
          [
            0.971868,
            43.923364,
            210.84
          ],
          [
            0.97196,
            43.92328,
            209.48
          ],
          [
            0.972019,
            43.92316,
            207.93
          ],
          [
            0.972082,
            43.922831,
            203.84
          ],
          [
            0.972143,
            43.922677,
            201.85
          ],
          [
            0.972235,
            43.922553,
            200.22
          ],
          [
            0.97266,
            43.922226,
            195.51
          ],
          [
            0.972859,
            43.922152,
            193.96
          ],
          [
            0.973056,
            43.922123,
            192.51
          ],
          [
            0.973387,
            43.922096,
            190.18
          ],
          [
            0.973591,
            43.922038,
            188.7
          ],
          [
            0.973765,
            43.92194,
            187.22
          ],
          [
            0.9746,
            43.921419,
            180.18
          ],
          [
            0.974888,
            43.921299,
            178.31
          ],
          [
            0.975238,
            43.921193,
            176.56
          ],
          [
            0.975496,
            43.921128,
            175.74
          ],
          [
            0.975647,
            43.921111,
            175.48
          ],
          [
            0.975811,
            43.921111,
            175.34
          ],
          [
            0.976377,
            43.921136,
            175.98
          ],
          [
            0.976542,
            43.921117,
            176.48
          ],
          [
            0.976696,
            43.921062,
            177.17
          ],
          [
            0.978382,
            43.920212,
            188.9
          ],
          [
            0.978451,
            43.920153,
            189.42
          ],
          [
            0.97849,
            43.920069,
            190.02
          ],
          [
            0.978497,
            43.919995,
            190.54
          ],
          [
            0.978344,
            43.919513,
            193.81
          ],
          [
            0.978318,
            43.919367,
            195.05
          ],
          [
            0.978322,
            43.919213,
            196.41
          ],
          [
            0.978388,
            43.918836,
            199.56
          ],
          [
            0.978401,
            43.918684,
            200.77
          ],
          [
            0.978418,
            43.918258,
            203.73
          ],
          [
            0.978408,
            43.918055,
            204.99
          ],
          [
            0.978362,
            43.917838,
            206.23
          ],
          [
            0.977978,
            43.917041,
            211.0
          ],
          [
            0.977929,
            43.916883,
            211.95
          ],
          [
            0.977913,
            43.916757,
            212.37
          ],
          [
            0.977915,
            43.916353,
            213.31
          ],
          [
            0.977933,
            43.915938,
            214.42
          ],
          [
            0.977884,
            43.91554,
            215.86
          ],
          [
            0.977821,
            43.915164,
            217.32
          ],
          [
            0.977809,
            43.914906,
            218.29
          ],
          [
            0.977815,
            43.913765,
            221.88
          ],
          [
            0.977784,
            43.913597,
            222.64
          ],
          [
            0.977689,
            43.913206,
            224.99
          ],
          [
            0.977617,
            43.913082,
            225.96
          ],
          [
            0.977513,
            43.912995,
            226.86
          ],
          [
            0.977147,
            43.912755,
            229.71
          ],
          [
            0.97705,
            43.912662,
            230.8
          ],
          [
            0.976978,
            43.912548,
            231.94
          ],
          [
            0.976912,
            43.912399,
            233.1
          ],
          [
            0.976883,
            43.912224,
            233.59
          ],
          [
            0.976889,
            43.912075,
            233.34
          ],
          [
            0.97718,
            43.910995,
            237.03
          ],
          [
            0.977199,
            43.910797,
            236.14
          ],
          [
            0.977563,
            43.910781,
            236.41
          ],
          [
            0.978093,
            43.910721,
            237.91
          ],
          [
            0.978285,
            43.910677,
            238.28
          ],
          [
            0.978486,
            43.91061,
            238.71
          ],
          [
            0.979872,
            43.910072,
            240.0
          ],
          [
            0.979987,
            43.910164,
            240.0
          ],
          [
            0.980031,
            43.910226,
            240.0
          ],
          [
            0.980066,
            43.910303,
            239.92
          ],
          [
            0.980066,
            43.91043,
            239.63
          ],
          [
            0.980101,
            43.910564,
            239.18
          ],
          [
            0.980141,
            43.910623,
            238.91
          ],
          [
            0.980589,
            43.910748,
            237.69
          ],
          [
            0.98064,
            43.910782,
            237.48
          ],
          [
            0.980758,
            43.911017,
            236.15
          ],
          [
            0.980821,
            43.911068,
            235.83
          ],
          [
            0.980882,
            43.911074,
            235.67
          ],
          [
            0.981156,
            43.911719,
            232.52
          ],
          [
            0.981606,
            43.912391,
            225.35
          ],
          [
            0.981769,
            43.912568,
            222.98
          ],
          [
            0.982412,
            43.913361,
            210.57
          ],
          [
            0.982784,
            43.913716,
            204.5
          ],
          [
            0.983007,
            43.914153,
            200.24
          ],
          [
            0.983007,
            43.914153,
            200.24
          ],
          [
            0.982784,
            43.913716,
            204.5
          ],
          [
            0.982412,
            43.913361,
            210.57
          ],
          [
            0.981769,
            43.912568,
            222.98
          ],
          [
            0.981606,
            43.912391,
            225.35
          ],
          [
            0.981156,
            43.911719,
            232.52
          ],
          [
            0.980882,
            43.911074,
            235.67
          ],
          [
            0.980821,
            43.911068,
            235.83
          ],
          [
            0.980758,
            43.911017,
            236.15
          ],
          [
            0.98064,
            43.910782,
            237.48
          ],
          [
            0.980589,
            43.910748,
            237.69
          ],
          [
            0.980141,
            43.910623,
            238.91
          ],
          [
            0.980101,
            43.910564,
            239.18
          ],
          [
            0.980066,
            43.91043,
            239.63
          ],
          [
            0.980066,
            43.910303,
            239.92
          ],
          [
            0.980031,
            43.910226,
            240.0
          ],
          [
            0.979987,
            43.910164,
            240.0
          ],
          [
            0.979872,
            43.910072,
            240.0
          ],
          [
            0.980666,
            43.909762,
            238.69
          ],
          [
            0.980918,
            43.909699,
            238.21
          ],
          [
            0.981137,
            43.909678,
            237.75
          ],
          [
            0.983849,
            43.909559,
            228.36
          ],
          [
            0.985352,
            43.909482,
            226.31
          ],
          [
            0.985828,
            43.909508,
            226.43
          ],
          [
            0.986931,
            43.909597,
            226.99
          ],
          [
            0.989553,
            43.910128,
            228.5
          ],
          [
            0.989655,
            43.910142,
            228.37
          ],
          [
            0.989729,
            43.910133,
            228.17
          ],
          [
            0.989778,
            43.910113,
            228.15
          ],
          [
            0.989618,
            43.910011,
            228.71
          ],
          [
            0.989078,
            43.909637,
            228.19
          ],
          [
            0.988857,
            43.90945,
            228.06
          ],
          [
            0.988687,
            43.909291,
            227.97
          ],
          [
            0.98763,
            43.908184,
            225.04
          ],
          [
            0.987555,
            43.908088,
            224.17
          ],
          [
            0.987485,
            43.907944,
            222.96
          ],
          [
            0.987475,
            43.907833,
            222.28
          ],
          [
            0.987489,
            43.907724,
            221.69
          ],
          [
            0.987535,
            43.907607,
            221.0
          ],
          [
            0.987618,
            43.907493,
            220.26
          ],
          [
            0.987724,
            43.907389,
            219.52
          ],
          [
            0.988444,
            43.906798,
            216.08
          ],
          [
            0.98856,
            43.906685,
            215.51
          ],
          [
            0.988619,
            43.906595,
            215.08
          ],
          [
            0.988648,
            43.906475,
            214.51
          ],
          [
            0.988635,
            43.906356,
            213.92
          ],
          [
            0.988579,
            43.906228,
            213.24
          ],
          [
            0.988279,
            43.905863,
            210.88
          ],
          [
            0.988224,
            43.90576,
            210.3
          ],
          [
            0.988201,
            43.905684,
            209.91
          ],
          [
            0.988196,
            43.905588,
            209.44
          ],
          [
            0.988224,
            43.905469,
            208.86
          ],
          [
            0.988314,
            43.905279,
            208.0
          ],
          [
            0.988663,
            43.904747,
            207.0
          ],
          [
            0.988835,
            43.904533,
            206.96
          ],
          [
            0.988977,
            43.9044,
            207.0
          ],
          [
            0.989166,
            43.904271,
            207.13
          ],
          [
            0.989376,
            43.904159,
            207.34
          ],
          [
            0.99019,
            43.903796,
            207.3
          ],
          [
            0.991238,
            43.903265,
            204.49
          ],
          [
            0.991517,
            43.903154,
            203.42
          ],
          [
            0.991835,
            43.903043,
            202.24
          ],
          [
            0.992167,
            43.902916,
            200.89
          ],
          [
            0.992409,
            43.902807,
            199.75
          ],
          [
            0.992908,
            43.902521,
            196.89
          ],
          [
            0.995623,
            43.900898,
            175.98
          ],
          [
            0.995795,
            43.900766,
            175.61
          ],
          [
            0.995943,
            43.900627,
            175.49
          ],
          [
            0.996055,
            43.900495,
            175.23
          ],
          [
            0.996174,
            43.900321,
            175.01
          ],
          [
            0.996276,
            43.900125,
            174.81
          ],
          [
            0.996471,
            43.899635,
            174.06
          ],
          [
            0.997131,
            43.898171,
            168.16
          ],
          [
            0.997172,
            43.897961,
            166.68
          ],
          [
            0.997176,
            43.897734,
            165.38
          ],
          [
            0.997152,
            43.897072,
            166.12
          ],
          [
            0.997085,
            43.89673,
            165.24
          ],
          [
            0.996778,
            43.896012,
            161.57
          ],
          [
            0.99805,
            43.895056,
            156.17
          ],
          [
            0.998939,
            43.894205,
            153.17
          ],
          [
            0.999046,
            43.894059,
            152.68
          ],
          [
            0.999072,
            43.893913,
            152.23
          ],
          [
            0.999008,
            43.89376,
            151.75
          ],
          [
            0.998551,
            43.892805,
            149.98
          ],
          [
            0.99812,
            43.891957,
            149.23
          ],
          [
            0.999393,
            43.890956,
            138.92
          ],
          [
            0.999762,
            43.890549,
            133.21
          ],
          [
            1.000592,
            43.889141,
            114.39
          ],
          [
            1.000645,
            43.889063,
            113.79
          ],
          [
            1.001053,
            43.888547,
            109.69
          ],
          [
            1.00116,
            43.888347,
            107.4
          ],
          [
            1.000469,
            43.888035,
            106.63
          ],
          [
            0.99976,
            43.88766,
            104.89
          ],
          [
            0.999023,
            43.887315,
            104.56
          ],
          [
            0.998925,
            43.887233,
            104.85
          ],
          [
            0.998895,
            43.887175,
            104.53
          ],
          [
            0.998961,
            43.887175,
            104.53
          ],
          [
            0.999113,
            43.887111,
            104.89
          ],
          [
            0.999077,
            43.887084,
            104.72
          ],
          [
            0.999053,
            43.886975,
            104.68
          ],
          [
            0.999017,
            43.886903,
            104.69
          ],
          [
            0.998912,
            43.886837,
            104.71
          ],
          [
            0.998719,
            43.886667,
            104.7
          ],
          [
            0.997692,
            43.886147,
            103.94
          ],
          [
            0.997084,
            43.885811,
            103.36
          ],
          [
            0.996612,
            43.885521,
            103.09
          ],
          [
            0.996035,
            43.885157,
            103.23
          ],
          [
            0.995421,
            43.884748,
            103.49
          ],
          [
            0.995126,
            43.884526,
            103.6
          ],
          [
            0.994624,
            43.884102,
            103.8
          ],
          [
            0.994641,
            43.884101,
            103.76
          ],
          [
            0.994738,
            43.88405,
            103.18
          ],
          [
            0.994877,
            43.884156,
            103.1
          ],
          [
            0.99493,
            43.884172,
            103.05
          ],
          [
            0.995023,
            43.884177,
            102.96
          ],
          [
            0.995115,
            43.884173,
            102.8
          ],
          [
            0.996528,
            43.883608,
            101.99
          ],
          [
            0.996682,
            43.88359,
            101.99
          ],
          [
            0.997404,
            43.883725,
            101.94
          ],
          [
            0.997598,
            43.883817,
            102.53
          ],
          [
            0.997954,
            43.884056,
            103.85
          ],
          [
            0.998245,
            43.884052,
            103.14
          ],
          [
            0.998483,
            43.88403,
            103.0
          ],
          [
            0.99895,
            43.884084,
            103.0
          ],
          [
            0.999103,
            43.884073,
            103.0
          ],
          [
            0.999502,
            43.88401,
            100.85
          ],
          [
            0.999638,
            43.884018,
            100.31
          ],
          [
            0.999818,
            43.88408,
            100.09
          ],
          [
            1.000132,
            43.88422,
            100.1
          ],
          [
            1.000324,
            43.884253,
            100.23
          ],
          [
            1.000424,
            43.884256,
            100.28
          ],
          [
            1.000568,
            43.884249,
            100.34
          ],
          [
            1.000698,
            43.884212,
            100.38
          ],
          [
            1.000821,
            43.884167,
            100.39
          ],
          [
            1.001013,
            43.884062,
            100.45
          ],
          [
            1.001075,
            43.884013,
            100.49
          ],
          [
            1.001111,
            43.883954,
            100.54
          ],
          [
            1.001135,
            43.883812,
            100.64
          ],
          [
            1.001167,
            43.883774,
            100.66
          ],
          [
            1.001219,
            43.883735,
            100.68
          ],
          [
            1.001283,
            43.88371,
            100.68
          ],
          [
            1.001369,
            43.883699,
            100.6
          ],
          [
            1.001506,
            43.883713,
            100.44
          ],
          [
            1.001646,
            43.88374,
            100.65
          ],
          [
            1.00181,
            43.883785,
            101.18
          ],
          [
            1.001975,
            43.883742,
            100.63
          ],
          [
            1.002103,
            43.883685,
            100.61
          ],
          [
            1.002259,
            43.883563,
            100.71
          ],
          [
            1.00233,
            43.883469,
            100.7
          ],
          [
            1.002386,
            43.883355,
            100.84
          ],
          [
            1.002396,
            43.883256,
            100.88
          ],
          [
            1.002391,
            43.883152,
            100.83
          ],
          [
            1.00273,
            43.883006,
            102.92
          ],
          [
            1.002784,
            43.882904,
            102.81
          ],
          [
            1.002839,
            43.882829,
            102.57
          ],
          [
            1.002924,
            43.882797,
            102.52
          ],
          [
            1.003038,
            43.882797,
            102.46
          ],
          [
            1.003159,
            43.882826,
            102.41
          ],
          [
            1.003477,
            43.882934,
            102.33
          ],
          [
            1.003616,
            43.882972,
            102.24
          ],
          [
            1.003721,
            43.882978,
            102.2
          ],
          [
            1.004168,
            43.88291,
            102.1
          ],
          [
            1.004427,
            43.882882,
            102.05
          ],
          [
            1.004552,
            43.882882,
            102.04
          ],
          [
            1.004796,
            43.882906,
            102.01
          ],
          [
            1.005269,
            43.88301,
            101.96
          ]
        ]
      }
    },
    {
      "type": "Feature",
      "properties": {
        "source": "Vers_Beaumont.gpx",
        "type": "route"
      },
      "geometry": {
        "type": "LineString",
        "coordinates": [
          [
            0.945422,
            43.94421
          ],
          [
            0.952603,
            43.93991
          ],
          [
            0.956345,
            43.948047
          ],
          [
            0.963608,
            43.942455
          ],
          [
            0.963847,
            43.942864
          ],
          [
            0.971596,
            43.938966
          ],
          [
            0.974242,
            43.938107
          ],
          [
            0.97008,
            43.924082
          ],
          [
            0.977199,
            43.910797
          ],
          [
            0.979872,
            43.910072
          ],
          [
            0.980882,
            43.911074
          ],
          [
            0.981156,
            43.911719
          ],
          [
            0.983007,
            43.914153
          ],
          [
            0.983007,
            43.914153
          ],
          [
            0.980882,
            43.911074
          ],
          [
            0.979872,
            43.910072
          ],
          [
            0.989778,
            43.910113
          ],
          [
            0.996778,
            43.896012
          ],
          [
            0.99812,
            43.891957
          ],
          [
            1.00116,
            43.888347
          ],
          [
            0.998895,
            43.887175
          ],
          [
            0.998961,
            43.887175
          ],
          [
            0.999113,
            43.887111
          ],
          [
            0.994624,
            43.884102
          ],
          [
            0.994738,
            43.88405
          ],
          [
            0.997954,
            43.884056
          ],
          [
            0.999103,
            43.884073
          ],
          [
            1.002391,
            43.883152
          ],
          [
            1.00273,
            43.883006
          ],
          [
            1.005269,
            43.88301
          ]
        ]
      }
    }
  ]
}