{
  "type": "FeatureCollection",
  "features": [
    {
      "type": "Feature",
      "properties": {
        "name": "GraphHopper Track",
        "source": "Crêtes_Corbières.gpx",
        "type": "track"
      },
      "geometry": {
        "type": "LineString",
        "coordinates": [
          [
            2.406047,
            42.946339,
            422.7
          ],
          [
            2.406167,
            42.946389,
            423.63
          ],
          [
            2.406236,
            42.946439,
            424.43
          ],
          [
            2.406302,
            42.946505,
            425.17
          ],
          [
            2.406619,
            42.946712,
            429.89
          ],
          [
            2.406827,
            42.946773,
            432.14
          ],
          [
            2.407029,
            42.946786,
            433.88
          ],
          [
            2.407096,
            42.946822,
            434.69
          ],
          [
            2.407097,
            42.946871,
            435.35
          ],
          [
            2.406776,
            42.947059,
            439.56
          ],
          [
            2.406555,
            42.947199,
            442.17
          ],
          [
            2.40633,
            42.947443,
            445.25
          ],
          [
            2.406247,
            42.947494,
            446.0
          ],
          [
            2.40598,
            42.947541,
            447.94
          ],
          [
            2.405832,
            42.947639,
            449.32
          ],
          [
            2.405736,
            42.947742,
            450.32
          ],
          [
            2.40564,
            42.947818,
            451.01
          ],
          [
            2.405462,
            42.947851,
            451.7
          ],
          [
            2.40525,
            42.947873,
            452.47
          ],
          [
            2.404854,
            42.948019,
            454.1
          ],
          [
            2.404481,
            42.94822,
            455.89
          ],
          [
            2.404289,
            42.948444,
            456.74
          ],
          [
            2.404197,
            42.948736,
            456.97
          ],
          [
            2.404128,
            42.948916,
            457.03
          ],
          [
            2.403883,
            42.949202,
            456.91
          ],
          [
            2.403243,
            42.949782,
            458.4
          ],
          [
            2.403175,
            42.94989,
            458.96
          ],
          [
            2.403177,
            42.949962,
            459.41
          ],
          [
            2.403247,
            42.950077,
            460.53
          ],
          [
            2.403364,
            42.950407,
            464.78
          ],
          [
            2.403194,
            42.950582,
            463.29
          ],
          [
            2.403054,
            42.950688,
            462.63
          ],
          [
            2.402857,
            42.950783,
            461.84
          ],
          [
            2.402202,
            42.951051,
            458.69
          ],
          [
            2.402114,
            42.951111,
            458.21
          ],
          [
            2.401978,
            42.95124,
            457.29
          ],
          [
            2.401845,
            42.95133,
            456.45
          ],
          [
            2.401744,
            42.95136,
            455.94
          ],
          [
            2.401608,
            42.951375,
            455.27
          ],
          [
            2.401434,
            42.951361,
            454.45
          ],
          [
            2.401231,
            42.951331,
            453.51
          ],
          [
            2.401114,
            42.951329,
            452.99
          ],
          [
            2.400982,
            42.951338,
            452.41
          ],
          [
            2.40085,
            42.951376,
            451.8
          ],
          [
            2.400613,
            42.95148,
            450.52
          ],
          [
            2.400487,
            42.951526,
            449.81
          ],
          [
            2.399999,
            42.95162,
            447.92
          ],
          [
            2.399389,
            42.951813,
            445.04
          ],
          [
            2.399209,
            42.951838,
            444.45
          ],
          [
            2.398643,
            42.951834,
            442.37
          ],
          [
            2.398557,
            42.951844,
            442.04
          ],
          [
            2.398468,
            42.951873,
            441.66
          ],
          [
            2.39837,
            42.951943,
            441.09
          ],
          [
            2.398156,
            42.952123,
            439.62
          ],
          [
            2.398024,
            42.952196,
            438.89
          ],
          [
            2.397788,
            42.952267,
            437.8
          ],
          [
            2.397554,
            42.9523,
            436.84
          ],
          [
            2.397238,
            42.952362,
            435.46
          ],
          [
            2.397131,
            42.952415,
            434.89
          ],
          [
            2.397048,
            42.952477,
            434.37
          ],
          [
            2.39695,
            42.952575,
            433.66
          ],
          [
            2.39634,
            42.953315,
            427.57
          ],
          [
            2.396314,
            42.953387,
            427.04
          ],
          [
            2.396328,
            42.953434,
            426.7
          ],
          [
            2.396373,
            42.953479,
            426.31
          ],
          [
            2.396436,
            42.953497,
            425.97
          ],
          [
            2.396546,
            42.953497,
            425.43
          ],
          [
            2.397136,
            42.953456,
            422.48
          ],
          [
            2.397556,
            42.953459,
            421.23
          ],
          [
            2.397694,
            42.95348,
            420.76
          ],
          [
            2.397791,
            42.953516,
            420.49
          ],
          [
            2.397851,
            42.95357,
            420.43
          ],
          [
            2.397861,
            42.953619,
            420.79
          ],
          [
            2.397858,
            42.95366,
            420.85
          ],
          [
            2.397831,
            42.953712,
            420.74
          ],
          [
            2.397734,
            42.953787,
            420.35
          ],
          [
            2.397555,
            42.953902,
            419.6
          ],
          [
            2.397228,
            42.954169,
            418.21
          ],
          [
            2.397006,
            42.95431,
            417.11
          ],
          [
            2.396765,
            42.954413,
            416.13
          ],
          [
            2.396218,
            42.954569,
            414.0
          ],
          [
            2.395996,
            42.954667,
            412.94
          ],
          [
            2.395903,
            42.954733,
            412.34
          ],
          [
            2.395837,
            42.954816,
            411.6
          ],
          [
            2.395799,
            42.954893,
            410.74
          ],
          [
            2.39578,
            42.954977,
            409.79
          ],
          [
            2.395786,
            42.955067,
            409.03
          ],
          [
            2.395838,
            42.95521,
            407.95
          ],
          [
            2.395848,
            42.955311,
            406.97
          ],
          [
            2.395818,
            42.955438,
            405.49
          ],
          [
            2.395752,
            42.955554,
            403.34
          ],
          [
            2.395701,
            42.955611,
            402.13
          ],
          [
            2.395631,
            42.955679,
            403.8
          ],
          [
            2.395545,
            42.955719,
            406.48
          ],
          [
            2.395464,
            42.955732,
            407.27
          ],
          [
            2.395397,
            42.955727,
            407.17
          ],
          [
            2.395281,
            42.955678,
            406.32
          ],
          [
            2.395154,
            42.955597,
            405.39
          ],
          [
            2.395011,
            42.955457,
            404.39
          ],
          [
            2.394855,
            42.955274,
            403.27
          ],
          [
            2.394728,
            42.955085,
            401.74
          ],
          [
            2.394674,
            42.954886,
            400.45
          ],
          [
            2.394682,
            42.954779,
            399.9
          ],
          [
            2.394713,
            42.954664,
            399.42
          ],
          [
            2.394864,
            42.954389,
            397.8
          ],
          [
            2.394905,
            42.954258,
            397.16
          ],
          [
            2.394894,
            42.954207,
            397.2
          ],
          [
            2.394861,
            42.954162,
            397.38
          ],
          [
            2.394813,
            42.954131,
            397.66
          ],
          [
            2.39474,
            42.954111,
            398.11
          ],
          [
            2.394592,
            42.954102,
            399.25
          ],
          [
            2.393336,
            42.954116,
            394.36
          ],
          [
            2.393135,
            42.954102,
            393.23
          ],
          [
            2.392954,
            42.954067,
            392.22
          ],
          [
            2.392834,
            42.954031,
            391.55
          ],
          [
            2.391965,
            42.953515,
            387.06
          ],
          [
            2.391773,
            42.953462,
            386.54
          ],
          [
            2.391578,
            42.953424,
            386.1
          ],
          [
            2.39145,
            42.953419,
            385.82
          ],
          [
            2.39128,
            42.953422,
            385.47
          ],
          [
            2.391094,
            42.953437,
            385.05
          ],
          [
            2.391009,
            42.953459,
            384.85
          ],
          [
            2.391139,
            42.95336,
            384.05
          ],
          [
            2.391273,
            42.953332,
            383.91
          ],
          [
            2.391592,
            42.95334,
            382.69
          ],
          [
            2.3917,
            42.95333,
            382.4
          ],
          [
            2.391971,
            42.95326,
            382.02
          ],
          [
            2.392215,
            42.953212,
            381.74
          ],
          [
            2.392242,
            42.953183,
            381.68
          ],
          [
            2.392156,
            42.9527,
            381.82
          ],
          [
            2.392113,
            42.952669,
            381.92
          ],
          [
            2.392067,
            42.952659,
            382.01
          ],
          [
            2.391971,
            42.952653,
            382.18
          ],
          [
            2.391914,
            42.952629,
            382.29
          ],
          [
            2.391888,
            42.952584,
            382.41
          ],
          [
            2.391815,
            42.952347,
            382.8
          ],
          [
            2.391652,
            42.952166,
            382.87
          ],
          [
            2.391507,
            42.952068,
            383.01
          ],
          [
            2.391429,
            42.95198,
            383.08
          ],
          [
            2.391391,
            42.951917,
            383.09
          ],
          [
            2.39137,
            42.951828,
            383.1
          ],
          [
            2.391324,
            42.951807,
            383.12
          ],
          [
            2.39126,
            42.951817,
            383.15
          ],
          [
            2.390541,
            42.952215,
            386.21
          ],
          [
            2.390461,
            42.952247,
            386.83
          ],
          [
            2.390404,
            42.95225,
            387.24
          ],
          [
            2.390348,
            42.952233,
            387.7
          ],
          [
            2.389954,
            42.951991,
            391.88
          ],
          [
            2.389747,
            42.951854,
            393.74
          ],
          [
            2.389683,
            42.95183,
            394.14
          ],
          [
            2.389506,
            42.951809,
            394.88
          ],
          [
            2.389436,
            42.951787,
            395.11
          ],
          [
            2.389052,
            42.951583,
            395.45
          ],
          [
            2.388959,
            42.951544,
            395.31
          ],
          [
            2.388883,
            42.951522,
            395.15
          ],
          [
            2.388347,
            42.951416,
            393.31
          ],
          [
            2.388307,
            42.951387,
            393.14
          ],
          [
            2.388136,
            42.950773,
            391.65
          ],
          [
            2.388072,
            42.950694,
            391.36
          ],
          [
            2.388593,
            42.95061,
            392.89
          ],
          [
            2.389451,
            42.950545,
            394.63
          ],
          [
            2.389652,
            42.9505,
            394.98
          ],
          [
            2.389826,
            42.950444,
            395.28
          ],
          [
            2.389942,
            42.950359,
            395.51
          ],
          [
            2.390285,
            42.949959,
            396.11
          ],
          [
            2.391071,
            42.949226,
            396.72
          ],
          [
            2.391522,
            42.949001,
            397.13
          ],
          [
            2.392713,
            42.948014,
            403.0
          ],
          [
            2.392963,
            42.947943,
            404.25
          ],
          [
            2.393497,
            42.947941,
            406.64
          ],
          [
            2.393613,
            42.947876,
            407.26
          ],
          [
            2.393889,
            42.947472,
            409.5
          ],
          [
            2.394086,
            42.947327,
            410.55
          ],
          [
            2.394397,
            42.947187,
            412.32
          ],
          [
            2.394687,
            42.946984,
            414.26
          ],
          [
            2.394848,
            42.946941,
            415.16
          ],
          [
            2.394998,
            42.946973,
            415.98
          ],
          [
            2.395138,
            42.947187,
            417.75
          ],
          [
            2.395373,
            42.947264,
            419.1
          ],
          [
            2.395449,
            42.947316,
            419.62
          ],
          [
            2.395552,
            42.947466,
            420.67
          ],
          [
            2.395743,
            42.947815,
            422.79
          ],
          [
            2.395773,
            42.947924,
            423.43
          ],
          [
            2.395754,
            42.948135,
            424.6
          ],
          [
            2.395771,
            42.948217,
            425.05
          ],
          [
            2.395834,
            42.948277,
            425.42
          ],
          [
            2.395934,
            42.948304,
            425.72
          ],
          [
            2.396082,
            42.948303,
            426.61
          ],
          [
            2.396173,
            42.948223,
            428.3
          ],
          [
            2.3962,
            42.948132,
            429.1
          ],
          [
            2.396178,
            42.947692,
            431.6
          ],
          [
            2.396202,
            42.947559,
            431.97
          ],
          [
            2.396275,
            42.947456,
            432.53
          ],
          [
            2.396447,
            42.947359,
            433.31
          ],
          [
            2.396713,
            42.947325,
            432.9
          ],
          [
            2.396843,
            42.947252,
            432.49
          ],
          [
            2.397146,
            42.94675,
            434.86
          ],
          [
            2.397283,
            42.94657,
            436.11
          ],
          [
            2.397509,
            42.946275,
            437.21
          ],
          [
            2.39767,
            42.946147,
            437.9
          ],
          [
            2.397845,
            42.946072,
            438.37
          ],
          [
            2.398121,
            42.945977,
            439.13
          ],
          [
            2.398254,
            42.945883,
            439.56
          ],
          [
            2.398501,
            42.945565,
            440.76
          ],
          [
            2.398613,
            42.945444,
            441.21
          ],
          [
            2.399089,
            42.945092,
            443.31
          ],
          [
            2.399185,
            42.945041,
            443.74
          ],
          [
            2.399295,
            42.944998,
            444.23
          ],
          [
            2.399826,
            42.944881,
            446.52
          ],
          [
            2.400105,
            42.944851,
            447.51
          ],
          [
            2.400448,
            42.94487,
            448.75
          ],
          [
            2.400591,
            42.94485,
            449.3
          ],
          [
            2.400722,
            42.944797,
            449.81
          ],
          [
            2.400817,
            42.944726,
            450.25
          ],
          [
            2.40091,
            42.944634,
            450.79
          ],
          [
            2.400981,
            42.944357,
            452.26
          ],
          [
            2.401022,
            42.944269,
            452.9
          ],
          [
            2.401108,
            42.944188,
            453.72
          ],
          [
            2.402004,
            42.94355,
            462.81
          ],
          [
            2.402176,
            42.943218,
            465.81
          ],
          [
            2.402347,
            42.943046,
            467.12
          ],
          [
            2.402369,
            42.942842,
            468.13
          ],
          [
            2.402261,
            42.942606,
            469.53
          ],
          [
            2.402165,
            42.942552,
            470.16
          ],
          [
            2.401778,
            42.942469,
            472.33
          ],
          [
            2.401671,
            42.942413,
            473.26
          ],
          [
            2.401639,
            42.942316,
            474.26
          ],
          [
            2.401714,
            42.94222,
            475.41
          ],
          [
            2.401849,
            42.942175,
            476.59
          ],
          [
            2.402219,
            42.942134,
            479.51
          ],
          [
            2.402562,
            42.942027,
            482.1
          ],
          [
            2.402744,
            42.941898,
            483.5
          ],
          [
            2.403474,
            42.941619,
            485.9
          ],
          [
            2.403635,
            42.94148,
            486.89
          ],
          [
            2.403501,
            42.941392,
            487.58
          ],
          [
            2.403249,
            42.941179,
            486.74
          ],
          [
            2.402062,
            42.940665,
            483.63
          ],
          [
            2.401736,
            42.940557,
            483.3
          ],
          [
            2.400244,
            42.940224,
            487.74
          ],
          [
            2.399961,
            42.940224,
            488.84
          ],
          [
            2.399858,
            42.940203,
            489.17
          ],
          [
            2.399778,
            42.940148,
            489.46
          ],
          [
            2.399668,
            42.939991,
            489.86
          ],
          [
            2.39959,
            42.939946,
            489.9
          ],
          [
            2.399011,
            42.939785,
            490.74
          ],
          [
            2.398753,
            42.939742,
            491.27
          ],
          [
            2.398313,
            42.939763,
            491.86
          ],
          [
            2.397627,
            42.939581,
            492.06
          ],
          [
            2.397519,
            42.939506,
            492.08
          ],
          [
            2.397552,
            42.939431,
            491.96
          ],
          [
            2.397863,
            42.939291,
            491.12
          ],
          [
            2.398056,
            42.939152,
            492.33
          ],
          [
            2.398077,
            42.939076,
            492.66
          ],
          [
            2.39821,
            42.939087,
            495.49
          ],
          [
            2.398399,
            42.939131,
            500.24
          ],
          [
            2.398519,
            42.939147,
            503.08
          ],
          [
            2.398615,
            42.939141,
            505.62
          ],
          [
            2.398734,
            42.939106,
            508.93
          ],
          [
            2.398804,
            42.939059,
            511.34
          ],
          [
            2.398851,
            42.939002,
            513.57
          ],
          [
            2.398862,
            42.93893,
            515.78
          ],
          [
            2.398838,
            42.938854,
            518.2
          ],
          [
            2.398756,
            42.938695,
            523.26
          ],
          [
            2.398753,
            42.938625,
            525.27
          ],
          [
            2.398785,
            42.938542,
            527.75
          ],
          [
            2.398773,
            42.938489,
            529.29
          ],
          [
            2.398733,
            42.938429,
            531.21
          ],
          [
            2.398718,
            42.938368,
            532.96
          ],
          [
            2.398754,
            42.938305,
            534.83
          ],
          [
            2.398838,
            42.93824,
            537.17
          ],
          [
            2.399032,
            42.938175,
            541.1
          ],
          [
            2.399189,
            42.938111,
            544.28
          ],
          [
            2.399335,
            42.938003,
            547.73
          ],
          [
            2.399557,
            42.937867,
            552.57
          ],
          [
            2.399644,
            42.937846,
            554.14
          ],
          [
            2.399994,
            42.93784,
            560.23
          ],
          [
            2.400352,
            42.937865,
            565.79
          ],
          [
            2.40065,
            42.937863,
            570.61
          ],
          [
            2.400726,
            42.937926,
            571.05
          ],
          [
            2.40097,
            42.938058,
            571.51
          ],
          [
            2.401117,
            42.938205,
            572.02
          ],
          [
            2.40116,
            42.93822,
            572.66
          ],
          [
            2.401104,
            42.938024,
            574.72
          ],
          [
            2.400993,
            42.937866,
            576.58
          ],
          [
            2.400997,
            42.937788,
            577.55
          ],
          [
            2.40117,
            42.937672,
            579.41
          ],
          [
            2.401277,
            42.937579,
            580.74
          ],
          [
            2.401328,
            42.937423,
            582.58
          ],
          [
            2.401389,
            42.937337,
            583.81
          ],
          [
            2.401542,
            42.937248,
            585.86
          ],
          [
            2.401623,
            42.937173,
            587.31
          ],
          [
            2.401628,
            42.937002,
            589.91
          ],
          [
            2.401694,
            42.936789,
            593.21
          ],
          [
            2.401699,
            42.936636,
            595.66
          ],
          [
            2.401613,
            42.936499,
            598.17
          ],
          [
            2.401506,
            42.936405,
            600.21
          ],
          [
            2.40116,
            42.936197,
            605.59
          ],
          [
            2.400483,
            42.935831,
            614.9
          ],
          [
            2.40034,
            42.93572,
            617.23
          ],
          [
            2.400208,
            42.935477,
            621.14
          ],
          [
            2.400015,
            42.935306,
            624.37
          ],
          [
            2.399974,
            42.93522,
            625.64
          ],
          [
            2.400015,
            42.935164,
            626.5
          ],
          [
            2.400417,
            42.934971,
            630.94
          ],
          [
            2.400493,
            42.934874,
            632.19
          ],
          [
            2.400529,
            42.934751,
            633.52
          ],
          [
            2.400585,
            42.934471,
            636.36
          ],
          [
            2.400773,
            42.933987,
            640.78
          ],
          [
            2.400783,
            42.933834,
            641.74
          ],
          [
            2.400732,
            42.933733,
            641.98
          ],
          [
            2.40059,
            42.933618,
            642.54
          ],
          [
            2.400254,
            42.933144,
            647.11
          ],
          [
            2.400203,
            42.933048,
            648.07
          ],
          [
            2.400203,
            42.932925,
            649.11
          ],
          [
            2.400295,
            42.932727,
            650.89
          ],
          [
            2.400351,
            42.932544,
            652.53
          ],
          [
            2.40031,
            42.932444,
            653.47
          ],
          [
            2.400213,
            42.932347,
            654.51
          ],
          [
            2.399246,
            42.932097,
            659.29
          ],
          [
            2.398447,
            42.931915,
            662.11
          ],
          [
            2.397368,
            42.93171,
            665.63
          ],
          [
            2.39683,
            42.931545,
            668.97
          ],
          [
            2.396634,
            42.931452,
            671.51
          ],
          [
            2.396515,
            42.931354,
            673.14
          ],
          [
            2.396483,
            42.93126,
            674.99
          ],
          [
            2.396471,
            42.931168,
            676.61
          ],
          [
            2.396509,
            42.931032,
            679.34
          ],
          [
            2.396507,
            42.930953,
            680.45
          ],
          [
            2.396318,
            42.931062,
            680.88
          ],
          [
            2.39608,
            42.93116,
            681.87
          ],
          [
            2.395806,
            42.931229,
            682.69
          ],
          [
            2.394816,
            42.931343,
            684.74
          ],
          [
            2.394054,
            42.93147,
            684.73
          ],
          [
            2.393738,
            42.931559,
            684.49
          ],
          [
            2.393041,
            42.93189,
            683.88
          ],
          [
            2.392874,
            42.931942,
            684.24
          ],
          [
            2.39295,
            42.931872,
            684.73
          ],
          [
            2.39369,
            42.931421,
            690.01
          ],
          [
            2.393893,
            42.931341,
            691.41
          ],
          [
            2.395535,
            42.930955,
            700.49
          ],
          [
            2.395728,
            42.93088,
            701.29
          ],
          [
            2.395985,
            42.930697,
            702.58
          ],
          [
            2.3961,
            42.930528,
            703.52
          ],
          [
            2.396114,
            42.930354,
            704.44
          ],
          [
            2.395974,
            42.929764,
            708.26
          ],
          [
            2.395942,
            42.929345,
            711.09
          ],
          [
            2.395846,
            42.929217,
            712.08
          ],
          [
            2.395425,
            42.929058,
            713.52
          ],
          [
            2.395339,
            42.928805,
            716.88
          ],
          [
            2.395293,
            42.928596,
            721.0
          ],
          [
            2.395172,
            42.928277,
            727.1
          ],
          [
            2.395119,
            42.928087,
            729.56
          ],
          [
            2.395024,
            42.927334,
            738.88
          ],
          [
            2.395027,
            42.927234,
            740.22
          ],
          [
            2.395122,
            42.926867,
            745.77
          ],
          [
            2.39524,
            42.926325,
            754.28
          ],
          [
            2.395304,
            42.92595,
            760.1
          ],
          [
            2.395544,
            42.925414,
            768.59
          ],
          [
            2.395574,
            42.925305,
            770.34
          ],
          [
            2.395589,
            42.924994,
            775.24
          ],
          [
            2.395635,
            42.924833,
            777.77
          ],
          [
            2.39576,
            42.924641,
            781.04
          ],
          [
            2.395999,
            42.924341,
            786.55
          ],
          [
            2.396371,
            42.924027,
            793.55
          ],
          [
            2.396652,
            42.923843,
            798.4
          ],
          [
            2.396986,
            42.923685,
            803.44
          ],
          [
            2.397259,
            42.923629,
            806.99
          ],
          [
            2.39754,
            42.923618,
            810.12
          ],
          [
            2.397848,
            42.923668,
            812.91
          ],
          [
            2.398193,
            42.923763,
            815.72
          ],
          [
            2.39836,
            42.923818,
            817.17
          ],
          [
            2.39858,
            42.923843,
            818.95
          ],
          [
            2.398732,
            42.923816,
            820.03
          ],
          [
            2.398838,
            42.923737,
            820.95
          ],
          [
            2.399177,
            42.923434,
            824.35
          ],
          [
            2.399463,
            42.923263,
            827.01
          ],
          [
            2.399696,
            42.923108,
            828.77
          ],
          [
            2.399939,
            42.922874,
            830.32
          ],
          [
            2.399732,
            42.922923,
            830.18
          ],
          [
            2.399365,
            42.922972,
            830.83
          ],
          [
            2.398796,
            42.92293,
            832.89
          ],
          [
            2.398163,
            42.922951,
            834.57
          ],
          [
            2.39797,
            42.922887,
            834.81
          ],
          [
            2.397605,
            42.922629,
            834.33
          ],
          [
            2.397605,
            42.922629,
            834.33
          ],
          [
            2.39797,
            42.922887,
            834.81
          ],
          [
            2.398163,
            42.922951,
            834.57
          ],
          [
            2.398796,
            42.92293,
            832.89
          ],
          [
            2.399365,
            42.922972,
            830.83
          ],
          [
            2.399732,
            42.922923,
            830.18
          ],
          [
            2.399939,
            42.922874,
            830.32
          ],
          [
            2.401478,
            42.922114,
            827.02
          ],
          [
            2.401596,
            42.921867,
            827.23
          ],
          [
            2.401736,
            42.92102,
            826.96
          ],
          [
            2.401779,
            42.920923,
            826.76
          ],
          [
            2.401972,
            42.920773,
            826.28
          ],
          [
            2.402272,
            42.920719,
            825.78
          ],
          [
            2.404021,
            42.920634,
            823.8
          ],
          [
            2.404472,
            42.920548,
            823.22
          ],
          [
            2.404751,
            42.920419,
            822.77
          ],
          [
            2.405212,
            42.920108,
            821.56
          ],
          [
            2.405394,
            42.920054,
            821.3
          ],
          [
            2.405516,
            42.920061,
            820.92
          ],
          [
            2.405652,
            42.920119,
            820.07
          ],
          [
            2.405984,
            42.920301,
            818.62
          ],
          [
            2.406115,
            42.920322,
            818.03
          ],
          [
            2.40622,
            42.920301,
            817.56
          ],
          [
            2.406789,
            42.920065,
            815.02
          ],
          [
            2.40798,
            42.919689,
            811.62
          ],
          [
            2.408173,
            42.91955,
            811.74
          ],
          [
            2.408237,
            42.919378,
            812.12
          ],
          [
            2.408227,
            42.91822,
            818.25
          ],
          [
            2.408179,
            42.917992,
            819.74
          ],
          [
            2.407967,
            42.917492,
            822.33
          ],
          [
            2.407937,
            42.917318,
            822.77
          ],
          [
            2.407987,
            42.916905,
            822.76
          ],
          [
            2.408109,
            42.916524,
            821.68
          ],
          [
            2.408243,
            42.916309,
            821.01
          ],
          [
            2.40842,
            42.916138,
            820.49
          ],
          [
            2.408673,
            42.916022,
            820.03
          ],
          [
            2.409214,
            42.915838,
            820.02
          ],
          [
            2.409597,
            42.915839,
            820.18
          ],
          [
            2.409892,
            42.91581,
            819.18
          ],
          [
            2.411558,
            42.915566,
            817.55
          ],
          [
            2.411668,
            42.915567,
            817.62
          ],
          [
            2.411825,
            42.915658,
            817.69
          ],
          [
            2.412308,
            42.91591,
            817.46
          ],
          [
            2.412475,
            42.915962,
            817.36
          ],
          [
            2.412651,
            42.915982,
            817.21
          ],
          [
            2.412769,
            42.915978,
            817.08
          ],
          [
            2.413318,
            42.915917,
            815.83
          ],
          [
            2.41357,
            42.915899,
            814.9
          ],
          [
            2.413748,
            42.915903,
            814.16
          ],
          [
            2.413929,
            42.915937,
            813.25
          ],
          [
            2.414114,
            42.916008,
            812.08
          ],
          [
            2.414244,
            42.916076,
            811.08
          ],
          [
            2.414664,
            42.91639,
            806.55
          ],
          [
            2.415003,
            42.916608,
            803.29
          ],
          [
            2.415178,
            42.916675,
            802.03
          ],
          [
            2.415364,
            42.916711,
            800.94
          ],
          [
            2.415575,
            42.91672,
            799.92
          ],
          [
            2.415749,
            42.916697,
            799.16
          ],
          [
            2.415878,
            42.916662,
            798.57
          ],
          [
            2.416027,
            42.916596,
            797.88
          ],
          [
            2.416158,
            42.916523,
            797.39
          ],
          [
            2.416218,
            42.916497,
            797.18
          ],
          [
            2.416303,
            42.91648,
            796.91
          ],
          [
            2.416515,
            42.916463,
            796.4
          ],
          [
            2.416755,
            42.916455,
            794.86
          ],
          [
            2.416855,
            42.91646,
            794.02
          ],
          [
            2.416665,
            42.916314,
            790.92
          ],
          [
            2.416544,
            42.916177,
            787.62
          ],
          [
            2.41648,
            42.916018,
            784.39
          ],
          [
            2.416475,
            42.915898,
            782.0
          ],
          [
            2.416517,
            42.915786,
            779.64
          ],
          [
            2.416775,
            42.915458,
            771.77
          ],
          [
            2.417255,
            42.914674,
            756.22
          ],
          [
            2.417475,
            42.914383,
            750.25
          ],
          [
            2.417786,
            42.914034,
            741.23
          ],
          [
            2.417856,
            42.91393,
            738.47
          ],
          [
            2.418044,
            42.913562,
            728.67
          ],
          [
            2.41817,
            42.913199,
            719.38
          ],
          [
            2.418272,
            42.912733,
            709.88
          ],
          [
            2.418489,
            42.912594,
            706.93
          ],
          [
            2.418561,
            42.912491,
            705.62
          ],
          [
            2.418577,
            42.912278,
            703.93
          ],
          [
            2.418524,
            42.912062,
            703.38
          ],
          [
            2.418419,
            42.911865,
            703.85
          ],
          [
            2.418328,
            42.911733,
            704.6
          ],
          [
            2.418344,
            42.911657,
            705.07
          ],
          [
            2.418403,
            42.911574,
            705.68
          ],
          [
            2.41883,
            42.911388,
            708.23
          ],
          [
            2.419031,
            42.911274,
            709.72
          ],
          [
            2.419103,
            42.911176,
            710.56
          ],
          [
            2.419167,
            42.910747,
            713.58
          ],
          [
            2.41928,
            42.910457,
            715.84
          ],
          [
            2.419347,
            42.910213,
            717.76
          ],
          [
            2.41932,
            42.90985,
            720.33
          ],
          [
            2.419366,
            42.909759,
            721.04
          ],
          [
            2.419637,
            42.909451,
            723.19
          ],
          [
            2.419682,
            42.909339,
            723.39
          ],
          [
            2.419679,
            42.909204,
            722.88
          ],
          [
            2.419638,
            42.909219,
            723.24
          ],
          [
            2.419408,
            42.90917,
            724.3
          ],
          [
            2.419263,
            42.909176,
            724.76
          ],
          [
            2.418984,
            42.909329,
            725.78
          ],
          [
            2.418877,
            42.909273,
            725.34
          ],
          [
            2.418833,
            42.909178,
            724.5
          ],
          [
            2.417363,
            42.907922,
            706.03
          ],
          [
            2.417328,
            42.907811,
            704.73
          ],
          [
            2.41748,
            42.907786,
            704.7
          ],
          [
            2.417655,
            42.907716,
            703.96
          ],
          [
            2.418534,
            42.907243,
            700.06
          ],
          [
            2.418616,
            42.907135,
            699.45
          ],
          [
            2.418646,
            42.907031,
            698.9
          ],
          [
            2.418605,
            42.906724,
            697.32
          ],
          [
            2.41862,
            42.906577,
            696.54
          ],
          [
            2.418712,
            42.906458,
            695.8
          ],
          [
            2.418901,
            42.906345,
            694.74
          ],
          [
            2.419576,
            42.906108,
            691.44
          ],
          [
            2.419806,
            42.90609,
            690.49
          ],
          [
            2.420294,
            42.906147,
            688.6
          ]
        ]
      }
    },
    {
      "type": "Feature",
      "properties": {
        "source": "Crêtes_Corbières.gpx",
        "type": "route"
      },
      "geometry": {
        "type": "LineString",
        "coordinates": [
          [
            2.406047,
            42.946339
          ],
          [
            2.403364,
            42.950407
          ],
          [
            2.391009,
            42.953459
          ],
          [
            2.388072,
            42.950694
          ],
          [
            2.396843,
            42.947252
          ],
          [
            2.397283,
            42.94657
          ],
          [
            2.403635,
            42.94148
          ],
          [
            2.398077,
            42.939076
          ],
          [
            2.40065,
            42.937863
          ],
          [
            2.40116,
            42.93822
          ],
          [
            2.396507,
            42.930953
          ],
          [
            2.392874,
            42.931942
          ],
          [
            2.395425,
            42.929058
          ],
          [
            2.395293,
            42.928596
          ],
          [
            2.399939,
            42.922874
          ],
          [
            2.397605,
            42.922629
          ],
          [
            2.397605,
            42.922629
          ],
          [
            2.399939,
            42.922874
          ],
          [
            2.406115,
            42.920322
          ],
          [
            2.409214,
            42.915838
          ],
          [
            2.416855,
            42.91646
          ],
          [
            2.419679,
            42.909204
          ],
          [
            2.418984,
            42.909329
          ],
          [
            2.417328,
            42.907811
          ],
          [
            2.420294,
            42.906147
          ]
        ]
      }
    }
  ]
}