{
  "type": "FeatureCollection",
  "features": [
    {
      "type": "Feature",
      "properties": {
        "name": "GraphHopper Track",
        "source": "Gorges_de_Terminet.gpx",
        "type": "track"
      },
      "geometry": {
        "type": "LineString",
        "coordinates": [
          [
            2.562116,
            42.998873,
            395.15
          ],
          [
            2.562273,
            42.998996,
            389.58
          ],
          [
            2.562454,
            42.999026,
            385.09
          ],
          [
            2.562551,
            42.999091,
            381.94
          ],
          [
            2.562732,
            42.999153,
            377.02
          ],
          [
            2.562741,
            42.999207,
            375.17
          ],
          [
            2.562556,
            42.999286,
            369.88
          ],
          [
            2.562402,
            42.999397,
            364.52
          ],
          [
            2.562245,
            42.999473,
            360.5
          ],
          [
            2.562011,
            42.99964,
            353.12
          ],
          [
            2.56194,
            42.999727,
            349.54
          ],
          [
            2.561928,
            42.999802,
            346.12
          ],
          [
            2.561829,
            42.99985,
            344.92
          ],
          [
            2.561765,
            42.999905,
            342.99
          ],
          [
            2.561686,
            43.000057,
            338.57
          ],
          [
            2.561616,
            43.000064,
            339.31
          ],
          [
            2.561745,
            43.00024,
            336.97
          ],
          [
            2.561895,
            43.000417,
            338.36
          ],
          [
            2.561973,
            43.000527,
            339.87
          ],
          [
            2.561998,
            43.000527,
            340.02
          ],
          [
            2.562078,
            43.000481,
            339.92
          ],
          [
            2.56212,
            43.000472,
            340.03
          ],
          [
            2.562187,
            43.000454,
            340.14
          ],
          [
            2.562412,
            43.000427,
            340.35
          ],
          [
            2.562666,
            43.000429,
            340.37
          ],
          [
            2.563065,
            43.000448,
            339.59
          ],
          [
            2.563319,
            43.000481,
            338.57
          ],
          [
            2.563239,
            43.000669,
            347.08
          ],
          [
            2.563325,
            43.000706,
            348.51
          ],
          [
            2.563313,
            43.000736,
            349.52
          ],
          [
            2.564006,
            43.000794,
            348.44
          ],
          [
            2.564364,
            43.000812,
            348.6
          ],
          [
            2.565208,
            43.000955,
            348.74
          ],
          [
            2.565241,
            43.000925,
            347.29
          ],
          [
            2.565286,
            43.000922,
            346.78
          ],
          [
            2.565319,
            43.000942,
            346.67
          ],
          [
            2.565498,
            43.001196,
            347.89
          ],
          [
            2.565617,
            43.001286,
            347.94
          ],
          [
            2.565713,
            43.001305,
            347.72
          ],
          [
            2.565748,
            43.001295,
            347.59
          ],
          [
            2.565772,
            43.001242,
            347.51
          ],
          [
            2.565767,
            43.001207,
            347.6
          ],
          [
            2.565582,
            43.001047,
            347.82
          ],
          [
            2.565459,
            43.00087,
            345.97
          ],
          [
            2.565449,
            43.000792,
            345.11
          ],
          [
            2.565479,
            43.000721,
            344.43
          ],
          [
            2.565806,
            43.000351,
            346.27
          ],
          [
            2.565882,
            43.00022,
            346.92
          ],
          [
            2.565885,
            43.00005,
            347.89
          ],
          [
            2.565781,
            42.999472,
            350.5
          ],
          [
            2.565781,
            42.999472,
            350.5
          ],
          [
            2.565885,
            43.00005,
            347.89
          ],
          [
            2.565882,
            43.00022,
            346.92
          ],
          [
            2.565806,
            43.000351,
            346.27
          ],
          [
            2.565479,
            43.000721,
            344.43
          ],
          [
            2.565449,
            43.000792,
            345.11
          ],
          [
            2.565459,
            43.00087,
            345.97
          ],
          [
            2.565582,
            43.001047,
            347.82
          ],
          [
            2.565767,
            43.001207,
            347.6
          ],
          [
            2.565772,
            43.001242,
            347.51
          ],
          [
            2.565748,
            43.001295,
            347.59
          ],
          [
            2.565713,
            43.001305,
            347.72
          ],
          [
            2.565617,
            43.001286,
            347.94
          ],
          [
            2.565498,
            43.001196,
            347.89
          ],
          [
            2.565319,
            43.000942,
            346.67
          ],
          [
            2.565286,
            43.000922,
            346.78
          ],
          [
            2.565241,
            43.000925,
            347.29
          ],
          [
            2.565208,
            43.000955,
            348.74
          ],
          [
            2.565094,
            43.000869,
            347.23
          ],
          [
            2.564593,
            43.000775,
            344.08
          ],
          [
            2.563581,
            43.000541,
            339.19
          ],
          [
            2.563391,
            43.000476,
            338.22
          ],
          [
            2.563319,
            43.000481,
            338.57
          ],
          [
            2.563065,
            43.000448,
            339.59
          ],
          [
            2.562666,
            43.000429,
            340.37
          ],
          [
            2.562412,
            43.000427,
            340.35
          ],
          [
            2.562187,
            43.000454,
            340.14
          ],
          [
            2.56212,
            43.000472,
            340.03
          ],
          [
            2.562078,
            43.000481,
            339.92
          ],
          [
            2.561998,
            43.000527,
            340.02
          ],
          [
            2.561973,
            43.000527,
            339.87
          ],
          [
            2.561895,
            43.000417,
            338.36
          ],
          [
            2.561745,
            43.00024,
            336.97
          ],
          [
            2.561616,
            43.000064,
            339.31
          ],
          [
            2.561686,
            43.000057,
            338.57
          ],
          [
            2.561765,
            42.999905,
            342.99
          ],
          [
            2.561829,
            42.99985,
            344.92
          ],
          [
            2.561928,
            42.999802,
            346.12
          ],
          [
            2.56194,
            42.999727,
            349.54
          ],
          [
            2.562011,
            42.99964,
            353.12
          ],
          [
            2.562245,
            42.999473,
            360.5
          ],
          [
            2.562402,
            42.999397,
            364.52
          ],
          [
            2.562556,
            42.999286,
            369.88
          ],
          [
            2.562741,
            42.999207,
            375.17
          ],
          [
            2.562732,
            42.999153,
            377.02
          ],
          [
            2.562551,
            42.999091,
            381.94
          ],
          [
            2.562454,
            42.999026,
            385.09
          ],
          [
            2.562273,
            42.998996,
            389.58
          ],
          [
            2.562116,
            42.998873,
            395.15
          ],
          [
            2.56197,
            42.998839,
            398.99
          ],
          [
            2.561788,
            42.998839,
            403.7
          ],
          [
            2.561574,
            42.998799,
            408.89
          ],
          [
            2.561398,
            42.998783,
            412.53
          ],
          [
            2.561252,
            42.998734,
            415.94
          ],
          [
            2.561059,
            42.998689,
            420.23
          ],
          [
            2.561,
            42.998594,
            421.44
          ],
          [
            2.560957,
            42.998485,
            423.09
          ],
          [
            2.56107,
            42.998383,
            424.95
          ],
          [
            2.561504,
            42.998068,
            430.3
          ],
          [
            2.561601,
            42.997927,
            431.4
          ],
          [
            2.561622,
            42.997789,
            431.68
          ],
          [
            2.561601,
            42.997664,
            431.78
          ],
          [
            2.561552,
            42.99753,
            432.03
          ],
          [
            2.561511,
            42.997493,
            432.11
          ]
        ]
      }
    },
    {
      "type": "Feature",
      "properties": {
        "source": "Gorges_de_Terminet.gpx",
        "type": "route"
      },
      "geometry": {
        "type": "LineString",
        "coordinates": [
          [
            2.562116,
            42.998873
          ],
          [
            2.561686,
            43.000057
          ],
          [
            2.561616,
            43.000064
          ],
          [
            2.561973,
            43.000527
          ],
          [
            2.562078,
            43.000481
          ],
          [
            2.56212,
            43.000472
          ],
          [
            2.563319,
            43.000481
          ],
          [
            2.563313,
            43.000736
          ],
          [
            2.565208,
            43.000955
          ],
          [
            2.565781,
            42.999472
          ],
          [
            2.565781,
            42.999472
          ],
          [
            2.565208,
            43.000955
          ],
          [
            2.563391,
            43.000476
          ],
          [
            2.562412,
            43.000427
          ],
          [
            2.56212,
            43.000472
          ],
          [
            2.562078,
            43.000481
          ],
          [
            2.561973,
            43.000527
          ],
          [
            2.561616,
            43.000064
          ],
          [
            2.561686,
            43.000057
          ],
          [
            2.561928,
            42.999802
          ],
          [
            2.561059,
            42.998689
          ],
          [
            2.561504,
            42.998068
          ],
          [
            2.561511,
            42.997493
          ]
        ]
      }
    }
  ]
}