{
  "type": "FeatureCollection",
  "features": [
    {
      "type": "Feature",
      "properties": {
        "name": "GraphHopper Track",
        "source": "Boucle_de_Portet.gpx",
        "type": "track"
      },
      "geometry": {
        "type": "LineString",
        "coordinates": [
          [
            1.407981,
            43.522267,
            149.04
          ],
          [
            1.408044,
            43.522318,
            149.01
          ],
          [
            1.408127,
            43.522307,
            149.0
          ],
          [
            1.408146,
            43.522366,
            149.0
          ],
          [
            1.407969,
            43.522491,
            149.57
          ],
          [
            1.407918,
            43.522537,
            149.9
          ],
          [
            1.409038,
            43.523279,
            149.66
          ],
          [
            1.409095,
            43.523381,
            149.8
          ],
          [
            1.409407,
            43.523712,
            149.66
          ],
          [
            1.409988,
            43.524233,
            149.0
          ],
          [
            1.41048,
            43.524701,
            149.0
          ],
          [
            1.411034,
            43.52495,
            149.0
          ],
          [
            1.411386,
            43.52512,
            149.0
          ],
          [
            1.411386,
            43.52512,
            149.0
          ],
          [
            1.411652,
            43.525257,
            149.0
          ],
          [
            1.411923,
            43.525414,
            149.0
          ],
          [
            1.412295,
            43.52567,
            148.96
          ],
          [
            1.412619,
            43.525936,
            148.88
          ],
          [
            1.413033,
            43.526336,
            148.52
          ],
          [
            1.413114,
            43.526427,
            148.83
          ],
          [
            1.413266,
            43.526627,
            148.48
          ],
          [
            1.413514,
            43.527072,
            148.22
          ],
          [
            1.413712,
            43.527565,
            148.0
          ],
          [
            1.413846,
            43.52786,
            148.0
          ],
          [
            1.413778,
            43.527969,
            148.0
          ],
          [
            1.413693,
            43.528069,
            148.0
          ],
          [
            1.41328,
            43.528468,
            148.0
          ],
          [
            1.413164,
            43.528593,
            148.0
          ],
          [
            1.413124,
            43.528673,
            148.0
          ],
          [
            1.413102,
            43.528806,
            148.0
          ],
          [
            1.413095,
            43.529539,
            147.79
          ],
          [
            1.413164,
            43.529784,
            148.0
          ],
          [
            1.41318,
            43.52981,
            148.0
          ],
          [
            1.413402,
            43.529963,
            148.13
          ],
          [
            1.414177,
            43.530418,
            148.0
          ],
          [
            1.414341,
            43.530561,
            148.0
          ],
          [
            1.414393,
            43.530632,
            148.0
          ],
          [
            1.414473,
            43.530773,
            148.0
          ],
          [
            1.414644,
            43.531101,
            148.0
          ],
          [
            1.414996,
            43.531613,
            148.0
          ],
          [
            1.415248,
            43.53195,
            146.74
          ],
          [
            1.415388,
            43.532077,
            146.52
          ],
          [
            1.415896,
            43.532481,
            146.0
          ],
          [
            1.415985,
            43.532571,
            146.0
          ],
          [
            1.416042,
            43.532653,
            146.0
          ],
          [
            1.416171,
            43.532917,
            146.0
          ],
          [
            1.4162,
            43.533027,
            146.0
          ],
          [
            1.416211,
            43.533134,
            145.96
          ],
          [
            1.416208,
            43.533244,
            145.76
          ],
          [
            1.416192,
            43.53335,
            145.62
          ],
          [
            1.416157,
            43.533458,
            145.52
          ],
          [
            1.416104,
            43.533566,
            145.4
          ],
          [
            1.415804,
            43.533955,
            145.0
          ],
          [
            1.415726,
            43.534053,
            145.0
          ],
          [
            1.415175,
            43.534674,
            146.0
          ],
          [
            1.415311,
            43.53473,
            145.32
          ],
          [
            1.415464,
            43.534812,
            145.0
          ],
          [
            1.415009,
            43.535352,
            145.75
          ],
          [
            1.414988,
            43.535386,
            145.76
          ],
          [
            1.415021,
            43.535429,
            145.74
          ],
          [
            1.415222,
            43.535473,
            145.0
          ]
        ]
      }
    },
    {
      "type": "Feature",
      "properties": {
        "source": "Boucle_de_Portet.gpx",
        "type": "route"
      },
      "geometry": {
        "type": "LineString",
        "coordinates": [
          [
            1.407981,
            43.522267
          ],
          [
            1.408127,
            43.522307
          ],
          [
            1.408146,
            43.522366
          ],
          [
            1.407918,
            43.522537
          ],
          [
            1.409038,
            43.523279
          ],
          [
            1.41048,
            43.524701
          ],
          [
            1.411386,
            43.52512
          ],
          [
            1.411386,
            43.52512
          ],
          [
            1.413033,
            43.526336
          ],
          [
            1.413846,
            43.52786
          ],
          [
            1.413164,
            43.529784
          ],
          [
            1.415804,
            43.533955
          ],
          [
            1.415175,
            43.534674
          ],
          [
            1.415464,
            43.534812
          ],
          [
            1.415222,
            43.535473
          ]
        ]
      }
    }
  ]
}