{
  "type": "FeatureCollection",
  "features": [
    {
      "type": "Feature",
      "properties": {
        "name": "GraphHopper Track",
        "source": "Sentier_Castanet.gpx",
        "type": "track"
      },
      "geometry": {
        "type": "LineString",
        "coordinates": [
          [
            1.515887,
            43.517801,
            151.15
          ],
          [
            1.515342,
            43.51817,
            151.18
          ],
          [
            1.51522,
            43.518202,
            151.79
          ],
          [
            1.515088,
            43.51819,
            152.0
          ],
          [
            1.515442,
            43.51835,
            151.1
          ],
          [
            1.515201,
            43.518668,
            151.39
          ],
          [
            1.515219,
            43.518675,
            151.48
          ],
          [
            1.51455,
            43.519546,
            151.0
          ],
          [
            1.515291,
            43.519774,
            151.1
          ],
          [
            1.5154,
            43.519829,
            150.95
          ],
          [
            1.515447,
            43.519868,
            150.94
          ],
          [
            1.515509,
            43.519976,
            151.06
          ],
          [
            1.515564,
            43.520237,
            151.02
          ],
          [
            1.515618,
            43.52037,
            151.01
          ],
          [
            1.51568,
            43.52046,
            151.0
          ],
          [
            1.515901,
            43.520735,
            151.0
          ],
          [
            1.515991,
            43.520834,
            150.9
          ],
          [
            1.516141,
            43.520968,
            150.59
          ],
          [
            1.516748,
            43.521413,
            150.0
          ],
          [
            1.516884,
            43.521528,
            150.05
          ],
          [
            1.517102,
            43.521756,
            150.0
          ],
          [
            1.517065,
            43.521789,
            150.0
          ],
          [
            1.517051,
            43.521832,
            150.0
          ],
          [
            1.517064,
            43.521874,
            150.0
          ],
          [
            1.517098,
            43.521906,
            150.0
          ],
          [
            1.517147,
            43.521926,
            150.0
          ],
          [
            1.517202,
            43.521929,
            150.0
          ],
          [
            1.517255,
            43.521916,
            150.0
          ],
          [
            1.517381,
            43.522098,
            150.1
          ],
          [
            1.517494,
            43.522363,
            150.19
          ],
          [
            1.517598,
            43.522706,
            150.0
          ],
          [
            1.517635,
            43.522887,
            150.0
          ],
          [
            1.517631,
            43.522986,
            150.0
          ],
          [
            1.517668,
            43.523006,
            150.0
          ],
          [
            1.517679,
            43.523025,
            149.97
          ],
          [
            1.517674,
            43.523064,
            149.88
          ],
          [
            1.517659,
            43.52308,
            149.75
          ],
          [
            1.517792,
            43.523215,
            149.02
          ],
          [
            1.517907,
            43.523362,
            149.0
          ],
          [
            1.517981,
            43.523429,
            149.02
          ],
          [
            1.518231,
            43.52354,
            149.06
          ],
          [
            1.518221,
            43.523607,
            149.48
          ],
          [
            1.518271,
            43.523905,
            149.58
          ],
          [
            1.518307,
            43.523952,
            149.32
          ],
          [
            1.518382,
            43.523996,
            148.23
          ],
          [
            1.518759,
            43.524067,
            149.44
          ],
          [
            1.518865,
            43.523674,
            150.24
          ],
          [
            1.518946,
            43.523678,
            149.44
          ],
          [
            1.519023,
            43.523692,
            148.55
          ],
          [
            1.519097,
            43.523718,
            147.81
          ],
          [
            1.519455,
            43.52395,
            146.64
          ],
          [
            1.519791,
            43.524193,
            146.11
          ],
          [
            1.520239,
            43.524562,
            145.79
          ],
          [
            1.520359,
            43.524677,
            145.83
          ],
          [
            1.520402,
            43.524748,
            145.85
          ],
          [
            1.520427,
            43.52482,
            145.84
          ],
          [
            1.520435,
            43.524907,
            145.85
          ],
          [
            1.520285,
            43.525545,
            146.31
          ],
          [
            1.520275,
            43.525634,
            146.38
          ],
          [
            1.520282,
            43.52571,
            146.5
          ],
          [
            1.520343,
            43.525866,
            147.12
          ],
          [
            1.520385,
            43.525908,
            147.05
          ],
          [
            1.520579,
            43.526005,
            147.02
          ],
          [
            1.520656,
            43.525983,
            146.84
          ],
          [
            1.520738,
            43.525932,
            146.5
          ],
          [
            1.521165,
            43.525569,
            145.66
          ],
          [
            1.522009,
            43.524832,
            145.28
          ],
          [
            1.522903,
            43.524033,
            145.31
          ],
          [
            1.523143,
            43.523809,
            145.32
          ],
          [
            1.523268,
            43.523672,
            145.65
          ],
          [
            1.523571,
            43.523413,
            145.7
          ],
          [
            1.523926,
            43.523064,
            145.61
          ],
          [
            1.524429,
            43.522651,
            145.58
          ],
          [
            1.524923,
            43.522217,
            145.51
          ],
          [
            1.525974,
            43.521255,
            145.77
          ],
          [
            1.52662,
            43.520681,
            145.99
          ],
          [
            1.526932,
            43.520383,
            146.06
          ],
          [
            1.52739,
            43.519969,
            145.9
          ],
          [
            1.527595,
            43.519794,
            145.98
          ],
          [
            1.527595,
            43.519794,
            145.98
          ],
          [
            1.528114,
            43.519352,
            146.18
          ],
          [
            1.529316,
            43.518224,
            146.54
          ],
          [
            1.529751,
            43.51788,
            146.41
          ],
          [
            1.530182,
            43.517516,
            146.04
          ],
          [
            1.531462,
            43.516384,
            146.55
          ],
          [
            1.531931,
            43.515947,
            147.33
          ],
          [
            1.532623,
            43.515414,
            147.79
          ],
          [
            1.533254,
            43.514857,
            148.14
          ],
          [
            1.533294,
            43.514807,
            148.2
          ],
          [
            1.533321,
            43.514706,
            148.46
          ],
          [
            1.533395,
            43.514504,
            149.0
          ],
          [
            1.533093,
            43.514376,
            148.83
          ],
          [
            1.532755,
            43.514269,
            148.42
          ],
          [
            1.532369,
            43.514182,
            148.0
          ],
          [
            1.532048,
            43.514129,
            147.84
          ],
          [
            1.53172,
            43.514099,
            147.37
          ],
          [
            1.531116,
            43.514087,
            147.0
          ],
          [
            1.530023,
            43.514103,
            147.0
          ],
          [
            1.52935,
            43.514106,
            148.45
          ],
          [
            1.529002,
            43.514098,
            149.23
          ],
          [
            1.528717,
            43.514076,
            149.91
          ],
          [
            1.528289,
            43.514004,
            150.72
          ],
          [
            1.527995,
            43.513924,
            151.37
          ],
          [
            1.527623,
            43.513789,
            151.75
          ],
          [
            1.525274,
            43.512879,
            148.67
          ],
          [
            1.525013,
            43.512786,
            148.24
          ],
          [
            1.524793,
            43.512721,
            148.02
          ],
          [
            1.52445,
            43.512641,
            148.0
          ],
          [
            1.523635,
            43.512469,
            148.0
          ],
          [
            1.523289,
            43.512364,
            148.0
          ],
          [
            1.522957,
            43.512216,
            148.0
          ],
          [
            1.521962,
            43.511692,
            150.77
          ],
          [
            1.521692,
            43.511575,
            150.95
          ],
          [
            1.521474,
            43.511495,
            151.09
          ],
          [
            1.521291,
            43.51144,
            151.18
          ],
          [
            1.521007,
            43.511386,
            151.51
          ],
          [
            1.520989,
            43.511246,
            151.92
          ],
          [
            1.520947,
            43.511195,
            151.97
          ],
          [
            1.520834,
            43.511156,
            151.93
          ],
          [
            1.520817,
            43.511115,
            151.94
          ],
          [
            1.520703,
            43.511046,
            151.91
          ],
          [
            1.51992,
            43.510655,
            152.23
          ],
          [
            1.519658,
            43.510506,
            152.31
          ],
          [
            1.518917,
            43.510117,
            152.31
          ],
          [
            1.518754,
            43.510018,
            152.0
          ],
          [
            1.518684,
            43.509939,
            152.0
          ],
          [
            1.518573,
            43.509885,
            152.22
          ],
          [
            1.518295,
            43.509803,
            153.0
          ],
          [
            1.518233,
            43.509791,
            153.0
          ],
          [
            1.51817,
            43.509799,
            153.0
          ],
          [
            1.518098,
            43.509835,
            153.01
          ],
          [
            1.518043,
            43.509897,
            153.03
          ],
          [
            1.517877,
            43.509852,
            154.0
          ],
          [
            1.517963,
            43.509667,
            153.62
          ],
          [
            1.518006,
            43.509596,
            153.62
          ],
          [
            1.518173,
            43.509387,
            153.64
          ],
          [
            1.518296,
            43.50925,
            153.63
          ],
          [
            1.518426,
            43.509119,
            153.62
          ],
          [
            1.518997,
            43.5086,
            153.59
          ],
          [
            1.51981,
            43.507887,
            153.3
          ],
          [
            1.520146,
            43.507551,
            153.05
          ],
          [
            1.520478,
            43.507166,
            152.92
          ],
          [
            1.52056,
            43.506996,
            152.83
          ],
          [
            1.520641,
            43.506773,
            152.71
          ],
          [
            1.5207,
            43.506488,
            152.64
          ],
          [
            1.52078,
            43.505882,
            152.67
          ],
          [
            1.520827,
            43.505618,
            152.72
          ],
          [
            1.520875,
            43.505386,
            152.78
          ],
          [
            1.520914,
            43.505279,
            152.81
          ],
          [
            1.520982,
            43.505145,
            152.84
          ],
          [
            1.521123,
            43.504957,
            152.9
          ],
          [
            1.52125,
            43.504835,
            152.96
          ],
          [
            1.521524,
            43.504605,
            152.97
          ],
          [
            1.521654,
            43.504511,
            153.0
          ],
          [
            1.521831,
            43.504416,
            153.17
          ],
          [
            1.522029,
            43.504337,
            153.11
          ],
          [
            1.522124,
            43.504313,
            153.1
          ],
          [
            1.522356,
            43.504282,
            153.09
          ],
          [
            1.522962,
            43.504271,
            152.95
          ],
          [
            1.523454,
            43.504222,
            151.7
          ],
          [
            1.523909,
            43.504236,
            152.68
          ],
          [
            1.52417,
            43.504221,
            152.81
          ],
          [
            1.525992,
            43.503849,
            152.94
          ],
          [
            1.526599,
            43.503694,
            152.97
          ],
          [
            1.526787,
            43.503637,
            152.97
          ],
          [
            1.526971,
            43.503568,
            152.98
          ],
          [
            1.527125,
            43.503471,
            152.98
          ],
          [
            1.527602,
            43.503097,
            152.98
          ],
          [
            1.528022,
            43.50272,
            152.99
          ],
          [
            1.52848,
            43.502218,
            153.15
          ],
          [
            1.529231,
            43.501308,
            153.09
          ],
          [
            1.5296,
            43.500971,
            152.86
          ],
          [
            1.530009,
            43.500647,
            152.78
          ],
          [
            1.530058,
            43.500679,
            152.45
          ],
          [
            1.530037,
            43.500711,
            152.35
          ],
          [
            1.530041,
            43.500749,
            152.22
          ],
          [
            1.530053,
            43.50078,
            152.15
          ],
          [
            1.530117,
            43.500842,
            151.96
          ],
          [
            1.530722,
            43.501077,
            151.29
          ],
          [
            1.530801,
            43.501124,
            151.22
          ],
          [
            1.530881,
            43.501185,
            151.16
          ],
          [
            1.530985,
            43.501304,
            151.09
          ],
          [
            1.531119,
            43.501499,
            151.1
          ],
          [
            1.531309,
            43.501726,
            151.23
          ],
          [
            1.532494,
            43.502815,
            152.0
          ],
          [
            1.533331,
            43.503456,
            151.24
          ],
          [
            1.533648,
            43.503664,
            152.04
          ],
          [
            1.53389,
            43.50376,
            152.73
          ],
          [
            1.534085,
            43.503821,
            152.75
          ],
          [
            1.534588,
            43.504041,
            152.38
          ],
          [
            1.534839,
            43.504134,
            152.2
          ],
          [
            1.535105,
            43.504255,
            151.63
          ],
          [
            1.535685,
            43.504689,
            148.36
          ],
          [
            1.535999,
            43.504842,
            147.46
          ],
          [
            1.537334,
            43.505458,
            147.02
          ],
          [
            1.539109,
            43.506259,
            147.79
          ],
          [
            1.536555,
            43.509458,
            146.85
          ],
          [
            1.534076,
            43.510961,
            146.25
          ],
          [
            1.531807,
            43.512303,
            147.0
          ],
          [
            1.531365,
            43.512552,
            146.96
          ],
          [
            1.530676,
            43.512968,
            147.09
          ],
          [
            1.530624,
            43.513025,
            147.11
          ]
        ]
      }
    },
    {
      "type": "Feature",
      "properties": {
        "source": "Sentier_Castanet.gpx",
        "type": "route"
      },
      "geometry": {
        "type": "LineString",
        "coordinates": [
          [
            1.515887,
            43.517801
          ],
          [
            1.515088,
            43.51819
          ],
          [
            1.515442,
            43.51835
          ],
          [
            1.515201,
            43.518668
          ],
          [
            1.51455,
            43.519546
          ],
          [
            1.517102,
            43.521756
          ],
          [
            1.517631,
            43.522986
          ],
          [
            1.518231,
            43.52354
          ],
          [
            1.518221,
            43.523607
          ],
          [
            1.518759,
            43.524067
          ],
          [
            1.518865,
            43.523674
          ],
          [
            1.520579,
            43.526005
          ],
          [
            1.527595,
            43.519794
          ],
          [
            1.527595,
            43.519794
          ],
          [
            1.533395,
            43.514504
          ],
          [
            1.521007,
            43.511386
          ],
          [
            1.520834,
            43.511156
          ],
          [
            1.518043,
            43.509897
          ],
          [
            1.517877,
            43.509852
          ],
          [
            1.530009,
            43.500647
          ],
          [
            1.530058,
            43.500679
          ],
          [
            1.539109,
            43.506259
          ],
          [
            1.530624,
            43.513025
          ]
        ]
      }
    }
  ]
}