{
  "type": "FeatureCollection",
  "features": [
    {
      "type": "Feature",
      "properties": {
        "name": "GraphHopper Track",
        "source": "Parcours_forestier.gpx",
        "type": "track"
      },
      "geometry": {
        "type": "LineString",
        "coordinates": [
          [
            2.154793,
            43.465424,
            628.11
          ],
          [
            2.15488,
            43.464998,
            631.43
          ],
          [
            2.154882,
            43.464826,
            632.72
          ],
          [
            2.154857,
            43.464655,
            634.07
          ],
          [
            2.154657,
            43.464176,
            638.69
          ],
          [
            2.154389,
            43.46374,
            643.93
          ],
          [
            2.154228,
            43.463517,
            646.6
          ],
          [
            2.153857,
            43.463246,
            650.54
          ],
          [
            2.153796,
            43.463171,
            651.39
          ],
          [
            2.153773,
            43.463088,
            652.2
          ],
          [
            2.153786,
            43.462967,
            653.32
          ],
          [
            2.153846,
            43.462811,
            654.82
          ],
          [
            2.154291,
            43.462179,
            661.6
          ],
          [
            2.154376,
            43.462004,
            663.32
          ],
          [
            2.154408,
            43.461868,
            664.64
          ],
          [
            2.154436,
            43.461464,
            668.66
          ],
          [
            2.154463,
            43.461309,
            670.36
          ],
          [
            2.154569,
            43.461073,
            673.12
          ],
          [
            2.154579,
            43.460989,
            674.05
          ],
          [
            2.154561,
            43.460893,
            675.13
          ],
          [
            2.154479,
            43.460712,
            677.21
          ],
          [
            2.154422,
            43.460535,
            679.13
          ],
          [
            2.15432,
            43.459796,
            687.13
          ],
          [
            2.154271,
            43.459654,
            688.9
          ],
          [
            2.154162,
            43.459443,
            691.8
          ],
          [
            2.153508,
            43.458957,
            701.34
          ],
          [
            2.153291,
            43.458872,
            703.79
          ],
          [
            2.153169,
            43.458872,
            704.7
          ],
          [
            2.153277,
            43.458695,
            704.7
          ],
          [
            2.153406,
            43.458567,
            704.39
          ],
          [
            2.153513,
            43.458502,
            704.12
          ],
          [
            2.153619,
            43.458461,
            703.86
          ],
          [
            2.153775,
            43.458413,
            703.58
          ],
          [
            2.154758,
            43.458223,
            701.88
          ],
          [
            2.155166,
            43.458095,
            701.69
          ],
          [
            2.155573,
            43.457944,
            703.2
          ],
          [
            2.155659,
            43.45788,
            703.45
          ],
          [
            2.155702,
            43.457837,
            703.58
          ],
          [
            2.155711,
            43.457765,
            703.7
          ],
          [
            2.155595,
            43.457494,
            703.83
          ],
          [
            2.155603,
            43.457437,
            703.89
          ],
          [
            2.155659,
            43.457386,
            704.06
          ],
          [
            2.155724,
            43.457344,
            704.32
          ],
          [
            2.156174,
            43.457086,
            705.66
          ],
          [
            2.156196,
            43.457043,
            705.6
          ],
          [
            2.156196,
            43.457,
            705.53
          ],
          [
            2.156088,
            43.456829,
            705.44
          ],
          [
            2.156088,
            43.456764,
            705.52
          ],
          [
            2.15611,
            43.456721,
            705.61
          ],
          [
            2.156153,
            43.4567,
            705.69
          ],
          [
            2.156239,
            43.456678,
            705.87
          ],
          [
            2.156303,
            43.456678,
            706.01
          ],
          [
            2.156914,
            43.456848,
            707.01
          ],
          [
            2.157011,
            43.456893,
            706.93
          ],
          [
            2.157077,
            43.456936,
            706.97
          ],
          [
            2.157419,
            43.457365,
            708.56
          ],
          [
            2.157912,
            43.457751,
            710.93
          ],
          [
            2.158063,
            43.457901,
            711.91
          ],
          [
            2.158341,
            43.458266,
            714.2
          ],
          [
            2.158513,
            43.458416,
            715.15
          ],
          [
            2.158706,
            43.458502,
            715.9
          ],
          [
            2.159037,
            43.458588,
            717.31
          ],
          [
            2.159243,
            43.45861,
            718.3
          ],
          [
            2.159414,
            43.458612,
            719.2
          ],
          [
            2.159545,
            43.458597,
            719.89
          ],
          [
            2.159672,
            43.458567,
            720.53
          ],
          [
            2.159843,
            43.458545,
            721.33
          ],
          [
            2.160144,
            43.458524,
            722.59
          ],
          [
            2.160852,
            43.458631,
            725.38
          ],
          [
            2.161152,
            43.458631,
            726.31
          ],
          [
            2.161427,
            43.458611,
            727.15
          ],
          [
            2.161732,
            43.458545,
            728.24
          ],
          [
            2.161897,
            43.458487,
            728.93
          ],
          [
            2.162182,
            43.458331,
            730.45
          ],
          [
            2.16259,
            43.458073,
            733.05
          ],
          [
            2.162654,
            43.458009,
            733.58
          ],
          [
            2.163191,
            43.457344,
            738.26
          ],
          [
            2.163384,
            43.457129,
            739.6
          ],
          [
            2.164326,
            43.456603,
            743.83
          ],
          [
            2.164586,
            43.456507,
            744.74
          ],
          [
            2.164822,
            43.456485,
            745.49
          ],
          [
            2.165315,
            43.456593,
            746.93
          ],
          [
            2.16553,
            43.456593,
            747.39
          ],
          [
            2.165891,
            43.456454,
            749.56
          ],
          [
            2.166179,
            43.456315,
            750.8
          ],
          [
            2.166506,
            43.456141,
            752.03
          ],
          [
            2.166617,
            43.456151,
            752.18
          ],
          [
            2.166778,
            43.45619,
            752.74
          ],
          [
            2.16706,
            43.455963,
            752.75
          ],
          [
            2.167566,
            43.455685,
            750.74
          ],
          [
            2.167924,
            43.455449,
            748.49
          ],
          [
            2.168159,
            43.455396,
            747.1
          ],
          [
            2.168986,
            43.455087,
            741.45
          ],
          [
            2.16933,
            43.455021,
            739.84
          ],
          [
            2.169642,
            43.454918,
            738.8
          ],
          [
            2.169852,
            43.454811,
            738.19
          ],
          [
            2.170431,
            43.454748,
            737.69
          ],
          [
            2.170767,
            43.454612,
            736.56
          ],
          [
            2.171036,
            43.454531,
            736.55
          ],
          [
            2.17146,
            43.454311,
            737.74
          ],
          [
            2.171776,
            43.45412,
            738.55
          ],
          [
            2.171929,
            43.453943,
            739.1
          ],
          [
            2.172222,
            43.453493,
            739.51
          ],
          [
            2.172302,
            43.453339,
            739.29
          ],
          [
            2.172353,
            43.452966,
            738.53
          ],
          [
            2.17242,
            43.45288,
            738.26
          ],
          [
            2.172898,
            43.452524,
            736.19
          ],
          [
            2.173061,
            43.452489,
            735.48
          ],
          [
            2.173745,
            43.452526,
            731.22
          ],
          [
            2.174228,
            43.452605,
            727.43
          ],
          [
            2.174502,
            43.452607,
            725.41
          ],
          [
            2.174738,
            43.45258,
            723.64
          ],
          [
            2.175218,
            43.452461,
            720.27
          ],
          [
            2.175492,
            43.452422,
            718.44
          ],
          [
            2.176068,
            43.452263,
            714.05
          ],
          [
            2.176419,
            43.452143,
            709.37
          ],
          [
            2.176452,
            43.452087,
            709.08
          ],
          [
            2.176487,
            43.451992,
            708.89
          ],
          [
            2.176616,
            43.451977,
            708.89
          ],
          [
            2.176725,
            43.451928,
            709.56
          ],
          [
            2.176763,
            43.451786,
            710.38
          ],
          [
            2.176757,
            43.451198,
            714.38
          ],
          [
            2.176854,
            43.450859,
            717.1
          ],
          [
            2.176854,
            43.450629,
            719.11
          ],
          [
            2.176736,
            43.450049,
            726.67
          ],
          [
            2.176763,
            43.449885,
            729.15
          ],
          [
            2.176875,
            43.449687,
            732.57
          ],
          [
            2.177439,
            43.449368,
            742.16
          ],
          [
            2.177281,
            43.449203,
            742.41
          ],
          [
            2.176544,
            43.448093,
            741.82
          ],
          [
            2.176284,
            43.447553,
            742.43
          ],
          [
            2.176169,
            43.447278,
            742.51
          ],
          [
            2.176071,
            43.447097,
            742.19
          ],
          [
            2.175791,
            43.446678,
            740.2
          ],
          [
            2.175673,
            43.446527,
            739.2
          ],
          [
            2.175553,
            43.446398,
            738.29
          ],
          [
            2.175414,
            43.446277,
            737.45
          ],
          [
            2.175308,
            43.446199,
            736.91
          ],
          [
            2.175209,
            43.44614,
            736.47
          ],
          [
            2.175098,
            43.446101,
            736.08
          ],
          [
            2.174988,
            43.446072,
            735.76
          ],
          [
            2.174397,
            43.44602,
            734.42
          ],
          [
            2.174292,
            43.445993,
            734.2
          ],
          [
            2.174187,
            43.44595,
            733.95
          ],
          [
            2.173407,
            43.445529,
            730.53
          ],
          [
            2.173332,
            43.445474,
            729.96
          ],
          [
            2.173277,
            43.445389,
            729.25
          ],
          [
            2.173259,
            43.445184,
            727.52
          ],
          [
            2.173285,
            43.445121,
            726.9
          ],
          [
            2.173984,
            43.444503,
            716.71
          ],
          [
            2.174193,
            43.444335,
            712.61
          ],
          [
            2.174349,
            43.444179,
            708.5
          ],
          [
            2.174517,
            43.444334,
            709.65
          ],
          [
            2.174983,
            43.444593,
            713.41
          ],
          [
            2.175158,
            43.444736,
            714.93
          ],
          [
            2.175249,
            43.444863,
            715.73
          ],
          [
            2.175415,
            43.44526,
            716.7
          ],
          [
            2.1755,
            43.445335,
            716.76
          ],
          [
            2.175521,
            43.445336,
            716.76
          ],
          [
            2.175521,
            43.445336,
            716.76
          ],
          [
            2.1755,
            43.445335,
            716.76
          ],
          [
            2.175415,
            43.44526,
            716.7
          ],
          [
            2.175249,
            43.444863,
            715.73
          ],
          [
            2.175158,
            43.444736,
            714.93
          ],
          [
            2.174983,
            43.444593,
            713.41
          ],
          [
            2.174517,
            43.444334,
            709.65
          ],
          [
            2.174349,
            43.444179,
            708.5
          ],
          [
            2.174193,
            43.444335,
            712.61
          ],
          [
            2.173984,
            43.444503,
            716.71
          ],
          [
            2.173285,
            43.445121,
            726.9
          ],
          [
            2.173259,
            43.445184,
            727.52
          ],
          [
            2.173277,
            43.445389,
            729.25
          ],
          [
            2.173332,
            43.445474,
            729.96
          ],
          [
            2.173407,
            43.445529,
            730.53
          ],
          [
            2.174187,
            43.44595,
            733.95
          ],
          [
            2.174292,
            43.445993,
            734.2
          ],
          [
            2.174397,
            43.44602,
            734.42
          ],
          [
            2.174988,
            43.446072,
            735.76
          ],
          [
            2.175098,
            43.446101,
            736.08
          ],
          [
            2.175209,
            43.44614,
            736.47
          ],
          [
            2.175308,
            43.446199,
            736.91
          ],
          [
            2.175414,
            43.446277,
            737.45
          ],
          [
            2.175553,
            43.446398,
            738.29
          ],
          [
            2.175673,
            43.446527,
            739.2
          ],
          [
            2.175791,
            43.446678,
            740.2
          ],
          [
            2.176071,
            43.447097,
            742.19
          ],
          [
            2.176169,
            43.447278,
            742.51
          ],
          [
            2.176284,
            43.447553,
            742.43
          ],
          [
            2.176544,
            43.448093,
            741.82
          ],
          [
            2.177281,
            43.449203,
            742.41
          ],
          [
            2.177439,
            43.449368,
            742.16
          ],
          [
            2.176875,
            43.449687,
            732.57
          ],
          [
            2.176763,
            43.449885,
            729.15
          ],
          [
            2.176736,
            43.450049,
            726.67
          ],
          [
            2.176854,
            43.450629,
            719.11
          ],
          [
            2.176854,
            43.450859,
            717.1
          ],
          [
            2.176757,
            43.451198,
            714.38
          ],
          [
            2.176763,
            43.451786,
            710.38
          ],
          [
            2.176725,
            43.451928,
            709.56
          ],
          [
            2.176616,
            43.451977,
            708.89
          ],
          [
            2.176487,
            43.451992,
            708.89
          ],
          [
            2.176452,
            43.452087,
            709.08
          ],
          [
            2.176419,
            43.452143,
            709.37
          ],
          [
            2.176068,
            43.452263,
            714.05
          ],
          [
            2.175492,
            43.452422,
            718.44
          ],
          [
            2.175218,
            43.452461,
            720.27
          ],
          [
            2.174738,
            43.45258,
            723.64
          ],
          [
            2.174502,
            43.452607,
            725.41
          ],
          [
            2.174228,
            43.452605,
            727.43
          ],
          [
            2.173745,
            43.452526,
            731.22
          ],
          [
            2.173061,
            43.452489,
            735.48
          ],
          [
            2.172898,
            43.452524,
            736.19
          ],
          [
            2.17242,
            43.45288,
            738.26
          ],
          [
            2.172353,
            43.452966,
            738.53
          ],
          [
            2.172302,
            43.453339,
            739.29
          ],
          [
            2.172222,
            43.453493,
            739.51
          ],
          [
            2.171929,
            43.453943,
            739.1
          ],
          [
            2.171776,
            43.45412,
            738.55
          ],
          [
            2.17146,
            43.454311,
            737.74
          ],
          [
            2.171036,
            43.454531,
            736.55
          ],
          [
            2.170767,
            43.454612,
            736.56
          ],
          [
            2.170431,
            43.454748,
            737.69
          ],
          [
            2.169852,
            43.454811,
            738.19
          ],
          [
            2.169642,
            43.454918,
            738.8
          ],
          [
            2.16933,
            43.455021,
            739.84
          ],
          [
            2.168986,
            43.455087,
            741.45
          ],
          [
            2.168159,
            43.455396,
            747.1
          ],
          [
            2.167924,
            43.455449,
            748.49
          ],
          [
            2.167566,
            43.455685,
            750.74
          ],
          [
            2.16706,
            43.455963,
            752.75
          ],
          [
            2.166778,
            43.45619,
            752.74
          ],
          [
            2.166617,
            43.456151,
            752.18
          ],
          [
            2.166506,
            43.456141,
            752.03
          ],
          [
            2.166179,
            43.456315,
            750.8
          ],
          [
            2.165891,
            43.456454,
            749.56
          ],
          [
            2.16553,
            43.456593,
            747.39
          ],
          [
            2.165315,
            43.456593,
            746.93
          ],
          [
            2.164822,
            43.456485,
            745.49
          ],
          [
            2.164586,
            43.456507,
            744.74
          ],
          [
            2.164326,
            43.456603,
            743.83
          ],
          [
            2.163384,
            43.457129,
            739.6
          ],
          [
            2.163191,
            43.457344,
            738.26
          ],
          [
            2.162654,
            43.458009,
            733.58
          ],
          [
            2.16259,
            43.458073,
            733.05
          ],
          [
            2.162182,
            43.458331,
            730.45
          ],
          [
            2.161897,
            43.458487,
            728.93
          ],
          [
            2.161732,
            43.458545,
            728.24
          ],
          [
            2.161427,
            43.458611,
            727.15
          ],
          [
            2.161152,
            43.458631,
            726.31
          ],
          [
            2.160852,
            43.458631,
            725.38
          ],
          [
            2.160144,
            43.458524,
            722.59
          ],
          [
            2.159843,
            43.458545,
            721.33
          ],
          [
            2.159672,
            43.458567,
            720.53
          ],
          [
            2.159545,
            43.458597,
            719.89
          ],
          [
            2.159414,
            43.458612,
            719.2
          ],
          [
            2.159243,
            43.45861,
            718.3
          ],
          [
            2.159037,
            43.458588,
            717.31
          ],
          [
            2.158706,
            43.458502,
            715.9
          ],
          [
            2.158513,
            43.458416,
            715.15
          ],
          [
            2.158341,
            43.458266,
            714.2
          ],
          [
            2.158063,
            43.457901,
            711.91
          ],
          [
            2.157912,
            43.457751,
            710.93
          ],
          [
            2.157419,
            43.457365,
            708.56
          ],
          [
            2.157077,
            43.456936,
            706.97
          ],
          [
            2.157011,
            43.456893,
            706.93
          ],
          [
            2.156914,
            43.456848,
            707.01
          ],
          [
            2.156303,
            43.456678,
            706.01
          ],
          [
            2.156239,
            43.456678,
            705.87
          ],
          [
            2.156153,
            43.4567,
            705.69
          ],
          [
            2.15611,
            43.456721,
            705.61
          ],
          [
            2.156088,
            43.456764,
            705.52
          ],
          [
            2.156088,
            43.456829,
            705.44
          ],
          [
            2.156196,
            43.457,
            705.53
          ],
          [
            2.156196,
            43.457043,
            705.6
          ],
          [
            2.156174,
            43.457086,
            705.66
          ],
          [
            2.155724,
            43.457344,
            704.32
          ],
          [
            2.155659,
            43.457386,
            704.06
          ],
          [
            2.155603,
            43.457437,
            703.89
          ],
          [
            2.155595,
            43.457494,
            703.83
          ],
          [
            2.155711,
            43.457765,
            703.7
          ],
          [
            2.155702,
            43.457837,
            703.58
          ],
          [
            2.155659,
            43.45788,
            703.45
          ],
          [
            2.155573,
            43.457944,
            703.2
          ],
          [
            2.155166,
            43.458095,
            701.69
          ],
          [
            2.154758,
            43.458223,
            701.88
          ],
          [
            2.153775,
            43.458413,
            703.58
          ],
          [
            2.153619,
            43.458461,
            703.86
          ],
          [
            2.153513,
            43.458502,
            704.12
          ],
          [
            2.153406,
            43.458567,
            704.39
          ],
          [
            2.153277,
            43.458695,
            704.7
          ],
          [
            2.153169,
            43.458872,
            704.7
          ],
          [
            2.153291,
            43.458872,
            703.79
          ],
          [
            2.153508,
            43.458957,
            701.34
          ],
          [
            2.154162,
            43.459443,
            691.8
          ],
          [
            2.154271,
            43.459654,
            688.9
          ],
          [
            2.15432,
            43.459796,
            687.13
          ],
          [
            2.154422,
            43.460535,
            679.13
          ],
          [
            2.154479,
            43.460712,
            677.21
          ],
          [
            2.154561,
            43.460893,
            675.13
          ],
          [
            2.154579,
            43.460989,
            674.05
          ],
          [
            2.154569,
            43.461073,
            673.12
          ],
          [
            2.154463,
            43.461309,
            670.36
          ],
          [
            2.154436,
            43.461464,
            668.66
          ],
          [
            2.154408,
            43.461868,
            664.64
          ],
          [
            2.154376,
            43.462004,
            663.32
          ],
          [
            2.154291,
            43.462179,
            661.6
          ],
          [
            2.153846,
            43.462811,
            654.82
          ],
          [
            2.153786,
            43.462967,
            653.32
          ],
          [
            2.153773,
            43.463088,
            652.2
          ],
          [
            2.153796,
            43.463171,
            651.39
          ],
          [
            2.153857,
            43.463246,
            650.54
          ],
          [
            2.154228,
            43.463517,
            646.6
          ],
          [
            2.154389,
            43.46374,
            643.93
          ],
          [
            2.154657,
            43.464176,
            638.69
          ],
          [
            2.154857,
            43.464655,
            634.07
          ],
          [
            2.154882,
            43.464826,
            632.72
          ],
          [
            2.15488,
            43.464998,
            631.43
          ],
          [
            2.154793,
            43.465424,
            628.11
          ]
        ]
      }
    },
    {
      "type": "Feature",
      "properties": {
        "source": "Parcours_forestier.gpx",
        "type": "route"
      },
      "geometry": {
        "type": "LineString",
        "coordinates": [
          [
            2.154793,
            43.465424
          ],
          [
            2.153169,
            43.458872
          ],
          [
            2.166506,
            43.456141
          ],
          [
            2.166778,
            43.45619
          ],
          [
            2.176419,
            43.452143
          ],
          [
            2.176487,
            43.451992
          ],
          [
            2.177439,
            43.449368
          ],
          [
            2.174349,
            43.444179
          ],
          [
            2.175521,
            43.445336
          ],
          [
            2.175521,
            43.445336
          ],
          [
            2.174349,
            43.444179
          ],
          [
            2.177439,
            43.449368
          ],
          [
            2.176487,
            43.451992
          ],
          [
            2.166778,
            43.45619
          ],
          [
            2.166506,
            43.456141
          ],
          [
            2.153169,
            43.458872
          ],
          [
            2.154793,
            43.465424
          ]
        ]
      }
    }
  ]
}