{
  "type": "FeatureCollection",
  "features": [
    {
      "type": "Feature",
      "properties": {
        "name": "GraphHopper Track",
        "source": "Chemin_Capitelles.gpx",
        "type": "track"
      },
      "geometry": {
        "type": "LineString",
        "coordinates": [
          [
            2.094371,
            43.054522,
            325.54
          ],
          [
            2.094332,
            43.054462,
            323.95
          ],
          [
            2.094142,
            43.054477,
            322.23
          ],
          [
            2.094241,
            43.054406,
            321.3
          ],
          [
            2.094407,
            43.054249,
            319.5
          ],
          [
            2.094243,
            43.054041,
            316.37
          ],
          [
            2.094016,
            43.053789,
            314.0
          ],
          [
            2.093913,
            43.053611,
            314.11
          ],
          [
            2.093874,
            43.052837,
            315.72
          ],
          [
            2.093198,
            43.052654,
            316.66
          ],
          [
            2.092879,
            43.052596,
            317.64
          ],
          [
            2.092541,
            43.052681,
            318.53
          ],
          [
            2.092262,
            43.052726,
            319.21
          ],
          [
            2.091657,
            43.052721,
            320.35
          ],
          [
            2.091183,
            43.052786,
            321.32
          ],
          [
            2.090959,
            43.052789,
            321.92
          ],
          [
            2.09076,
            43.05274,
            322.57
          ],
          [
            2.090484,
            43.052652,
            323.46
          ],
          [
            2.090297,
            43.052486,
            324.63
          ],
          [
            2.090099,
            43.05244,
            325.65
          ],
          [
            2.089857,
            43.052425,
            327.02
          ],
          [
            2.089456,
            43.052318,
            329.68
          ],
          [
            2.089135,
            43.052135,
            332.35
          ],
          [
            2.088907,
            43.052133,
            334.12
          ],
          [
            2.088751,
            43.052111,
            335.41
          ],
          [
            2.088517,
            43.052044,
            337.49
          ],
          [
            2.087865,
            43.051806,
            343.75
          ],
          [
            2.087063,
            43.051461,
            352.16
          ],
          [
            2.086674,
            43.05128,
            356.01
          ],
          [
            2.086466,
            43.051145,
            358.24
          ],
          [
            2.086191,
            43.050899,
            361.84
          ],
          [
            2.086086,
            43.05084,
            362.98
          ],
          [
            2.085555,
            43.050699,
            367.78
          ],
          [
            2.085447,
            43.050691,
            368.77
          ],
          [
            2.085237,
            43.050736,
            370.87
          ],
          [
            2.084918,
            43.050825,
            374.25
          ],
          [
            2.084479,
            43.050918,
            378.89
          ],
          [
            2.084174,
            43.051085,
            383.58
          ],
          [
            2.084052,
            43.051181,
            384.7
          ],
          [
            2.083795,
            43.051231,
            385.15
          ],
          [
            2.083492,
            43.051234,
            383.48
          ],
          [
            2.082856,
            43.051487,
            373.75
          ],
          [
            2.082462,
            43.051672,
            368.39
          ],
          [
            2.082014,
            43.05194,
            362.72
          ],
          [
            2.082014,
            43.05194,
            362.72
          ],
          [
            2.082462,
            43.051672,
            368.39
          ],
          [
            2.082856,
            43.051487,
            373.75
          ],
          [
            2.083492,
            43.051234,
            383.48
          ],
          [
            2.083795,
            43.051231,
            385.15
          ],
          [
            2.084052,
            43.051181,
            384.7
          ],
          [
            2.084174,
            43.051085,
            383.58
          ],
          [
            2.084479,
            43.050918,
            378.89
          ],
          [
            2.084918,
            43.050825,
            374.25
          ],
          [
            2.085237,
            43.050736,
            370.87
          ],
          [
            2.085447,
            43.050691,
            368.77
          ],
          [
            2.085555,
            43.050699,
            367.78
          ],
          [
            2.086086,
            43.05084,
            362.98
          ],
          [
            2.086191,
            43.050899,
            361.84
          ],
          [
            2.086466,
            43.051145,
            358.24
          ],
          [
            2.086674,
            43.05128,
            356.01
          ],
          [
            2.087063,
            43.051461,
            352.16
          ],
          [
            2.087865,
            43.051806,
            343.75
          ],
          [
            2.088517,
            43.052044,
            337.49
          ],
          [
            2.088751,
            43.052111,
            335.41
          ],
          [
            2.088907,
            43.052133,
            334.12
          ],
          [
            2.089135,
            43.052135,
            332.35
          ],
          [
            2.089456,
            43.052318,
            329.68
          ],
          [
            2.089857,
            43.052425,
            327.02
          ],
          [
            2.090099,
            43.05244,
            325.65
          ],
          [
            2.090297,
            43.052486,
            324.63
          ],
          [
            2.090484,
            43.052652,
            323.46
          ],
          [
            2.09076,
            43.05274,
            322.57
          ],
          [
            2.090959,
            43.052789,
            321.92
          ],
          [
            2.091183,
            43.052786,
            321.32
          ],
          [
            2.091657,
            43.052721,
            320.35
          ],
          [
            2.092262,
            43.052726,
            319.21
          ],
          [
            2.092541,
            43.052681,
            318.53
          ],
          [
            2.092879,
            43.052596,
            317.64
          ],
          [
            2.093198,
            43.052654,
            316.66
          ],
          [
            2.093874,
            43.052837,
            315.72
          ],
          [
            2.093913,
            43.053611,
            314.11
          ],
          [
            2.094016,
            43.053789,
            314.0
          ],
          [
            2.094243,
            43.054041,
            316.37
          ],
          [
            2.094407,
            43.054249,
            319.5
          ],
          [
            2.094241,
            43.054406,
            321.3
          ],
          [
            2.094142,
            43.054477,
            322.23
          ],
          [
            2.094332,
            43.054462,
            323.95
          ],
          [
            2.094371,
            43.054522,
            325.54
          ]
        ]
      }
    },
    {
      "type": "Feature",
      "properties": {
        "source": "Chemin_Capitelles.gpx",
        "type": "route"
      },
      "geometry": {
        "type": "LineString",
        "coordinates": [
          [
            2.094371,
            43.054522
          ],
          [
            2.094142,
            43.054477
          ],
          [
            2.094407,
            43.054249
          ],
          [
            2.093874,
            43.052837
          ],
          [
            2.083492,
            43.051234
          ],
          [
            2.082014,
            43.05194
          ],
          [
            2.082014,
            43.05194
          ],
          [
            2.083492,
            43.051234
          ],
          [
            2.093874,
            43.052837
          ],
          [
            2.094407,
            43.054249
          ],
          [
            2.094142,
            43.054477
          ],
          [
            2.094371,
            43.054522
          ]
        ]
      }
    }
  ]
}