{
  "type": "FeatureCollection",
  "features": [
    {
      "type": "Feature",
      "properties": {
        "name": "GraphHopper Track",
        "source": "Boucle_Peyreleau.gpx",
        "type": "track"
      },
      "geometry": {
        "type": "LineString",
        "coordinates": [
          [
            3.205814,
            44.188351,
            433.59
          ],
          [
            3.205867,
            44.188388,
            433.55
          ],
          [
            3.205924,
            44.188442,
            434.02
          ],
          [
            3.206034,
            44.188563,
            435.23
          ],
          [
            3.206297,
            44.188757,
            437.56
          ],
          [
            3.206497,
            44.188873,
            439.17
          ],
          [
            3.206548,
            44.188888,
            439.21
          ],
          [
            3.206951,
            44.188921,
            439.03
          ],
          [
            3.207003,
            44.189004,
            440.24
          ],
          [
            3.206971,
            44.189096,
            439.8
          ],
          [
            3.206976,
            44.189166,
            438.17
          ],
          [
            3.207109,
            44.189164,
            436.37
          ],
          [
            3.207241,
            44.189139,
            435.91
          ],
          [
            3.2074,
            44.189049,
            437.11
          ],
          [
            3.207537,
            44.189012,
            435.86
          ],
          [
            3.207666,
            44.188992,
            433.31
          ],
          [
            3.207706,
            44.189057,
            429.89
          ],
          [
            3.207689,
            44.189116,
            426.6
          ],
          [
            3.208078,
            44.188956,
            425.54
          ],
          [
            3.208169,
            44.188933,
            425.52
          ],
          [
            3.208244,
            44.188924,
            425.28
          ],
          [
            3.208324,
            44.188927,
            424.86
          ],
          [
            3.208399,
            44.18894,
            424.49
          ],
          [
            3.208483,
            44.188974,
            424.09
          ],
          [
            3.208553,
            44.189024,
            423.74
          ],
          [
            3.208696,
            44.189146,
            422.93
          ],
          [
            3.208758,
            44.189185,
            422.42
          ],
          [
            3.208758,
            44.189185,
            422.42
          ],
          [
            3.208696,
            44.189146,
            422.93
          ],
          [
            3.208553,
            44.189024,
            423.74
          ],
          [
            3.208483,
            44.188974,
            424.09
          ],
          [
            3.208399,
            44.18894,
            424.49
          ],
          [
            3.208324,
            44.188927,
            424.86
          ],
          [
            3.208244,
            44.188924,
            425.28
          ],
          [
            3.208169,
            44.188933,
            425.52
          ],
          [
            3.208078,
            44.188956,
            425.54
          ],
          [
            3.207689,
            44.189116,
            426.6
          ],
          [
            3.207706,
            44.189057,
            429.89
          ],
          [
            3.207666,
            44.188992,
            433.31
          ],
          [
            3.207537,
            44.189012,
            435.86
          ],
          [
            3.2074,
            44.189049,
            437.11
          ],
          [
            3.207241,
            44.189139,
            435.91
          ],
          [
            3.207109,
            44.189164,
            436.37
          ],
          [
            3.206976,
            44.189166,
            438.17
          ],
          [
            3.206971,
            44.189096,
            439.8
          ],
          [
            3.207003,
            44.189004,
            440.24
          ],
          [
            3.206951,
            44.188921,
            439.03
          ],
          [
            3.206548,
            44.188888,
            439.21
          ],
          [
            3.206497,
            44.188873,
            439.17
          ],
          [
            3.206297,
            44.188757,
            437.56
          ],
          [
            3.206034,
            44.188563,
            435.23
          ],
          [
            3.205924,
            44.188442,
            434.02
          ],
          [
            3.205867,
            44.188388,
            433.55
          ],
          [
            3.205814,
            44.188351,
            433.59
          ],
          [
            3.205807,
            44.188325,
            433.56
          ],
          [
            3.205833,
            44.188294,
            433.25
          ],
          [
            3.205479,
            44.188055,
            435.95
          ],
          [
            3.205297,
            44.187864,
            437.69
          ],
          [
            3.205193,
            44.18767,
            439.35
          ],
          [
            3.205146,
            44.187454,
            441.01
          ],
          [
            3.205058,
            44.187161,
            443.3
          ],
          [
            3.204923,
            44.186919,
            445.3
          ],
          [
            3.204784,
            44.186739,
            446.81
          ],
          [
            3.204598,
            44.186597,
            448.21
          ],
          [
            3.204089,
            44.186338,
            451.57
          ],
          [
            3.203514,
            44.185882,
            456.56
          ],
          [
            3.20347,
            44.185777,
            457.53
          ],
          [
            3.203494,
            44.185714,
            458.15
          ],
          [
            3.203593,
            44.185657,
            459.6
          ],
          [
            3.203732,
            44.185657,
            460.13
          ],
          [
            3.203835,
            44.185711,
            460.45
          ],
          [
            3.203946,
            44.185808,
            461.33
          ],
          [
            3.204129,
            44.185874,
            462.6
          ],
          [
            3.204574,
            44.185905,
            465.27
          ],
          [
            3.2051,
            44.186089,
            468.88
          ]
        ]
      }
    },
    {
      "type": "Feature",
      "properties": {
        "source": "Boucle_Peyreleau.gpx",
        "type": "route"
      },
      "geometry": {
        "type": "LineString",
        "coordinates": [
          [
            3.205814,
            44.188351
          ],
          [
            3.206951,
            44.188921
          ],
          [
            3.206976,
            44.189166
          ],
          [
            3.207537,
            44.189012
          ],
          [
            3.207689,
            44.189116
          ],
          [
            3.208758,
            44.189185
          ],
          [
            3.208758,
            44.189185
          ],
          [
            3.207689,
            44.189116
          ],
          [
            3.207537,
            44.189012
          ],
          [
            3.206976,
            44.189166
          ],
          [
            3.206951,
            44.188921
          ],
          [
            3.206548,
            44.188888
          ],
          [
            3.205833,
            44.188294
          ],
          [
            3.2051,
            44.186089
          ]
        ]
      }
    }
  ]
}