{
  "type": "FeatureCollection",
  "features": [
    {
      "type": "Feature",
      "properties": {
        "name": "GraphHopper Track",
        "source": "Puech_de_Luzergue.gpx",
        "type": "track"
      },
      "geometry": {
        "type": "LineString",
        "coordinates": [
          [
            2.958002,
            44.226629,
            820.76
          ],
          [
            2.958463,
            44.226212,
            824.55
          ],
          [
            2.958444,
            44.225953,
            825.91
          ],
          [
            2.958458,
            44.225685,
            827.26
          ],
          [
            2.958667,
            44.225176,
            829.8
          ],
          [
            2.958734,
            44.224838,
            831.96
          ],
          [
            2.959085,
            44.223743,
            839.12
          ],
          [
            2.959191,
            44.22362,
            839.77
          ],
          [
            2.959312,
            44.223564,
            840.16
          ],
          [
            2.95951,
            44.223528,
            840.6
          ],
          [
            2.959634,
            44.223544,
            840.82
          ],
          [
            2.959839,
            44.223644,
            841.19
          ],
          [
            2.959914,
            44.22371,
            841.35
          ],
          [
            2.960046,
            44.223867,
            841.57
          ],
          [
            2.960272,
            44.224014,
            841.65
          ],
          [
            2.960646,
            44.224093,
            841.68
          ],
          [
            2.960792,
            44.224043,
            840.97
          ],
          [
            2.960583,
            44.224516,
            845.89
          ],
          [
            2.960454,
            44.224954,
            848.28
          ],
          [
            2.960442,
            44.2256,
            850.64
          ],
          [
            2.960445,
            44.226394,
            853.82
          ],
          [
            2.960405,
            44.226569,
            854.72
          ],
          [
            2.960477,
            44.22712,
            857.1
          ],
          [
            2.960424,
            44.227606,
            858.51
          ],
          [
            2.960389,
            44.227819,
            858.69
          ],
          [
            2.960259,
            44.228087,
            858.67
          ],
          [
            2.959888,
            44.228512,
            858.81
          ],
          [
            2.959539,
            44.228821,
            859.57
          ],
          [
            2.959455,
            44.228919,
            859.98
          ],
          [
            2.959455,
            44.228919,
            859.98
          ],
          [
            2.959539,
            44.228821,
            859.57
          ],
          [
            2.959888,
            44.228512,
            858.81
          ],
          [
            2.960259,
            44.228087,
            858.67
          ],
          [
            2.960389,
            44.227819,
            858.69
          ],
          [
            2.960424,
            44.227606,
            858.51
          ],
          [
            2.960477,
            44.22712,
            857.1
          ],
          [
            2.960405,
            44.226569,
            854.72
          ],
          [
            2.960445,
            44.226394,
            853.82
          ],
          [
            2.960442,
            44.2256,
            850.64
          ],
          [
            2.960454,
            44.224954,
            848.28
          ],
          [
            2.960583,
            44.224516,
            845.89
          ],
          [
            2.960792,
            44.224043,
            840.97
          ],
          [
            2.960646,
            44.224093,
            841.68
          ],
          [
            2.960272,
            44.224014,
            841.65
          ],
          [
            2.960046,
            44.223867,
            841.57
          ],
          [
            2.959914,
            44.22371,
            841.35
          ],
          [
            2.959839,
            44.223644,
            841.19
          ],
          [
            2.959634,
            44.223544,
            840.82
          ],
          [
            2.95951,
            44.223528,
            840.6
          ],
          [
            2.959312,
            44.223564,
            840.16
          ],
          [
            2.959191,
            44.22362,
            839.77
          ],
          [
            2.959085,
            44.223743,
            839.12
          ],
          [
            2.958734,
            44.224838,
            831.96
          ],
          [
            2.958667,
            44.225176,
            829.8
          ],
          [
            2.958458,
            44.225685,
            827.26
          ],
          [
            2.958444,
            44.225953,
            825.91
          ],
          [
            2.958463,
            44.226212,
            824.55
          ],
          [
            2.958002,
            44.226629,
            820.76
          ]
        ]
      }
    },
    {
      "type": "Feature",
      "properties": {
        "source": "Puech_de_Luzergue.gpx",
        "type": "route"
      },
      "geometry": {
        "type": "LineString",
        "coordinates": [
          [
            2.958002,
            44.226629
          ],
          [
            2.960792,
            44.224043
          ],
          [
            2.959455,
            44.228919
          ],
          [
            2.959455,
            44.228919
          ],
          [
            2.960792,
            44.224043
          ],
          [
            2.958002,
            44.226629
          ]
        ]
      }
    }
  ]
}