{
  "type": "FeatureCollection",
  "features": [
    {
      "type": "Feature",
      "properties": {
        "name": "GraphHopper Track",
        "source": "Boucle_de_Curvalle.gpx",
        "type": "track"
      },
      "geometry": {
        "type": "LineString",
        "coordinates": [
          [
            2.465597,
            43.943167,
            212.97
          ],
          [
            2.466015,
            43.94319,
            215.38
          ],
          [
            2.466141,
            43.943275,
            216.78
          ],
          [
            2.466178,
            43.943322,
            217.32
          ],
          [
            2.46634,
            43.943441,
            218.69
          ],
          [
            2.466568,
            43.943557,
            220.53
          ],
          [
            2.46679,
            43.943617,
            221.71
          ],
          [
            2.466954,
            43.943626,
            222.15
          ],
          [
            2.467072,
            43.943607,
            222.67
          ],
          [
            2.467658,
            43.943681,
            221.47
          ],
          [
            2.468484,
            43.943848,
            218.19
          ],
          [
            2.468687,
            43.943878,
            217.88
          ],
          [
            2.469191,
            43.943889,
            218.84
          ],
          [
            2.470361,
            43.943833,
            223.04
          ],
          [
            2.470602,
            43.943804,
            223.91
          ],
          [
            2.471847,
            43.943612,
            222.02
          ],
          [
            2.472233,
            43.943533,
            221.52
          ],
          [
            2.47239,
            43.943492,
            221.43
          ],
          [
            2.472543,
            43.943422,
            221.39
          ],
          [
            2.472628,
            43.943357,
            221.38
          ],
          [
            2.472936,
            43.943004,
            221.47
          ],
          [
            2.47303,
            43.942922,
            221.55
          ],
          [
            2.473291,
            43.942741,
            221.85
          ],
          [
            2.473754,
            43.942446,
            221.98
          ],
          [
            2.474595,
            43.941836,
            221.76
          ],
          [
            2.475096,
            43.941597,
            222.11
          ],
          [
            2.475468,
            43.941456,
            222.44
          ],
          [
            2.475468,
            43.941456,
            222.44
          ],
          [
            2.475096,
            43.941597,
            222.11
          ],
          [
            2.474595,
            43.941836,
            221.76
          ],
          [
            2.473754,
            43.942446,
            221.98
          ],
          [
            2.473291,
            43.942741,
            221.85
          ],
          [
            2.47303,
            43.942922,
            221.55
          ],
          [
            2.472936,
            43.943004,
            221.47
          ],
          [
            2.472628,
            43.943357,
            221.38
          ],
          [
            2.472543,
            43.943422,
            221.39
          ],
          [
            2.47239,
            43.943492,
            221.43
          ],
          [
            2.472233,
            43.943533,
            221.52
          ],
          [
            2.471847,
            43.943612,
            222.02
          ],
          [
            2.470602,
            43.943804,
            223.91
          ],
          [
            2.470361,
            43.943833,
            223.04
          ],
          [
            2.470454,
            43.944043,
            218.9
          ],
          [
            2.470776,
            43.944936,
            215.88
          ],
          [
            2.470981,
            43.945577,
            213.74
          ],
          [
            2.471039,
            43.945809,
            222.26
          ],
          [
            2.470797,
            43.945814,
            221.48
          ],
          [
            2.47079,
            43.94575,
            219.41
          ],
          [
            2.470911,
            43.945673,
            216.8
          ],
          [
            2.470916,
            43.945645,
            216.16
          ],
          [
            2.470876,
            43.945576,
            213.68
          ],
          [
            2.47021,
            43.945555,
            211.63
          ],
          [
            2.46859,
            43.945723,
            210.39
          ],
          [
            2.468037,
            43.94576,
            209.76
          ],
          [
            2.467096,
            43.945756,
            208.4
          ],
          [
            2.465844,
            43.946009,
            208.3
          ],
          [
            2.465414,
            43.946166,
            209.09
          ],
          [
            2.464822,
            43.946307,
            210.3
          ],
          [
            2.463979,
            43.946475,
            211.12
          ],
          [
            2.463152,
            43.9466,
            210.72
          ],
          [
            2.461509,
            43.946877,
            209.03
          ],
          [
            2.46023,
            43.947159,
            207.6
          ],
          [
            2.459348,
            43.947449,
            207.67
          ],
          [
            2.458169,
            43.947871,
            210.06
          ],
          [
            2.456798,
            43.948257,
            210.1
          ],
          [
            2.45548,
            43.948748,
            209.24
          ],
          [
            2.454312,
            43.949194,
            208.7
          ],
          [
            2.453228,
            43.949556,
            207.93
          ],
          [
            2.451408,
            43.950147,
            206.91
          ],
          [
            2.450425,
            43.950489,
            206.69
          ],
          [
            2.449453,
            43.950754,
            207.24
          ],
          [
            2.449112,
            43.950899,
            208.27
          ],
          [
            2.449212,
            43.951627,
            213.56
          ],
          [
            2.449194,
            43.951849,
            216.83
          ],
          [
            2.448421,
            43.951757,
            216.25
          ],
          [
            2.447677,
            43.951608,
            215.51
          ],
          [
            2.447203,
            43.951557,
            214.25
          ],
          [
            2.446472,
            43.95144,
            211.92
          ],
          [
            2.446279,
            43.951394,
            212.49
          ],
          [
            2.44578,
            43.951258,
            214.47
          ],
          [
            2.445154,
            43.951027,
            216.71
          ],
          [
            2.44467,
            43.950877,
            218.19
          ],
          [
            2.444029,
            43.950713,
            217.2
          ],
          [
            2.443334,
            43.950607,
            216.77
          ],
          [
            2.442678,
            43.950595,
            216.65
          ],
          [
            2.441312,
            43.950629,
            216.06
          ],
          [
            2.440656,
            43.950745,
            216.02
          ],
          [
            2.440048,
            43.950918,
            216.36
          ],
          [
            2.439328,
            43.951206,
            216.77
          ],
          [
            2.438495,
            43.951517,
            216.52
          ],
          [
            2.436958,
            43.952169,
            214.6
          ],
          [
            2.436178,
            43.952664,
            213.8
          ],
          [
            2.435694,
            43.953119,
            214.15
          ],
          [
            2.435166,
            43.953845,
            215.2
          ],
          [
            2.434718,
            43.954328,
            215.37
          ],
          [
            2.43428,
            43.954735,
            215.88
          ],
          [
            2.433692,
            43.955052,
            214.73
          ],
          [
            2.433101,
            43.955262,
            214.24
          ],
          [
            2.432573,
            43.955396,
            214.26
          ],
          [
            2.431999,
            43.955484,
            214.86
          ],
          [
            2.431471,
            43.955471,
            215.55
          ],
          [
            2.430926,
            43.95541,
            216.35
          ],
          [
            2.430086,
            43.955223,
            217.59
          ],
          [
            2.429298,
            43.954906,
            217.07
          ],
          [
            2.428496,
            43.954405,
            212.94
          ],
          [
            2.42803,
            43.953971,
            218.66
          ],
          [
            2.427635,
            43.953555,
            219.89
          ],
          [
            2.427236,
            43.952936,
            218.15
          ],
          [
            2.42661,
            43.951926,
            215.52
          ],
          [
            2.425769,
            43.9506,
            213.21
          ],
          [
            2.425012,
            43.949845,
            212.72
          ],
          [
            2.424639,
            43.949578,
            212.24
          ],
          [
            2.424185,
            43.949351,
            211.75
          ],
          [
            2.423545,
            43.949123,
            211.53
          ],
          [
            2.422871,
            43.948992,
            212.04
          ],
          [
            2.422651,
            43.948976,
            213.15
          ],
          [
            2.422128,
            43.948982,
            216.49
          ],
          [
            2.421563,
            43.949022,
            217.56
          ],
          [
            2.420981,
            43.949131,
            218.2
          ],
          [
            2.420251,
            43.949388,
            218.41
          ],
          [
            2.419973,
            43.949523,
            217.1
          ],
          [
            2.419547,
            43.949806,
            214.39
          ],
          [
            2.419294,
            43.950034,
            212.91
          ],
          [
            2.419399,
            43.950263,
            215.82
          ],
          [
            2.419265,
            43.950611,
            217.01
          ],
          [
            2.419029,
            43.950983,
            217.1
          ],
          [
            2.418567,
            43.951394,
            214.09
          ],
          [
            2.418429,
            43.951424,
            213.16
          ],
          [
            2.41815,
            43.95142,
            210.43
          ],
          [
            2.417769,
            43.951842,
            211.66
          ],
          [
            2.417496,
            43.952039,
            212.3
          ],
          [
            2.417215,
            43.952226,
            212.76
          ],
          [
            2.41683,
            43.952399,
            213.1
          ],
          [
            2.416361,
            43.952565,
            213.55
          ],
          [
            2.415835,
            43.95268,
            213.56
          ],
          [
            2.415008,
            43.952756,
            213.4
          ],
          [
            2.414426,
            43.952739,
            212.94
          ],
          [
            2.413762,
            43.952626,
            212.28
          ],
          [
            2.41212,
            43.952275,
            212.42
          ],
          [
            2.411456,
            43.952068,
            211.48
          ],
          [
            2.410741,
            43.951793,
            211.5
          ],
          [
            2.410041,
            43.951473,
            212.34
          ],
          [
            2.409368,
            43.951104,
            213.06
          ],
          [
            2.408553,
            43.950498,
            213.78
          ],
          [
            2.408191,
            43.950179,
            213.86
          ],
          [
            2.407688,
            43.94966,
            213.56
          ],
          [
            2.407354,
            43.94924,
            213.06
          ],
          [
            2.407073,
            43.948774,
            212.8
          ],
          [
            2.406916,
            43.94835,
            212.31
          ],
          [
            2.406727,
            43.947695,
            211.82
          ],
          [
            2.406221,
            43.945685,
            212.99
          ],
          [
            2.405841,
            43.944268,
            214.04
          ],
          [
            2.40567,
            43.943969,
            214.12
          ],
          [
            2.4048,
            43.942985,
            213.42
          ],
          [
            2.404418,
            43.942603,
            212.75
          ],
          [
            2.403976,
            43.942291,
            212.31
          ],
          [
            2.403341,
            43.941968,
            212.34
          ],
          [
            2.402796,
            43.941788,
            212.94
          ],
          [
            2.402224,
            43.941672,
            215.16
          ],
          [
            2.401737,
            43.941651,
            216.35
          ],
          [
            2.401295,
            43.941651,
            217.43
          ],
          [
            2.400409,
            43.941727,
            219.6
          ],
          [
            2.400253,
            43.941763,
            214.18
          ],
          [
            2.399542,
            43.941986,
            211.77
          ],
          [
            2.397568,
            43.942695,
            209.89
          ],
          [
            2.397131,
            43.942862,
            213.17
          ],
          [
            2.396063,
            43.94325,
            213.46
          ],
          [
            2.394906,
            43.943657,
            213.15
          ],
          [
            2.394644,
            43.943736,
            212.97
          ],
          [
            2.394,
            43.943878,
            212.82
          ],
          [
            2.393832,
            43.943903,
            212.61
          ],
          [
            2.393814,
            43.943782,
            214.86
          ],
          [
            2.393118,
            43.94364,
            219.34
          ],
          [
            2.3923,
            43.943324,
            226.79
          ],
          [
            2.392282,
            43.943281,
            227.58
          ],
          [
            2.392158,
            43.943258,
            226.92
          ],
          [
            2.391619,
            43.943123,
            226.71
          ],
          [
            2.391352,
            43.943068,
            226.34
          ],
          [
            2.39107,
            43.943029,
            226.75
          ],
          [
            2.390312,
            43.94298,
            227.53
          ],
          [
            2.390039,
            43.942941,
            227.61
          ],
          [
            2.388938,
            43.942695,
            226.7
          ],
          [
            2.388071,
            43.942475,
            225.3
          ],
          [
            2.387613,
            43.942344,
            224.09
          ],
          [
            2.386974,
            43.942144,
            221.54
          ],
          [
            2.386831,
            43.942082,
            220.77
          ],
          [
            2.386757,
            43.942022,
            220.21
          ],
          [
            2.386715,
            43.94197,
            219.74
          ],
          [
            2.386666,
            43.941851,
            218.77
          ],
          [
            2.386615,
            43.941769,
            217.89
          ],
          [
            2.386563,
            43.941717,
            217.55
          ],
          [
            2.386451,
            43.941682,
            217.07
          ],
          [
            2.386124,
            43.941627,
            215.79
          ],
          [
            2.385547,
            43.941505,
            211.62
          ],
          [
            2.385456,
            43.941437,
            211.2
          ],
          [
            2.385332,
            43.941311,
            210.17
          ],
          [
            2.385113,
            43.941036,
            208.31
          ],
          [
            2.385066,
            43.940897,
            207.56
          ],
          [
            2.385148,
            43.940667,
            206.15
          ],
          [
            2.385367,
            43.94039,
            204.47
          ],
          [
            2.385388,
            43.94029,
            203.09
          ],
          [
            2.385359,
            43.940235,
            201.56
          ],
          [
            2.385331,
            43.940211,
            200.81
          ],
          [
            2.385128,
            43.940124,
            199.86
          ],
          [
            2.385034,
            43.940097,
            200.85
          ],
          [
            2.385266,
            43.940064,
            199.42
          ],
          [
            2.385306,
            43.940026,
            199.22
          ],
          [
            2.385402,
            43.939794,
            199.46
          ],
          [
            2.385253,
            43.939709,
            199.84
          ]
        ]
      }
    },
    {
      "type": "Feature",
      "properties": {
        "source": "Boucle_de_Curvalle.gpx",
        "type": "route"
      },
      "geometry": {
        "type": "LineString",
        "coordinates": [
          [
            2.465597,
            43.943167
          ],
          [
            2.467072,
            43.943607
          ],
          [
            2.475468,
            43.941456
          ],
          [
            2.475468,
            43.941456
          ],
          [
            2.470361,
            43.943833
          ],
          [
            2.471039,
            43.945809
          ],
          [
            2.470797,
            43.945814
          ],
          [
            2.470876,
            43.945576
          ],
          [
            2.449194,
            43.951849
          ],
          [
            2.419294,
            43.950034
          ],
          [
            2.41815,
            43.95142
          ],
          [
            2.393832,
            43.943903
          ],
          [
            2.392282,
            43.943281
          ],
          [
            2.385547,
            43.941505
          ],
          [
            2.385034,
            43.940097
          ],
          [
            2.385253,
            43.939709
          ]
        ]
      }
    }
  ]
}