{
  "type": "FeatureCollection",
  "features": [
    {
      "type": "Feature",
      "properties": {
        "name": "GraphHopper Track",
        "source": "Espira-de-lAgly.gpx",
        "type": "track"
      },
      "geometry": {
        "type": "LineString",
        "coordinates": [
          [
            2.835496,
            42.778501,
            33.0
          ],
          [
            2.835498,
            42.778506,
            33.0
          ],
          [
            2.835384,
            42.778507,
            33.0
          ],
          [
            2.83531,
            42.778495,
            33.0
          ],
          [
            2.835372,
            42.778745,
            34.0
          ],
          [
            2.835685,
            42.779692,
            32.73
          ],
          [
            2.835845,
            42.780018,
            32.1
          ],
          [
            2.835536,
            42.780072,
            32.2
          ],
          [
            2.835345,
            42.780132,
            32.28
          ],
          [
            2.835565,
            42.780478,
            32.88
          ],
          [
            2.835565,
            42.780478,
            32.88
          ],
          [
            2.835345,
            42.780132,
            32.28
          ],
          [
            2.835536,
            42.780072,
            32.2
          ],
          [
            2.835845,
            42.780018,
            32.1
          ],
          [
            2.835685,
            42.779692,
            32.73
          ],
          [
            2.835372,
            42.778745,
            34.0
          ],
          [
            2.83531,
            42.778495,
            33.0
          ],
          [
            2.835384,
            42.778507,
            33.0
          ],
          [
            2.835498,
            42.778506,
            33.0
          ],
          [
            2.835357,
            42.7781,
            33.0
          ],
          [
            2.8356,
            42.778008,
            33.0
          ],
          [
            2.835643,
            42.777975,
            33.0
          ],
          [
            2.83566,
            42.777952,
            33.0
          ],
          [
            2.836009,
            42.777832,
            33.0
          ],
          [
            2.835982,
            42.777791,
            33.0
          ],
          [
            2.836002,
            42.777754,
            32.95
          ],
          [
            2.836197,
            42.777659,
            32.22
          ],
          [
            2.836514,
            42.77744,
            32.92
          ],
          [
            2.837199,
            42.777074,
            32.0
          ],
          [
            2.837919,
            42.776521,
            32.0
          ],
          [
            2.838463,
            42.776207,
            32.0
          ],
          [
            2.8388,
            42.776045,
            32.0
          ],
          [
            2.839024,
            42.775922,
            31.0
          ],
          [
            2.839309,
            42.775742,
            31.0
          ],
          [
            2.839796,
            42.775362,
            30.64
          ],
          [
            2.839995,
            42.775194,
            30.92
          ],
          [
            2.840009,
            42.775157,
            30.94
          ],
          [
            2.840093,
            42.775111,
            30.78
          ],
          [
            2.840725,
            42.774577,
            31.26
          ],
          [
            2.841075,
            42.77409,
            30.81
          ],
          [
            2.841161,
            42.773937,
            30.36
          ],
          [
            2.841496,
            42.773157,
            29.77
          ],
          [
            2.841549,
            42.77304,
            30.01
          ],
          [
            2.841632,
            42.772964,
            29.82
          ],
          [
            2.84169,
            42.772921,
            29.88
          ],
          [
            2.841735,
            42.772905,
            29.88
          ],
          [
            2.841771,
            42.77288,
            29.92
          ],
          [
            2.841795,
            42.772847,
            29.97
          ],
          [
            2.841804,
            42.772811,
            30.22
          ],
          [
            2.841947,
            42.7727,
            29.92
          ],
          [
            2.842992,
            42.772193,
            29.32
          ],
          [
            2.843194,
            42.772127,
            29.26
          ],
          [
            2.843468,
            42.772064,
            29.24
          ],
          [
            2.843796,
            42.772025,
            29.13
          ],
          [
            2.844853,
            42.772026,
            28.96
          ],
          [
            2.845614,
            42.772016,
            29.01
          ],
          [
            2.845944,
            42.771983,
            29.0
          ],
          [
            2.846556,
            42.771855,
            29.0
          ],
          [
            2.846852,
            42.771808,
            29.23
          ],
          [
            2.847532,
            42.771726,
            29.09
          ],
          [
            2.847985,
            42.771686,
            29.02
          ],
          [
            2.848499,
            42.771676,
            29.0
          ],
          [
            2.848844,
            42.771728,
            29.0
          ],
          [
            2.848827,
            42.771843,
            28.37
          ],
          [
            2.850016,
            42.771968,
            26.56
          ],
          [
            2.850496,
            42.77205,
            25.35
          ],
          [
            2.850767,
            42.77206,
            24.86
          ],
          [
            2.851077,
            42.772089,
            24.36
          ],
          [
            2.851523,
            42.772103,
            23.86
          ],
          [
            2.852807,
            42.772217,
            23.92
          ],
          [
            2.853157,
            42.772272,
            23.96
          ],
          [
            2.853633,
            42.772391,
            23.93
          ],
          [
            2.853975,
            42.772497,
            23.82
          ],
          [
            2.854411,
            42.772648,
            23.61
          ],
          [
            2.854967,
            42.772873,
            23.3
          ],
          [
            2.855391,
            42.77308,
            23.09
          ],
          [
            2.855694,
            42.77321,
            22.98
          ],
          [
            2.85622,
            42.773418,
            22.89
          ],
          [
            2.856665,
            42.773633,
            22.83
          ],
          [
            2.857155,
            42.77385,
            22.85
          ],
          [
            2.857835,
            42.774176,
            22.8
          ],
          [
            2.85806,
            42.774324,
            22.8
          ],
          [
            2.85823,
            42.774406,
            22.76
          ],
          [
            2.858629,
            42.774533,
            22.68
          ],
          [
            2.859605,
            42.774806,
            22.7
          ],
          [
            2.860106,
            42.774925,
            22.6
          ],
          [
            2.860506,
            42.775039,
            22.53
          ],
          [
            2.860675,
            42.7751,
            22.49
          ],
          [
            2.860839,
            42.775121,
            22.43
          ],
          [
            2.861657,
            42.775297,
            22.12
          ],
          [
            2.861976,
            42.775372,
            22.15
          ],
          [
            2.862307,
            42.775399,
            22.11
          ],
          [
            2.862427,
            42.775391,
            22.1
          ],
          [
            2.8628,
            42.775334,
            22.13
          ],
          [
            2.863066,
            42.775284,
            22.16
          ],
          [
            2.863967,
            42.77497,
            22.12
          ],
          [
            2.864303,
            42.774813,
            22.11
          ],
          [
            2.865282,
            42.774237,
            22.01
          ],
          [
            2.865864,
            42.774054,
            21.88
          ],
          [
            2.865972,
            42.773915,
            22.0
          ],
          [
            2.866033,
            42.773885,
            21.74
          ],
          [
            2.866487,
            42.773785,
            21.4
          ],
          [
            2.866693,
            42.773705,
            21.39
          ],
          [
            2.866865,
            42.773612,
            21.46
          ],
          [
            2.86696,
            42.773572,
            21.46
          ],
          [
            2.867159,
            42.773458,
            21.48
          ],
          [
            2.867248,
            42.773372,
            21.98
          ],
          [
            2.867247,
            42.773277,
            22.69
          ],
          [
            2.867292,
            42.773234,
            22.36
          ],
          [
            2.867544,
            42.773117,
            22.09
          ],
          [
            2.868221,
            42.772887,
            21.71
          ],
          [
            2.868739,
            42.772595,
            20.7
          ],
          [
            2.869174,
            42.772492,
            18.69
          ],
          [
            2.869421,
            42.77237,
            17.62
          ],
          [
            2.869802,
            42.772063,
            19.85
          ],
          [
            2.87037,
            42.771766,
            20.93
          ],
          [
            2.870745,
            42.771592,
            20.43
          ],
          [
            2.871659,
            42.771396,
            19.47
          ],
          [
            2.871847,
            42.77138,
            19.08
          ],
          [
            2.872099,
            42.771421,
            19.15
          ],
          [
            2.873049,
            42.771713,
            19.24
          ],
          [
            2.872737,
            42.771519,
            20.9
          ],
          [
            2.872689,
            42.771482,
            21.15
          ],
          [
            2.872652,
            42.771366,
            21.53
          ],
          [
            2.872307,
            42.771203,
            21.84
          ],
          [
            2.872246,
            42.771185,
            21.98
          ]
        ]
      }
    },
    {
      "type": "Feature",
      "properties": {
        "source": "Espira-de-lAgly.gpx",
        "type": "route"
      },
      "geometry": {
        "type": "LineString",
        "coordinates": [
          [
            2.835496,
            42.778501
          ],
          [
            2.835498,
            42.778506
          ],
          [
            2.83531,
            42.778495
          ],
          [
            2.835845,
            42.780018
          ],
          [
            2.835345,
            42.780132
          ],
          [
            2.835565,
            42.780478
          ],
          [
            2.835565,
            42.780478
          ],
          [
            2.835345,
            42.780132
          ],
          [
            2.835845,
            42.780018
          ],
          [
            2.83531,
            42.778495
          ],
          [
            2.835498,
            42.778506
          ],
          [
            2.835357,
            42.7781
          ],
          [
            2.83566,
            42.777952
          ],
          [
            2.836009,
            42.777832
          ],
          [
            2.835982,
            42.777791
          ],
          [
            2.841496,
            42.773157
          ],
          [
            2.841549,
            42.77304
          ],
          [
            2.84169,
            42.772921
          ],
          [
            2.848844,
            42.771728
          ],
          [
            2.848827,
            42.771843
          ],
          [
            2.865972,
            42.773915
          ],
          [
            2.867247,
            42.773277
          ],
          [
            2.873049,
            42.771713
          ],
          [
            2.872652,
            42.771366
          ],
          [
            2.872246,
            42.771185
          ]
        ]
      }
    }
  ]
}