{
  "type": "FeatureCollection",
  "features": [
    {
      "type": "Feature",
      "properties": {
        "name": "GraphHopper Track",
        "source": "Vallée_du_Trapel.gpx",
        "type": "track"
      },
      "geometry": {
        "type": "LineString",
        "coordinates": [
          [
            2.310585,
            43.299047,
            195.57
          ],
          [
            2.311463,
            43.298555,
            194.67
          ],
          [
            2.311568,
            43.298461,
            194.81
          ],
          [
            2.311631,
            43.298359,
            194.81
          ],
          [
            2.311665,
            43.298184,
            194.56
          ],
          [
            2.311996,
            43.298139,
            196.59
          ],
          [
            2.312116,
            43.298134,
            196.9
          ],
          [
            2.312216,
            43.298142,
            197.34
          ],
          [
            2.312343,
            43.298176,
            198.18
          ],
          [
            2.312823,
            43.298404,
            202.15
          ],
          [
            2.312917,
            43.298482,
            203.49
          ],
          [
            2.312967,
            43.298562,
            204.89
          ],
          [
            2.312937,
            43.298658,
            206.69
          ],
          [
            2.312887,
            43.298707,
            207.6
          ],
          [
            2.31285,
            43.298887,
            212.82
          ],
          [
            2.313081,
            43.299089,
            219.63
          ],
          [
            2.313498,
            43.299233,
            227.13
          ],
          [
            2.313807,
            43.299394,
            232.27
          ],
          [
            2.313914,
            43.299548,
            235.36
          ],
          [
            2.31403,
            43.299619,
            236.01
          ],
          [
            2.314101,
            43.299685,
            236.5
          ],
          [
            2.314375,
            43.299642,
            236.96
          ],
          [
            2.314617,
            43.299698,
            233.66
          ],
          [
            2.314657,
            43.299748,
            232.49
          ],
          [
            2.314601,
            43.300159,
            224.58
          ],
          [
            2.314736,
            43.300421,
            219.68
          ],
          [
            2.314725,
            43.300483,
            218.65
          ],
          [
            2.314587,
            43.300711,
            214.88
          ],
          [
            2.314477,
            43.301256,
            209.35
          ],
          [
            2.314091,
            43.301793,
            207.76
          ],
          [
            2.314077,
            43.3019,
            205.85
          ],
          [
            2.31408,
            43.301985,
            205.95
          ],
          [
            2.313731,
            43.302169,
            208.84
          ],
          [
            2.313515,
            43.302349,
            211.32
          ],
          [
            2.313267,
            43.302615,
            214.73
          ],
          [
            2.313158,
            43.302903,
            219.02
          ],
          [
            2.313203,
            43.303161,
            222.71
          ],
          [
            2.313296,
            43.303285,
            224.25
          ],
          [
            2.313276,
            43.303413,
            225.65
          ],
          [
            2.313182,
            43.303485,
            226.32
          ],
          [
            2.313165,
            43.303579,
            226.81
          ],
          [
            2.313293,
            43.303683,
            227.52
          ],
          [
            2.313628,
            43.303908,
            228.63
          ],
          [
            2.3138,
            43.30393,
            228.97
          ],
          [
            2.313963,
            43.303994,
            229.17
          ],
          [
            2.314103,
            43.304138,
            229.29
          ],
          [
            2.314315,
            43.304519,
            230.12
          ],
          [
            2.314351,
            43.304668,
            231.16
          ],
          [
            2.314351,
            43.304747,
            232.27
          ],
          [
            2.314341,
            43.304783,
            232.84
          ],
          [
            2.314364,
            43.304853,
            233.25
          ],
          [
            2.314606,
            43.30563,
            237.74
          ],
          [
            2.314612,
            43.305715,
            238.16
          ],
          [
            2.314571,
            43.305758,
            238.4
          ],
          [
            2.314414,
            43.305852,
            239.04
          ],
          [
            2.314291,
            43.30609,
            239.73
          ],
          [
            2.314242,
            43.306211,
            239.9
          ],
          [
            2.314213,
            43.306322,
            239.98
          ],
          [
            2.314105,
            43.306426,
            240.12
          ],
          [
            2.313965,
            43.306658,
            239.67
          ],
          [
            2.313883,
            43.306837,
            238.58
          ],
          [
            2.313871,
            43.306975,
            238.07
          ],
          [
            2.313734,
            43.307035,
            238.74
          ],
          [
            2.313607,
            43.307077,
            239.15
          ],
          [
            2.313607,
            43.307077,
            239.15
          ],
          [
            2.313734,
            43.307035,
            238.74
          ],
          [
            2.313871,
            43.306975,
            238.07
          ],
          [
            2.313883,
            43.306837,
            238.58
          ],
          [
            2.313965,
            43.306658,
            239.67
          ],
          [
            2.314105,
            43.306426,
            240.12
          ],
          [
            2.314213,
            43.306322,
            239.98
          ],
          [
            2.314242,
            43.306211,
            239.9
          ],
          [
            2.314291,
            43.30609,
            239.73
          ],
          [
            2.314414,
            43.305852,
            239.04
          ],
          [
            2.314571,
            43.305758,
            238.4
          ],
          [
            2.314612,
            43.305715,
            238.16
          ],
          [
            2.314606,
            43.30563,
            237.74
          ],
          [
            2.314341,
            43.304783,
            232.84
          ],
          [
            2.314351,
            43.304747,
            232.27
          ],
          [
            2.314786,
            43.304765,
            229.44
          ],
          [
            2.314762,
            43.30456,
            227.86
          ],
          [
            2.314816,
            43.304054,
            224.12
          ],
          [
            2.314789,
            43.303819,
            222.51
          ],
          [
            2.314365,
            43.3027,
            214.72
          ],
          [
            2.31408,
            43.301985,
            205.95
          ],
          [
            2.314077,
            43.3019,
            205.85
          ],
          [
            2.314091,
            43.301793,
            207.76
          ],
          [
            2.314477,
            43.301256,
            209.35
          ],
          [
            2.314587,
            43.300711,
            214.88
          ],
          [
            2.314725,
            43.300483,
            218.65
          ],
          [
            2.314736,
            43.300421,
            219.68
          ],
          [
            2.314601,
            43.300159,
            224.58
          ],
          [
            2.314657,
            43.299748,
            232.49
          ],
          [
            2.314617,
            43.299698,
            233.66
          ],
          [
            2.314375,
            43.299642,
            236.96
          ],
          [
            2.314101,
            43.299685,
            236.5
          ],
          [
            2.31403,
            43.299619,
            236.01
          ],
          [
            2.313914,
            43.299548,
            235.36
          ],
          [
            2.313807,
            43.299394,
            232.27
          ],
          [
            2.313498,
            43.299233,
            227.13
          ],
          [
            2.313081,
            43.299089,
            219.63
          ],
          [
            2.31285,
            43.298887,
            212.82
          ],
          [
            2.312887,
            43.298707,
            207.6
          ],
          [
            2.312937,
            43.298658,
            206.69
          ],
          [
            2.312967,
            43.298562,
            204.89
          ],
          [
            2.312917,
            43.298482,
            203.49
          ],
          [
            2.312823,
            43.298404,
            202.15
          ],
          [
            2.312343,
            43.298176,
            198.18
          ],
          [
            2.312216,
            43.298142,
            197.34
          ],
          [
            2.312116,
            43.298134,
            196.9
          ],
          [
            2.311996,
            43.298139,
            196.59
          ],
          [
            2.311665,
            43.298184,
            194.56
          ],
          [
            2.311631,
            43.298359,
            194.81
          ],
          [
            2.311568,
            43.298461,
            194.81
          ],
          [
            2.311463,
            43.298555,
            194.67
          ],
          [
            2.310585,
            43.299047,
            195.57
          ]
        ]
      }
    },
    {
      "type": "Feature",
      "properties": {
        "source": "Vallée_du_Trapel.gpx",
        "type": "route"
      },
      "geometry": {
        "type": "LineString",
        "coordinates": [
          [
            2.310585,
            43.299047
          ],
          [
            2.311665,
            43.298184
          ],
          [
            2.312967,
            43.298562
          ],
          [
            2.312887,
            43.298707
          ],
          [
            2.313914,
            43.299548
          ],
          [
            2.314101,
            43.299685
          ],
          [
            2.314375,
            43.299642
          ],
          [
            2.314091,
            43.301793
          ],
          [
            2.314077,
            43.3019
          ],
          [
            2.31408,
            43.301985
          ],
          [
            2.314364,
            43.304853
          ],
          [
            2.313607,
            43.307077
          ],
          [
            2.313607,
            43.307077
          ],
          [
            2.314351,
            43.304747
          ],
          [
            2.314077,
            43.3019
          ],
          [
            2.314101,
            43.299685
          ],
          [
            2.313914,
            43.299548
          ],
          [
            2.312967,
            43.298562
          ],
          [
            2.311665,
            43.298184
          ],
          [
            2.310585,
            43.299047
          ]
        ]
      }
    }
  ]
}