{
  "type": "FeatureCollection",
  "features": [
    {
      "type": "Feature",
      "properties": {
        "name": "GraphHopper Track",
        "source": "Pech_de_Porté.gpx",
        "type": "track"
      },
      "geometry": {
        "type": "LineString",
        "coordinates": [
          [
            1.821356,
            42.548536,
            1678.52
          ],
          [
            1.821407,
            42.548646,
            1678.69
          ],
          [
            1.821436,
            42.548757,
            1679.08
          ],
          [
            1.821401,
            42.548877,
            1679.33
          ],
          [
            1.821417,
            42.54898,
            1679.38
          ],
          [
            1.821453,
            42.549042,
            1679.53
          ],
          [
            1.821459,
            42.549177,
            1680.36
          ],
          [
            1.821498,
            42.549301,
            1682.12
          ],
          [
            1.821502,
            42.549361,
            1682.91
          ],
          [
            1.82154,
            42.549473,
            1683.47
          ],
          [
            1.821879,
            42.549299,
            1675.46
          ],
          [
            1.822146,
            42.549148,
            1669.34
          ],
          [
            1.822527,
            42.548867,
            1659.73
          ],
          [
            1.822944,
            42.548541,
            1649.2
          ],
          [
            1.823344,
            42.548188,
            1638.82
          ],
          [
            1.823592,
            42.548008,
            1633.71
          ],
          [
            1.823664,
            42.547968,
            1632.48
          ],
          [
            1.82381,
            42.547939,
            1630.53
          ],
          [
            1.824152,
            42.547838,
            1626.21
          ],
          [
            1.824968,
            42.54771,
            1620.06
          ],
          [
            1.825098,
            42.547734,
            1621.3
          ],
          [
            1.825332,
            42.547725,
            1623.46
          ],
          [
            1.825496,
            42.547756,
            1624.92
          ],
          [
            1.825836,
            42.547901,
            1625.73
          ],
          [
            1.826024,
            42.547994,
            1625.83
          ],
          [
            1.826152,
            42.548118,
            1625.87
          ],
          [
            1.826477,
            42.548592,
            1625.92
          ],
          [
            1.826555,
            42.548658,
            1625.9
          ],
          [
            1.826648,
            42.548693,
            1625.86
          ],
          [
            1.826758,
            42.548715,
            1625.78
          ],
          [
            1.827072,
            42.548687,
            1624.26
          ],
          [
            1.827185,
            42.548661,
            1623.41
          ],
          [
            1.827347,
            42.54861,
            1621.65
          ],
          [
            1.82737,
            42.548595,
            1621.44
          ],
          [
            1.827406,
            42.548621,
            1621.62
          ],
          [
            1.827464,
            42.548626,
            1621.69
          ],
          [
            1.827604,
            42.548702,
            1622.05
          ],
          [
            1.827749,
            42.548752,
            1622.07
          ],
          [
            1.828093,
            42.548813,
            1623.7
          ],
          [
            1.828106,
            42.548785,
            1623.14
          ],
          [
            1.828221,
            42.548725,
            1622.56
          ],
          [
            1.829125,
            42.548545,
            1621.1
          ],
          [
            1.829716,
            42.548443,
            1622.14
          ],
          [
            1.829824,
            42.548403,
            1621.94
          ],
          [
            1.829991,
            42.548328,
            1621.32
          ],
          [
            1.830497,
            42.548174,
            1621.56
          ],
          [
            1.830554,
            42.548169,
            1621.48
          ],
          [
            1.830568,
            42.548051,
            1618.93
          ],
          [
            1.830699,
            42.548007,
            1617.42
          ],
          [
            1.830942,
            42.548026,
            1616.2
          ],
          [
            1.830998,
            42.548023,
            1615.84
          ],
          [
            1.831028,
            42.547991,
            1615.23
          ],
          [
            1.831138,
            42.547961,
            1614.63
          ],
          [
            1.831171,
            42.547932,
            1614.49
          ],
          [
            1.831171,
            42.54789,
            1614.44
          ],
          [
            1.831599,
            42.547814,
            1614.3
          ],
          [
            1.832017,
            42.547651,
            1614.15
          ],
          [
            1.83214,
            42.54766,
            1614.1
          ],
          [
            1.832236,
            42.547608,
            1613.76
          ],
          [
            1.832309,
            42.547527,
            1613.15
          ],
          [
            1.832385,
            42.547495,
            1612.97
          ],
          [
            1.832416,
            42.547454,
            1612.9
          ],
          [
            1.832448,
            42.547375,
            1613.03
          ],
          [
            1.832604,
            42.547271,
            1613.47
          ],
          [
            1.832761,
            42.547238,
            1613.44
          ],
          [
            1.832894,
            42.547224,
            1613.25
          ],
          [
            1.833181,
            42.547261,
            1612.51
          ],
          [
            1.833562,
            42.547331,
            1611.4
          ],
          [
            1.833693,
            42.547343,
            1610.66
          ],
          [
            1.833868,
            42.547317,
            1609.65
          ],
          [
            1.833914,
            42.547298,
            1609.54
          ],
          [
            1.833951,
            42.547284,
            1609.45
          ],
          [
            1.834299,
            42.547074,
            1609.53
          ],
          [
            1.834405,
            42.547029,
            1609.6
          ],
          [
            1.834589,
            42.54699,
            1609.94
          ],
          [
            1.834654,
            42.546946,
            1609.58
          ],
          [
            1.834912,
            42.54636,
            1610.0
          ],
          [
            1.835041,
            42.546229,
            1610.0
          ],
          [
            1.835151,
            42.546172,
            1610.0
          ],
          [
            1.835102,
            42.545825,
            1609.65
          ],
          [
            1.835046,
            42.545619,
            1609.96
          ],
          [
            1.834936,
            42.545531,
            1610.04
          ],
          [
            1.834862,
            42.545508,
            1610.12
          ],
          [
            1.834271,
            42.545492,
            1611.3
          ],
          [
            1.833918,
            42.545433,
            1613.0
          ],
          [
            1.833586,
            42.545419,
            1615.51
          ],
          [
            1.833247,
            42.545338,
            1619.47
          ],
          [
            1.833034,
            42.545276,
            1622.37
          ],
          [
            1.832646,
            42.54513,
            1628.72
          ],
          [
            1.83241,
            42.545034,
            1632.93
          ],
          [
            1.83209,
            42.544986,
            1638.0
          ],
          [
            1.831099,
            42.544688,
            1653.82
          ],
          [
            1.830879,
            42.544551,
            1657.86
          ],
          [
            1.830817,
            42.544389,
            1660.81
          ],
          [
            1.830773,
            42.544324,
            1662.01
          ],
          [
            1.830545,
            42.544144,
            1665.72
          ],
          [
            1.830402,
            42.543726,
            1673.45
          ],
          [
            1.830239,
            42.543565,
            1678.29
          ],
          [
            1.830142,
            42.543447,
            1681.79
          ],
          [
            1.830256,
            42.543343,
            1685.34
          ],
          [
            1.83021,
            42.543266,
            1687.61
          ],
          [
            1.830074,
            42.543133,
            1692.41
          ],
          [
            1.830091,
            42.543078,
            1694.22
          ],
          [
            1.83033,
            42.543056,
            1700.21
          ],
          [
            1.83079,
            42.543029,
            1710.28
          ],
          [
            1.830849,
            42.542993,
            1711.67
          ],
          [
            1.830801,
            42.542941,
            1713.11
          ],
          [
            1.8306,
            42.542864,
            1716.58
          ],
          [
            1.830384,
            42.542793,
            1719.99
          ],
          [
            1.830315,
            42.54273,
            1721.66
          ],
          [
            1.830317,
            42.54261,
            1724.32
          ],
          [
            1.830619,
            42.54225,
            1733.76
          ],
          [
            1.830809,
            42.542149,
            1738.37
          ],
          [
            1.830932,
            42.542074,
            1741.8
          ],
          [
            1.830962,
            42.542109,
            1743.08
          ],
          [
            1.831002,
            42.542246,
            1747.43
          ],
          [
            1.831085,
            42.542275,
            1749.62
          ],
          [
            1.831338,
            42.542261,
            1755.89
          ],
          [
            1.831571,
            42.542169,
            1761.76
          ],
          [
            1.831572,
            42.542115,
            1763.19
          ],
          [
            1.831533,
            42.541987,
            1766.36
          ],
          [
            1.831573,
            42.541912,
            1768.19
          ],
          [
            1.83172,
            42.541765,
            1771.97
          ],
          [
            1.83193,
            42.541342,
            1779.74
          ],
          [
            1.832063,
            42.541214,
            1782.38
          ],
          [
            1.832146,
            42.540934,
            1787.18
          ],
          [
            1.832271,
            42.540783,
            1790.51
          ],
          [
            1.832336,
            42.540539,
            1795.5
          ],
          [
            1.832535,
            42.540257,
            1801.48
          ],
          [
            1.832789,
            42.539938,
            1807.87
          ],
          [
            1.832867,
            42.539779,
            1811.2
          ],
          [
            1.832901,
            42.539578,
            1816.16
          ],
          [
            1.832826,
            42.539062,
            1832.96
          ],
          [
            1.832855,
            42.538909,
            1838.67
          ],
          [
            1.832917,
            42.538831,
            1842.17
          ],
          [
            1.833129,
            42.538833,
            1848.3
          ],
          [
            1.833169,
            42.538811,
            1849.72
          ],
          [
            1.833124,
            42.538626,
            1856.53
          ],
          [
            1.833063,
            42.538292,
            1866.06
          ],
          [
            1.832982,
            42.538214,
            1868.12
          ],
          [
            1.832929,
            42.538033,
            1871.31
          ],
          [
            1.832905,
            42.537875,
            1873.37
          ],
          [
            1.832857,
            42.537761,
            1874.34
          ],
          [
            1.832847,
            42.537612,
            1875.04
          ],
          [
            1.832755,
            42.537425,
            1875.65
          ],
          [
            1.832671,
            42.537162,
            1875.55
          ],
          [
            1.832658,
            42.537021,
            1875.49
          ],
          [
            1.832615,
            42.53684,
            1875.82
          ],
          [
            1.832538,
            42.53669,
            1876.32
          ],
          [
            1.832529,
            42.536326,
            1878.21
          ],
          [
            1.832529,
            42.536326,
            1878.21
          ],
          [
            1.832538,
            42.53669,
            1876.32
          ],
          [
            1.832615,
            42.53684,
            1875.82
          ],
          [
            1.832658,
            42.537021,
            1875.49
          ],
          [
            1.832671,
            42.537162,
            1875.55
          ],
          [
            1.832755,
            42.537425,
            1875.65
          ],
          [
            1.832847,
            42.537612,
            1875.04
          ],
          [
            1.832857,
            42.537761,
            1874.34
          ],
          [
            1.832905,
            42.537875,
            1873.37
          ],
          [
            1.832929,
            42.538033,
            1871.31
          ],
          [
            1.832982,
            42.538214,
            1868.12
          ],
          [
            1.833063,
            42.538292,
            1866.06
          ],
          [
            1.833124,
            42.538626,
            1856.53
          ],
          [
            1.833169,
            42.538811,
            1849.72
          ],
          [
            1.833129,
            42.538833,
            1848.3
          ],
          [
            1.832917,
            42.538831,
            1842.17
          ],
          [
            1.832855,
            42.538909,
            1838.67
          ],
          [
            1.832826,
            42.539062,
            1832.96
          ],
          [
            1.832901,
            42.539578,
            1816.16
          ],
          [
            1.832867,
            42.539779,
            1811.2
          ],
          [
            1.832789,
            42.539938,
            1807.87
          ],
          [
            1.832535,
            42.540257,
            1801.48
          ],
          [
            1.832336,
            42.540539,
            1795.5
          ],
          [
            1.832271,
            42.540783,
            1790.51
          ],
          [
            1.832146,
            42.540934,
            1787.18
          ],
          [
            1.832063,
            42.541214,
            1782.38
          ],
          [
            1.83193,
            42.541342,
            1779.74
          ],
          [
            1.83172,
            42.541765,
            1771.97
          ],
          [
            1.831573,
            42.541912,
            1768.19
          ],
          [
            1.831533,
            42.541987,
            1766.36
          ],
          [
            1.831572,
            42.542115,
            1763.19
          ],
          [
            1.831571,
            42.542169,
            1761.76
          ],
          [
            1.831338,
            42.542261,
            1755.89
          ],
          [
            1.831085,
            42.542275,
            1749.62
          ],
          [
            1.831002,
            42.542246,
            1747.43
          ],
          [
            1.830962,
            42.542109,
            1743.08
          ],
          [
            1.830932,
            42.542074,
            1741.8
          ],
          [
            1.830809,
            42.542149,
            1738.37
          ],
          [
            1.830619,
            42.54225,
            1733.76
          ],
          [
            1.830317,
            42.54261,
            1724.32
          ],
          [
            1.830315,
            42.54273,
            1721.66
          ],
          [
            1.830384,
            42.542793,
            1719.99
          ],
          [
            1.8306,
            42.542864,
            1716.58
          ],
          [
            1.830801,
            42.542941,
            1713.11
          ],
          [
            1.830849,
            42.542993,
            1711.67
          ],
          [
            1.83079,
            42.543029,
            1710.28
          ],
          [
            1.83033,
            42.543056,
            1700.21
          ],
          [
            1.830091,
            42.543078,
            1694.22
          ],
          [
            1.830074,
            42.543133,
            1692.41
          ],
          [
            1.83021,
            42.543266,
            1687.61
          ],
          [
            1.830256,
            42.543343,
            1685.34
          ],
          [
            1.830142,
            42.543447,
            1681.79
          ],
          [
            1.830239,
            42.543565,
            1678.29
          ],
          [
            1.830402,
            42.543726,
            1673.45
          ],
          [
            1.830545,
            42.544144,
            1665.72
          ],
          [
            1.830773,
            42.544324,
            1662.01
          ],
          [
            1.830817,
            42.544389,
            1660.81
          ],
          [
            1.830879,
            42.544551,
            1657.86
          ],
          [
            1.831099,
            42.544688,
            1653.82
          ],
          [
            1.83209,
            42.544986,
            1638.0
          ],
          [
            1.83241,
            42.545034,
            1632.93
          ],
          [
            1.832646,
            42.54513,
            1628.72
          ],
          [
            1.833034,
            42.545276,
            1622.37
          ],
          [
            1.833247,
            42.545338,
            1619.47
          ],
          [
            1.833586,
            42.545419,
            1615.51
          ],
          [
            1.833918,
            42.545433,
            1613.0
          ],
          [
            1.834271,
            42.545492,
            1611.3
          ],
          [
            1.834862,
            42.545508,
            1610.12
          ],
          [
            1.834936,
            42.545531,
            1610.04
          ],
          [
            1.835046,
            42.545619,
            1609.96
          ],
          [
            1.835102,
            42.545825,
            1609.65
          ],
          [
            1.835151,
            42.546172,
            1610.0
          ],
          [
            1.835041,
            42.546229,
            1610.0
          ],
          [
            1.834912,
            42.54636,
            1610.0
          ],
          [
            1.834654,
            42.546946,
            1609.58
          ],
          [
            1.834589,
            42.54699,
            1609.94
          ],
          [
            1.834405,
            42.547029,
            1609.6
          ],
          [
            1.834299,
            42.547074,
            1609.53
          ],
          [
            1.833951,
            42.547284,
            1609.45
          ],
          [
            1.833868,
            42.547317,
            1609.65
          ],
          [
            1.833693,
            42.547343,
            1610.66
          ],
          [
            1.833562,
            42.547331,
            1611.4
          ],
          [
            1.833181,
            42.547261,
            1612.51
          ],
          [
            1.832894,
            42.547224,
            1613.25
          ],
          [
            1.832761,
            42.547238,
            1613.44
          ],
          [
            1.832604,
            42.547271,
            1613.47
          ],
          [
            1.832448,
            42.547375,
            1613.03
          ],
          [
            1.832416,
            42.547454,
            1612.9
          ],
          [
            1.832385,
            42.547495,
            1612.97
          ],
          [
            1.832309,
            42.547527,
            1613.15
          ],
          [
            1.832236,
            42.547608,
            1613.76
          ],
          [
            1.83214,
            42.54766,
            1614.1
          ],
          [
            1.832017,
            42.547651,
            1614.15
          ],
          [
            1.831599,
            42.547814,
            1614.3
          ],
          [
            1.831171,
            42.54789,
            1614.44
          ],
          [
            1.831171,
            42.547932,
            1614.49
          ],
          [
            1.831138,
            42.547961,
            1614.63
          ],
          [
            1.831028,
            42.547991,
            1615.23
          ],
          [
            1.830998,
            42.548023,
            1615.84
          ],
          [
            1.830942,
            42.548026,
            1616.2
          ],
          [
            1.830699,
            42.548007,
            1617.42
          ],
          [
            1.830568,
            42.548051,
            1618.93
          ],
          [
            1.830554,
            42.548169,
            1621.48
          ],
          [
            1.830497,
            42.548174,
            1621.56
          ],
          [
            1.829991,
            42.548328,
            1621.32
          ],
          [
            1.829824,
            42.548403,
            1621.94
          ],
          [
            1.829716,
            42.548443,
            1622.14
          ],
          [
            1.829125,
            42.548545,
            1621.1
          ],
          [
            1.828221,
            42.548725,
            1622.56
          ],
          [
            1.828106,
            42.548785,
            1623.14
          ],
          [
            1.828093,
            42.548813,
            1623.7
          ],
          [
            1.827749,
            42.548752,
            1622.07
          ],
          [
            1.827604,
            42.548702,
            1622.05
          ],
          [
            1.827464,
            42.548626,
            1621.69
          ],
          [
            1.827406,
            42.548621,
            1621.62
          ],
          [
            1.82737,
            42.548595,
            1621.44
          ],
          [
            1.827347,
            42.54861,
            1621.65
          ],
          [
            1.827185,
            42.548661,
            1623.41
          ],
          [
            1.827072,
            42.548687,
            1624.26
          ],
          [
            1.826938,
            42.548704,
            1625.1
          ],
          [
            1.826897,
            42.548801,
            1625.98
          ],
          [
            1.826821,
            42.548891,
            1627.06
          ],
          [
            1.82672,
            42.54893,
            1627.94
          ],
          [
            1.826533,
            42.548962,
            1629.72
          ],
          [
            1.825974,
            42.549,
            1635.54
          ],
          [
            1.825716,
            42.548998,
            1638.25
          ],
          [
            1.825288,
            42.548957,
            1642.84
          ],
          [
            1.825067,
            42.548947,
            1645.1
          ],
          [
            1.824915,
            42.548986,
            1647.59
          ],
          [
            1.824657,
            42.548972,
            1651.0
          ],
          [
            1.824523,
            42.548986,
            1652.89
          ],
          [
            1.824146,
            42.549088,
            1659.55
          ],
          [
            1.824026,
            42.549146,
            1661.91
          ],
          [
            1.823893,
            42.549261,
            1665.4
          ],
          [
            1.8238,
            42.549293,
            1667.21
          ],
          [
            1.823695,
            42.549368,
            1669.89
          ],
          [
            1.823577,
            42.549479,
            1673.48
          ],
          [
            1.823445,
            42.549551,
            1676.67
          ],
          [
            1.823346,
            42.549618,
            1679.4
          ],
          [
            1.823311,
            42.549701,
            1681.66
          ],
          [
            1.823303,
            42.549888,
            1686.86
          ],
          [
            1.82331,
            42.549971,
            1689.38
          ],
          [
            1.823287,
            42.550027,
            1690.97
          ],
          [
            1.823163,
            42.550085,
            1691.35
          ],
          [
            1.822811,
            42.550145,
            1694.59
          ],
          [
            1.822698,
            42.550141,
            1694.85
          ],
          [
            1.822636,
            42.550126,
            1694.25
          ],
          [
            1.822587,
            42.550087,
            1693.51
          ],
          [
            1.822509,
            42.55006,
            1692.54
          ],
          [
            1.822378,
            42.550061,
            1690.95
          ],
          [
            1.82194,
            42.550094,
            1688.43
          ],
          [
            1.82172,
            42.550126,
            1687.22
          ],
          [
            1.821609,
            42.550114,
            1686.61
          ],
          [
            1.821534,
            42.550062,
            1685.98
          ],
          [
            1.821508,
            42.550014,
            1685.65
          ],
          [
            1.821502,
            42.549858,
            1685.41
          ],
          [
            1.821544,
            42.549546,
            1684.02
          ],
          [
            1.82154,
            42.549473,
            1683.47
          ],
          [
            1.821502,
            42.549361,
            1682.91
          ],
          [
            1.821498,
            42.549301,
            1682.12
          ],
          [
            1.821459,
            42.549177,
            1680.36
          ],
          [
            1.821453,
            42.549042,
            1679.53
          ],
          [
            1.821417,
            42.54898,
            1679.38
          ],
          [
            1.821401,
            42.548877,
            1679.33
          ],
          [
            1.821436,
            42.548757,
            1679.08
          ],
          [
            1.821407,
            42.548646,
            1678.69
          ],
          [
            1.821356,
            42.548536,
            1678.52
          ]
        ]
      }
    },
    {
      "type": "Feature",
      "properties": {
        "source": "Pech_de_Porté.gpx",
        "type": "route"
      },
      "geometry": {
        "type": "LineString",
        "coordinates": [
          [
            1.821356,
            42.548536
          ],
          [
            1.82154,
            42.549473
          ],
          [
            1.824968,
            42.54771
          ],
          [
            1.82737,
            42.548595
          ],
          [
            1.827464,
            42.548626
          ],
          [
            1.828093,
            42.548813
          ],
          [
            1.830554,
            42.548169
          ],
          [
            1.830568,
            42.548051
          ],
          [
            1.830998,
            42.548023
          ],
          [
            1.833914,
            42.547298
          ],
          [
            1.835151,
            42.546172
          ],
          [
            1.832529,
            42.536326
          ],
          [
            1.832529,
            42.536326
          ],
          [
            1.835151,
            42.546172
          ],
          [
            1.832017,
            42.547651
          ],
          [
            1.830998,
            42.548023
          ],
          [
            1.830568,
            42.548051
          ],
          [
            1.830554,
            42.548169
          ],
          [
            1.828093,
            42.548813
          ],
          [
            1.827749,
            42.548752
          ],
          [
            1.827464,
            42.548626
          ],
          [
            1.82737,
            42.548595
          ],
          [
            1.826938,
            42.548704
          ],
          [
            1.823287,
            42.550027
          ],
          [
            1.822811,
            42.550145
          ],
          [
            1.821356,
            42.548536
          ]
        ]
      }
    }
  ]
}