{
  "type": "FeatureCollection",
  "features": [
    {
      "type": "Feature",
      "properties": {
        "name": "GraphHopper Track",
        "source": "Bois_des_Mothes.gpx",
        "type": "track"
      },
      "geometry": {
        "type": "LineString",
        "coordinates": [
          [
            1.255391,
            44.15568,
            90.5
          ],
          [
            1.255726,
            44.155939,
            90.29
          ],
          [
            1.256775,
            44.156816,
            90.46
          ],
          [
            1.257766,
            44.157562,
            90.1
          ],
          [
            1.258868,
            44.158282,
            90.58
          ],
          [
            1.259283,
            44.158413,
            91.18
          ],
          [
            1.259394,
            44.158429,
            91.22
          ],
          [
            1.259394,
            44.158429,
            91.22
          ],
          [
            1.259283,
            44.158413,
            91.18
          ],
          [
            1.258868,
            44.158282,
            90.58
          ],
          [
            1.257766,
            44.157562,
            90.1
          ],
          [
            1.256775,
            44.156816,
            90.46
          ],
          [
            1.255726,
            44.155939,
            90.29
          ],
          [
            1.255391,
            44.15568,
            90.5
          ]
        ]
      }
    },
    {
      "type": "Feature",
      "properties": {
        "source": "Bois_des_Mothes.gpx",
        "type": "route"
      },
      "geometry": {
        "type": "LineString",
        "coordinates": [
          [
            1.255391,
            44.15568
          ],
          [
            1.259394,
            44.158429
          ],
          [
            1.259394,
            44.158429
          ],
          [
            1.255391,
            44.15568
          ]
        ]
      }
    }
  ]
}