{
  "type": "FeatureCollection",
  "features": [
    {
      "type": "Feature",
      "properties": {
        "name": "GraphHopper Track",
        "source": "Coteaux_et_Vallons.gpx",
        "type": "track"
      },
      "geometry": {
        "type": "LineString",
        "coordinates": [
          [
            1.241696,
            44.128477,
            184.34
          ],
          [
            1.241799,
            44.128846,
            184.81
          ],
          [
            1.241859,
            44.129181,
            185.89
          ],
          [
            1.242015,
            44.12964,
            191.06
          ],
          [
            1.242112,
            44.129877,
            192.14
          ],
          [
            1.242126,
            44.130004,
            192.76
          ],
          [
            1.242112,
            44.130447,
            194.05
          ],
          [
            1.242,
            44.130778,
            193.06
          ],
          [
            1.241804,
            44.131449,
            189.81
          ],
          [
            1.241872,
            44.131551,
            188.73
          ],
          [
            1.241831,
            44.131675,
            186.9
          ],
          [
            1.241474,
            44.132,
            183.78
          ],
          [
            1.241426,
            44.131997,
            183.6
          ],
          [
            1.241257,
            44.131957,
            183.7
          ],
          [
            1.24108,
            44.1324,
            181.49
          ],
          [
            1.24102,
            44.13246,
            181.41
          ],
          [
            1.241053,
            44.132503,
            181.15
          ],
          [
            1.241051,
            44.132528,
            181.08
          ],
          [
            1.241013,
            44.13257,
            180.96
          ],
          [
            1.240982,
            44.132581,
            180.95
          ],
          [
            1.240947,
            44.132584,
            180.97
          ],
          [
            1.240933,
            44.132737,
            180.26
          ],
          [
            1.240592,
            44.133593,
            178.38
          ],
          [
            1.240558,
            44.133774,
            178.02
          ],
          [
            1.240495,
            44.133778,
            178.09
          ],
          [
            1.240422,
            44.133821,
            178.45
          ],
          [
            1.240382,
            44.133865,
            178.67
          ],
          [
            1.239525,
            44.135102,
            181.95
          ],
          [
            1.23906,
            44.135724,
            181.8
          ],
          [
            1.238357,
            44.136334,
            180.84
          ],
          [
            1.238049,
            44.136737,
            179.9
          ],
          [
            1.237773,
            44.137124,
            175.99
          ],
          [
            1.237607,
            44.137475,
            171.99
          ],
          [
            1.237255,
            44.138753,
            161.1
          ],
          [
            1.237295,
            44.138819,
            160.84
          ],
          [
            1.23723,
            44.139093,
            160.24
          ],
          [
            1.237307,
            44.139579,
            158.55
          ],
          [
            1.237384,
            44.140192,
            155.51
          ],
          [
            1.23758,
            44.142223,
            142.75
          ],
          [
            1.237938,
            44.144167,
            128.49
          ],
          [
            1.237949,
            44.144424,
            126.68
          ],
          [
            1.237783,
            44.145208,
            119.08
          ],
          [
            1.237812,
            44.145997,
            109.61
          ],
          [
            1.237366,
            44.145985,
            108.17
          ],
          [
            1.236457,
            44.145845,
            105.07
          ],
          [
            1.235505,
            44.145776,
            101.8
          ],
          [
            1.235505,
            44.145776,
            101.8
          ],
          [
            1.236457,
            44.145845,
            105.07
          ],
          [
            1.237366,
            44.145985,
            108.17
          ],
          [
            1.237812,
            44.145997,
            109.61
          ],
          [
            1.237783,
            44.145208,
            119.08
          ],
          [
            1.237949,
            44.144424,
            126.68
          ],
          [
            1.237938,
            44.144167,
            128.49
          ],
          [
            1.23758,
            44.142223,
            142.75
          ],
          [
            1.237384,
            44.140192,
            155.51
          ],
          [
            1.237307,
            44.139579,
            158.55
          ],
          [
            1.23723,
            44.139093,
            160.24
          ],
          [
            1.237295,
            44.138819,
            160.84
          ],
          [
            1.237255,
            44.138753,
            161.1
          ],
          [
            1.237607,
            44.137475,
            171.99
          ],
          [
            1.237773,
            44.137124,
            175.99
          ],
          [
            1.238049,
            44.136737,
            179.9
          ],
          [
            1.238357,
            44.136334,
            180.84
          ],
          [
            1.23906,
            44.135724,
            181.8
          ],
          [
            1.239525,
            44.135102,
            181.95
          ],
          [
            1.240313,
            44.133965,
            179.0
          ],
          [
            1.240382,
            44.133865,
            178.67
          ],
          [
            1.240422,
            44.133821,
            178.45
          ],
          [
            1.240495,
            44.133778,
            178.09
          ],
          [
            1.240558,
            44.133774,
            178.02
          ],
          [
            1.240592,
            44.133593,
            178.38
          ],
          [
            1.240933,
            44.132737,
            180.26
          ],
          [
            1.240947,
            44.132584,
            180.97
          ],
          [
            1.240982,
            44.132581,
            180.95
          ],
          [
            1.241013,
            44.13257,
            180.96
          ],
          [
            1.241051,
            44.132528,
            181.08
          ],
          [
            1.241053,
            44.132503,
            181.15
          ],
          [
            1.24102,
            44.13246,
            181.41
          ],
          [
            1.24108,
            44.1324,
            181.49
          ],
          [
            1.24161,
            44.131079,
            189.58
          ],
          [
            1.24173,
            44.130672,
            191.58
          ],
          [
            1.24148,
            44.130629,
            190.36
          ],
          [
            1.2414,
            44.1306,
            189.95
          ],
          [
            1.241339,
            44.130557,
            189.76
          ],
          [
            1.241248,
            44.130454,
            189.63
          ],
          [
            1.24116,
            44.130173,
            189.48
          ],
          [
            1.240997,
            44.129568,
            189.24
          ],
          [
            1.240991,
            44.129511,
            189.14
          ],
          [
            1.240961,
            44.129438,
            189.0
          ],
          [
            1.240974,
            44.129436,
            189.07
          ],
          [
            1.240694,
            44.128819,
            190.11
          ],
          [
            1.240637,
            44.128766,
            190.55
          ],
          [
            1.240689,
            44.128729,
            190.85
          ],
          [
            1.240629,
            44.128655,
            190.98
          ],
          [
            1.240594,
            44.128595,
            190.99
          ],
          [
            1.240453,
            44.128214,
            191.0
          ],
          [
            1.240469,
            44.128151,
            191.0
          ],
          [
            1.240458,
            44.127861,
            190.12
          ],
          [
            1.240431,
            44.127845,
            190.01
          ],
          [
            1.240432,
            44.127662,
            189.51
          ],
          [
            1.240448,
            44.12764,
            189.34
          ],
          [
            1.240448,
            44.127619,
            189.16
          ],
          [
            1.240444,
            44.127215,
            187.0
          ],
          [
            1.240453,
            44.127103,
            186.81
          ],
          [
            1.240502,
            44.126792,
            185.0
          ],
          [
            1.240544,
            44.126714,
            185.0
          ],
          [
            1.240579,
            44.126474,
            185.09
          ],
          [
            1.24057,
            44.126384,
            185.62
          ],
          [
            1.240621,
            44.126103,
            186.68
          ],
          [
            1.24065,
            44.126023,
            186.93
          ],
          [
            1.240708,
            44.125948,
            187.0
          ],
          [
            1.240742,
            44.125923,
            187.0
          ],
          [
            1.240819,
            44.125897,
            187.0
          ],
          [
            1.240835,
            44.125869,
            186.99
          ],
          [
            1.240884,
            44.125841,
            186.93
          ],
          [
            1.240948,
            44.125838,
            186.98
          ],
          [
            1.240974,
            44.125846,
            187.0
          ],
          [
            1.241079,
            44.125632,
            187.44
          ],
          [
            1.24116,
            44.12554,
            188.0
          ],
          [
            1.241428,
            44.125321,
            188.24
          ]
        ]
      }
    },
    {
      "type": "Feature",
      "properties": {
        "source": "Coteaux_et_Vallons.gpx",
        "type": "route"
      },
      "geometry": {
        "type": "LineString",
        "coordinates": [
          [
            1.241696,
            44.128477
          ],
          [
            1.241257,
            44.131957
          ],
          [
            1.24102,
            44.13246
          ],
          [
            1.240558,
            44.133774
          ],
          [
            1.237255,
            44.138753
          ],
          [
            1.237812,
            44.145997
          ],
          [
            1.235505,
            44.145776
          ],
          [
            1.235505,
            44.145776
          ],
          [
            1.237812,
            44.145997
          ],
          [
            1.237255,
            44.138753
          ],
          [
            1.240313,
            44.133965
          ],
          [
            1.240558,
            44.133774
          ],
          [
            1.240947,
            44.132584
          ],
          [
            1.24173,
            44.130672
          ],
          [
            1.240961,
            44.129438
          ],
          [
            1.240637,
            44.128766
          ],
          [
            1.240689,
            44.128729
          ],
          [
            1.240819,
            44.125897
          ],
          [
            1.241428,
            44.125321
          ]
        ]
      }
    }
  ]
}