{
  "type": "FeatureCollection",
  "features": [
    {
      "type": "Feature",
      "properties": {
        "name": "GraphHopper Track",
        "source": "Vers_Montauban.gpx",
        "type": "track"
      },
      "geometry": {
        "type": "LineString",
        "coordinates": [
          [
            1.245272,
            44.121288,
            91.18
          ],
          [
            1.246033,
            44.120867,
            88.57
          ],
          [
            1.246703,
            44.120483,
            86.53
          ],
          [
            1.24693,
            44.120364,
            85.9
          ],
          [
            1.247624,
            44.120035,
            83.88
          ],
          [
            1.247884,
            44.119902,
            82.95
          ],
          [
            1.248099,
            44.119763,
            82.01
          ],
          [
            1.248188,
            44.119689,
            81.54
          ],
          [
            1.248327,
            44.119541,
            80.68
          ],
          [
            1.24839,
            44.119445,
            80.19
          ],
          [
            1.248464,
            44.11927,
            79.17
          ],
          [
            1.248487,
            44.119141,
            78.43
          ],
          [
            1.248496,
            44.119009,
            77.85
          ],
          [
            1.248491,
            44.118673,
            76.7
          ],
          [
            1.248477,
            44.118317,
            75.58
          ],
          [
            1.24846,
            44.118148,
            75.2
          ],
          [
            1.248457,
            44.11795,
            74.9
          ],
          [
            1.248496,
            44.117641,
            74.0
          ],
          [
            1.24855,
            44.117443,
            74.0
          ],
          [
            1.248689,
            44.117085,
            74.0
          ],
          [
            1.248865,
            44.116674,
            74.06
          ],
          [
            1.248937,
            44.116452,
            74.17
          ],
          [
            1.249002,
            44.116157,
            74.36
          ],
          [
            1.249032,
            44.115895,
            75.0
          ],
          [
            1.249035,
            44.115597,
            75.0
          ],
          [
            1.249008,
            44.115378,
            75.0
          ],
          [
            1.24895,
            44.115088,
            75.0
          ],
          [
            1.2488,
            44.114468,
            75.44
          ],
          [
            1.248758,
            44.114246,
            75.64
          ],
          [
            1.248754,
            44.114169,
            75.7
          ],
          [
            1.248775,
            44.114016,
            75.81
          ],
          [
            1.248835,
            44.11387,
            75.92
          ],
          [
            1.248932,
            44.113739,
            75.99
          ],
          [
            1.249055,
            44.113619,
            76.02
          ],
          [
            1.250298,
            44.112586,
            76.11
          ],
          [
            1.250445,
            44.11244,
            76.06
          ],
          [
            1.250609,
            44.112246,
            76.0
          ],
          [
            1.250807,
            44.111939,
            76.2
          ],
          [
            1.250903,
            44.111957,
            76.54
          ],
          [
            1.251051,
            44.11195,
            76.6
          ],
          [
            1.25123,
            44.111912,
            76.34
          ],
          [
            1.251378,
            44.111862,
            76.25
          ],
          [
            1.251517,
            44.111802,
            76.2
          ],
          [
            1.251795,
            44.111664,
            76.12
          ],
          [
            1.252854,
            44.111105,
            76.0
          ],
          [
            1.253127,
            44.110978,
            76.0
          ],
          [
            1.25337,
            44.110875,
            75.86
          ],
          [
            1.255359,
            44.110129,
            75.0
          ],
          [
            1.257501,
            44.109659,
            75.0
          ],
          [
            1.258702,
            44.109397,
            75.01
          ],
          [
            1.259985,
            44.10916,
            75.1
          ],
          [
            1.260192,
            44.109077,
            75.1
          ],
          [
            1.260363,
            44.108973,
            75.09
          ],
          [
            1.260528,
            44.108832,
            75.07
          ],
          [
            1.260749,
            44.108364,
            75.0
          ],
          [
            1.260923,
            44.108201,
            75.0
          ],
          [
            1.261056,
            44.108126,
            75.0
          ],
          [
            1.261325,
            44.108013,
            75.0
          ],
          [
            1.262699,
            44.107662,
            75.02
          ],
          [
            1.262923,
            44.10766,
            75.04
          ],
          [
            1.263121,
            44.107693,
            75.07
          ],
          [
            1.263309,
            44.107756,
            75.3
          ],
          [
            1.263934,
            44.106097,
            75.79
          ],
          [
            1.263921,
            44.106052,
            75.81
          ],
          [
            1.263629,
            44.105947,
            75.93
          ],
          [
            1.26339,
            44.105824,
            75.98
          ],
          [
            1.26327,
            44.105753,
            76.0
          ],
          [
            1.26326,
            44.105702,
            76.0
          ],
          [
            1.263634,
            44.1052,
            76.0
          ],
          [
            1.264235,
            44.104345,
            75.83
          ],
          [
            1.26358,
            44.104039,
            75.72
          ],
          [
            1.264048,
            44.103435,
            75.86
          ],
          [
            1.264442,
            44.1029,
            76.33
          ],
          [
            1.264856,
            44.102515,
            76.77
          ],
          [
            1.265323,
            44.102108,
            77.12
          ],
          [
            1.265532,
            44.102025,
            77.12
          ],
          [
            1.265697,
            44.101891,
            77.0
          ],
          [
            1.265909,
            44.101901,
            77.0
          ],
          [
            1.265603,
            44.101657,
            77.0
          ],
          [
            1.265091,
            44.101425,
            77.0
          ],
          [
            1.265232,
            44.101165,
            76.9
          ],
          [
            1.266554,
            44.099348,
            76.85
          ],
          [
            1.266854,
            44.099444,
            76.96
          ],
          [
            1.267521,
            44.099706,
            77.0
          ],
          [
            1.268055,
            44.099897,
            77.02
          ],
          [
            1.268127,
            44.099904,
            77.03
          ],
          [
            1.26824,
            44.099841,
            77.03
          ],
          [
            1.268552,
            44.099358,
            77.04
          ],
          [
            1.268606,
            44.099312,
            77.05
          ],
          [
            1.268791,
            44.099273,
            77.05
          ],
          [
            1.269175,
            44.09888,
            76.97
          ],
          [
            1.269217,
            44.098893,
            76.91
          ],
          [
            1.269579,
            44.098925,
            76.61
          ],
          [
            1.269929,
            44.098988,
            75.99
          ],
          [
            1.270214,
            44.099097,
            75.19
          ],
          [
            1.270566,
            44.099174,
            75.63
          ],
          [
            1.271136,
            44.099277,
            75.87
          ],
          [
            1.271483,
            44.099296,
            75.96
          ],
          [
            1.271861,
            44.099255,
            75.96
          ],
          [
            1.272553,
            44.099131,
            75.92
          ],
          [
            1.273318,
            44.098974,
            75.94
          ],
          [
            1.273725,
            44.098832,
            75.97
          ],
          [
            1.274264,
            44.09861,
            75.98
          ],
          [
            1.274543,
            44.098485,
            75.97
          ],
          [
            1.274994,
            44.098263,
            75.93
          ],
          [
            1.275688,
            44.097946,
            75.85
          ],
          [
            1.276116,
            44.097622,
            75.55
          ],
          [
            1.277,
            44.096764,
            76.15
          ],
          [
            1.277265,
            44.096529,
            76.19
          ],
          [
            1.277265,
            44.096529,
            76.19
          ],
          [
            1.277,
            44.096764,
            76.15
          ],
          [
            1.276116,
            44.097622,
            75.55
          ],
          [
            1.275688,
            44.097946,
            75.85
          ],
          [
            1.274994,
            44.098263,
            75.93
          ],
          [
            1.274543,
            44.098485,
            75.97
          ],
          [
            1.274264,
            44.09861,
            75.98
          ],
          [
            1.273725,
            44.098832,
            75.97
          ],
          [
            1.273318,
            44.098974,
            75.94
          ],
          [
            1.272553,
            44.099131,
            75.92
          ],
          [
            1.271861,
            44.099255,
            75.96
          ],
          [
            1.271483,
            44.099296,
            75.96
          ],
          [
            1.271136,
            44.099277,
            75.87
          ],
          [
            1.270566,
            44.099174,
            75.63
          ],
          [
            1.270214,
            44.099097,
            75.19
          ],
          [
            1.269929,
            44.098988,
            75.99
          ],
          [
            1.269579,
            44.098925,
            76.61
          ],
          [
            1.269217,
            44.098893,
            76.91
          ],
          [
            1.268394,
            44.098635,
            76.7
          ],
          [
            1.268069,
            44.098583,
            76.7
          ],
          [
            1.267623,
            44.098401,
            76.87
          ],
          [
            1.2672,
            44.09821,
            76.56
          ],
          [
            1.266525,
            44.097538,
            75.11
          ],
          [
            1.266331,
            44.096715,
            74.36
          ],
          [
            1.266544,
            44.095964,
            74.42
          ],
          [
            1.266614,
            44.095487,
            75.54
          ],
          [
            1.26633,
            44.095315,
            77.0
          ],
          [
            1.266608,
            44.094879,
            75.03
          ],
          [
            1.266966,
            44.094782,
            74.39
          ],
          [
            1.267564,
            44.093702,
            73.19
          ],
          [
            1.268139,
            44.092894,
            73.51
          ],
          [
            1.268598,
            44.092447,
            73.92
          ],
          [
            1.268714,
            44.092136,
            74.3
          ],
          [
            1.268762,
            44.091855,
            74.81
          ],
          [
            1.268957,
            44.090453,
            76.83
          ],
          [
            1.266339,
            44.090479,
            77.13
          ],
          [
            1.266155,
            44.090468,
            77.23
          ],
          [
            1.266083,
            44.090307,
            77.91
          ],
          [
            1.266162,
            44.09021,
            77.9
          ],
          [
            1.266271,
            44.090098,
            77.94
          ],
          [
            1.266473,
            44.089931,
            77.96
          ],
          [
            1.266728,
            44.089771,
            77.93
          ],
          [
            1.266875,
            44.089698,
            77.93
          ],
          [
            1.267038,
            44.089629,
            77.94
          ],
          [
            1.267318,
            44.089539,
            77.89
          ],
          [
            1.267515,
            44.089493,
            77.82
          ],
          [
            1.268816,
            44.089227,
            76.81
          ],
          [
            1.269952,
            44.089013,
            76.04
          ],
          [
            1.270173,
            44.08896,
            78.07
          ],
          [
            1.270333,
            44.088899,
            78.22
          ],
          [
            1.27051,
            44.0888,
            78.4
          ],
          [
            1.270689,
            44.088661,
            78.11
          ],
          [
            1.270798,
            44.088564,
            78.03
          ],
          [
            1.272379,
            44.086944,
            77.8
          ],
          [
            1.273002,
            44.086375,
            77.31
          ],
          [
            1.273695,
            44.085878,
            77.34
          ],
          [
            1.273941,
            44.085679,
            77.49
          ],
          [
            1.274116,
            44.085448,
            77.74
          ],
          [
            1.274984,
            44.083985,
            77.77
          ],
          [
            1.277685,
            44.081946,
            77.56
          ],
          [
            1.278014,
            44.081679,
            77.46
          ],
          [
            1.278227,
            44.081486,
            77.41
          ],
          [
            1.278404,
            44.081303,
            77.7
          ],
          [
            1.278495,
            44.081342,
            77.83
          ],
          [
            1.278591,
            44.081359,
            77.61
          ],
          [
            1.278694,
            44.081364,
            77.39
          ],
          [
            1.278909,
            44.081331,
            77.0
          ],
          [
            1.279017,
            44.081301,
            77.0
          ],
          [
            1.280162,
            44.080923,
            76.39
          ],
          [
            1.28029,
            44.080893,
            76.44
          ],
          [
            1.280425,
            44.08088,
            76.4
          ],
          [
            1.280578,
            44.08088,
            76.25
          ],
          [
            1.280792,
            44.080866,
            76.51
          ],
          [
            1.280885,
            44.08085,
            76.48
          ],
          [
            1.281068,
            44.080804,
            76.52
          ],
          [
            1.282028,
            44.080461,
            77.32
          ],
          [
            1.282305,
            44.080349,
            77.65
          ],
          [
            1.282409,
            44.080291,
            77.84
          ],
          [
            1.282577,
            44.080171,
            77.93
          ],
          [
            1.28331,
            44.079602,
            78.01
          ],
          [
            1.283584,
            44.079338,
            78.06
          ],
          [
            1.283808,
            44.078978,
            78.16
          ],
          [
            1.284034,
            44.078556,
            78.21
          ],
          [
            1.284575,
            44.077921,
            78.09
          ],
          [
            1.285237,
            44.077085,
            78.0
          ],
          [
            1.285506,
            44.076676,
            78.53
          ],
          [
            1.285608,
            44.076436,
            79.19
          ],
          [
            1.285662,
            44.076261,
            79.96
          ],
          [
            1.285757,
            44.076026,
            81.91
          ],
          [
            1.285816,
            44.075925,
            82.96
          ],
          [
            1.28589,
            44.075824,
            84.15
          ],
          [
            1.285991,
            44.075713,
            84.42
          ],
          [
            1.28613,
            44.075597,
            85.0
          ],
          [
            1.286229,
            44.075495,
            85.1
          ],
          [
            1.286472,
            44.075193,
            86.0
          ],
          [
            1.286947,
            44.074316,
            82.61
          ],
          [
            1.286973,
            44.074244,
            82.03
          ],
          [
            1.287004,
            44.074049,
            80.28
          ],
          [
            1.287146,
            44.074053,
            80.73
          ],
          [
            1.287144,
            44.074078,
            81.02
          ],
          [
            1.287161,
            44.074088,
            81.13
          ],
          [
            1.288154,
            44.074118,
            83.06
          ],
          [
            1.288207,
            44.074123,
            83.09
          ],
          [
            1.288294,
            44.07415,
            83.22
          ],
          [
            1.288318,
            44.074153,
            83.34
          ],
          [
            1.288356,
            44.074144,
            83.56
          ],
          [
            1.288313,
            44.07408,
            83.22
          ],
          [
            1.288509,
            44.074066,
            83.77
          ],
          [
            1.289049,
            44.074005,
            84.03
          ],
          [
            1.289977,
            44.073604,
            84.15
          ],
          [
            1.291257,
            44.072916,
            84.96
          ],
          [
            1.29162,
            44.072594,
            85.33
          ],
          [
            1.291968,
            44.072327,
            86.21
          ],
          [
            1.29221,
            44.072171,
            86.76
          ],
          [
            1.292605,
            44.071972,
            87.0
          ],
          [
            1.292998,
            44.071753,
            87.0
          ],
          [
            1.29323,
            44.071594,
            87.0
          ],
          [
            1.294607,
            44.070362,
            87.0
          ],
          [
            1.295731,
            44.069586,
            87.0
          ],
          [
            1.296007,
            44.069371,
            86.98
          ],
          [
            1.296351,
            44.069063,
            86.0
          ],
          [
            1.296842,
            44.068662,
            86.0
          ],
          [
            1.297309,
            44.068229,
            86.0
          ],
          [
            1.297511,
            44.068145,
            86.0
          ],
          [
            1.297815,
            44.068087,
            86.0
          ],
          [
            1.297961,
            44.068021,
            86.0
          ],
          [
            1.298082,
            44.067945,
            86.0
          ],
          [
            1.298615,
            44.067399,
            85.78
          ],
          [
            1.299323,
            44.066838,
            85.0
          ],
          [
            1.299707,
            44.066648,
            83.63
          ],
          [
            1.299956,
            44.066537,
            83.65
          ],
          [
            1.300076,
            44.066492,
            83.09
          ],
          [
            1.300383,
            44.06635,
            83.46
          ],
          [
            1.300482,
            44.066285,
            83.67
          ],
          [
            1.300569,
            44.066214,
            83.94
          ],
          [
            1.300641,
            44.066135,
            84.14
          ],
          [
            1.30087,
            44.065794,
            85.56
          ],
          [
            1.301014,
            44.065598,
            86.18
          ],
          [
            1.301236,
            44.065369,
            86.63
          ],
          [
            1.301407,
            44.06523,
            86.97
          ],
          [
            1.301777,
            44.064969,
            87.49
          ],
          [
            1.301863,
            44.0649,
            87.57
          ],
          [
            1.302016,
            44.064748,
            87.71
          ],
          [
            1.302146,
            44.06459,
            87.84
          ],
          [
            1.302331,
            44.064323,
            87.97
          ],
          [
            1.30266,
            44.063754,
            87.96
          ],
          [
            1.302886,
            44.063452,
            88.02
          ],
          [
            1.303492,
            44.062739,
            88.62
          ],
          [
            1.303771,
            44.062309,
            88.64
          ],
          [
            1.303859,
            44.062224,
            88.59
          ],
          [
            1.303969,
            44.062178,
            88.53
          ],
          [
            1.304098,
            44.062184,
            88.46
          ],
          [
            1.304232,
            44.062231,
            88.38
          ],
          [
            1.304632,
            44.062432,
            88.12
          ],
          [
            1.304854,
            44.062517,
            88.04
          ],
          [
            1.305007,
            44.062513,
            88.02
          ],
          [
            1.305165,
            44.062441,
            88.0
          ],
          [
            1.30563,
            44.062016,
            88.01
          ],
          [
            1.306179,
            44.061613,
            88.29
          ],
          [
            1.306635,
            44.061322,
            88.68
          ],
          [
            1.307002,
            44.061013,
            89.0
          ],
          [
            1.307574,
            44.060485,
            89.0
          ],
          [
            1.308042,
            44.06,
            89.0
          ],
          [
            1.308738,
            44.058999,
            88.6
          ],
          [
            1.308733,
            44.058562,
            88.68
          ],
          [
            1.308792,
            44.058367,
            88.79
          ],
          [
            1.30912,
            44.05781,
            88.73
          ],
          [
            1.309001,
            44.057668,
            88.93
          ],
          [
            1.309004,
            44.057291,
            88.98
          ],
          [
            1.30917,
            44.056258,
            89.0
          ],
          [
            1.30929,
            44.055264,
            89.05
          ],
          [
            1.309434,
            44.053499,
            89.78
          ],
          [
            1.309428,
            44.053328,
            89.66
          ],
          [
            1.309106,
            44.052773,
            89.22
          ],
          [
            1.309057,
            44.052654,
            89.15
          ],
          [
            1.308853,
            44.051055,
            89.0
          ],
          [
            1.308827,
            44.050974,
            89.0
          ],
          [
            1.30878,
            44.050902,
            89.0
          ],
          [
            1.308635,
            44.050774,
            89.0
          ],
          [
            1.30856,
            44.050719,
            89.07
          ],
          [
            1.30848,
            44.050613,
            89.44
          ],
          [
            1.308466,
            44.050563,
            89.51
          ],
          [
            1.308458,
            44.050471,
            89.5
          ],
          [
            1.308544,
            44.050034,
            89.87
          ],
          [
            1.308908,
            44.047894,
            89.82
          ],
          [
            1.308962,
            44.047757,
            89.83
          ],
          [
            1.309155,
            44.047457,
            89.7
          ],
          [
            1.309696,
            44.046693,
            90.0
          ],
          [
            1.310228,
            44.046069,
            89.34
          ],
          [
            1.310313,
            44.045984,
            89.48
          ],
          [
            1.310672,
            44.045068,
            89.02
          ],
          [
            1.310887,
            44.044642,
            89.05
          ],
          [
            1.311133,
            44.044331,
            89.17
          ],
          [
            1.31145,
            44.04404,
            89.32
          ],
          [
            1.311713,
            44.043748,
            89.52
          ],
          [
            1.312045,
            44.043016,
            89.84
          ],
          [
            1.31233,
            44.042222,
            89.96
          ],
          [
            1.312909,
            44.040694,
            90.0
          ],
          [
            1.3145,
            44.03928,
            90.0
          ],
          [
            1.316742,
            44.038223,
            90.0
          ],
          [
            1.317181,
            44.037974,
            90.0
          ],
          [
            1.318008,
            44.037411,
            90.03
          ],
          [
            1.318483,
            44.037203,
            90.36
          ],
          [
            1.319701,
            44.036711,
            90.38
          ],
          [
            1.320178,
            44.036445,
            90.7
          ],
          [
            1.32041,
            44.036266,
            90.89
          ],
          [
            1.320612,
            44.036077,
            91.0
          ],
          [
            1.321087,
            44.035585,
            91.0
          ],
          [
            1.3214,
            44.03531,
            91.0
          ],
          [
            1.32183,
            44.034903,
            91.0
          ],
          [
            1.322318,
            44.034514,
            91.0
          ],
          [
            1.322501,
            44.034421,
            91.0
          ],
          [
            1.323504,
            44.033961,
            91.0
          ],
          [
            1.324824,
            44.03483,
            91.0
          ],
          [
            1.325645,
            44.03539,
            91.0
          ]
        ]
      }
    },
    {
      "type": "Feature",
      "properties": {
        "source": "Vers_Montauban.gpx",
        "type": "route"
      },
      "geometry": {
        "type": "LineString",
        "coordinates": [
          [
            1.245272,
            44.121288
          ],
          [
            1.250807,
            44.111939
          ],
          [
            1.257501,
            44.109659
          ],
          [
            1.263309,
            44.107756
          ],
          [
            1.265909,
            44.101901
          ],
          [
            1.265091,
            44.101425
          ],
          [
            1.266554,
            44.099348
          ],
          [
            1.269175,
            44.09888
          ],
          [
            1.270214,
            44.099097
          ],
          [
            1.277265,
            44.096529
          ],
          [
            1.277265,
            44.096529
          ],
          [
            1.270214,
            44.099097
          ],
          [
            1.2672,
            44.09821
          ],
          [
            1.26633,
            44.095315
          ],
          [
            1.268957,
            44.090453
          ],
          [
            1.266083,
            44.090307
          ],
          [
            1.278404,
            44.081303
          ],
          [
            1.287004,
            44.074049
          ],
          [
            1.287146,
            44.074053
          ],
          [
            1.288356,
            44.074144
          ],
          [
            1.288313,
            44.07408
          ],
          [
            1.30087,
            44.065794
          ],
          [
            1.30912,
            44.05781
          ],
          [
            1.323504,
            44.033961
          ],
          [
            1.325645,
            44.03539
          ]
        ]
      }
    }
  ]
}