{
  "type": "FeatureCollection",
  "features": [
    {
      "type": "Feature",
      "properties": {
        "name": "GraphHopper Track",
        "source": "Boucle_Catus-Cahors.gpx",
        "type": "track"
      },
      "geometry": {
        "type": "LineString",
        "coordinates": [
          [
            1.336978,
            44.554704,
            166.9
          ],
          [
            1.337009,
            44.554824,
            164.91
          ],
          [
            1.336952,
            44.554843,
            164.76
          ],
          [
            1.336855,
            44.554926,
            164.2
          ],
          [
            1.336733,
            44.555183,
            163.82
          ],
          [
            1.336595,
            44.555157,
            163.02
          ],
          [
            1.336253,
            44.555046,
            163.04
          ],
          [
            1.335807,
            44.55488,
            163.05
          ],
          [
            1.335282,
            44.55467,
            164.11
          ],
          [
            1.334988,
            44.554529,
            165.04
          ],
          [
            1.334568,
            44.554356,
            166.82
          ],
          [
            1.333942,
            44.554065,
            169.18
          ],
          [
            1.333544,
            44.553842,
            169.03
          ],
          [
            1.332985,
            44.553563,
            166.86
          ],
          [
            1.332111,
            44.553091,
            162.11
          ],
          [
            1.331877,
            44.552923,
            162.05
          ],
          [
            1.331354,
            44.552654,
            161.33
          ],
          [
            1.330666,
            44.552332,
            160.74
          ],
          [
            1.330387,
            44.552162,
            160.63
          ],
          [
            1.330054,
            44.551882,
            160.73
          ],
          [
            1.329405,
            44.551288,
            160.74
          ],
          [
            1.32912,
            44.551054,
            160.4
          ],
          [
            1.328368,
            44.550512,
            159.0
          ],
          [
            1.328101,
            44.550365,
            158.53
          ],
          [
            1.327974,
            44.550486,
            158.2
          ],
          [
            1.327924,
            44.550474,
            157.98
          ],
          [
            1.327703,
            44.550368,
            157.25
          ],
          [
            1.32764,
            44.550362,
            157.0
          ],
          [
            1.327586,
            44.550242,
            157.26
          ],
          [
            1.327447,
            44.550013,
            158.06
          ],
          [
            1.327342,
            44.549656,
            158.69
          ],
          [
            1.327356,
            44.549343,
            158.71
          ],
          [
            1.327373,
            44.549227,
            158.81
          ],
          [
            1.327402,
            44.548936,
            159.87
          ],
          [
            1.3274,
            44.548482,
            160.05
          ],
          [
            1.327025,
            44.547506,
            159.64
          ],
          [
            1.327012,
            44.547306,
            159.38
          ],
          [
            1.327024,
            44.546987,
            159.5
          ],
          [
            1.326984,
            44.546573,
            158.98
          ],
          [
            1.326842,
            44.546147,
            159.57
          ],
          [
            1.326733,
            44.545974,
            159.27
          ],
          [
            1.326529,
            44.545773,
            158.83
          ],
          [
            1.326241,
            44.545548,
            158.23
          ],
          [
            1.325904,
            44.545371,
            157.22
          ],
          [
            1.325468,
            44.545184,
            156.81
          ],
          [
            1.325762,
            44.544773,
            160.01
          ],
          [
            1.326364,
            44.543855,
            159.43
          ],
          [
            1.32651,
            44.543618,
            161.02
          ],
          [
            1.326655,
            44.543457,
            161.64
          ],
          [
            1.326816,
            44.543307,
            162.36
          ],
          [
            1.327018,
            44.543148,
            163.26
          ],
          [
            1.328026,
            44.542601,
            167.28
          ],
          [
            1.328006,
            44.542557,
            167.11
          ],
          [
            1.328112,
            44.542471,
            166.89
          ],
          [
            1.328764,
            44.542058,
            166.16
          ],
          [
            1.329024,
            44.541802,
            165.76
          ],
          [
            1.329131,
            44.54159,
            165.61
          ],
          [
            1.329166,
            44.541439,
            165.62
          ],
          [
            1.329134,
            44.540609,
            167.22
          ],
          [
            1.329193,
            44.540313,
            168.29
          ],
          [
            1.32933,
            44.539913,
            169.67
          ],
          [
            1.329426,
            44.539798,
            170.11
          ],
          [
            1.330251,
            44.539283,
            172.87
          ],
          [
            1.331241,
            44.53884,
            175.07
          ],
          [
            1.331564,
            44.538659,
            175.69
          ],
          [
            1.332199,
            44.538182,
            179.04
          ],
          [
            1.333041,
            44.537743,
            186.29
          ],
          [
            1.333802,
            44.537335,
            193.09
          ],
          [
            1.334066,
            44.537143,
            195.78
          ],
          [
            1.334448,
            44.53677,
            200.46
          ],
          [
            1.33506,
            44.536348,
            206.19
          ],
          [
            1.336663,
            44.535694,
            218.15
          ],
          [
            1.337029,
            44.53553,
            221.43
          ],
          [
            1.33791,
            44.534919,
            229.72
          ],
          [
            1.338344,
            44.534766,
            232.07
          ],
          [
            1.338491,
            44.534684,
            233.72
          ],
          [
            1.338653,
            44.534482,
            237.15
          ],
          [
            1.33873,
            44.534165,
            241.4
          ],
          [
            1.338847,
            44.533922,
            244.48
          ],
          [
            1.33889,
            44.533778,
            246.17
          ],
          [
            1.339076,
            44.533651,
            248.8
          ],
          [
            1.340241,
            44.532544,
            263.55
          ],
          [
            1.341544,
            44.531283,
            265.95
          ],
          [
            1.342524,
            44.530799,
            260.65
          ],
          [
            1.343319,
            44.529897,
            257.0
          ],
          [
            1.344012,
            44.529135,
            253.87
          ],
          [
            1.344821,
            44.528131,
            257.7
          ],
          [
            1.344975,
            44.527369,
            256.92
          ],
          [
            1.345574,
            44.5261,
            261.87
          ],
          [
            1.345917,
            44.52556,
            262.86
          ],
          [
            1.346216,
            44.525429,
            262.22
          ],
          [
            1.347287,
            44.524895,
            263.02
          ],
          [
            1.347718,
            44.524616,
            263.65
          ],
          [
            1.348014,
            44.524308,
            263.52
          ],
          [
            1.348168,
            44.52418,
            263.87
          ],
          [
            1.348297,
            44.524093,
            263.93
          ],
          [
            1.34845,
            44.524009,
            263.73
          ],
          [
            1.349162,
            44.523795,
            264.08
          ],
          [
            1.349576,
            44.52372,
            264.43
          ],
          [
            1.350241,
            44.523727,
            265.25
          ],
          [
            1.350542,
            44.523737,
            266.09
          ],
          [
            1.351343,
            44.522797,
            260.5
          ],
          [
            1.352072,
            44.522038,
            260.58
          ],
          [
            1.352208,
            44.521847,
            261.03
          ],
          [
            1.352315,
            44.521628,
            261.57
          ],
          [
            1.352419,
            44.521299,
            262.52
          ],
          [
            1.352421,
            44.521186,
            262.82
          ],
          [
            1.352392,
            44.521068,
            262.9
          ],
          [
            1.352253,
            44.52104,
            262.61
          ],
          [
            1.352186,
            44.521008,
            262.65
          ],
          [
            1.351986,
            44.520876,
            262.84
          ],
          [
            1.351781,
            44.520777,
            263.0
          ],
          [
            1.351846,
            44.520715,
            263.13
          ],
          [
            1.351934,
            44.520699,
            263.26
          ],
          [
            1.351905,
            44.52066,
            263.57
          ],
          [
            1.351895,
            44.520558,
            263.99
          ],
          [
            1.352065,
            44.520208,
            265.26
          ],
          [
            1.352282,
            44.520237,
            265.01
          ],
          [
            1.352477,
            44.52023,
            264.91
          ],
          [
            1.352645,
            44.520172,
            264.38
          ],
          [
            1.352788,
            44.520089,
            263.91
          ],
          [
            1.352915,
            44.519984,
            263.21
          ],
          [
            1.352976,
            44.519892,
            262.73
          ],
          [
            1.353008,
            44.519825,
            262.38
          ],
          [
            1.353024,
            44.519684,
            261.93
          ],
          [
            1.353005,
            44.519559,
            261.87
          ],
          [
            1.352782,
            44.519023,
            262.56
          ],
          [
            1.352709,
            44.518357,
            263.53
          ],
          [
            1.352722,
            44.518003,
            263.73
          ],
          [
            1.352813,
            44.517722,
            263.83
          ],
          [
            1.352879,
            44.517642,
            263.68
          ],
          [
            1.353044,
            44.517384,
            263.65
          ],
          [
            1.353156,
            44.517163,
            263.43
          ],
          [
            1.353186,
            44.517024,
            262.76
          ],
          [
            1.35316,
            44.516631,
            260.88
          ],
          [
            1.353194,
            44.516397,
            259.92
          ],
          [
            1.35324,
            44.51624,
            259.36
          ],
          [
            1.353257,
            44.516055,
            258.91
          ],
          [
            1.353219,
            44.515616,
            258.48
          ],
          [
            1.353217,
            44.515415,
            258.6
          ],
          [
            1.353248,
            44.515282,
            258.71
          ],
          [
            1.35328,
            44.514905,
            259.18
          ],
          [
            1.353249,
            44.514753,
            259.74
          ],
          [
            1.353226,
            44.514433,
            259.85
          ],
          [
            1.353321,
            44.514042,
            258.8
          ],
          [
            1.353462,
            44.513704,
            257.74
          ],
          [
            1.353482,
            44.513598,
            257.26
          ],
          [
            1.354233,
            44.512634,
            248.25
          ],
          [
            1.355923,
            44.511108,
            233.97
          ],
          [
            1.356486,
            44.51001,
            227.11
          ],
          [
            1.357795,
            44.508029,
            215.94
          ],
          [
            1.35853,
            44.506996,
            211.19
          ],
          [
            1.358804,
            44.506414,
            208.82
          ],
          [
            1.358925,
            44.506268,
            208.86
          ],
          [
            1.35926,
            44.505812,
            207.44
          ],
          [
            1.359609,
            44.505384,
            205.04
          ],
          [
            1.359904,
            44.505055,
            202.99
          ],
          [
            1.36032,
            44.504668,
            201.1
          ],
          [
            1.360677,
            44.504351,
            199.74
          ],
          [
            1.361653,
            44.503404,
            187.03
          ],
          [
            1.36209,
            44.502838,
            174.09
          ],
          [
            1.362219,
            44.502719,
            170.87
          ],
          [
            1.362863,
            44.502291,
            156.66
          ],
          [
            1.363244,
            44.502105,
            149.69
          ],
          [
            1.364035,
            44.501829,
            139.51
          ],
          [
            1.364574,
            44.501615,
            135.35
          ],
          [
            1.364855,
            44.501446,
            134.92
          ],
          [
            1.365367,
            44.501201,
            133.78
          ],
          [
            1.365706,
            44.501055,
            132.84
          ],
          [
            1.366006,
            44.500963,
            131.98
          ],
          [
            1.366398,
            44.500886,
            130.91
          ],
          [
            1.367117,
            44.500783,
            128.94
          ],
          [
            1.368345,
            44.500523,
            127.08
          ],
          [
            1.368613,
            44.500423,
            126.99
          ],
          [
            1.369509,
            44.499712,
            125.84
          ],
          [
            1.369985,
            44.49923,
            124.0
          ],
          [
            1.370205,
            44.499359,
            124.26
          ],
          [
            1.370375,
            44.499417,
            124.24
          ],
          [
            1.370534,
            44.499451,
            124.0
          ],
          [
            1.370831,
            44.49945,
            123.48
          ],
          [
            1.371046,
            44.499395,
            123.15
          ],
          [
            1.372124,
            44.498919,
            121.9
          ],
          [
            1.372509,
            44.498724,
            122.42
          ],
          [
            1.37309,
            44.4985,
            124.13
          ],
          [
            1.372928,
            44.49836,
            123.69
          ],
          [
            1.372883,
            44.498354,
            123.59
          ],
          [
            1.372733,
            44.498193,
            123.31
          ],
          [
            1.372604,
            44.497929,
            123.26
          ],
          [
            1.372443,
            44.497646,
            123.38
          ],
          [
            1.3724,
            44.497382,
            123.4
          ],
          [
            1.3724,
            44.497148,
            123.37
          ],
          [
            1.372234,
            44.496819,
            123.33
          ],
          [
            1.371628,
            44.496138,
            122.4
          ],
          [
            1.370904,
            44.495373,
            120.49
          ],
          [
            1.3705,
            44.49499,
            120.44
          ],
          [
            1.370056,
            44.494121,
            120.63
          ],
          [
            1.369815,
            44.4938,
            119.73
          ],
          [
            1.369353,
            44.493077,
            118.09
          ],
          [
            1.369246,
            44.492625,
            117.57
          ],
          [
            1.368969,
            44.491813,
            116.48
          ],
          [
            1.368849,
            44.491466,
            116.69
          ],
          [
            1.36864,
            44.490999,
            116.31
          ],
          [
            1.368576,
            44.490394,
            115.67
          ],
          [
            1.368372,
            44.489874,
            115.04
          ],
          [
            1.368329,
            44.489552,
            114.48
          ],
          [
            1.368307,
            44.48925,
            113.98
          ],
          [
            1.368254,
            44.489066,
            113.58
          ],
          [
            1.368172,
            44.488932,
            113.23
          ],
          [
            1.368089,
            44.488863,
            112.95
          ],
          [
            1.368127,
            44.488832,
            113.24
          ],
          [
            1.36816,
            44.488791,
            113.32
          ],
          [
            1.368193,
            44.488651,
            113.47
          ],
          [
            1.368253,
            44.487539,
            114.12
          ],
          [
            1.368285,
            44.487458,
            114.27
          ],
          [
            1.368255,
            44.487394,
            114.15
          ],
          [
            1.368192,
            44.487014,
            114.36
          ],
          [
            1.368125,
            44.48684,
            113.96
          ],
          [
            1.36803,
            44.486256,
            113.2
          ],
          [
            1.367799,
            44.484988,
            113.28
          ],
          [
            1.367735,
            44.48471,
            113.4
          ],
          [
            1.367398,
            44.483826,
            112.3
          ],
          [
            1.367197,
            44.483444,
            111.64
          ],
          [
            1.366909,
            44.483116,
            111.16
          ],
          [
            1.366435,
            44.482664,
            110.73
          ],
          [
            1.366207,
            44.482481,
            110.17
          ],
          [
            1.366273,
            44.482384,
            111.43
          ],
          [
            1.36638,
            44.482324,
            112.4
          ],
          [
            1.366442,
            44.482247,
            112.69
          ],
          [
            1.366438,
            44.48219,
            112.8
          ],
          [
            1.366383,
            44.482157,
            112.91
          ],
          [
            1.366208,
            44.48209,
            113.34
          ],
          [
            1.366001,
            44.481993,
            114.33
          ],
          [
            1.365917,
            44.481945,
            114.61
          ],
          [
            1.365812,
            44.481811,
            115.07
          ],
          [
            1.365788,
            44.481687,
            115.83
          ],
          [
            1.365847,
            44.481438,
            118.48
          ],
          [
            1.365369,
            44.481215,
            115.87
          ],
          [
            1.365225,
            44.481159,
            114.93
          ],
          [
            1.365023,
            44.48111,
            115.2
          ],
          [
            1.362774,
            44.480317,
            110.07
          ],
          [
            1.3629,
            44.48012,
            105.11
          ],
          [
            1.362983,
            44.480182,
            105.28
          ],
          [
            1.363019,
            44.480244,
            105.19
          ],
          [
            1.36303,
            44.480312,
            104.69
          ],
          [
            1.363112,
            44.480256,
            103.96
          ],
          [
            1.363145,
            44.480215,
            103.85
          ],
          [
            1.363339,
            44.479737,
            103.7
          ],
          [
            1.363529,
            44.479188,
            103.82
          ],
          [
            1.36355,
            44.47907,
            103.88
          ],
          [
            1.363584,
            44.479005,
            103.91
          ],
          [
            1.363495,
            44.478604,
            104.08
          ],
          [
            1.363319,
            44.478109,
            104.24
          ],
          [
            1.363232,
            44.477921,
            104.33
          ],
          [
            1.363047,
            44.47769,
            104.41
          ],
          [
            1.362757,
            44.477439,
            104.48
          ],
          [
            1.362125,
            44.476842,
            104.29
          ],
          [
            1.361621,
            44.476429,
            104.31
          ],
          [
            1.360697,
            44.47577,
            105.54
          ],
          [
            1.360161,
            44.475349,
            107.85
          ],
          [
            1.359987,
            44.475185,
            108.97
          ],
          [
            1.359923,
            44.475083,
            109.07
          ],
          [
            1.359835,
            44.47487,
            108.94
          ],
          [
            1.359751,
            44.474383,
            109.64
          ],
          [
            1.35974,
            44.474119,
            109.89
          ],
          [
            1.359756,
            44.473763,
            109.94
          ],
          [
            1.35988,
            44.473008,
            109.38
          ],
          [
            1.359886,
            44.472898,
            110.51
          ],
          [
            1.359967,
            44.472814,
            109.84
          ],
          [
            1.360083,
            44.472631,
            109.11
          ],
          [
            1.36038,
            44.472202,
            108.13
          ],
          [
            1.360616,
            44.471967,
            107.39
          ],
          [
            1.360713,
            44.471894,
            106.73
          ],
          [
            1.360734,
            44.471865,
            106.74
          ],
          [
            1.360801,
            44.471804,
            106.5
          ],
          [
            1.360978,
            44.4715,
            106.11
          ],
          [
            1.36188,
            44.470156,
            109.57
          ],
          [
            1.361871,
            44.470095,
            109.99
          ],
          [
            1.361839,
            44.470067,
            110.0
          ],
          [
            1.361913,
            44.470016,
            110.0
          ],
          [
            1.361803,
            44.469881,
            110.56
          ],
          [
            1.361519,
            44.469658,
            111.48
          ],
          [
            1.361172,
            44.469352,
            110.9
          ],
          [
            1.361087,
            44.469238,
            110.71
          ],
          [
            1.361426,
            44.46917,
            118.98
          ],
          [
            1.361788,
            44.469121,
            127.41
          ],
          [
            1.361975,
            44.46902,
            129.83
          ],
          [
            1.361953,
            44.468887,
            131.55
          ],
          [
            1.361662,
            44.468789,
            133.51
          ],
          [
            1.361641,
            44.468735,
            134.94
          ],
          [
            1.361837,
            44.468606,
            141.38
          ],
          [
            1.361921,
            44.468576,
            143.27
          ],
          [
            1.36239,
            44.468308,
            156.24
          ],
          [
            1.362491,
            44.468021,
            163.52
          ],
          [
            1.362524,
            44.467756,
            169.53
          ],
          [
            1.362669,
            44.46763,
            172.73
          ],
          [
            1.362771,
            44.46758,
            174.33
          ],
          [
            1.36286,
            44.467569,
            175.47
          ],
          [
            1.362994,
            44.467479,
            177.79
          ],
          [
            1.363337,
            44.467285,
            183.3
          ],
          [
            1.363434,
            44.467209,
            185.12
          ],
          [
            1.363477,
            44.467198,
            185.72
          ],
          [
            1.363695,
            44.467103,
            189.1
          ],
          [
            1.363811,
            44.46702,
            191.35
          ],
          [
            1.363919,
            44.466985,
            192.98
          ],
          [
            1.363992,
            44.466929,
            194.42
          ],
          [
            1.363985,
            44.466902,
            194.93
          ],
          [
            1.363992,
            44.466876,
            195.42
          ],
          [
            1.364047,
            44.466836,
            196.43
          ],
          [
            1.364112,
            44.46681,
            197.41
          ],
          [
            1.364261,
            44.46677,
            199.52
          ],
          [
            1.364396,
            44.466649,
            202.48
          ],
          [
            1.364539,
            44.466546,
            205.41
          ],
          [
            1.364589,
            44.466529,
            206.2
          ],
          [
            1.364609,
            44.466506,
            206.74
          ],
          [
            1.364642,
            44.466495,
            207.28
          ],
          [
            1.364702,
            44.466368,
            210.24
          ],
          [
            1.364692,
            44.466359,
            210.5
          ],
          [
            1.364701,
            44.466319,
            211.4
          ],
          [
            1.364735,
            44.466251,
            213.03
          ],
          [
            1.364739,
            44.466225,
            213.62
          ],
          [
            1.364751,
            44.466204,
            214.15
          ],
          [
            1.36479,
            44.466175,
            215.1
          ],
          [
            1.36482,
            44.466095,
            217.05
          ],
          [
            1.364955,
            44.466016,
            220.02
          ],
          [
            1.364985,
            44.466003,
            220.67
          ],
          [
            1.365045,
            44.465997,
            221.81
          ],
          [
            1.365064,
            44.465981,
            222.37
          ],
          [
            1.365113,
            44.46588,
            225.29
          ],
          [
            1.365179,
            44.465847,
            226.93
          ],
          [
            1.365221,
            44.46577,
            229.32
          ],
          [
            1.365282,
            44.465744,
            230.83
          ],
          [
            1.36535,
            44.46563,
            234.48
          ],
          [
            1.365402,
            44.465593,
            236.19
          ],
          [
            1.365458,
            44.465538,
            238.39
          ],
          [
            1.365481,
            44.465487,
            240.12
          ],
          [
            1.365525,
            44.465432,
            242.18
          ],
          [
            1.365588,
            44.465417,
            243.72
          ],
          [
            1.365617,
            44.4654,
            244.59
          ],
          [
            1.365697,
            44.465343,
            247.19
          ],
          [
            1.365733,
            44.465302,
            248.76
          ],
          [
            1.365807,
            44.465269,
            250.8
          ],
          [
            1.365838,
            44.465225,
            252.45
          ],
          [
            1.365883,
            44.46521,
            253.64
          ],
          [
            1.365911,
            44.465155,
            255.5
          ],
          [
            1.366007,
            44.465085,
            258.76
          ],
          [
            1.366054,
            44.465068,
            260.01
          ],
          [
            1.366099,
            44.464993,
            262.98
          ],
          [
            1.366155,
            44.464951,
            265.23
          ],
          [
            1.366193,
            44.464938,
            266.53
          ],
          [
            1.366215,
            44.464917,
            267.36
          ],
          [
            1.36627,
            44.464892,
            268.72
          ],
          [
            1.366295,
            44.464862,
            269.78
          ],
          [
            1.366321,
            44.464853,
            270.4
          ],
          [
            1.366331,
            44.464841,
            270.85
          ],
          [
            1.366388,
            44.464829,
            272.12
          ],
          [
            1.366429,
            44.464788,
            273.68
          ],
          [
            1.366467,
            44.464769,
            274.79
          ],
          [
            1.366491,
            44.464737,
            275.73
          ],
          [
            1.366551,
            44.464712,
            277.3
          ],
          [
            1.366578,
            44.464684,
            278.53
          ],
          [
            1.366614,
            44.464672,
            279.43
          ],
          [
            1.366665,
            44.464671,
            280.39
          ],
          [
            1.36671,
            44.464619,
            282.03
          ],
          [
            1.366774,
            44.464588,
            283.32
          ],
          [
            1.366919,
            44.464452,
            287.04
          ],
          [
            1.367015,
            44.464408,
            288.39
          ],
          [
            1.36707,
            44.464364,
            288.86
          ],
          [
            1.367092,
            44.464314,
            288.3
          ],
          [
            1.367642,
            44.464144,
            291.51
          ],
          [
            1.368044,
            44.46409,
            291.75
          ],
          [
            1.368605,
            44.464027,
            292.18
          ],
          [
            1.369144,
            44.464073,
            291.81
          ],
          [
            1.369512,
            44.463991,
            292.17
          ],
          [
            1.369871,
            44.463882,
            293.27
          ],
          [
            1.370077,
            44.463883,
            294.02
          ],
          [
            1.370201,
            44.463857,
            294.37
          ],
          [
            1.370287,
            44.463825,
            294.75
          ],
          [
            1.370587,
            44.463788,
            296.68
          ],
          [
            1.370799,
            44.463727,
            298.41
          ],
          [
            1.370939,
            44.463652,
            299.88
          ],
          [
            1.371145,
            44.463585,
            301.67
          ],
          [
            1.371489,
            44.46352,
            303.7
          ],
          [
            1.371809,
            44.463492,
            305.0
          ],
          [
            1.371934,
            44.463558,
            304.96
          ],
          [
            1.372337,
            44.463523,
            305.0
          ],
          [
            1.372514,
            44.463521,
            304.11
          ],
          [
            1.372673,
            44.463543,
            303.11
          ],
          [
            1.372775,
            44.463531,
            302.09
          ],
          [
            1.372926,
            44.46354,
            299.53
          ],
          [
            1.373055,
            44.46357,
            296.43
          ],
          [
            1.37339,
            44.463772,
            287.66
          ],
          [
            1.373505,
            44.4638,
            284.19
          ],
          [
            1.373591,
            44.463834,
            281.12
          ],
          [
            1.373662,
            44.463884,
            278.17
          ],
          [
            1.37371,
            44.463944,
            275.49
          ],
          [
            1.373732,
            44.464007,
            273.25
          ],
          [
            1.373715,
            44.464049,
            272.65
          ],
          [
            1.37379,
            44.464194,
            268.72
          ],
          [
            1.373929,
            44.464271,
            266.11
          ],
          [
            1.374251,
            44.464408,
            260.98
          ],
          [
            1.374345,
            44.464424,
            260.07
          ],
          [
            1.374243,
            44.464267,
            257.9
          ],
          [
            1.37441,
            44.464148,
            252.96
          ],
          [
            1.374552,
            44.464144,
            249.81
          ],
          [
            1.374731,
            44.464018,
            244.71
          ],
          [
            1.375016,
            44.463974,
            239.25
          ],
          [
            1.375257,
            44.463821,
            233.48
          ],
          [
            1.375515,
            44.463782,
            229.38
          ],
          [
            1.375965,
            44.46362,
            222.25
          ],
          [
            1.376107,
            44.463533,
            219.61
          ],
          [
            1.376341,
            44.46353,
            216.49
          ],
          [
            1.376494,
            44.463476,
            214.36
          ],
          [
            1.37684,
            44.463512,
            210.05
          ],
          [
            1.377009,
            44.463478,
            207.84
          ],
          [
            1.377738,
            44.463147,
            197.94
          ],
          [
            1.377829,
            44.463032,
            196.2
          ],
          [
            1.378025,
            44.463018,
            194.47
          ],
          [
            1.378191,
            44.46295,
            192.98
          ],
          [
            1.378588,
            44.462894,
            190.26
          ],
          [
            1.378838,
            44.4628,
            188.57
          ],
          [
            1.379015,
            44.462821,
            187.69
          ],
          [
            1.379331,
            44.462971,
            186.23
          ],
          [
            1.379567,
            44.463032,
            185.5
          ],
          [
            1.380369,
            44.463089,
            183.24
          ],
          [
            1.380672,
            44.463084,
            182.34
          ],
          [
            1.380978,
            44.463103,
            181.5
          ],
          [
            1.381426,
            44.463038,
            180.39
          ],
          [
            1.381676,
            44.462988,
            179.76
          ],
          [
            1.382121,
            44.46286,
            178.68
          ],
          [
            1.38241,
            44.462816,
            177.98
          ],
          [
            1.38328,
            44.462856,
            175.8
          ],
          [
            1.383422,
            44.462873,
            175.4
          ],
          [
            1.383518,
            44.462923,
            175.06
          ],
          [
            1.38417,
            44.463549,
            172.13
          ],
          [
            1.384744,
            44.463905,
            170.15
          ],
          [
            1.385211,
            44.464263,
            168.56
          ],
          [
            1.385728,
            44.464674,
            166.2
          ],
          [
            1.386109,
            44.465166,
            163.55
          ],
          [
            1.386597,
            44.465921,
            159.66
          ],
          [
            1.386844,
            44.466112,
            158.69
          ],
          [
            1.387472,
            44.46655,
            156.74
          ],
          [
            1.387646,
            44.466736,
            156.14
          ],
          [
            1.388011,
            44.46737,
            154.27
          ],
          [
            1.388223,
            44.467538,
            153.58
          ],
          [
            1.388456,
            44.467645,
            152.91
          ],
          [
            1.389293,
            44.467825,
            150.89
          ],
          [
            1.390119,
            44.468057,
            148.65
          ],
          [
            1.391608,
            44.468667,
            144.33
          ],
          [
            1.392068,
            44.468823,
            143.04
          ],
          [
            1.392397,
            44.46903,
            141.94
          ],
          [
            1.392934,
            44.469255,
            141.26
          ],
          [
            1.393517,
            44.469335,
            141.77
          ],
          [
            1.393758,
            44.469711,
            141.19
          ],
          [
            1.394054,
            44.470522,
            139.58
          ],
          [
            1.394218,
            44.471151,
            138.44
          ],
          [
            1.394291,
            44.471307,
            138.19
          ],
          [
            1.394418,
            44.471464,
            137.92
          ],
          [
            1.395039,
            44.47204,
            136.76
          ],
          [
            1.395512,
            44.472591,
            135.48
          ],
          [
            1.395721,
            44.473045,
            134.61
          ],
          [
            1.395863,
            44.473274,
            134.33
          ],
          [
            1.396675,
            44.474304,
            133.44
          ],
          [
            1.397105,
            44.474922,
            133.62
          ],
          [
            1.397177,
            44.475111,
            133.49
          ],
          [
            1.397699,
            44.475077,
            138.57
          ],
          [
            1.397973,
            44.475074,
            141.34
          ],
          [
            1.398021,
            44.475104,
            142.0
          ],
          [
            1.398021,
            44.475204,
            143.42
          ],
          [
            1.397855,
            44.475441,
            147.15
          ],
          [
            1.397796,
            44.475651,
            150.22
          ],
          [
            1.397839,
            44.475946,
            154.53
          ],
          [
            1.398026,
            44.476302,
            160.12
          ],
          [
            1.398284,
            44.476708,
            166.94
          ],
          [
            1.39867,
            44.477133,
            174.54
          ],
          [
            1.39911,
            44.477336,
            179.31
          ],
          [
            1.400215,
            44.477677,
            185.91
          ],
          [
            1.400424,
            44.477699,
            184.33
          ],
          [
            1.401116,
            44.477554,
            176.38
          ],
          [
            1.401299,
            44.477424,
            173.94
          ],
          [
            1.401427,
            44.477347,
            172.42
          ],
          [
            1.401652,
            44.477278,
            167.79
          ],
          [
            1.402049,
            44.477263,
            159.84
          ],
          [
            1.402453,
            44.477201,
            152.02
          ],
          [
            1.402688,
            44.47724,
            148.07
          ],
          [
            1.402777,
            44.477239,
            147.27
          ],
          [
            1.403057,
            44.47729,
            144.61
          ],
          [
            1.403129,
            44.47732,
            144.17
          ],
          [
            1.403178,
            44.477355,
            143.75
          ],
          [
            1.40322,
            44.477426,
            143.23
          ],
          [
            1.403208,
            44.477382,
            143.28
          ],
          [
            1.403236,
            44.477342,
            142.86
          ],
          [
            1.403291,
            44.477322,
            142.43
          ],
          [
            1.403353,
            44.477329,
            142.0
          ],
          [
            1.404838,
            44.475938,
            141.75
          ],
          [
            1.404951,
            44.475781,
            142.4
          ],
          [
            1.405185,
            44.475401,
            143.92
          ],
          [
            1.405185,
            44.475401,
            143.92
          ],
          [
            1.405496,
            44.474887,
            145.36
          ],
          [
            1.405628,
            44.474734,
            145.21
          ],
          [
            1.405778,
            44.474577,
            144.85
          ],
          [
            1.405848,
            44.474487,
            144.38
          ],
          [
            1.405903,
            44.474485,
            144.13
          ],
          [
            1.405954,
            44.474472,
            144.06
          ],
          [
            1.405998,
            44.474449,
            144.04
          ],
          [
            1.406031,
            44.474419,
            144.0
          ],
          [
            1.406051,
            44.474382,
            144.0
          ],
          [
            1.406054,
            44.474343,
            144.0
          ],
          [
            1.406042,
            44.474306,
            144.0
          ],
          [
            1.406016,
            44.474273,
            143.99
          ],
          [
            1.405978,
            44.474246,
            143.99
          ],
          [
            1.40593,
            44.474228,
            143.95
          ],
          [
            1.40611,
            44.473945,
            140.98
          ],
          [
            1.406206,
            44.47385,
            139.76
          ],
          [
            1.406403,
            44.473705,
            137.42
          ],
          [
            1.407116,
            44.473242,
            132.7
          ],
          [
            1.407416,
            44.47302,
            126.73
          ],
          [
            1.407934,
            44.47253,
            129.32
          ],
          [
            1.40795,
            44.472393,
            130.84
          ],
          [
            1.407832,
            44.472244,
            132.48
          ],
          [
            1.407808,
            44.472133,
            133.58
          ],
          [
            1.407929,
            44.472035,
            134.94
          ],
          [
            1.408078,
            44.472018,
            136.07
          ],
          [
            1.408486,
            44.47206,
            139.44
          ],
          [
            1.408716,
            44.472033,
            141.05
          ],
          [
            1.408935,
            44.471973,
            142.6
          ],
          [
            1.409073,
            44.471919,
            143.41
          ],
          [
            1.409238,
            44.471791,
            144.37
          ],
          [
            1.409992,
            44.471158,
            148.0
          ],
          [
            1.411038,
            44.470334,
            148.0
          ],
          [
            1.411286,
            44.470107,
            147.0
          ],
          [
            1.411341,
            44.470074,
            147.0
          ],
          [
            1.41139,
            44.46997,
            147.0
          ],
          [
            1.411371,
            44.469904,
            147.09
          ],
          [
            1.41134,
            44.469715,
            147.41
          ],
          [
            1.411345,
            44.469447,
            147.06
          ],
          [
            1.411368,
            44.469285,
            147.0
          ],
          [
            1.411697,
            44.468157,
            147.63
          ],
          [
            1.411789,
            44.468021,
            147.83
          ],
          [
            1.411951,
            44.467892,
            147.94
          ],
          [
            1.412326,
            44.467776,
            147.61
          ],
          [
            1.412423,
            44.467746,
            147.86
          ],
          [
            1.412408,
            44.467724,
            148.0
          ],
          [
            1.412648,
            44.467652,
            147.93
          ],
          [
            1.412879,
            44.467538,
            148.55
          ],
          [
            1.413061,
            44.467412,
            149.0
          ],
          [
            1.413203,
            44.467347,
            148.95
          ],
          [
            1.413263,
            44.467376,
            149.0
          ],
          [
            1.413296,
            44.46736,
            148.98
          ],
          [
            1.413407,
            44.467333,
            148.77
          ],
          [
            1.413472,
            44.467353,
            148.94
          ],
          [
            1.413523,
            44.46736,
            148.95
          ],
          [
            1.413885,
            44.467225,
            148.38
          ],
          [
            1.413996,
            44.467202,
            148.72
          ],
          [
            1.414027,
            44.467222,
            148.86
          ],
          [
            1.414164,
            44.467222,
            148.87
          ],
          [
            1.414646,
            44.467085,
            148.2
          ],
          [
            1.415057,
            44.467037,
            147.93
          ],
          [
            1.415293,
            44.467098,
            147.13
          ],
          [
            1.415832,
            44.467352,
            145.12
          ],
          [
            1.41625,
            44.467567,
            144.0
          ],
          [
            1.416577,
            44.46738,
            143.8
          ],
          [
            1.417222,
            44.466972,
            143.65
          ],
          [
            1.417324,
            44.466894,
            143.71
          ],
          [
            1.417457,
            44.466736,
            144.0
          ],
          [
            1.41751,
            44.466744,
            144.0
          ],
          [
            1.417673,
            44.466592,
            143.46
          ],
          [
            1.417781,
            44.466548,
            143.32
          ],
          [
            1.417861,
            44.466498,
            143.29
          ],
          [
            1.418038,
            44.466288,
            143.3
          ],
          [
            1.418154,
            44.466087,
            143.94
          ],
          [
            1.418147,
            44.466067,
            143.99
          ],
          [
            1.418117,
            44.466038,
            144.0
          ],
          [
            1.41843,
            44.46579,
            142.44
          ],
          [
            1.418578,
            44.465567,
            141.89
          ],
          [
            1.418775,
            44.464807,
            137.84
          ],
          [
            1.419038,
            44.464447,
            137.91
          ],
          [
            1.419353,
            44.464061,
            137.27
          ],
          [
            1.419463,
            44.463901,
            135.88
          ],
          [
            1.419589,
            44.463805,
            134.09
          ],
          [
            1.419968,
            44.463591,
            129.38
          ],
          [
            1.420448,
            44.463357,
            123.85
          ],
          [
            1.420808,
            44.463204,
            120.29
          ],
          [
            1.42085,
            44.463167,
            120.0
          ],
          [
            1.420911,
            44.463175,
            120.0
          ],
          [
            1.420972,
            44.463167,
            120.0
          ],
          [
            1.421026,
            44.463145,
            120.0
          ],
          [
            1.421059,
            44.46312,
            119.96
          ],
          [
            1.421082,
            44.463089,
            119.91
          ],
          [
            1.421092,
            44.463055,
            119.86
          ],
          [
            1.421088,
            44.46302,
            119.64
          ],
          [
            1.421444,
            44.462764,
            118.12
          ],
          [
            1.421646,
            44.462574,
            118.0
          ],
          [
            1.421672,
            44.462596,
            117.82
          ],
          [
            1.421764,
            44.462506,
            117.89
          ],
          [
            1.421824,
            44.462469,
            117.87
          ],
          [
            1.421886,
            44.462446,
            117.89
          ],
          [
            1.421955,
            44.462461,
            117.87
          ],
          [
            1.422033,
            44.462495,
            117.64
          ],
          [
            1.422095,
            44.462434,
            117.88
          ],
          [
            1.422172,
            44.462407,
            117.43
          ],
          [
            1.422192,
            44.462382,
            117.36
          ],
          [
            1.422166,
            44.46232,
            117.42
          ],
          [
            1.422168,
            44.46225,
            117.38
          ],
          [
            1.422153,
            44.462143,
            117.3
          ],
          [
            1.423834,
            44.460184,
            116.29
          ],
          [
            1.424076,
            44.460145,
            116.5
          ],
          [
            1.424095,
            44.46011,
            116.75
          ],
          [
            1.424154,
            44.460069,
            116.94
          ],
          [
            1.424111,
            44.459982,
            116.8
          ],
          [
            1.42409,
            44.459905,
            116.58
          ],
          [
            1.424076,
            44.459805,
            116.5
          ],
          [
            1.42409,
            44.459725,
            116.54
          ],
          [
            1.424388,
            44.459231,
            116.88
          ],
          [
            1.424764,
            44.458891,
            116.98
          ],
          [
            1.424853,
            44.458878,
            116.98
          ],
          [
            1.424929,
            44.458783,
            117.02
          ],
          [
            1.424912,
            44.458734,
            117.05
          ],
          [
            1.425093,
            44.458538,
            117.12
          ],
          [
            1.425423,
            44.458147,
            117.19
          ],
          [
            1.425598,
            44.457897,
            117.06
          ],
          [
            1.425706,
            44.457776,
            117.0
          ],
          [
            1.425689,
            44.457709,
            117.0
          ],
          [
            1.425767,
            44.457458,
            117.0
          ],
          [
            1.425923,
            44.456582,
            118.55
          ],
          [
            1.426021,
            44.45631,
            119.02
          ],
          [
            1.426114,
            44.456108,
            119.95
          ],
          [
            1.42705,
            44.454234,
            121.73
          ],
          [
            1.427344,
            44.453703,
            120.11
          ],
          [
            1.427413,
            44.453625,
            120.0
          ],
          [
            1.427387,
            44.453598,
            120.01
          ],
          [
            1.427341,
            44.453572,
            120.13
          ],
          [
            1.427302,
            44.453561,
            120.24
          ],
          [
            1.427363,
            44.453438,
            120.25
          ],
          [
            1.427354,
            44.453383,
            120.3
          ],
          [
            1.427385,
            44.453332,
            120.12
          ],
          [
            1.427413,
            44.453313,
            120.0
          ],
          [
            1.427528,
            44.453122,
            119.29
          ],
          [
            1.427823,
            44.451995,
            120.43
          ],
          [
            1.427945,
            44.45141,
            121.07
          ],
          [
            1.428469,
            44.450024,
            120.83
          ],
          [
            1.42903,
            44.448807,
            118.24
          ],
          [
            1.429436,
            44.447779,
            119.08
          ],
          [
            1.429628,
            44.447248,
            119.01
          ],
          [
            1.429771,
            44.446981,
            118.45
          ],
          [
            1.42988,
            44.446742,
            118.19
          ],
          [
            1.430052,
            44.446451,
            117.31
          ],
          [
            1.430057,
            44.44634,
            117.83
          ],
          [
            1.430022,
            44.446257,
            118.75
          ],
          [
            1.429971,
            44.446194,
            119.46
          ],
          [
            1.429847,
            44.446073,
            120.39
          ],
          [
            1.42979,
            44.446003,
            120.99
          ],
          [
            1.429761,
            44.445946,
            121.56
          ],
          [
            1.429688,
            44.445696,
            124.84
          ],
          [
            1.429622,
            44.445572,
            126.73
          ],
          [
            1.429426,
            44.445427,
            127.71
          ],
          [
            1.429287,
            44.445299,
            127.86
          ],
          [
            1.429201,
            44.445217,
            127.13
          ],
          [
            1.429042,
            44.445019,
            127.31
          ],
          [
            1.428936,
            44.444862,
            127.69
          ],
          [
            1.42874,
            44.444473,
            128.47
          ],
          [
            1.428451,
            44.444001,
            129.24
          ],
          [
            1.42831,
            44.443849,
            129.78
          ],
          [
            1.428198,
            44.443766,
            130.09
          ],
          [
            1.428086,
            44.443711,
            130.52
          ],
          [
            1.427794,
            44.443628,
            131.25
          ],
          [
            1.427549,
            44.443548,
            131.84
          ],
          [
            1.427262,
            44.443441,
            132.79
          ],
          [
            1.427103,
            44.443515,
            132.04
          ],
          [
            1.427043,
            44.443567,
            131.82
          ],
          [
            1.426938,
            44.443611,
            131.89
          ],
          [
            1.426793,
            44.443648,
            132.17
          ],
          [
            1.42658,
            44.443676,
            132.77
          ],
          [
            1.426171,
            44.443682,
            133.87
          ],
          [
            1.426025,
            44.443651,
            134.35
          ],
          [
            1.425846,
            44.443598,
            135.42
          ],
          [
            1.425669,
            44.443531,
            136.28
          ],
          [
            1.425453,
            44.443432,
            137.39
          ],
          [
            1.425035,
            44.44322,
            138.71
          ],
          [
            1.424984,
            44.443205,
            138.81
          ],
          [
            1.424907,
            44.443212,
            138.86
          ],
          [
            1.424803,
            44.44326,
            138.58
          ],
          [
            1.424705,
            44.443295,
            138.71
          ],
          [
            1.424617,
            44.443298,
            139.18
          ],
          [
            1.424522,
            44.443273,
            139.59
          ],
          [
            1.424188,
            44.443088,
            141.22
          ],
          [
            1.423336,
            44.442704,
            144.92
          ],
          [
            1.423129,
            44.442548,
            145.83
          ],
          [
            1.422876,
            44.44239,
            146.97
          ],
          [
            1.422811,
            44.442394,
            147.75
          ]
        ]
      }
    },
    {
      "type": "Feature",
      "properties": {
        "source": "Boucle_Catus-Cahors.gpx",
        "type": "route"
      },
      "geometry": {
        "type": "LineString",
        "coordinates": [
          [
            1.336978,
            44.554704
          ],
          [
            1.337009,
            44.554824
          ],
          [
            1.336952,
            44.554843
          ],
          [
            1.336733,
            44.555183
          ],
          [
            1.32764,
            44.550362
          ],
          [
            1.327373,
            44.549227
          ],
          [
            1.325468,
            44.545184
          ],
          [
            1.328026,
            44.542601
          ],
          [
            1.33889,
            44.533778
          ],
          [
            1.345917,
            44.52556
          ],
          [
            1.350542,
            44.523737
          ],
          [
            1.352392,
            44.521068
          ],
          [
            1.351781,
            44.520777
          ],
          [
            1.351846,
            44.520715
          ],
          [
            1.351934,
            44.520699
          ],
          [
            1.352065,
            44.520208
          ],
          [
            1.353226,
            44.514433
          ],
          [
            1.358804,
            44.506414
          ],
          [
            1.364855,
            44.501446
          ],
          [
            1.369985,
            44.49923
          ],
          [
            1.37309,
            44.4985
          ],
          [
            1.368089,
            44.488863
          ],
          [
            1.366207,
            44.482481
          ],
          [
            1.365847,
            44.481438
          ],
          [
            1.362774,
            44.480317
          ],
          [
            1.3629,
            44.48012
          ],
          [
            1.36303,
            44.480312
          ],
          [
            1.359987,
            44.475185
          ],
          [
            1.359886,
            44.472898
          ],
          [
            1.360734,
            44.471865
          ],
          [
            1.361839,
            44.470067
          ],
          [
            1.361913,
            44.470016
          ],
          [
            1.361087,
            44.469238
          ],
          [
            1.361641,
            44.468735
          ],
          [
            1.370939,
            44.463652
          ],
          [
            1.371809,
            44.463492
          ],
          [
            1.372337,
            44.463523
          ],
          [
            1.374345,
            44.464424
          ],
          [
            1.393517,
            44.469335
          ],
          [
            1.397177,
            44.475111
          ],
          [
            1.401427,
            44.477347
          ],
          [
            1.402688,
            44.47724
          ],
          [
            1.40322,
            44.477426
          ],
          [
            1.405185,
            44.475401
          ],
          [
            1.405185,
            44.475401
          ],
          [
            1.405848,
            44.474487
          ],
          [
            1.412326,
            44.467776
          ],
          [
            1.412423,
            44.467746
          ],
          [
            1.412408,
            44.467724
          ],
          [
            1.413203,
            44.467347
          ],
          [
            1.413263,
            44.467376
          ],
          [
            1.413407,
            44.467333
          ],
          [
            1.413996,
            44.467202
          ],
          [
            1.41625,
            44.467567
          ],
          [
            1.417457,
            44.466736
          ],
          [
            1.41751,
            44.466744
          ],
          [
            1.418117,
            44.466038
          ],
          [
            1.42085,
            44.463167
          ],
          [
            1.421646,
            44.462574
          ],
          [
            1.422033,
            44.462495
          ],
          [
            1.425706,
            44.457776
          ],
          [
            1.427302,
            44.453561
          ],
          [
            1.427363,
            44.453438
          ],
          [
            1.430022,
            44.446257
          ],
          [
            1.427262,
            44.443441
          ],
          [
            1.422876,
            44.44239
          ],
          [
            1.422811,
            44.442394
          ]
        ]
      }
    }
  ]
}