{
  "type": "FeatureCollection",
  "features": [
    {
      "type": "Feature",
      "properties": {
        "name": "GraphHopper Track",
        "source": "Château_Belpech.gpx",
        "type": "track"
      },
      "geometry": {
        "type": "LineString",
        "coordinates": [
          [
            1.752147,
            43.198487,
            244.07
          ],
          [
            1.751911,
            43.198417,
            242.7
          ],
          [
            1.752148,
            43.198006,
            243.06
          ],
          [
            1.75217,
            43.197864,
            243.19
          ],
          [
            1.75229,
            43.1978,
            243.89
          ],
          [
            1.752771,
            43.198067,
            248.36
          ],
          [
            1.752863,
            43.198108,
            249.2
          ],
          [
            1.752863,
            43.198108,
            249.2
          ],
          [
            1.752771,
            43.198067,
            248.36
          ],
          [
            1.75229,
            43.1978,
            243.89
          ],
          [
            1.752853,
            43.197381,
            246.17
          ],
          [
            1.752982,
            43.19724,
            246.91
          ],
          [
            1.753449,
            43.197445,
            250.81
          ]
        ]
      }
    },
    {
      "type": "Feature",
      "properties": {
        "source": "Château_Belpech.gpx",
        "type": "route"
      },
      "geometry": {
        "type": "LineString",
        "coordinates": [
          [
            1.752147,
            43.198487
          ],
          [
            1.751911,
            43.198417
          ],
          [
            1.75217,
            43.197864
          ],
          [
            1.75229,
            43.1978
          ],
          [
            1.752863,
            43.198108
          ],
          [
            1.752863,
            43.198108
          ],
          [
            1.75229,
            43.1978
          ],
          [
            1.752982,
            43.19724
          ],
          [
            1.753449,
            43.197445
          ]
        ]
      }
    }
  ]
}