{
  "type": "FeatureCollection",
  "features": [
    {
      "type": "Feature",
      "properties": {
        "name": "GraphHopper Track",
        "source": "Connac_Éperon.gpx",
        "type": "track"
      },
      "geometry": {
        "type": "LineString",
        "coordinates": [
          [
            2.504624,
            44.003784,
            425.21
          ],
          [
            2.504189,
            44.003727,
            427.55
          ],
          [
            2.503929,
            44.00361,
            430.43
          ],
          [
            2.503848,
            44.003354,
            432.99
          ],
          [
            2.503594,
            44.003128,
            435.2
          ],
          [
            2.502804,
            44.003054,
            437.44
          ],
          [
            2.502023,
            44.002833,
            440.17
          ],
          [
            2.501915,
            44.002594,
            443.19
          ],
          [
            2.502261,
            44.001849,
            456.77
          ],
          [
            2.50239,
            44.001854,
            458.39
          ],
          [
            2.502617,
            44.002013,
            462.19
          ],
          [
            2.503226,
            44.002236,
            469.39
          ],
          [
            2.503416,
            44.002208,
            471.53
          ],
          [
            2.503416,
            44.002208,
            471.53
          ],
          [
            2.503582,
            44.002183,
            473.41
          ],
          [
            2.503923,
            44.002024,
            477.89
          ],
          [
            2.504039,
            44.001749,
            482.13
          ],
          [
            2.503902,
            44.000855,
            494.79
          ],
          [
            2.504332,
            43.999668,
            504.19
          ],
          [
            2.503749,
            43.999682,
            503.25
          ],
          [
            2.503207,
            43.999628,
            502.61
          ],
          [
            2.502633,
            43.999385,
            502.23
          ],
          [
            2.501332,
            43.998267,
            503.61
          ],
          [
            2.500553,
            43.997804,
            502.94
          ],
          [
            2.500511,
            43.997809,
            502.96
          ],
          [
            2.500028,
            43.997683,
            501.42
          ],
          [
            2.499595,
            43.997806,
            498.41
          ],
          [
            2.499344,
            43.997837,
            495.59
          ],
          [
            2.4991,
            43.997771,
            492.74
          ],
          [
            2.498954,
            43.997743,
            491.93
          ],
          [
            2.498806,
            43.99775,
            491.37
          ],
          [
            2.498657,
            43.997799,
            490.95
          ],
          [
            2.498502,
            43.997876,
            490.33
          ],
          [
            2.498356,
            43.997971,
            489.47
          ],
          [
            2.498184,
            43.998103,
            488.5
          ],
          [
            2.498041,
            43.998321,
            487.28
          ],
          [
            2.497986,
            43.998456,
            486.56
          ],
          [
            2.497943,
            43.998693,
            485.17
          ],
          [
            2.497847,
            43.998908,
            483.63
          ],
          [
            2.497737,
            43.999027,
            482.78
          ],
          [
            2.497584,
            43.999097,
            482.06
          ],
          [
            2.497401,
            43.999093,
            480.96
          ],
          [
            2.497216,
            43.999068,
            479.82
          ],
          [
            2.496851,
            43.999431,
            476.1
          ],
          [
            2.496768,
            43.999463,
            475.84
          ],
          [
            2.496686,
            43.999632,
            474.87
          ],
          [
            2.496662,
            43.99976,
            474.09
          ],
          [
            2.496673,
            43.999871,
            473.35
          ],
          [
            2.496736,
            43.999956,
            472.57
          ],
          [
            2.496813,
            43.999997,
            471.91
          ],
          [
            2.496934,
            44.00003,
            470.9
          ],
          [
            2.497075,
            44.000091,
            469.25
          ],
          [
            2.497002,
            44.000301,
            465.46
          ],
          [
            2.497037,
            44.000509,
            462.19
          ],
          [
            2.496989,
            44.000629,
            460.64
          ],
          [
            2.496801,
            44.000913,
            455.9
          ],
          [
            2.496681,
            44.001077,
            452.75
          ],
          [
            2.496648,
            44.001154,
            451.39
          ],
          [
            2.496614,
            44.001291,
            449.0
          ],
          [
            2.496512,
            44.001384,
            446.87
          ],
          [
            2.49652,
            44.001661,
            441.48
          ],
          [
            2.496249,
            44.001995,
            433.54
          ],
          [
            2.496144,
            44.002149,
            430.15
          ],
          [
            2.496002,
            44.002298,
            426.85
          ],
          [
            2.495975,
            44.002381,
            425.37
          ],
          [
            2.495879,
            44.002474,
            423.5
          ],
          [
            2.495699,
            44.002597,
            420.9
          ],
          [
            2.495573,
            44.002721,
            418.94
          ],
          [
            2.495396,
            44.002821,
            417.06
          ],
          [
            2.495052,
            44.002852,
            414.91
          ],
          [
            2.494747,
            44.002805,
            412.81
          ],
          [
            2.49453,
            44.002755,
            411.08
          ],
          [
            2.494385,
            44.002705,
            409.6
          ],
          [
            2.494229,
            44.002692,
            408.5
          ],
          [
            2.493781,
            44.002759,
            402.97
          ],
          [
            2.49366,
            44.002811,
            400.25
          ],
          [
            2.493475,
            44.002859,
            395.79
          ],
          [
            2.493392,
            44.002898,
            392.93
          ],
          [
            2.493202,
            44.002906,
            388.18
          ],
          [
            2.493089,
            44.002888,
            385.46
          ],
          [
            2.49299,
            44.002913,
            383.9
          ],
          [
            2.492944,
            44.002991,
            382.86
          ],
          [
            2.492966,
            44.003048,
            382.39
          ],
          [
            2.493078,
            44.003139,
            381.17
          ],
          [
            2.493258,
            44.003222,
            378.33
          ],
          [
            2.493462,
            44.00327,
            377.3
          ],
          [
            2.49362,
            44.003338,
            376.86
          ],
          [
            2.493816,
            44.003448,
            373.44
          ],
          [
            2.493827,
            44.003488,
            371.83
          ],
          [
            2.494307,
            44.003784,
            367.7
          ],
          [
            2.49492,
            44.004074,
            364.79
          ],
          [
            2.495164,
            44.00431,
            363.29
          ],
          [
            2.495337,
            44.004353,
            362.49
          ],
          [
            2.495487,
            44.00436,
            361.74
          ],
          [
            2.495688,
            44.004351,
            360.61
          ],
          [
            2.495826,
            44.004402,
            359.73
          ],
          [
            2.49594,
            44.004476,
            358.96
          ],
          [
            2.496048,
            44.004681,
            357.73
          ],
          [
            2.496071,
            44.004943,
            355.91
          ],
          [
            2.496025,
            44.005198,
            354.41
          ],
          [
            2.49582,
            44.005327,
            354.04
          ],
          [
            2.495449,
            44.005449,
            353.6
          ],
          [
            2.495432,
            44.005465,
            353.61
          ]
        ]
      }
    },
    {
      "type": "Feature",
      "properties": {
        "source": "Connac_Éperon.gpx",
        "type": "route"
      },
      "geometry": {
        "type": "LineString",
        "coordinates": [
          [
            2.504624,
            44.003784
          ],
          [
            2.503416,
            44.002208
          ],
          [
            2.503416,
            44.002208
          ],
          [
            2.504332,
            43.999668
          ],
          [
            2.500553,
            43.997804
          ],
          [
            2.497216,
            43.999068
          ],
          [
            2.496768,
            43.999463
          ],
          [
            2.496736,
            43.999956
          ],
          [
            2.497075,
            44.000091
          ],
          [
            2.493827,
            44.003488
          ],
          [
            2.495432,
            44.005465
          ]
        ]
      }
    }
  ]
}