{
  "type": "FeatureCollection",
  "features": [
    {
      "type": "Feature",
      "properties": {
        "name": "GraphHopper Track",
        "source": "Villefranche-Panat.gpx",
        "type": "track"
      },
      "geometry": {
        "type": "LineString",
        "coordinates": [
          [
            2.705504,
            44.088495,
            716.9
          ],
          [
            2.705553,
            44.088515,
            717.44
          ],
          [
            2.705669,
            44.088598,
            719.64
          ],
          [
            2.705674,
            44.088647,
            720.64
          ],
          [
            2.70525,
            44.089094,
            724.32
          ],
          [
            2.70545,
            44.089191,
            727.4
          ],
          [
            2.706263,
            44.089481,
            736.82
          ],
          [
            2.70661,
            44.089555,
            740.39
          ],
          [
            2.706955,
            44.089604,
            743.94
          ],
          [
            2.707143,
            44.089691,
            745.47
          ],
          [
            2.707324,
            44.0897,
            746.62
          ],
          [
            2.707521,
            44.089725,
            748.02
          ],
          [
            2.707645,
            44.089732,
            748.98
          ],
          [
            2.708095,
            44.089974,
            752.72
          ],
          [
            2.708307,
            44.090123,
            754.19
          ],
          [
            2.708416,
            44.090241,
            754.97
          ],
          [
            2.708883,
            44.090646,
            756.86
          ],
          [
            2.709383,
            44.091001,
            757.11
          ],
          [
            2.709703,
            44.091259,
            757.35
          ],
          [
            2.709973,
            44.091509,
            757.76
          ],
          [
            2.710265,
            44.091824,
            759.19
          ],
          [
            2.710328,
            44.09192,
            759.78
          ],
          [
            2.710418,
            44.092143,
            761.02
          ],
          [
            2.710587,
            44.09288,
            764.91
          ],
          [
            2.71079,
            44.093422,
            767.19
          ],
          [
            2.71097,
            44.093804,
            768.56
          ],
          [
            2.710978,
            44.093857,
            768.72
          ],
          [
            2.710948,
            44.093995,
            769.0
          ],
          [
            2.711007,
            44.094062,
            769.4
          ],
          [
            2.711176,
            44.094225,
            769.82
          ],
          [
            2.711315,
            44.094341,
            770.13
          ],
          [
            2.711494,
            44.094465,
            770.48
          ],
          [
            2.711757,
            44.094626,
            770.96
          ],
          [
            2.712741,
            44.095171,
            772.75
          ],
          [
            2.713027,
            44.095341,
            773.28
          ],
          [
            2.713219,
            44.095472,
            773.65
          ],
          [
            2.713553,
            44.095749,
            774.34
          ],
          [
            2.714076,
            44.096256,
            775.98
          ],
          [
            2.714076,
            44.096256,
            775.98
          ],
          [
            2.713553,
            44.095749,
            774.34
          ],
          [
            2.713219,
            44.095472,
            773.65
          ],
          [
            2.713027,
            44.095341,
            773.28
          ],
          [
            2.712741,
            44.095171,
            772.75
          ],
          [
            2.711757,
            44.094626,
            770.96
          ],
          [
            2.711494,
            44.094465,
            770.48
          ],
          [
            2.711315,
            44.094341,
            770.13
          ],
          [
            2.711176,
            44.094225,
            769.82
          ],
          [
            2.711007,
            44.094062,
            769.4
          ],
          [
            2.710948,
            44.093995,
            769.0
          ],
          [
            2.710978,
            44.093857,
            768.72
          ],
          [
            2.71097,
            44.093804,
            768.56
          ],
          [
            2.71079,
            44.093422,
            767.19
          ],
          [
            2.710587,
            44.09288,
            764.91
          ],
          [
            2.710418,
            44.092143,
            761.02
          ],
          [
            2.710328,
            44.09192,
            759.78
          ],
          [
            2.710265,
            44.091824,
            759.19
          ],
          [
            2.709973,
            44.091509,
            757.76
          ],
          [
            2.709703,
            44.091259,
            757.35
          ],
          [
            2.709383,
            44.091001,
            757.11
          ],
          [
            2.708883,
            44.090646,
            756.86
          ],
          [
            2.708416,
            44.090241,
            754.97
          ],
          [
            2.708307,
            44.090123,
            754.19
          ],
          [
            2.708095,
            44.089974,
            752.72
          ],
          [
            2.707645,
            44.089732,
            748.98
          ],
          [
            2.707521,
            44.089725,
            748.02
          ],
          [
            2.707324,
            44.0897,
            746.62
          ],
          [
            2.707143,
            44.089691,
            745.47
          ],
          [
            2.706955,
            44.089604,
            743.94
          ],
          [
            2.706757,
            44.089481,
            741.49
          ],
          [
            2.706517,
            44.089313,
            738.19
          ],
          [
            2.706319,
            44.089146,
            734.29
          ],
          [
            2.705606,
            44.088719,
            721.39
          ],
          [
            2.705674,
            44.088647,
            720.64
          ],
          [
            2.705669,
            44.088598,
            719.64
          ],
          [
            2.705553,
            44.088515,
            717.44
          ],
          [
            2.705504,
            44.088495,
            716.9
          ]
        ]
      }
    },
    {
      "type": "Feature",
      "properties": {
        "source": "Villefranche-Panat.gpx",
        "type": "route"
      },
      "geometry": {
        "type": "LineString",
        "coordinates": [
          [
            2.705504,
            44.088495
          ],
          [
            2.70525,
            44.089094
          ],
          [
            2.707143,
            44.089691
          ],
          [
            2.707324,
            44.0897
          ],
          [
            2.710948,
            44.093995
          ],
          [
            2.714076,
            44.096256
          ],
          [
            2.714076,
            44.096256
          ],
          [
            2.710948,
            44.093995
          ],
          [
            2.707324,
            44.0897
          ],
          [
            2.707143,
            44.089691
          ],
          [
            2.706955,
            44.089604
          ],
          [
            2.705606,
            44.088719
          ],
          [
            2.705504,
            44.088495
          ]
        ]
      }
    }
  ]
}