{
  "type": "FeatureCollection",
  "features": [
    {
      "type": "Feature",
      "properties": {
        "name": "GraphHopper Track",
        "source": "Salles-Courbatiès.gpx",
        "type": "track"
      },
      "geometry": {
        "type": "LineString",
        "coordinates": [
          [
            2.078359,
            44.473343,
            287.36
          ],
          [
            2.079178,
            44.472963,
            283.06
          ],
          [
            2.080381,
            44.473832,
            277.57
          ],
          [
            2.080506,
            44.473909,
            277.2
          ],
          [
            2.08112,
            44.474335,
            275.38
          ],
          [
            2.08265,
            44.475274,
            266.99
          ],
          [
            2.084005,
            44.476075,
            263.48
          ],
          [
            2.08419,
            44.47622,
            263.08
          ],
          [
            2.084243,
            44.476193,
            262.96
          ],
          [
            2.084711,
            44.476139,
            261.4
          ],
          [
            2.086322,
            44.476099,
            259.0
          ],
          [
            2.086473,
            44.476165,
            259.0
          ],
          [
            2.086476,
            44.47623,
            259.0
          ],
          [
            2.086336,
            44.476512,
            259.27
          ],
          [
            2.086386,
            44.476731,
            259.5
          ],
          [
            2.086454,
            44.476901,
            259.57
          ],
          [
            2.087919,
            44.478617,
            262.67
          ],
          [
            2.089012,
            44.479705,
            268.88
          ],
          [
            2.089178,
            44.479768,
            269.66
          ],
          [
            2.089791,
            44.479631,
            273.57
          ],
          [
            2.090438,
            44.479467,
            278.15
          ],
          [
            2.090691,
            44.479373,
            279.45
          ],
          [
            2.091177,
            44.47896,
            278.65
          ],
          [
            2.091584,
            44.478682,
            276.81
          ],
          [
            2.091716,
            44.478597,
            276.09
          ],
          [
            2.091854,
            44.47858,
            275.51
          ],
          [
            2.091955,
            44.478623,
            275.03
          ],
          [
            2.092015,
            44.478746,
            274.21
          ],
          [
            2.092141,
            44.479225,
            272.08
          ],
          [
            2.092267,
            44.479413,
            271.38
          ],
          [
            2.092477,
            44.479559,
            270.74
          ],
          [
            2.092938,
            44.479777,
            269.42
          ],
          [
            2.09322,
            44.479986,
            268.09
          ],
          [
            2.093441,
            44.480213,
            266.42
          ],
          [
            2.093609,
            44.480448,
            264.5
          ],
          [
            2.093819,
            44.48111,
            258.96
          ],
          [
            2.093914,
            44.481273,
            257.9
          ],
          [
            2.09407,
            44.481371,
            256.7
          ],
          [
            2.095076,
            44.48146,
            252.0
          ],
          [
            2.096419,
            44.481773,
            250.37
          ],
          [
            2.098309,
            44.482171,
            249.32
          ],
          [
            2.098429,
            44.481623,
            250.75
          ],
          [
            2.098494,
            44.481409,
            252.19
          ],
          [
            2.101102,
            44.480297,
            252.59
          ],
          [
            2.101622,
            44.480068,
            253.0
          ],
          [
            2.103595,
            44.479275,
            256.03
          ],
          [
            2.105381,
            44.47853,
            258.66
          ],
          [
            2.10546,
            44.47851,
            258.71
          ],
          [
            2.105535,
            44.47852,
            258.76
          ],
          [
            2.105583,
            44.47855,
            258.8
          ],
          [
            2.106021,
            44.479232,
            258.64
          ],
          [
            2.109166,
            44.478031,
            264.19
          ],
          [
            2.109237,
            44.478013,
            264.31
          ],
          [
            2.109299,
            44.478018,
            264.41
          ],
          [
            2.10935,
            44.478048,
            264.52
          ],
          [
            2.109425,
            44.478134,
            264.74
          ],
          [
            2.109471,
            44.478157,
            264.82
          ],
          [
            2.109532,
            44.478161,
            264.91
          ],
          [
            2.109618,
            44.478148,
            265.02
          ],
          [
            2.112078,
            44.477535,
            268.36
          ],
          [
            2.112456,
            44.47795,
            268.93
          ],
          [
            2.112834,
            44.478338,
            268.8
          ],
          [
            2.112893,
            44.47842,
            268.73
          ],
          [
            2.112964,
            44.47866,
            267.94
          ],
          [
            2.113018,
            44.478754,
            267.21
          ],
          [
            2.113068,
            44.478799,
            267.01
          ],
          [
            2.113134,
            44.478817,
            266.92
          ],
          [
            2.113704,
            44.478685,
            266.82
          ],
          [
            2.113858,
            44.478613,
            266.98
          ],
          [
            2.113951,
            44.478591,
            267.0
          ],
          [
            2.114181,
            44.478468,
            267.58
          ],
          [
            2.114498,
            44.478317,
            268.25
          ],
          [
            2.114646,
            44.478297,
            268.58
          ],
          [
            2.114776,
            44.478324,
            269.22
          ],
          [
            2.115422,
            44.478597,
            279.54
          ],
          [
            2.115422,
            44.478597,
            279.54
          ],
          [
            2.114776,
            44.478324,
            269.22
          ],
          [
            2.114646,
            44.478297,
            268.58
          ],
          [
            2.114498,
            44.478317,
            268.25
          ],
          [
            2.114181,
            44.478468,
            267.58
          ],
          [
            2.113951,
            44.478591,
            267.0
          ],
          [
            2.113858,
            44.478613,
            266.98
          ],
          [
            2.113704,
            44.478685,
            266.82
          ],
          [
            2.113134,
            44.478817,
            266.92
          ],
          [
            2.113068,
            44.478799,
            267.01
          ],
          [
            2.113018,
            44.478754,
            267.21
          ],
          [
            2.112964,
            44.47866,
            267.94
          ],
          [
            2.112893,
            44.47842,
            268.73
          ],
          [
            2.112834,
            44.478338,
            268.8
          ],
          [
            2.112456,
            44.47795,
            268.93
          ],
          [
            2.112078,
            44.477535,
            268.36
          ],
          [
            2.109618,
            44.478148,
            265.02
          ],
          [
            2.109532,
            44.478161,
            264.91
          ],
          [
            2.109471,
            44.478157,
            264.82
          ],
          [
            2.109425,
            44.478134,
            264.74
          ],
          [
            2.10935,
            44.478048,
            264.52
          ],
          [
            2.109299,
            44.478018,
            264.41
          ],
          [
            2.109237,
            44.478013,
            264.31
          ],
          [
            2.109166,
            44.478031,
            264.19
          ],
          [
            2.106021,
            44.479232,
            258.64
          ],
          [
            2.105583,
            44.47855,
            258.8
          ],
          [
            2.105535,
            44.47852,
            258.76
          ],
          [
            2.10546,
            44.47851,
            258.71
          ],
          [
            2.105381,
            44.47853,
            258.66
          ],
          [
            2.103595,
            44.479275,
            256.03
          ],
          [
            2.101622,
            44.480068,
            253.0
          ],
          [
            2.101102,
            44.480297,
            252.59
          ],
          [
            2.098494,
            44.481409,
            252.19
          ],
          [
            2.098429,
            44.481623,
            250.75
          ],
          [
            2.098309,
            44.482171,
            249.32
          ],
          [
            2.096419,
            44.481773,
            250.37
          ],
          [
            2.095076,
            44.48146,
            252.0
          ],
          [
            2.09407,
            44.481371,
            256.7
          ],
          [
            2.093914,
            44.481273,
            257.9
          ],
          [
            2.093819,
            44.48111,
            258.96
          ],
          [
            2.093609,
            44.480448,
            264.5
          ],
          [
            2.093441,
            44.480213,
            266.42
          ],
          [
            2.09322,
            44.479986,
            268.09
          ],
          [
            2.092938,
            44.479777,
            269.42
          ],
          [
            2.092477,
            44.479559,
            270.74
          ],
          [
            2.092267,
            44.479413,
            271.38
          ],
          [
            2.092141,
            44.479225,
            272.08
          ],
          [
            2.092015,
            44.478746,
            274.21
          ],
          [
            2.091955,
            44.478623,
            275.03
          ],
          [
            2.091854,
            44.47858,
            275.51
          ],
          [
            2.091716,
            44.478597,
            276.09
          ],
          [
            2.091584,
            44.478682,
            276.81
          ],
          [
            2.091177,
            44.47896,
            278.65
          ],
          [
            2.090691,
            44.479373,
            279.45
          ],
          [
            2.090438,
            44.479467,
            278.15
          ],
          [
            2.089791,
            44.479631,
            273.57
          ],
          [
            2.089178,
            44.479768,
            269.66
          ],
          [
            2.089012,
            44.479705,
            268.88
          ],
          [
            2.087919,
            44.478617,
            262.67
          ],
          [
            2.086454,
            44.476901,
            259.57
          ],
          [
            2.086386,
            44.476731,
            259.5
          ],
          [
            2.086336,
            44.476512,
            259.27
          ],
          [
            2.086476,
            44.47623,
            259.0
          ],
          [
            2.086473,
            44.476165,
            259.0
          ],
          [
            2.086322,
            44.476099,
            259.0
          ],
          [
            2.084711,
            44.476139,
            261.4
          ],
          [
            2.084243,
            44.476193,
            262.96
          ],
          [
            2.08419,
            44.47622,
            263.08
          ],
          [
            2.084005,
            44.476075,
            263.48
          ],
          [
            2.08265,
            44.475274,
            266.99
          ],
          [
            2.08112,
            44.474335,
            275.38
          ],
          [
            2.080506,
            44.473909,
            277.2
          ],
          [
            2.080381,
            44.473832,
            277.57
          ],
          [
            2.079178,
            44.472963,
            283.06
          ],
          [
            2.078359,
            44.473343,
            287.36
          ]
        ]
      }
    },
    {
      "type": "Feature",
      "properties": {
        "source": "Salles-Courbatiès.gpx",
        "type": "route"
      },
      "geometry": {
        "type": "LineString",
        "coordinates": [
          [
            2.078359,
            44.473343
          ],
          [
            2.079178,
            44.472963
          ],
          [
            2.08419,
            44.47622
          ],
          [
            2.086473,
            44.476165
          ],
          [
            2.089178,
            44.479768
          ],
          [
            2.091854,
            44.47858
          ],
          [
            2.098309,
            44.482171
          ],
          [
            2.098494,
            44.481409
          ],
          [
            2.106021,
            44.479232
          ],
          [
            2.113951,
            44.478591
          ],
          [
            2.115422,
            44.478597
          ],
          [
            2.115422,
            44.478597
          ],
          [
            2.113951,
            44.478591
          ],
          [
            2.106021,
            44.479232
          ],
          [
            2.098494,
            44.481409
          ],
          [
            2.098309,
            44.482171
          ],
          [
            2.091854,
            44.47858
          ],
          [
            2.090691,
            44.479373
          ],
          [
            2.089178,
            44.479768
          ],
          [
            2.086473,
            44.476165
          ],
          [
            2.08419,
            44.47622
          ],
          [
            2.079178,
            44.472963
          ],
          [
            2.078359,
            44.473343
          ]
        ]
      }
    }
  ]
}