{
  "type": "FeatureCollection",
  "features": [
    {
      "type": "Feature",
      "properties": {
        "name": "GraphHopper Track",
        "source": "Boucle_col_de_Laouach.gpx",
        "type": "track"
      },
      "geometry": {
        "type": "LineString",
        "coordinates": [
          [
            0.840411,
            42.992304,
            1053.74
          ],
          [
            0.840036,
            42.992901,
            1039.98
          ],
          [
            0.839478,
            42.993426,
            1028.64
          ],
          [
            0.839127,
            42.99406,
            1018.12
          ],
          [
            0.838702,
            42.994362,
            1014.75
          ],
          [
            0.837363,
            42.995134,
            992.2
          ],
          [
            0.83613,
            42.995962,
            957.5
          ],
          [
            0.835502,
            42.996311,
            940.6
          ],
          [
            0.835475,
            42.996424,
            939.92
          ],
          [
            0.835221,
            42.996671,
            932.91
          ],
          [
            0.835358,
            42.997362,
            928.38
          ],
          [
            0.835648,
            42.997809,
            928.06
          ],
          [
            0.835354,
            42.99849,
            906.76
          ],
          [
            0.835024,
            42.99863,
            899.92
          ],
          [
            0.833775,
            42.998864,
            879.88
          ],
          [
            0.831061,
            42.999971,
            835.66
          ],
          [
            0.830798,
            43.000163,
            831.13
          ],
          [
            0.830557,
            43.000508,
            826.3
          ],
          [
            0.830551,
            43.000818,
            823.86
          ],
          [
            0.830691,
            43.001058,
            822.5
          ],
          [
            0.831158,
            43.001513,
            819.75
          ],
          [
            0.831512,
            43.001736,
            817.64
          ],
          [
            0.831887,
            43.001756,
            816.04
          ],
          [
            0.832906,
            43.001415,
            812.84
          ],
          [
            0.833555,
            43.001315,
            809.95
          ],
          [
            0.833214,
            43.001428,
            808.46
          ],
          [
            0.832241,
            43.001875,
            800.96
          ],
          [
            0.832132,
            43.001937,
            799.85
          ],
          [
            0.832033,
            43.002034,
            798.55
          ],
          [
            0.831929,
            43.002172,
            796.71
          ],
          [
            0.831886,
            43.002266,
            795.42
          ],
          [
            0.8318,
            43.002383,
            793.54
          ],
          [
            0.831692,
            43.002467,
            791.73
          ],
          [
            0.831541,
            43.002637,
            788.38
          ],
          [
            0.831274,
            43.002877,
            783.34
          ],
          [
            0.831166,
            43.002985,
            781.43
          ],
          [
            0.830905,
            43.003116,
            778.36
          ],
          [
            0.830772,
            43.003209,
            776.8
          ],
          [
            0.830762,
            43.003256,
            776.31
          ],
          [
            0.830855,
            43.003278,
            775.62
          ],
          [
            0.830933,
            43.003285,
            775.07
          ],
          [
            0.831717,
            43.003219,
            769.08
          ],
          [
            0.831902,
            43.003214,
            767.81
          ],
          [
            0.832042,
            43.003184,
            766.83
          ],
          [
            0.832238,
            43.003121,
            765.55
          ],
          [
            0.832309,
            43.003051,
            764.89
          ],
          [
            0.832499,
            43.002557,
            760.4
          ],
          [
            0.832605,
            43.002466,
            759.46
          ],
          [
            0.832739,
            43.002433,
            758.78
          ],
          [
            0.833085,
            43.002409,
            757.31
          ],
          [
            0.833389,
            43.002419,
            755.31
          ],
          [
            0.833605,
            43.002384,
            753.29
          ],
          [
            0.833852,
            43.00231,
            752.92
          ],
          [
            0.833975,
            43.002291,
            752.59
          ],
          [
            0.834016,
            43.002332,
            751.03
          ],
          [
            0.834701,
            43.002197,
            745.01
          ],
          [
            0.834847,
            43.002147,
            744.79
          ],
          [
            0.835022,
            43.002057,
            744.64
          ],
          [
            0.835218,
            43.001944,
            744.31
          ],
          [
            0.835508,
            43.001686,
            743.97
          ],
          [
            0.835645,
            43.001604,
            743.94
          ],
          [
            0.835841,
            43.001576,
            743.83
          ],
          [
            0.83597,
            43.00158,
            743.69
          ],
          [
            0.836064,
            43.00161,
            743.49
          ],
          [
            0.836781,
            43.002269,
            737.32
          ],
          [
            0.837215,
            43.002536,
            734.78
          ],
          [
            0.837802,
            43.00282,
            732.41
          ],
          [
            0.838109,
            43.002982,
            731.29
          ],
          [
            0.838164,
            43.003051,
            731.02
          ],
          [
            0.838206,
            43.003149,
            730.69
          ],
          [
            0.838117,
            43.003599,
            729.09
          ],
          [
            0.838151,
            43.003726,
            728.85
          ],
          [
            0.838198,
            43.00376,
            728.84
          ],
          [
            0.838307,
            43.003803,
            728.62
          ],
          [
            0.838368,
            43.003837,
            728.13
          ],
          [
            0.838349,
            43.003841,
            728.16
          ],
          [
            0.838358,
            43.003912,
            727.58
          ],
          [
            0.838258,
            43.004137,
            725.42
          ],
          [
            0.838142,
            43.004318,
            723.85
          ],
          [
            0.838083,
            43.00443,
            722.38
          ],
          [
            0.838052,
            43.004596,
            719.72
          ],
          [
            0.837779,
            43.005413,
            704.94
          ],
          [
            0.837632,
            43.005947,
            695.71
          ],
          [
            0.837495,
            43.006166,
            691.79
          ],
          [
            0.837158,
            43.006532,
            685.57
          ],
          [
            0.837037,
            43.006739,
            682.64
          ],
          [
            0.837041,
            43.006885,
            680.85
          ],
          [
            0.837057,
            43.006966,
            679.84
          ],
          [
            0.837116,
            43.007028,
            679.0
          ],
          [
            0.837272,
            43.007126,
            677.47
          ],
          [
            0.83752,
            43.007154,
            675.54
          ],
          [
            0.837716,
            43.007112,
            674.08
          ],
          [
            0.837833,
            43.00704,
            673.06
          ],
          [
            0.838182,
            43.006754,
            669.83
          ],
          [
            0.838287,
            43.006654,
            668.74
          ],
          [
            0.83841,
            43.00647,
            666.95
          ],
          [
            0.838485,
            43.006386,
            666.18
          ],
          [
            0.838606,
            43.006298,
            665.36
          ],
          [
            0.839059,
            43.006127,
            663.95
          ],
          [
            0.839271,
            43.005988,
            663.64
          ],
          [
            0.839415,
            43.005869,
            663.29
          ],
          [
            0.83951,
            43.005773,
            662.99
          ],
          [
            0.839624,
            43.00569,
            662.64
          ],
          [
            0.839754,
            43.005645,
            662.31
          ],
          [
            0.839849,
            43.005642,
            662.05
          ],
          [
            0.839927,
            43.005649,
            661.82
          ],
          [
            0.840044,
            43.005764,
            661.16
          ],
          [
            0.840159,
            43.006012,
            659.02
          ],
          [
            0.840217,
            43.006098,
            657.86
          ],
          [
            0.840279,
            43.006148,
            656.94
          ],
          [
            0.84041,
            43.006172,
            655.49
          ],
          [
            0.840553,
            43.00616,
            653.82
          ],
          [
            0.84069,
            43.006136,
            652.13
          ],
          [
            0.840948,
            43.00606,
            648.57
          ],
          [
            0.841091,
            43.005998,
            646.29
          ],
          [
            0.84128,
            43.005929,
            643.38
          ],
          [
            0.841822,
            43.005762,
            637.08
          ],
          [
            0.841959,
            43.005683,
            635.84
          ],
          [
            0.842063,
            43.005566,
            634.72
          ],
          [
            0.842318,
            43.00512,
            633.05
          ],
          [
            0.842442,
            43.004967,
            633.08
          ],
          [
            0.842559,
            43.004884,
            633.04
          ],
          [
            0.842722,
            43.004822,
            632.92
          ],
          [
            0.842823,
            43.004807,
            632.82
          ],
          [
            0.842898,
            43.004827,
            632.78
          ],
          [
            0.842957,
            43.004893,
            632.79
          ],
          [
            0.842954,
            43.00538,
            636.61
          ],
          [
            0.842967,
            43.005482,
            638.15
          ],
          [
            0.843016,
            43.005566,
            639.56
          ],
          [
            0.843348,
            43.00589,
            645.49
          ],
          [
            0.843368,
            43.005967,
            646.59
          ],
          [
            0.843365,
            43.006038,
            647.6
          ],
          [
            0.843338,
            43.00611,
            648.61
          ],
          [
            0.843064,
            43.006374,
            652.52
          ],
          [
            0.84281,
            43.006603,
            654.76
          ],
          [
            0.842709,
            43.006775,
            656.27
          ],
          [
            0.842288,
            43.007281,
            662.29
          ],
          [
            0.842034,
            43.00761,
            665.72
          ],
          [
            0.841847,
            43.0079,
            667.91
          ],
          [
            0.841681,
            43.00828,
            670.45
          ],
          [
            0.841549,
            43.008471,
            669.22
          ],
          [
            0.841421,
            43.008621,
            666.2
          ],
          [
            0.841553,
            43.008779,
            667.39
          ],
          [
            0.841608,
            43.008963,
            667.45
          ],
          [
            0.841647,
            43.009177,
            666.59
          ],
          [
            0.841634,
            43.009564,
            664.25
          ],
          [
            0.841638,
            43.009901,
            662.67
          ],
          [
            0.841674,
            43.010074,
            661.95
          ],
          [
            0.841826,
            43.010232,
            660.96
          ],
          [
            0.841935,
            43.010331,
            660.19
          ],
          [
            0.841969,
            43.010433,
            659.52
          ],
          [
            0.841978,
            43.010539,
            658.83
          ],
          [
            0.841838,
            43.010678,
            657.68
          ],
          [
            0.841405,
            43.010902,
            653.76
          ],
          [
            0.841201,
            43.011043,
            651.19
          ],
          [
            0.841082,
            43.011167,
            649.32
          ],
          [
            0.841009,
            43.011299,
            647.65
          ],
          [
            0.840975,
            43.011494,
            645.7
          ],
          [
            0.840963,
            43.01178,
            643.77
          ],
          [
            0.840994,
            43.011901,
            643.32
          ],
          [
            0.841069,
            43.012012,
            643.05
          ],
          [
            0.841223,
            43.012203,
            642.41
          ],
          [
            0.841246,
            43.012275,
            642.38
          ],
          [
            0.841211,
            43.012357,
            642.66
          ],
          [
            0.841124,
            43.012402,
            643.02
          ],
          [
            0.841028,
            43.012401,
            643.4
          ],
          [
            0.840795,
            43.012371,
            644.49
          ],
          [
            0.840762,
            43.012377,
            644.93
          ],
          [
            0.840489,
            43.012071,
            639.56
          ],
          [
            0.840403,
            43.011998,
            638.32
          ],
          [
            0.840331,
            43.011954,
            637.46
          ],
          [
            0.840248,
            43.011931,
            636.62
          ],
          [
            0.840115,
            43.011925,
            635.25
          ],
          [
            0.839993,
            43.011936,
            633.96
          ],
          [
            0.839624,
            43.012037,
            629.91
          ],
          [
            0.839419,
            43.012115,
            627.68
          ],
          [
            0.839319,
            43.01216,
            626.64
          ],
          [
            0.839168,
            43.012269,
            624.93
          ],
          [
            0.838973,
            43.012549,
            621.2
          ],
          [
            0.838948,
            43.012623,
            620.29
          ],
          [
            0.838943,
            43.012689,
            619.57
          ],
          [
            0.839015,
            43.012868,
            617.81
          ],
          [
            0.839023,
            43.01291,
            617.45
          ],
          [
            0.83901,
            43.012941,
            617.18
          ],
          [
            0.838986,
            43.012968,
            616.9
          ],
          [
            0.838948,
            43.01299,
            616.59
          ],
          [
            0.838895,
            43.013001,
            616.23
          ],
          [
            0.83885,
            43.012997,
            615.92
          ],
          [
            0.838799,
            43.012977,
            615.53
          ],
          [
            0.838742,
            43.012934,
            614.96
          ],
          [
            0.838541,
            43.012565,
            610.88
          ],
          [
            0.838439,
            43.012472,
            609.59
          ],
          [
            0.838314,
            43.012399,
            608.55
          ],
          [
            0.837373,
            43.012025,
            601.36
          ],
          [
            0.837373,
            43.012025,
            601.36
          ],
          [
            0.838314,
            43.012399,
            608.55
          ],
          [
            0.838439,
            43.012472,
            609.59
          ],
          [
            0.838541,
            43.012565,
            610.88
          ],
          [
            0.838742,
            43.012934,
            614.96
          ],
          [
            0.838799,
            43.012977,
            615.53
          ],
          [
            0.83885,
            43.012997,
            615.92
          ],
          [
            0.838895,
            43.013001,
            616.23
          ],
          [
            0.838948,
            43.01299,
            616.59
          ],
          [
            0.838986,
            43.012968,
            616.9
          ],
          [
            0.83901,
            43.012941,
            617.18
          ],
          [
            0.839023,
            43.01291,
            617.45
          ],
          [
            0.839015,
            43.012868,
            617.81
          ],
          [
            0.838943,
            43.012689,
            619.57
          ],
          [
            0.838948,
            43.012623,
            620.29
          ],
          [
            0.838973,
            43.012549,
            621.2
          ],
          [
            0.839168,
            43.012269,
            624.93
          ],
          [
            0.839319,
            43.01216,
            626.64
          ],
          [
            0.839419,
            43.012115,
            627.68
          ],
          [
            0.839624,
            43.012037,
            629.91
          ],
          [
            0.839993,
            43.011936,
            633.96
          ],
          [
            0.840115,
            43.011925,
            635.25
          ],
          [
            0.840248,
            43.011931,
            636.62
          ],
          [
            0.840331,
            43.011954,
            637.46
          ],
          [
            0.840403,
            43.011998,
            638.32
          ],
          [
            0.840489,
            43.012071,
            639.56
          ],
          [
            0.840762,
            43.012377,
            644.93
          ],
          [
            0.840795,
            43.012371,
            644.49
          ],
          [
            0.841028,
            43.012401,
            643.4
          ],
          [
            0.841124,
            43.012402,
            643.02
          ],
          [
            0.841211,
            43.012357,
            642.66
          ],
          [
            0.841246,
            43.012275,
            642.38
          ],
          [
            0.841223,
            43.012203,
            642.41
          ],
          [
            0.841069,
            43.012012,
            643.05
          ],
          [
            0.840994,
            43.011901,
            643.32
          ],
          [
            0.840963,
            43.01178,
            643.77
          ],
          [
            0.840975,
            43.011494,
            645.7
          ],
          [
            0.841009,
            43.011299,
            647.65
          ],
          [
            0.841082,
            43.011167,
            649.32
          ],
          [
            0.841201,
            43.011043,
            651.19
          ],
          [
            0.841405,
            43.010902,
            653.76
          ],
          [
            0.841838,
            43.010678,
            657.68
          ],
          [
            0.841978,
            43.010539,
            658.83
          ],
          [
            0.841969,
            43.010433,
            659.52
          ],
          [
            0.841935,
            43.010331,
            660.19
          ],
          [
            0.841826,
            43.010232,
            660.96
          ],
          [
            0.841674,
            43.010074,
            661.95
          ],
          [
            0.841638,
            43.009901,
            662.67
          ],
          [
            0.841634,
            43.009564,
            664.25
          ],
          [
            0.841647,
            43.009177,
            666.59
          ],
          [
            0.841608,
            43.008963,
            667.45
          ],
          [
            0.841553,
            43.008779,
            667.39
          ],
          [
            0.841421,
            43.008621,
            666.2
          ],
          [
            0.841549,
            43.008471,
            669.22
          ],
          [
            0.841681,
            43.00828,
            670.45
          ],
          [
            0.841847,
            43.0079,
            667.91
          ],
          [
            0.842034,
            43.00761,
            665.72
          ],
          [
            0.842288,
            43.007281,
            662.29
          ],
          [
            0.842709,
            43.006775,
            656.27
          ],
          [
            0.84281,
            43.006603,
            654.76
          ],
          [
            0.843064,
            43.006374,
            652.52
          ],
          [
            0.843338,
            43.00611,
            648.61
          ],
          [
            0.843365,
            43.006038,
            647.6
          ],
          [
            0.843368,
            43.005967,
            646.59
          ],
          [
            0.843348,
            43.00589,
            645.49
          ],
          [
            0.843016,
            43.005566,
            639.56
          ],
          [
            0.842967,
            43.005482,
            638.15
          ],
          [
            0.842954,
            43.00538,
            636.61
          ],
          [
            0.842957,
            43.004893,
            632.79
          ],
          [
            0.842898,
            43.004827,
            632.78
          ],
          [
            0.842823,
            43.004807,
            632.82
          ],
          [
            0.842722,
            43.004822,
            632.92
          ],
          [
            0.842559,
            43.004884,
            633.04
          ],
          [
            0.842442,
            43.004967,
            633.08
          ],
          [
            0.842318,
            43.00512,
            633.05
          ],
          [
            0.842063,
            43.005566,
            634.72
          ],
          [
            0.841959,
            43.005683,
            635.84
          ],
          [
            0.841822,
            43.005762,
            637.08
          ],
          [
            0.84128,
            43.005929,
            643.38
          ],
          [
            0.841091,
            43.005998,
            646.29
          ],
          [
            0.840948,
            43.00606,
            648.57
          ],
          [
            0.84069,
            43.006136,
            652.13
          ],
          [
            0.840553,
            43.00616,
            653.82
          ],
          [
            0.84041,
            43.006172,
            655.49
          ],
          [
            0.840279,
            43.006148,
            656.94
          ],
          [
            0.840217,
            43.006098,
            657.86
          ],
          [
            0.840159,
            43.006012,
            659.02
          ],
          [
            0.840044,
            43.005764,
            661.16
          ],
          [
            0.839927,
            43.005649,
            661.82
          ],
          [
            0.839849,
            43.005642,
            662.05
          ],
          [
            0.839754,
            43.005645,
            662.31
          ],
          [
            0.839624,
            43.00569,
            662.64
          ],
          [
            0.83951,
            43.005773,
            662.99
          ],
          [
            0.839415,
            43.005869,
            663.29
          ],
          [
            0.839271,
            43.005988,
            663.64
          ],
          [
            0.839059,
            43.006127,
            663.95
          ],
          [
            0.838606,
            43.006298,
            665.36
          ],
          [
            0.838485,
            43.006386,
            666.18
          ],
          [
            0.83841,
            43.00647,
            666.95
          ],
          [
            0.838287,
            43.006654,
            668.74
          ],
          [
            0.838182,
            43.006754,
            669.83
          ],
          [
            0.837833,
            43.00704,
            673.06
          ],
          [
            0.837716,
            43.007112,
            674.08
          ],
          [
            0.83752,
            43.007154,
            675.54
          ],
          [
            0.837272,
            43.007126,
            677.47
          ],
          [
            0.837116,
            43.007028,
            679.0
          ],
          [
            0.837057,
            43.006966,
            679.84
          ],
          [
            0.837041,
            43.006885,
            680.85
          ],
          [
            0.837037,
            43.006739,
            682.64
          ],
          [
            0.837158,
            43.006532,
            685.57
          ],
          [
            0.837495,
            43.006166,
            691.79
          ],
          [
            0.837632,
            43.005947,
            695.71
          ],
          [
            0.837779,
            43.005413,
            704.94
          ],
          [
            0.838052,
            43.004596,
            719.72
          ],
          [
            0.838083,
            43.00443,
            722.38
          ],
          [
            0.838142,
            43.004318,
            723.85
          ],
          [
            0.838258,
            43.004137,
            725.42
          ],
          [
            0.838358,
            43.003912,
            727.58
          ],
          [
            0.838349,
            43.003841,
            728.16
          ],
          [
            0.838368,
            43.003837,
            728.13
          ],
          [
            0.838307,
            43.003803,
            728.62
          ],
          [
            0.838198,
            43.00376,
            728.84
          ],
          [
            0.838151,
            43.003726,
            728.85
          ],
          [
            0.838117,
            43.003599,
            729.09
          ],
          [
            0.838206,
            43.003149,
            730.69
          ],
          [
            0.838164,
            43.003051,
            731.02
          ],
          [
            0.838109,
            43.002982,
            731.29
          ],
          [
            0.837802,
            43.00282,
            732.41
          ],
          [
            0.837215,
            43.002536,
            734.78
          ],
          [
            0.836781,
            43.002269,
            737.32
          ],
          [
            0.836064,
            43.00161,
            743.49
          ],
          [
            0.83597,
            43.00158,
            743.69
          ],
          [
            0.835841,
            43.001576,
            743.83
          ],
          [
            0.835645,
            43.001604,
            743.94
          ],
          [
            0.835508,
            43.001686,
            743.97
          ],
          [
            0.835218,
            43.001944,
            744.31
          ],
          [
            0.835022,
            43.002057,
            744.64
          ],
          [
            0.834847,
            43.002147,
            744.79
          ],
          [
            0.834701,
            43.002197,
            745.01
          ],
          [
            0.834016,
            43.002332,
            751.03
          ],
          [
            0.833975,
            43.002291,
            752.59
          ],
          [
            0.833852,
            43.00231,
            752.92
          ],
          [
            0.833605,
            43.002384,
            753.29
          ],
          [
            0.833389,
            43.002419,
            755.31
          ],
          [
            0.833085,
            43.002409,
            757.31
          ],
          [
            0.832739,
            43.002433,
            758.78
          ],
          [
            0.832605,
            43.002466,
            759.46
          ],
          [
            0.832499,
            43.002557,
            760.4
          ],
          [
            0.832309,
            43.003051,
            764.89
          ],
          [
            0.832238,
            43.003121,
            765.55
          ],
          [
            0.832042,
            43.003184,
            766.83
          ],
          [
            0.831902,
            43.003214,
            767.81
          ],
          [
            0.831717,
            43.003219,
            769.08
          ],
          [
            0.830933,
            43.003285,
            775.07
          ],
          [
            0.830855,
            43.003278,
            775.62
          ],
          [
            0.830762,
            43.003256,
            776.31
          ],
          [
            0.830772,
            43.003209,
            776.8
          ],
          [
            0.830905,
            43.003116,
            778.36
          ],
          [
            0.831166,
            43.002985,
            781.43
          ],
          [
            0.831274,
            43.002877,
            783.34
          ],
          [
            0.831541,
            43.002637,
            788.38
          ],
          [
            0.831692,
            43.002467,
            791.73
          ],
          [
            0.8318,
            43.002383,
            793.54
          ],
          [
            0.831886,
            43.002266,
            795.42
          ],
          [
            0.831929,
            43.002172,
            796.71
          ],
          [
            0.832033,
            43.002034,
            798.55
          ],
          [
            0.832132,
            43.001937,
            799.85
          ],
          [
            0.832241,
            43.001875,
            800.96
          ],
          [
            0.833214,
            43.001428,
            808.46
          ],
          [
            0.833555,
            43.001315,
            809.95
          ],
          [
            0.832906,
            43.001415,
            812.84
          ],
          [
            0.831887,
            43.001756,
            816.04
          ],
          [
            0.831512,
            43.001736,
            817.64
          ],
          [
            0.831158,
            43.001513,
            819.75
          ],
          [
            0.830691,
            43.001058,
            822.5
          ],
          [
            0.830551,
            43.000818,
            823.86
          ],
          [
            0.830557,
            43.000508,
            826.3
          ],
          [
            0.830798,
            43.000163,
            831.13
          ],
          [
            0.831061,
            42.999971,
            835.66
          ],
          [
            0.833775,
            42.998864,
            879.88
          ],
          [
            0.835024,
            42.99863,
            899.92
          ],
          [
            0.835354,
            42.99849,
            906.76
          ],
          [
            0.835648,
            42.997809,
            928.06
          ],
          [
            0.835358,
            42.997362,
            928.38
          ],
          [
            0.835221,
            42.996671,
            932.91
          ],
          [
            0.835475,
            42.996424,
            939.92
          ],
          [
            0.835502,
            42.996311,
            940.6
          ],
          [
            0.83613,
            42.995962,
            957.5
          ],
          [
            0.837363,
            42.995134,
            992.2
          ],
          [
            0.838702,
            42.994362,
            1014.75
          ],
          [
            0.839127,
            42.99406,
            1018.12
          ],
          [
            0.839478,
            42.993426,
            1028.64
          ],
          [
            0.840036,
            42.992901,
            1039.98
          ],
          [
            0.840411,
            42.992304,
            1053.74
          ]
        ]
      }
    },
    {
      "type": "Feature",
      "properties": {
        "source": "Boucle_col_de_Laouach.gpx",
        "type": "route"
      },
      "geometry": {
        "type": "LineString",
        "coordinates": [
          [
            0.840411,
            42.992304
          ],
          [
            0.839127,
            42.99406
          ],
          [
            0.835502,
            42.996311
          ],
          [
            0.835475,
            42.996424
          ],
          [
            0.833555,
            43.001315
          ],
          [
            0.834016,
            43.002332
          ],
          [
            0.838368,
            43.003837
          ],
          [
            0.841421,
            43.008621
          ],
          [
            0.840762,
            43.012377
          ],
          [
            0.837373,
            43.012025
          ],
          [
            0.837373,
            43.012025
          ],
          [
            0.840762,
            43.012377
          ],
          [
            0.841421,
            43.008621
          ],
          [
            0.838368,
            43.003837
          ],
          [
            0.834016,
            43.002332
          ],
          [
            0.833555,
            43.001315
          ],
          [
            0.835475,
            42.996424
          ],
          [
            0.835502,
            42.996311
          ],
          [
            0.839127,
            42.99406
          ],
          [
            0.840411,
            42.992304
          ]
        ]
      }
    }
  ]
}