{
  "type": "FeatureCollection",
  "features": [
    {
      "type": "Feature",
      "properties": {
        "name": "GraphHopper Track",
        "source": "Sengouagnet_Boucle.gpx",
        "type": "track"
      },
      "geometry": {
        "type": "LineString",
        "coordinates": [
          [
            0.803308,
            43.014139,
            471.54
          ],
          [
            0.803216,
            43.014132,
            471.39
          ],
          [
            0.8032,
            43.014171,
            471.61
          ],
          [
            0.802949,
            43.014168,
            471.0
          ],
          [
            0.802895,
            43.014196,
            470.92
          ],
          [
            0.801957,
            43.014442,
            467.07
          ],
          [
            0.802001,
            43.014716,
            466.74
          ],
          [
            0.8019,
            43.014743,
            465.57
          ],
          [
            0.800866,
            43.014927,
            460.07
          ],
          [
            0.80067,
            43.014815,
            459.63
          ],
          [
            0.800319,
            43.014641,
            459.54
          ],
          [
            0.799856,
            43.014291,
            457.77
          ],
          [
            0.799623,
            43.014004,
            455.44
          ],
          [
            0.799377,
            43.013814,
            453.46
          ],
          [
            0.799326,
            43.013738,
            452.75
          ],
          [
            0.799329,
            43.013596,
            451.6
          ],
          [
            0.799557,
            43.013304,
            448.6
          ],
          [
            0.799589,
            43.013224,
            447.36
          ],
          [
            0.799589,
            43.01319,
            446.68
          ],
          [
            0.799176,
            43.013179,
            444.63
          ],
          [
            0.799037,
            43.013161,
            443.59
          ],
          [
            0.798899,
            43.013125,
            442.64
          ],
          [
            0.798789,
            43.013081,
            441.49
          ],
          [
            0.798707,
            43.013037,
            440.4
          ],
          [
            0.798653,
            43.012988,
            439.63
          ],
          [
            0.798585,
            43.012874,
            438.41
          ],
          [
            0.798447,
            43.012074,
            438.61
          ],
          [
            0.798416,
            43.01187,
            439.1
          ],
          [
            0.798393,
            43.011397,
            441.01
          ],
          [
            0.798321,
            43.011374,
            440.21
          ],
          [
            0.798295,
            43.011306,
            439.73
          ],
          [
            0.798242,
            43.01124,
            439.05
          ],
          [
            0.798136,
            43.011198,
            437.83
          ],
          [
            0.797965,
            43.011184,
            436.39
          ],
          [
            0.797735,
            43.011152,
            435.05
          ],
          [
            0.797666,
            43.011131,
            435.34
          ],
          [
            0.797605,
            43.011081,
            435.66
          ],
          [
            0.797565,
            43.01102,
            435.92
          ],
          [
            0.796958,
            43.009794,
            436.47
          ],
          [
            0.796917,
            43.009738,
            436.87
          ],
          [
            0.796877,
            43.009754,
            437.34
          ],
          [
            0.796794,
            43.009765,
            437.68
          ],
          [
            0.796413,
            43.009853,
            438.41
          ],
          [
            0.796132,
            43.009839,
            439.51
          ],
          [
            0.796061,
            43.008823,
            442.13
          ],
          [
            0.79561,
            43.007989,
            446.75
          ],
          [
            0.794995,
            43.007321,
            451.14
          ],
          [
            0.79488,
            43.007021,
            451.12
          ],
          [
            0.794693,
            43.006834,
            453.27
          ],
          [
            0.794711,
            43.006785,
            452.1
          ],
          [
            0.794762,
            43.006715,
            450.11
          ],
          [
            0.795004,
            43.006496,
            446.24
          ],
          [
            0.795095,
            43.006393,
            445.97
          ],
          [
            0.795158,
            43.006299,
            445.84
          ],
          [
            0.79522,
            43.006032,
            444.86
          ],
          [
            0.795667,
            43.005381,
            445.14
          ],
          [
            0.795901,
            43.004968,
            445.25
          ],
          [
            0.796262,
            43.004386,
            445.68
          ],
          [
            0.796376,
            43.004233,
            445.74
          ],
          [
            0.796465,
            43.004138,
            445.79
          ],
          [
            0.796969,
            43.003792,
            446.25
          ],
          [
            0.79713,
            43.003622,
            446.49
          ],
          [
            0.797229,
            43.00353,
            446.72
          ],
          [
            0.797344,
            43.00344,
            446.86
          ],
          [
            0.797534,
            43.003327,
            447.3
          ],
          [
            0.797741,
            43.003225,
            447.84
          ],
          [
            0.797961,
            43.003147,
            449.38
          ],
          [
            0.797799,
            43.003132,
            448.55
          ],
          [
            0.797671,
            43.003085,
            448.33
          ],
          [
            0.797551,
            43.002999,
            448.48
          ],
          [
            0.797425,
            43.002961,
            448.6
          ],
          [
            0.796969,
            43.002891,
            449.18
          ],
          [
            0.796492,
            43.002672,
            450.35
          ],
          [
            0.79574,
            43.002245,
            453.71
          ],
          [
            0.79546,
            43.002137,
            455.55
          ],
          [
            0.795103,
            43.002032,
            458.03
          ],
          [
            0.794863,
            43.00199,
            460.08
          ],
          [
            0.794493,
            43.001953,
            463.62
          ],
          [
            0.794435,
            43.001959,
            464.32
          ],
          [
            0.794403,
            43.001978,
            464.81
          ],
          [
            0.794342,
            43.001901,
            467.12
          ],
          [
            0.794363,
            43.001771,
            470.43
          ],
          [
            0.794406,
            43.001685,
            471.79
          ],
          [
            0.794647,
            43.001497,
            477.57
          ],
          [
            0.794658,
            43.001418,
            479.21
          ],
          [
            0.794551,
            43.001387,
            480.97
          ],
          [
            0.794326,
            43.001387,
            484.42
          ],
          [
            0.793805,
            43.001513,
            493.32
          ],
          [
            0.793569,
            43.001513,
            497.82
          ],
          [
            0.793462,
            43.001497,
            499.95
          ],
          [
            0.793135,
            43.001415,
            506.55
          ],
          [
            0.792957,
            43.001301,
            510.75
          ],
          [
            0.792898,
            43.001204,
            513.1
          ],
          [
            0.792898,
            43.001204,
            513.1
          ],
          [
            0.792957,
            43.001301,
            510.75
          ],
          [
            0.793135,
            43.001415,
            506.55
          ],
          [
            0.793462,
            43.001497,
            499.95
          ],
          [
            0.793569,
            43.001513,
            497.82
          ],
          [
            0.793805,
            43.001513,
            493.32
          ],
          [
            0.794326,
            43.001387,
            484.42
          ],
          [
            0.794551,
            43.001387,
            480.97
          ],
          [
            0.794658,
            43.001418,
            479.21
          ],
          [
            0.794647,
            43.001497,
            477.57
          ],
          [
            0.794406,
            43.001685,
            471.79
          ],
          [
            0.794363,
            43.001771,
            470.43
          ],
          [
            0.794342,
            43.001901,
            467.12
          ],
          [
            0.794403,
            43.001978,
            464.81
          ],
          [
            0.794435,
            43.001959,
            464.32
          ],
          [
            0.794493,
            43.001953,
            463.62
          ],
          [
            0.794863,
            43.00199,
            460.08
          ],
          [
            0.795103,
            43.002032,
            458.03
          ],
          [
            0.79546,
            43.002137,
            455.55
          ],
          [
            0.79574,
            43.002245,
            453.71
          ],
          [
            0.796492,
            43.002672,
            450.35
          ],
          [
            0.796969,
            43.002891,
            449.18
          ],
          [
            0.797425,
            43.002961,
            448.6
          ],
          [
            0.797551,
            43.002999,
            448.48
          ],
          [
            0.797671,
            43.003085,
            448.33
          ],
          [
            0.797799,
            43.003132,
            448.55
          ],
          [
            0.797961,
            43.003147,
            449.38
          ],
          [
            0.798122,
            43.003095,
            449.13
          ],
          [
            0.796419,
            43.00004,
            453.26
          ],
          [
            0.795722,
            42.99876,
            455.93
          ],
          [
            0.794065,
            42.995842,
            460.63
          ],
          [
            0.793325,
            42.994695,
            460.9
          ],
          [
            0.792762,
            42.993882,
            463.65
          ],
          [
            0.792078,
            42.992839,
            464.94
          ],
          [
            0.791675,
            42.99218,
            466.03
          ],
          [
            0.791631,
            42.992069,
            466.35
          ],
          [
            0.791594,
            42.991786,
            467.19
          ],
          [
            0.791566,
            42.991658,
            467.61
          ],
          [
            0.791102,
            42.990611,
            469.67
          ],
          [
            0.791045,
            42.990424,
            470.12
          ],
          [
            0.791044,
            42.990212,
            470.63
          ],
          [
            0.790987,
            42.990205,
            472.11
          ],
          [
            0.790707,
            42.990111,
            476.16
          ],
          [
            0.790643,
            42.989987,
            477.08
          ],
          [
            0.790624,
            42.989249,
            480.34
          ],
          [
            0.790519,
            42.988885,
            482.22
          ],
          [
            0.790528,
            42.988736,
            485.52
          ],
          [
            0.790617,
            42.988167,
            496.91
          ],
          [
            0.790607,
            42.987995,
            500.31
          ],
          [
            0.79031,
            42.987595,
            509.33
          ],
          [
            0.790222,
            42.987437,
            512.7
          ],
          [
            0.790173,
            42.987391,
            514.27
          ],
          [
            0.790224,
            42.987302,
            515.35
          ],
          [
            0.790246,
            42.987106,
            516.22
          ],
          [
            0.790223,
            42.986858,
            516.84
          ],
          [
            0.790151,
            42.986618,
            517.43
          ],
          [
            0.790081,
            42.986465,
            517.82
          ],
          [
            0.789993,
            42.986361,
            518.08
          ],
          [
            0.789649,
            42.98614,
            518.85
          ],
          [
            0.789381,
            42.98603,
            519.51
          ],
          [
            0.789268,
            42.985827,
            519.53
          ],
          [
            0.789261,
            42.985783,
            519.35
          ],
          [
            0.789319,
            42.985402,
            517.05
          ],
          [
            0.789346,
            42.985317,
            516.7
          ],
          [
            0.789378,
            42.985277,
            516.45
          ],
          [
            0.78952,
            42.985008,
            513.24
          ],
          [
            0.789527,
            42.984906,
            510.91
          ],
          [
            0.789251,
            42.984641,
            505.99
          ],
          [
            0.789071,
            42.984549,
            503.45
          ],
          [
            0.789045,
            42.984519,
            502.64
          ]
        ]
      }
    },
    {
      "type": "Feature",
      "properties": {
        "source": "Sengouagnet_Boucle.gpx",
        "type": "route"
      },
      "geometry": {
        "type": "LineString",
        "coordinates": [
          [
            0.803308,
            43.014139
          ],
          [
            0.803216,
            43.014132
          ],
          [
            0.8032,
            43.014171
          ],
          [
            0.802949,
            43.014168
          ],
          [
            0.801957,
            43.014442
          ],
          [
            0.802001,
            43.014716
          ],
          [
            0.800866,
            43.014927
          ],
          [
            0.799589,
            43.01319
          ],
          [
            0.798393,
            43.011397
          ],
          [
            0.798242,
            43.01124
          ],
          [
            0.796917,
            43.009738
          ],
          [
            0.796132,
            43.009839
          ],
          [
            0.794693,
            43.006834
          ],
          [
            0.797961,
            43.003147
          ],
          [
            0.794403,
            43.001978
          ],
          [
            0.792898,
            43.001204
          ],
          [
            0.792898,
            43.001204
          ],
          [
            0.794403,
            43.001978
          ],
          [
            0.797961,
            43.003147
          ],
          [
            0.798122,
            43.003095
          ],
          [
            0.791044,
            42.990212
          ],
          [
            0.790173,
            42.987391
          ],
          [
            0.789346,
            42.985317
          ],
          [
            0.789045,
            42.984519
          ]
        ]
      }
    }
  ]
}