{
  "type": "FeatureCollection",
  "features": [
    {
      "type": "Feature",
      "properties": {
        "name": "GraphHopper Track",
        "source": "Circuit_Cavalerie.gpx",
        "type": "track"
      },
      "geometry": {
        "type": "LineString",
        "coordinates": [
          [
            3.157533,
            44.008469,
            798.99
          ],
          [
            3.157645,
            44.008487,
            798.98
          ],
          [
            3.157731,
            44.008511,
            798.93
          ],
          [
            3.158027,
            44.00855,
            798.32
          ],
          [
            3.158069,
            44.008127,
            799.0
          ],
          [
            3.158245,
            44.008024,
            799.75
          ],
          [
            3.158303,
            44.008008,
            799.92
          ],
          [
            3.158376,
            44.008004,
            800.14
          ],
          [
            3.158464,
            44.007953,
            800.49
          ],
          [
            3.158565,
            44.007829,
            801.05
          ],
          [
            3.15881,
            44.007576,
            802.53
          ],
          [
            3.158972,
            44.007553,
            803.0
          ],
          [
            3.158963,
            44.007428,
            803.53
          ],
          [
            3.159031,
            44.007268,
            804.68
          ],
          [
            3.159181,
            44.007078,
            805.7
          ],
          [
            3.159702,
            44.006322,
            811.66
          ],
          [
            3.159816,
            44.006143,
            812.77
          ],
          [
            3.159994,
            44.005981,
            813.74
          ],
          [
            3.160944,
            44.005238,
            817.2
          ],
          [
            3.161066,
            44.004647,
            816.14
          ],
          [
            3.160995,
            44.004546,
            816.0
          ],
          [
            3.160976,
            44.004434,
            815.42
          ],
          [
            3.161555,
            44.004062,
            813.72
          ],
          [
            3.161751,
            44.003953,
            813.52
          ],
          [
            3.162595,
            44.003409,
            815.35
          ],
          [
            3.162495,
            44.003256,
            815.9
          ],
          [
            3.162665,
            44.003104,
            817.39
          ],
          [
            3.163091,
            44.002796,
            820.97
          ],
          [
            3.163657,
            44.002472,
            824.61
          ],
          [
            3.164894,
            44.001678,
            830.55
          ],
          [
            3.165196,
            44.001521,
            831.1
          ],
          [
            3.165288,
            44.001447,
            831.17
          ],
          [
            3.165433,
            44.001271,
            831.21
          ],
          [
            3.165516,
            44.001189,
            831.16
          ],
          [
            3.165664,
            44.001106,
            831.15
          ],
          [
            3.165843,
            44.001051,
            830.89
          ],
          [
            3.166103,
            44.000992,
            830.51
          ],
          [
            3.166391,
            44.000795,
            831.13
          ],
          [
            3.166704,
            44.00056,
            832.12
          ],
          [
            3.166753,
            44.000513,
            832.29
          ],
          [
            3.166773,
            44.000466,
            832.64
          ],
          [
            3.166762,
            44.000417,
            833.26
          ],
          [
            3.166723,
            44.00038,
            833.44
          ],
          [
            3.166441,
            44.000214,
            833.43
          ],
          [
            3.165939,
            43.99997,
            833.15
          ],
          [
            3.165608,
            43.999794,
            832.72
          ],
          [
            3.165501,
            43.999746,
            832.51
          ],
          [
            3.165376,
            43.999684,
            832.28
          ],
          [
            3.164662,
            43.999503,
            828.59
          ],
          [
            3.164364,
            43.999435,
            826.81
          ],
          [
            3.164058,
            43.999325,
            824.61
          ],
          [
            3.16373,
            43.999144,
            821.96
          ],
          [
            3.1635,
            43.998952,
            823.71
          ],
          [
            3.163091,
            43.998529,
            817.89
          ],
          [
            3.163074,
            43.998482,
            817.19
          ],
          [
            3.163095,
            43.998284,
            814.64
          ],
          [
            3.163162,
            43.998059,
            812.63
          ],
          [
            3.163157,
            43.998014,
            812.26
          ],
          [
            3.163239,
            43.997965,
            812.2
          ],
          [
            3.163417,
            43.997759,
            813.0
          ],
          [
            3.163493,
            43.997721,
            813.48
          ],
          [
            3.163568,
            43.997709,
            813.92
          ],
          [
            3.164294,
            43.9977,
            817.95
          ],
          [
            3.164682,
            43.99768,
            820.0
          ],
          [
            3.165927,
            43.997489,
            823.91
          ],
          [
            3.166059,
            43.997455,
            824.03
          ],
          [
            3.166143,
            43.997392,
            824.06
          ],
          [
            3.166903,
            43.996519,
            819.44
          ],
          [
            3.166903,
            43.996425,
            818.53
          ],
          [
            3.167257,
            43.995186,
            808.58
          ],
          [
            3.167306,
            43.994887,
            806.72
          ],
          [
            3.167294,
            43.994518,
            804.55
          ],
          [
            3.1674,
            43.993735,
            800.38
          ],
          [
            3.167445,
            43.993528,
            799.27
          ],
          [
            3.167397,
            43.993462,
            798.81
          ],
          [
            3.167325,
            43.9929,
            797.87
          ],
          [
            3.167253,
            43.99224,
            798.81
          ],
          [
            3.167214,
            43.991732,
            800.03
          ],
          [
            3.167197,
            43.991273,
            800.8
          ],
          [
            3.1673,
            43.990679,
            801.01
          ],
          [
            3.167356,
            43.990445,
            801.04
          ],
          [
            3.167499,
            43.990169,
            801.04
          ],
          [
            3.167891,
            43.98957,
            801.0
          ],
          [
            3.167933,
            43.988992,
            801.46
          ],
          [
            3.168033,
            43.988389,
            803.17
          ],
          [
            3.168089,
            43.988137,
            804.24
          ],
          [
            3.168187,
            43.987955,
            805.11
          ],
          [
            3.1684,
            43.987681,
            806.77
          ],
          [
            3.168536,
            43.987473,
            808.17
          ],
          [
            3.168628,
            43.987297,
            809.46
          ],
          [
            3.168716,
            43.987081,
            811.17
          ],
          [
            3.168944,
            43.986263,
            819.02
          ],
          [
            3.169087,
            43.985837,
            823.67
          ],
          [
            3.170071,
            43.985684,
            820.69
          ],
          [
            3.170819,
            43.985543,
            818.17
          ],
          [
            3.171501,
            43.9854,
            815.79
          ],
          [
            3.172124,
            43.98526,
            813.84
          ],
          [
            3.172311,
            43.985209,
            813.27
          ],
          [
            3.172428,
            43.985165,
            812.9
          ],
          [
            3.173342,
            43.984617,
            811.29
          ],
          [
            3.173729,
            43.984408,
            811.59
          ],
          [
            3.174007,
            43.984238,
            812.17
          ],
          [
            3.174007,
            43.984238,
            812.17
          ],
          [
            3.173729,
            43.984408,
            811.59
          ],
          [
            3.173342,
            43.984617,
            811.29
          ],
          [
            3.172428,
            43.985165,
            812.9
          ],
          [
            3.172311,
            43.985209,
            813.27
          ],
          [
            3.172124,
            43.98526,
            813.84
          ],
          [
            3.171501,
            43.9854,
            815.79
          ],
          [
            3.170819,
            43.985543,
            818.17
          ],
          [
            3.170071,
            43.985684,
            820.69
          ],
          [
            3.169087,
            43.985837,
            823.67
          ],
          [
            3.168944,
            43.986263,
            819.02
          ],
          [
            3.168716,
            43.987081,
            811.17
          ],
          [
            3.168628,
            43.987297,
            809.46
          ],
          [
            3.168536,
            43.987473,
            808.17
          ],
          [
            3.1684,
            43.987681,
            806.77
          ],
          [
            3.168187,
            43.987955,
            805.11
          ],
          [
            3.168089,
            43.988137,
            804.24
          ],
          [
            3.168033,
            43.988389,
            803.17
          ],
          [
            3.167933,
            43.988992,
            801.46
          ],
          [
            3.167891,
            43.98957,
            801.0
          ],
          [
            3.167499,
            43.990169,
            801.04
          ],
          [
            3.167356,
            43.990445,
            801.04
          ],
          [
            3.1673,
            43.990679,
            801.01
          ],
          [
            3.167197,
            43.991273,
            800.8
          ],
          [
            3.167214,
            43.991732,
            800.03
          ],
          [
            3.167253,
            43.99224,
            798.81
          ],
          [
            3.167397,
            43.993462,
            798.81
          ],
          [
            3.167445,
            43.993528,
            799.27
          ],
          [
            3.1674,
            43.993735,
            800.38
          ],
          [
            3.167294,
            43.994518,
            804.55
          ],
          [
            3.167306,
            43.994887,
            806.72
          ],
          [
            3.167257,
            43.995186,
            808.58
          ],
          [
            3.166903,
            43.996425,
            818.53
          ],
          [
            3.166903,
            43.996519,
            819.44
          ],
          [
            3.166143,
            43.997392,
            824.06
          ],
          [
            3.166059,
            43.997455,
            824.03
          ],
          [
            3.165927,
            43.997489,
            823.91
          ],
          [
            3.164682,
            43.99768,
            820.0
          ],
          [
            3.164294,
            43.9977,
            817.95
          ],
          [
            3.163568,
            43.997709,
            813.92
          ],
          [
            3.163493,
            43.997721,
            813.48
          ],
          [
            3.163417,
            43.997759,
            813.0
          ],
          [
            3.163239,
            43.997965,
            812.2
          ],
          [
            3.163157,
            43.998014,
            812.26
          ],
          [
            3.163162,
            43.998059,
            812.63
          ],
          [
            3.163095,
            43.998284,
            814.64
          ],
          [
            3.163074,
            43.998482,
            817.19
          ],
          [
            3.163091,
            43.998529,
            817.89
          ],
          [
            3.1635,
            43.998952,
            823.71
          ],
          [
            3.16373,
            43.999144,
            821.96
          ],
          [
            3.164058,
            43.999325,
            824.61
          ],
          [
            3.164364,
            43.999435,
            826.81
          ],
          [
            3.164662,
            43.999503,
            828.59
          ],
          [
            3.165376,
            43.999684,
            832.28
          ],
          [
            3.165608,
            43.999794,
            832.72
          ],
          [
            3.165939,
            43.99997,
            833.15
          ],
          [
            3.166441,
            44.000214,
            833.43
          ],
          [
            3.166723,
            44.00038,
            833.44
          ],
          [
            3.166762,
            44.000417,
            833.26
          ],
          [
            3.166773,
            44.000466,
            832.64
          ],
          [
            3.166753,
            44.000513,
            832.29
          ],
          [
            3.166704,
            44.00056,
            832.12
          ],
          [
            3.166391,
            44.000795,
            831.13
          ],
          [
            3.166103,
            44.000992,
            830.51
          ],
          [
            3.165843,
            44.001051,
            830.89
          ],
          [
            3.165664,
            44.001106,
            831.15
          ],
          [
            3.165516,
            44.001189,
            831.16
          ],
          [
            3.165433,
            44.001271,
            831.21
          ],
          [
            3.165288,
            44.001447,
            831.17
          ],
          [
            3.165196,
            44.001521,
            831.1
          ],
          [
            3.164894,
            44.001678,
            830.55
          ],
          [
            3.163657,
            44.002472,
            824.61
          ],
          [
            3.163091,
            44.002796,
            820.97
          ],
          [
            3.162665,
            44.003104,
            817.39
          ],
          [
            3.162495,
            44.003256,
            815.9
          ],
          [
            3.162595,
            44.003409,
            815.35
          ],
          [
            3.161751,
            44.003953,
            813.52
          ],
          [
            3.161555,
            44.004062,
            813.72
          ],
          [
            3.160976,
            44.004434,
            815.42
          ],
          [
            3.160995,
            44.004546,
            816.0
          ],
          [
            3.161066,
            44.004647,
            816.14
          ],
          [
            3.160944,
            44.005238,
            817.2
          ],
          [
            3.159994,
            44.005981,
            813.74
          ],
          [
            3.159816,
            44.006143,
            812.77
          ],
          [
            3.159702,
            44.006322,
            811.66
          ],
          [
            3.159181,
            44.007078,
            805.7
          ],
          [
            3.159031,
            44.007268,
            804.68
          ],
          [
            3.158963,
            44.007428,
            803.53
          ],
          [
            3.158972,
            44.007553,
            803.0
          ],
          [
            3.15881,
            44.007576,
            802.53
          ],
          [
            3.158565,
            44.007829,
            801.05
          ],
          [
            3.158464,
            44.007953,
            800.49
          ],
          [
            3.158376,
            44.008004,
            800.14
          ],
          [
            3.158303,
            44.008008,
            799.92
          ],
          [
            3.158245,
            44.008024,
            799.75
          ],
          [
            3.158069,
            44.008127,
            799.0
          ],
          [
            3.158027,
            44.00855,
            798.32
          ],
          [
            3.157731,
            44.008511,
            798.93
          ],
          [
            3.157645,
            44.008487,
            798.98
          ],
          [
            3.157533,
            44.008469,
            798.99
          ]
        ]
      }
    },
    {
      "type": "Feature",
      "properties": {
        "source": "Circuit_Cavalerie.gpx",
        "type": "route"
      },
      "geometry": {
        "type": "LineString",
        "coordinates": [
          [
            3.157533,
            44.008469
          ],
          [
            3.158027,
            44.00855
          ],
          [
            3.158069,
            44.008127
          ],
          [
            3.158972,
            44.007553
          ],
          [
            3.160944,
            44.005238
          ],
          [
            3.161066,
            44.004647
          ],
          [
            3.160976,
            44.004434
          ],
          [
            3.161751,
            44.003953
          ],
          [
            3.162595,
            44.003409
          ],
          [
            3.162495,
            44.003256
          ],
          [
            3.165501,
            43.999746
          ],
          [
            3.163157,
            43.998014
          ],
          [
            3.167445,
            43.993528
          ],
          [
            3.167891,
            43.98957
          ],
          [
            3.169087,
            43.985837
          ],
          [
            3.174007,
            43.984238
          ],
          [
            3.174007,
            43.984238
          ],
          [
            3.169087,
            43.985837
          ],
          [
            3.167445,
            43.993528
          ],
          [
            3.166903,
            43.996519
          ],
          [
            3.163157,
            43.998014
          ],
          [
            3.166103,
            44.000992
          ],
          [
            3.162495,
            44.003256
          ],
          [
            3.162595,
            44.003409
          ],
          [
            3.161751,
            44.003953
          ],
          [
            3.160976,
            44.004434
          ],
          [
            3.161066,
            44.004647
          ],
          [
            3.160944,
            44.005238
          ],
          [
            3.158972,
            44.007553
          ],
          [
            3.158069,
            44.008127
          ],
          [
            3.158027,
            44.00855
          ],
          [
            3.157533,
            44.008469
          ]
        ]
      }
    }
  ]
}