{
  "type": "FeatureCollection",
  "features": [
    {
      "type": "Feature",
      "properties": {
        "name": "GraphHopper Track",
        "source": "Forêt_de_Labastide.gpx",
        "type": "track"
      },
      "geometry": {
        "type": "LineString",
        "coordinates": [
          [
            1.851941,
            43.365849,
            201.13
          ],
          [
            1.850989,
            43.366485,
            202.78
          ],
          [
            1.850678,
            43.366728,
            203.09
          ],
          [
            1.850452,
            43.366891,
            203.11
          ],
          [
            1.850735,
            43.367317,
            202.99
          ],
          [
            1.85084,
            43.367518,
            202.39
          ],
          [
            1.85097,
            43.367823,
            201.81
          ],
          [
            1.85108,
            43.367976,
            201.39
          ],
          [
            1.851307,
            43.368148,
            200.86
          ],
          [
            1.851473,
            43.368204,
            200.71
          ],
          [
            1.851981,
            43.368263,
            200.66
          ],
          [
            1.8528,
            43.368314,
            200.66
          ],
          [
            1.852976,
            43.368312,
            200.73
          ],
          [
            1.853149,
            43.36829,
            200.79
          ],
          [
            1.853734,
            43.36813,
            200.9
          ],
          [
            1.854081,
            43.368056,
            200.99
          ],
          [
            1.854481,
            43.368023,
            201.18
          ],
          [
            1.854887,
            43.368018,
            201.47
          ],
          [
            1.855193,
            43.368058,
            201.78
          ],
          [
            1.85548,
            43.368146,
            201.94
          ],
          [
            1.855826,
            43.368328,
            201.98
          ],
          [
            1.856037,
            43.368476,
            201.84
          ],
          [
            1.856136,
            43.36856,
            201.74
          ],
          [
            1.856173,
            43.368649,
            201.65
          ],
          [
            1.856172,
            43.368743,
            201.54
          ],
          [
            1.856096,
            43.368958,
            201.21
          ],
          [
            1.856036,
            43.369043,
            201.09
          ],
          [
            1.855534,
            43.369541,
            200.67
          ],
          [
            1.854715,
            43.37021,
            201.18
          ],
          [
            1.854482,
            43.37049,
            201.48
          ],
          [
            1.853939,
            43.371314,
            201.79
          ],
          [
            1.853941,
            43.371372,
            201.77
          ],
          [
            1.853998,
            43.371486,
            201.73
          ],
          [
            1.854053,
            43.371531,
            201.71
          ],
          [
            1.854181,
            43.371555,
            201.69
          ],
          [
            1.854329,
            43.37154,
            201.67
          ],
          [
            1.854682,
            43.37148,
            201.59
          ],
          [
            1.854997,
            43.371385,
            201.7
          ],
          [
            1.855347,
            43.371297,
            202.0
          ],
          [
            1.855824,
            43.371135,
            202.11
          ],
          [
            1.856031,
            43.371094,
            202.0
          ],
          [
            1.856284,
            43.371094,
            201.81
          ],
          [
            1.85654,
            43.371119,
            201.58
          ],
          [
            1.856691,
            43.371144,
            201.46
          ],
          [
            1.856815,
            43.371196,
            201.36
          ],
          [
            1.856895,
            43.371292,
            201.24
          ],
          [
            1.856924,
            43.37142,
            201.13
          ],
          [
            1.856926,
            43.371548,
            201.05
          ],
          [
            1.856877,
            43.371648,
            201.05
          ],
          [
            1.856752,
            43.371808,
            201.13
          ],
          [
            1.856135,
            43.372271,
            201.89
          ],
          [
            1.855867,
            43.372536,
            202.22
          ],
          [
            1.855704,
            43.372759,
            202.67
          ],
          [
            1.85556,
            43.373002,
            203.04
          ],
          [
            1.855404,
            43.373306,
            204.09
          ],
          [
            1.855352,
            43.373361,
            204.08
          ],
          [
            1.855008,
            43.373285,
            203.8
          ],
          [
            1.854927,
            43.373291,
            204.33
          ],
          [
            1.854863,
            43.373319,
            204.74
          ],
          [
            1.854796,
            43.373428,
            204.76
          ],
          [
            1.854707,
            43.373539,
            205.11
          ],
          [
            1.854281,
            43.373852,
            206.69
          ],
          [
            1.854089,
            43.373968,
            207.29
          ],
          [
            1.853654,
            43.374255,
            208.5
          ],
          [
            1.853373,
            43.374493,
            209.21
          ],
          [
            1.853256,
            43.374646,
            209.55
          ],
          [
            1.853063,
            43.375118,
            210.66
          ],
          [
            1.852677,
            43.375526,
            212.02
          ],
          [
            1.852119,
            43.376341,
            214.46
          ],
          [
            1.851422,
            43.377106,
            216.66
          ],
          [
            1.851213,
            43.37728,
            217.36
          ],
          [
            1.849875,
            43.378087,
            223.76
          ],
          [
            1.849539,
            43.378222,
            224.57
          ],
          [
            1.849437,
            43.378293,
            224.6
          ],
          [
            1.849381,
            43.378387,
            224.79
          ],
          [
            1.849348,
            43.378736,
            226.04
          ],
          [
            1.84945,
            43.378773,
            225.89
          ],
          [
            1.849595,
            43.378858,
            226.21
          ],
          [
            1.849965,
            43.37903,
            226.95
          ],
          [
            1.850086,
            43.379148,
            227.8
          ],
          [
            1.850183,
            43.379272,
            228.74
          ],
          [
            1.850242,
            43.379415,
            229.67
          ],
          [
            1.850266,
            43.37951,
            230.3
          ],
          [
            1.850561,
            43.381352,
            244.4
          ],
          [
            1.850523,
            43.381526,
            246.04
          ],
          [
            1.850456,
            43.381686,
            247.31
          ],
          [
            1.850306,
            43.381906,
            249.36
          ],
          [
            1.85015,
            43.382094,
            251.3
          ],
          [
            1.849871,
            43.382369,
            254.12
          ],
          [
            1.849749,
            43.382504,
            255.48
          ],
          [
            1.849678,
            43.382625,
            256.6
          ],
          [
            1.849569,
            43.382892,
            258.81
          ],
          [
            1.84953,
            43.383046,
            259.97
          ],
          [
            1.849524,
            43.383158,
            260.88
          ],
          [
            1.849537,
            43.383262,
            261.03
          ],
          [
            1.849589,
            43.383363,
            260.6
          ],
          [
            1.849954,
            43.383761,
            256.65
          ],
          [
            1.850045,
            43.383902,
            255.57
          ],
          [
            1.850102,
            43.384044,
            254.53
          ],
          [
            1.850209,
            43.384752,
            250.57
          ],
          [
            1.850244,
            43.384831,
            250.01
          ],
          [
            1.849179,
            43.385224,
            253.82
          ],
          [
            1.849136,
            43.385267,
            253.93
          ],
          [
            1.849115,
            43.385332,
            253.64
          ],
          [
            1.849115,
            43.385439,
            252.42
          ],
          [
            1.849115,
            43.385439,
            252.42
          ],
          [
            1.849115,
            43.385332,
            253.64
          ],
          [
            1.849136,
            43.385267,
            253.93
          ],
          [
            1.849179,
            43.385224,
            253.82
          ],
          [
            1.850244,
            43.384831,
            250.01
          ],
          [
            1.850209,
            43.384752,
            250.57
          ],
          [
            1.850102,
            43.384044,
            254.53
          ],
          [
            1.850045,
            43.383902,
            255.57
          ],
          [
            1.849954,
            43.383761,
            256.65
          ],
          [
            1.849589,
            43.383363,
            260.6
          ],
          [
            1.849537,
            43.383262,
            261.03
          ],
          [
            1.849531,
            43.383211,
            261.23
          ],
          [
            1.849524,
            43.383158,
            260.88
          ],
          [
            1.84953,
            43.383046,
            259.97
          ],
          [
            1.849569,
            43.382892,
            258.81
          ],
          [
            1.849678,
            43.382625,
            256.6
          ],
          [
            1.849749,
            43.382504,
            255.48
          ],
          [
            1.849871,
            43.382369,
            254.12
          ],
          [
            1.85015,
            43.382094,
            251.3
          ],
          [
            1.850306,
            43.381906,
            249.36
          ],
          [
            1.850456,
            43.381686,
            247.31
          ],
          [
            1.850523,
            43.381526,
            246.04
          ],
          [
            1.850561,
            43.381352,
            244.4
          ],
          [
            1.850266,
            43.37951,
            230.3
          ],
          [
            1.850242,
            43.379415,
            229.67
          ],
          [
            1.850183,
            43.379272,
            228.74
          ],
          [
            1.850086,
            43.379148,
            227.8
          ],
          [
            1.849965,
            43.37903,
            226.95
          ],
          [
            1.849595,
            43.378858,
            226.21
          ],
          [
            1.84945,
            43.378773,
            225.89
          ],
          [
            1.849348,
            43.378736,
            226.04
          ],
          [
            1.849381,
            43.378387,
            224.79
          ],
          [
            1.849437,
            43.378293,
            224.6
          ],
          [
            1.849539,
            43.378222,
            224.57
          ],
          [
            1.849875,
            43.378087,
            223.76
          ],
          [
            1.851213,
            43.37728,
            217.36
          ],
          [
            1.851422,
            43.377106,
            216.66
          ],
          [
            1.852119,
            43.376341,
            214.46
          ],
          [
            1.852677,
            43.375526,
            212.02
          ],
          [
            1.853063,
            43.375118,
            210.66
          ],
          [
            1.853256,
            43.374646,
            209.55
          ],
          [
            1.853373,
            43.374493,
            209.21
          ],
          [
            1.853654,
            43.374255,
            208.5
          ],
          [
            1.854089,
            43.373968,
            207.29
          ],
          [
            1.854281,
            43.373852,
            206.69
          ],
          [
            1.854707,
            43.373539,
            205.11
          ],
          [
            1.854796,
            43.373428,
            204.76
          ],
          [
            1.854863,
            43.373319,
            204.74
          ],
          [
            1.854927,
            43.373291,
            204.33
          ],
          [
            1.855008,
            43.373285,
            203.8
          ],
          [
            1.855352,
            43.373361,
            204.08
          ],
          [
            1.855404,
            43.373306,
            204.09
          ],
          [
            1.85556,
            43.373002,
            203.04
          ],
          [
            1.855704,
            43.372759,
            202.67
          ],
          [
            1.855867,
            43.372536,
            202.22
          ],
          [
            1.856135,
            43.372271,
            201.89
          ],
          [
            1.856752,
            43.371808,
            201.13
          ],
          [
            1.856877,
            43.371648,
            201.05
          ],
          [
            1.856926,
            43.371548,
            201.05
          ],
          [
            1.856924,
            43.37142,
            201.13
          ],
          [
            1.856895,
            43.371292,
            201.24
          ],
          [
            1.856815,
            43.371196,
            201.36
          ],
          [
            1.856691,
            43.371144,
            201.46
          ],
          [
            1.85654,
            43.371119,
            201.58
          ],
          [
            1.856284,
            43.371094,
            201.81
          ],
          [
            1.856031,
            43.371094,
            202.0
          ],
          [
            1.855824,
            43.371135,
            202.11
          ],
          [
            1.855347,
            43.371297,
            202.0
          ],
          [
            1.854997,
            43.371385,
            201.7
          ],
          [
            1.854682,
            43.37148,
            201.59
          ],
          [
            1.854329,
            43.37154,
            201.67
          ],
          [
            1.854181,
            43.371555,
            201.69
          ],
          [
            1.854053,
            43.371531,
            201.71
          ],
          [
            1.853998,
            43.371486,
            201.73
          ],
          [
            1.853941,
            43.371372,
            201.77
          ],
          [
            1.853939,
            43.371314,
            201.79
          ],
          [
            1.854482,
            43.37049,
            201.48
          ],
          [
            1.854715,
            43.37021,
            201.18
          ],
          [
            1.855534,
            43.369541,
            200.67
          ],
          [
            1.856036,
            43.369043,
            201.09
          ],
          [
            1.856096,
            43.368958,
            201.21
          ],
          [
            1.856172,
            43.368743,
            201.54
          ],
          [
            1.856173,
            43.368649,
            201.65
          ],
          [
            1.856136,
            43.36856,
            201.74
          ],
          [
            1.856037,
            43.368476,
            201.84
          ],
          [
            1.855826,
            43.368328,
            201.98
          ],
          [
            1.85548,
            43.368146,
            201.94
          ],
          [
            1.855193,
            43.368058,
            201.78
          ],
          [
            1.854887,
            43.368018,
            201.47
          ],
          [
            1.854481,
            43.368023,
            201.18
          ],
          [
            1.854081,
            43.368056,
            200.99
          ],
          [
            1.853734,
            43.36813,
            200.9
          ],
          [
            1.853149,
            43.36829,
            200.79
          ],
          [
            1.852976,
            43.368312,
            200.73
          ],
          [
            1.8528,
            43.368314,
            200.66
          ],
          [
            1.851981,
            43.368263,
            200.66
          ],
          [
            1.851473,
            43.368204,
            200.71
          ],
          [
            1.851307,
            43.368148,
            200.86
          ],
          [
            1.85108,
            43.367976,
            201.39
          ],
          [
            1.85097,
            43.367823,
            201.81
          ],
          [
            1.85084,
            43.367518,
            202.39
          ],
          [
            1.850735,
            43.367317,
            202.99
          ],
          [
            1.850452,
            43.366891,
            203.11
          ],
          [
            1.850678,
            43.366728,
            203.09
          ],
          [
            1.850989,
            43.366485,
            202.78
          ],
          [
            1.851941,
            43.365849,
            201.13
          ]
        ]
      }
    },
    {
      "type": "Feature",
      "properties": {
        "source": "Forêt_de_Labastide.gpx",
        "type": "route"
      },
      "geometry": {
        "type": "LineString",
        "coordinates": [
          [
            1.851941,
            43.365849
          ],
          [
            1.850452,
            43.366891
          ],
          [
            1.855352,
            43.373361
          ],
          [
            1.849348,
            43.378736
          ],
          [
            1.850244,
            43.384831
          ],
          [
            1.849115,
            43.385439
          ],
          [
            1.849115,
            43.385439
          ],
          [
            1.850244,
            43.384831
          ],
          [
            1.849531,
            43.383211
          ],
          [
            1.849348,
            43.378736
          ],
          [
            1.854863,
            43.373319
          ],
          [
            1.855352,
            43.373361
          ],
          [
            1.850452,
            43.366891
          ],
          [
            1.851941,
            43.365849
          ]
        ]
      }
    }
  ]
}