{
  "type": "FeatureCollection",
  "features": [
    {
      "type": "Feature",
      "properties": {
        "name": "GraphHopper Track",
        "source": "Montagne_Noire.gpx",
        "type": "track"
      },
      "geometry": {
        "type": "LineString",
        "coordinates": [
          [
            1.852878,
            43.34592,
            181.52
          ],
          [
            1.852918,
            43.345962,
            182.1
          ],
          [
            1.852853,
            43.346001,
            182.26
          ],
          [
            1.852606,
            43.346104,
            183.23
          ],
          [
            1.852372,
            43.346215,
            184.16
          ],
          [
            1.852478,
            43.346376,
            184.61
          ],
          [
            1.851781,
            43.346672,
            185.98
          ],
          [
            1.851542,
            43.34682,
            186.0
          ],
          [
            1.851437,
            43.346867,
            186.07
          ],
          [
            1.85107,
            43.347056,
            186.69
          ],
          [
            1.85093,
            43.347148,
            186.77
          ],
          [
            1.850011,
            43.347602,
            187.0
          ],
          [
            1.848883,
            43.348047,
            188.56
          ],
          [
            1.848486,
            43.348157,
            189.0
          ],
          [
            1.846597,
            43.348607,
            188.85
          ],
          [
            1.846333,
            43.348678,
            188.09
          ],
          [
            1.845958,
            43.348757,
            188.0
          ],
          [
            1.845688,
            43.348823,
            188.0
          ],
          [
            1.845486,
            43.348982,
            188.32
          ],
          [
            1.845359,
            43.349129,
            188.83
          ],
          [
            1.845289,
            43.349238,
            188.74
          ],
          [
            1.845249,
            43.349266,
            188.71
          ],
          [
            1.845294,
            43.349368,
            188.95
          ],
          [
            1.845352,
            43.349427,
            189.0
          ],
          [
            1.845489,
            43.349429,
            189.0
          ],
          [
            1.845484,
            43.349522,
            189.0
          ],
          [
            1.845505,
            43.349614,
            189.0
          ],
          [
            1.845852,
            43.349625,
            189.0
          ],
          [
            1.845973,
            43.349649,
            189.0
          ],
          [
            1.846134,
            43.3497,
            189.01
          ],
          [
            1.846308,
            43.34973,
            189.05
          ],
          [
            1.849084,
            43.349832,
            190.96
          ],
          [
            1.849192,
            43.349854,
            191.0
          ],
          [
            1.84926,
            43.349915,
            190.9
          ],
          [
            1.849337,
            43.350099,
            190.19
          ],
          [
            1.850254,
            43.351855,
            186.76
          ],
          [
            1.850254,
            43.351855,
            186.76
          ],
          [
            1.849337,
            43.350099,
            190.19
          ],
          [
            1.84926,
            43.349915,
            190.9
          ],
          [
            1.849192,
            43.349854,
            191.0
          ],
          [
            1.849084,
            43.349832,
            190.96
          ],
          [
            1.846308,
            43.34973,
            189.05
          ],
          [
            1.846134,
            43.3497,
            189.01
          ],
          [
            1.845973,
            43.349649,
            189.0
          ],
          [
            1.845852,
            43.349625,
            189.0
          ],
          [
            1.845505,
            43.349614,
            189.0
          ],
          [
            1.845484,
            43.349522,
            189.0
          ],
          [
            1.845489,
            43.349429,
            189.0
          ],
          [
            1.845352,
            43.349427,
            189.0
          ],
          [
            1.845294,
            43.349368,
            188.95
          ],
          [
            1.845249,
            43.349266,
            188.71
          ],
          [
            1.845289,
            43.349238,
            188.74
          ],
          [
            1.845359,
            43.349129,
            188.83
          ],
          [
            1.845486,
            43.348982,
            188.32
          ],
          [
            1.845688,
            43.348823,
            188.0
          ],
          [
            1.845958,
            43.348757,
            188.0
          ],
          [
            1.846333,
            43.348678,
            188.09
          ],
          [
            1.846597,
            43.348607,
            188.85
          ],
          [
            1.848486,
            43.348157,
            189.0
          ],
          [
            1.848883,
            43.348047,
            188.56
          ],
          [
            1.850011,
            43.347602,
            187.0
          ],
          [
            1.85093,
            43.347148,
            186.77
          ],
          [
            1.85107,
            43.347056,
            186.69
          ],
          [
            1.851437,
            43.346867,
            186.07
          ],
          [
            1.851542,
            43.34682,
            186.0
          ],
          [
            1.851781,
            43.346672,
            185.98
          ],
          [
            1.852478,
            43.346376,
            184.61
          ],
          [
            1.852372,
            43.346215,
            184.16
          ],
          [
            1.852606,
            43.346104,
            183.23
          ],
          [
            1.852853,
            43.346001,
            182.26
          ],
          [
            1.852918,
            43.345962,
            182.1
          ],
          [
            1.852878,
            43.34592,
            181.52
          ]
        ]
      }
    },
    {
      "type": "Feature",
      "properties": {
        "source": "Montagne_Noire.gpx",
        "type": "route"
      },
      "geometry": {
        "type": "LineString",
        "coordinates": [
          [
            1.852878,
            43.34592
          ],
          [
            1.852918,
            43.345962
          ],
          [
            1.852372,
            43.346215
          ],
          [
            1.852478,
            43.346376
          ],
          [
            1.845688,
            43.348823
          ],
          [
            1.845249,
            43.349266
          ],
          [
            1.845352,
            43.349427
          ],
          [
            1.845489,
            43.349429
          ],
          [
            1.845505,
            43.349614
          ],
          [
            1.849192,
            43.349854
          ],
          [
            1.850254,
            43.351855
          ],
          [
            1.850254,
            43.351855
          ],
          [
            1.849192,
            43.349854
          ],
          [
            1.845505,
            43.349614
          ],
          [
            1.845489,
            43.349429
          ],
          [
            1.845352,
            43.349427
          ],
          [
            1.845249,
            43.349266
          ],
          [
            1.845688,
            43.348823
          ],
          [
            1.852478,
            43.346376
          ],
          [
            1.852372,
            43.346215
          ],
          [
            1.852918,
            43.345962
          ],
          [
            1.852878,
            43.34592
          ]
        ]
      }
    }
  ]
}