{
  "type": "FeatureCollection",
  "features": [
    {
      "type": "Feature",
      "properties": {
        "name": "GraphHopper Track",
        "source": "Coll_de_Gascons.gpx",
        "type": "track"
      },
      "geometry": {
        "type": "LineString",
        "coordinates": [
          [
            2.878552,
            42.506213,
            445.13
          ],
          [
            2.878531,
            42.506271,
            442.8
          ],
          [
            2.87859,
            42.506364,
            438.95
          ],
          [
            2.878619,
            42.506547,
            432.66
          ],
          [
            2.878573,
            42.506664,
            428.94
          ],
          [
            2.878329,
            42.506812,
            422.54
          ],
          [
            2.878281,
            42.506899,
            420.16
          ],
          [
            2.878187,
            42.507018,
            416.5
          ],
          [
            2.878064,
            42.507097,
            413.29
          ],
          [
            2.877994,
            42.507115,
            411.89
          ],
          [
            2.877951,
            42.507212,
            409.4
          ],
          [
            2.877874,
            42.507253,
            407.74
          ],
          [
            2.877694,
            42.507297,
            404.43
          ],
          [
            2.877554,
            42.507465,
            399.71
          ],
          [
            2.877608,
            42.507532,
            397.91
          ],
          [
            2.877538,
            42.507584,
            396.25
          ],
          [
            2.877404,
            42.507597,
            394.11
          ],
          [
            2.877291,
            42.507582,
            392.47
          ],
          [
            2.877238,
            42.507631,
            391.36
          ],
          [
            2.876943,
            42.507728,
            387.9
          ],
          [
            2.876825,
            42.50774,
            386.89
          ],
          [
            2.876591,
            42.507882,
            384.57
          ],
          [
            2.87639,
            42.508102,
            381.83
          ],
          [
            2.876347,
            42.508179,
            381.06
          ],
          [
            2.876146,
            42.508248,
            379.56
          ],
          [
            2.876058,
            42.508254,
            379.01
          ],
          [
            2.875983,
            42.508288,
            378.49
          ],
          [
            2.875905,
            42.508373,
            377.65
          ],
          [
            2.875757,
            42.508434,
            376.46
          ],
          [
            2.875755,
            42.508481,
            375.94
          ],
          [
            2.875805,
            42.50855,
            375.01
          ],
          [
            2.8758,
            42.508695,
            373.21
          ],
          [
            2.875779,
            42.508817,
            371.61
          ],
          [
            2.875706,
            42.508898,
            370.43
          ],
          [
            2.875623,
            42.508938,
            369.58
          ],
          [
            2.875519,
            42.50895,
            368.69
          ],
          [
            2.875325,
            42.508932,
            367.05
          ],
          [
            2.875253,
            42.508954,
            366.34
          ],
          [
            2.875103,
            42.509039,
            364.51
          ],
          [
            2.874834,
            42.50908,
            361.16
          ],
          [
            2.874582,
            42.509163,
            356.97
          ],
          [
            2.874279,
            42.50924,
            351.38
          ],
          [
            2.874196,
            42.509304,
            349.25
          ],
          [
            2.874081,
            42.509363,
            346.77
          ],
          [
            2.873855,
            42.50944,
            341.36
          ],
          [
            2.873581,
            42.509741,
            328.92
          ],
          [
            2.873625,
            42.509772,
            328.33
          ],
          [
            2.874345,
            42.50969,
            329.13
          ],
          [
            2.874869,
            42.509648,
            329.64
          ],
          [
            2.875111,
            42.509645,
            329.78
          ],
          [
            2.875266,
            42.509692,
            329.92
          ],
          [
            2.875576,
            42.509828,
            330.82
          ],
          [
            2.875706,
            42.509831,
            331.56
          ],
          [
            2.876157,
            42.509676,
            332.05
          ],
          [
            2.876232,
            42.509663,
            332.0
          ],
          [
            2.876333,
            42.509668,
            331.96
          ],
          [
            2.876479,
            42.509736,
            331.45
          ],
          [
            2.876645,
            42.50985,
            330.23
          ],
          [
            2.876699,
            42.509869,
            330.1
          ],
          [
            2.876771,
            42.509865,
            331.22
          ],
          [
            2.876825,
            42.509821,
            332.06
          ],
          [
            2.876854,
            42.509742,
            332.69
          ],
          [
            2.876868,
            42.509414,
            334.5
          ],
          [
            2.876845,
            42.509286,
            334.8
          ],
          [
            2.876795,
            42.50916,
            335.44
          ],
          [
            2.876781,
            42.509053,
            335.89
          ],
          [
            2.876818,
            42.508977,
            336.1
          ],
          [
            2.876911,
            42.508896,
            336.37
          ],
          [
            2.877018,
            42.508838,
            336.51
          ],
          [
            2.877084,
            42.508788,
            336.55
          ],
          [
            2.877125,
            42.508729,
            336.53
          ],
          [
            2.877185,
            42.508572,
            336.36
          ],
          [
            2.877254,
            42.508534,
            336.29
          ],
          [
            2.877336,
            42.508508,
            336.26
          ],
          [
            2.877424,
            42.50852,
            336.29
          ],
          [
            2.877773,
            42.508764,
            336.36
          ],
          [
            2.877839,
            42.508778,
            336.34
          ],
          [
            2.877934,
            42.508765,
            336.29
          ],
          [
            2.878099,
            42.508631,
            336.24
          ],
          [
            2.878242,
            42.508497,
            336.32
          ],
          [
            2.87834,
            42.508448,
            336.41
          ],
          [
            2.878578,
            42.50838,
            336.76
          ],
          [
            2.878665,
            42.508408,
            336.89
          ],
          [
            2.878722,
            42.50847,
            337.04
          ],
          [
            2.878792,
            42.508761,
            337.64
          ],
          [
            2.878965,
            42.508994,
            338.33
          ],
          [
            2.879058,
            42.50903,
            338.5
          ],
          [
            2.879157,
            42.509016,
            338.67
          ],
          [
            2.879329,
            42.508882,
            339.13
          ],
          [
            2.879522,
            42.50875,
            339.74
          ],
          [
            2.879889,
            42.508665,
            340.78
          ],
          [
            2.880147,
            42.508539,
            341.35
          ],
          [
            2.880454,
            42.508255,
            342.25
          ],
          [
            2.880663,
            42.508204,
            342.77
          ],
          [
            2.881547,
            42.508353,
            345.83
          ],
          [
            2.881804,
            42.508352,
            347.21
          ],
          [
            2.881944,
            42.508308,
            347.94
          ],
          [
            2.882095,
            42.50824,
            348.64
          ],
          [
            2.882173,
            42.508127,
            349.2
          ],
          [
            2.88206,
            42.507852,
            349.98
          ],
          [
            2.882095,
            42.50774,
            350.17
          ],
          [
            2.882731,
            42.507457,
            350.01
          ],
          [
            2.882908,
            42.507264,
            349.31
          ],
          [
            2.88301,
            42.506957,
            348.13
          ],
          [
            2.883098,
            42.506797,
            347.52
          ],
          [
            2.883239,
            42.506651,
            346.67
          ],
          [
            2.883448,
            42.506537,
            345.48
          ],
          [
            2.884115,
            42.50631,
            342.51
          ],
          [
            2.884202,
            42.506335,
            341.22
          ],
          [
            2.884232,
            42.506419,
            341.61
          ],
          [
            2.884207,
            42.506518,
            342.28
          ],
          [
            2.884028,
            42.506757,
            342.65
          ],
          [
            2.884002,
            42.506927,
            343.0
          ],
          [
            2.884028,
            42.507029,
            343.41
          ],
          [
            2.884089,
            42.507113,
            343.76
          ],
          [
            2.884259,
            42.507212,
            344.27
          ],
          [
            2.884701,
            42.50738,
            344.72
          ],
          [
            2.884736,
            42.507435,
            344.77
          ],
          [
            2.88474,
            42.507466,
            344.79
          ],
          [
            2.884674,
            42.507539,
            345.06
          ],
          [
            2.884501,
            42.507617,
            345.45
          ],
          [
            2.884415,
            42.507691,
            345.31
          ],
          [
            2.884359,
            42.507761,
            344.8
          ],
          [
            2.884303,
            42.507908,
            343.74
          ],
          [
            2.884277,
            42.508026,
            343.41
          ],
          [
            2.884358,
            42.508122,
            343.92
          ],
          [
            2.884501,
            42.50826,
            343.37
          ],
          [
            2.884563,
            42.508375,
            343.32
          ],
          [
            2.884621,
            42.508435,
            343.35
          ],
          [
            2.884771,
            42.508509,
            343.61
          ],
          [
            2.884995,
            42.508592,
            343.83
          ],
          [
            2.885193,
            42.508643,
            343.94
          ],
          [
            2.885408,
            42.508659,
            344.12
          ],
          [
            2.885408,
            42.508659,
            344.12
          ],
          [
            2.885193,
            42.508643,
            343.94
          ],
          [
            2.884995,
            42.508592,
            343.83
          ],
          [
            2.884771,
            42.508509,
            343.61
          ],
          [
            2.884621,
            42.508435,
            343.35
          ],
          [
            2.884563,
            42.508375,
            343.32
          ],
          [
            2.884501,
            42.50826,
            343.37
          ],
          [
            2.884358,
            42.508122,
            343.92
          ],
          [
            2.884277,
            42.508026,
            343.41
          ],
          [
            2.884303,
            42.507908,
            343.74
          ],
          [
            2.884359,
            42.507761,
            344.8
          ],
          [
            2.884415,
            42.507691,
            345.31
          ],
          [
            2.884501,
            42.507617,
            345.45
          ],
          [
            2.884674,
            42.507539,
            345.06
          ],
          [
            2.88474,
            42.507466,
            344.79
          ],
          [
            2.884736,
            42.507435,
            344.77
          ],
          [
            2.884701,
            42.50738,
            344.72
          ],
          [
            2.884259,
            42.507212,
            344.27
          ],
          [
            2.884089,
            42.507113,
            343.76
          ],
          [
            2.884028,
            42.507029,
            343.41
          ],
          [
            2.884002,
            42.506927,
            343.0
          ],
          [
            2.884028,
            42.506757,
            342.65
          ],
          [
            2.884207,
            42.506518,
            342.28
          ],
          [
            2.884232,
            42.506419,
            341.61
          ],
          [
            2.884202,
            42.506335,
            341.22
          ],
          [
            2.884115,
            42.50631,
            342.51
          ],
          [
            2.883448,
            42.506537,
            345.48
          ],
          [
            2.883239,
            42.506651,
            346.67
          ],
          [
            2.883098,
            42.506797,
            347.52
          ],
          [
            2.88301,
            42.506957,
            348.13
          ],
          [
            2.882908,
            42.507264,
            349.31
          ],
          [
            2.882731,
            42.507457,
            350.01
          ],
          [
            2.882095,
            42.50774,
            350.17
          ],
          [
            2.88206,
            42.507852,
            349.98
          ],
          [
            2.882173,
            42.508127,
            349.2
          ],
          [
            2.882095,
            42.50824,
            348.64
          ],
          [
            2.881944,
            42.508308,
            347.94
          ],
          [
            2.881804,
            42.508352,
            347.21
          ],
          [
            2.881547,
            42.508353,
            345.83
          ],
          [
            2.880663,
            42.508204,
            342.77
          ],
          [
            2.880454,
            42.508255,
            342.25
          ],
          [
            2.880147,
            42.508539,
            341.35
          ],
          [
            2.879889,
            42.508665,
            340.78
          ],
          [
            2.879522,
            42.50875,
            339.74
          ],
          [
            2.879329,
            42.508882,
            339.13
          ],
          [
            2.879157,
            42.509016,
            338.67
          ],
          [
            2.879058,
            42.50903,
            338.5
          ],
          [
            2.878965,
            42.508994,
            338.33
          ],
          [
            2.878792,
            42.508761,
            337.64
          ],
          [
            2.878722,
            42.50847,
            337.04
          ],
          [
            2.878665,
            42.508408,
            336.89
          ],
          [
            2.878578,
            42.50838,
            336.76
          ],
          [
            2.87834,
            42.508448,
            336.41
          ],
          [
            2.878242,
            42.508497,
            336.32
          ],
          [
            2.878099,
            42.508631,
            336.24
          ],
          [
            2.877934,
            42.508765,
            336.29
          ],
          [
            2.877839,
            42.508778,
            336.34
          ],
          [
            2.877773,
            42.508764,
            336.36
          ],
          [
            2.877424,
            42.50852,
            336.29
          ],
          [
            2.877336,
            42.508508,
            336.26
          ],
          [
            2.877254,
            42.508534,
            336.29
          ],
          [
            2.877185,
            42.508572,
            336.36
          ],
          [
            2.877125,
            42.508729,
            336.53
          ],
          [
            2.877084,
            42.508788,
            336.55
          ],
          [
            2.877018,
            42.508838,
            336.51
          ],
          [
            2.876911,
            42.508896,
            336.37
          ],
          [
            2.876818,
            42.508977,
            336.1
          ],
          [
            2.876781,
            42.509053,
            335.89
          ],
          [
            2.876795,
            42.50916,
            335.44
          ],
          [
            2.876845,
            42.509286,
            334.8
          ],
          [
            2.876868,
            42.509414,
            334.5
          ],
          [
            2.876854,
            42.509742,
            332.69
          ],
          [
            2.876825,
            42.509821,
            332.06
          ],
          [
            2.876771,
            42.509865,
            331.22
          ],
          [
            2.876699,
            42.509869,
            330.1
          ],
          [
            2.876645,
            42.50985,
            330.23
          ],
          [
            2.876479,
            42.509736,
            331.45
          ],
          [
            2.876333,
            42.509668,
            331.96
          ],
          [
            2.876232,
            42.509663,
            332.0
          ],
          [
            2.876157,
            42.509676,
            332.05
          ],
          [
            2.875706,
            42.509831,
            331.56
          ],
          [
            2.875576,
            42.509828,
            330.82
          ],
          [
            2.875266,
            42.509692,
            329.92
          ],
          [
            2.875111,
            42.509645,
            329.78
          ],
          [
            2.874869,
            42.509648,
            329.64
          ],
          [
            2.874345,
            42.50969,
            329.13
          ],
          [
            2.873625,
            42.509772,
            328.33
          ],
          [
            2.873499,
            42.509681,
            329.0
          ],
          [
            2.873394,
            42.509784,
            328.99
          ],
          [
            2.873351,
            42.509895,
            328.98
          ],
          [
            2.873209,
            42.510508,
            328.6
          ],
          [
            2.873204,
            42.510617,
            327.9
          ],
          [
            2.873169,
            42.510666,
            326.61
          ],
          [
            2.873056,
            42.510686,
            325.09
          ],
          [
            2.872895,
            42.510761,
            320.66
          ],
          [
            2.872394,
            42.511069,
            308.02
          ],
          [
            2.872329,
            42.511121,
            305.79
          ],
          [
            2.872305,
            42.5112,
            303.42
          ],
          [
            2.87197,
            42.511348,
            293.51
          ],
          [
            2.871793,
            42.511502,
            288.95
          ],
          [
            2.871525,
            42.511572,
            284.92
          ],
          [
            2.871468,
            42.511611,
            283.64
          ],
          [
            2.871372,
            42.511752,
            280.33
          ],
          [
            2.871222,
            42.511884,
            277.09
          ],
          [
            2.870961,
            42.512084,
            272.14
          ],
          [
            2.870868,
            42.512127,
            270.68
          ],
          [
            2.870674,
            42.512171,
            267.84
          ],
          [
            2.870465,
            42.512189,
            264.8
          ],
          [
            2.870253,
            42.512271,
            261.23
          ],
          [
            2.870167,
            42.512276,
            259.96
          ],
          [
            2.87006,
            42.512246,
            258.78
          ],
          [
            2.869952,
            42.51227,
            257.88
          ],
          [
            2.869828,
            42.512266,
            256.67
          ],
          [
            2.869584,
            42.512165,
            254.44
          ],
          [
            2.869313,
            42.512089,
            251.83
          ],
          [
            2.869143,
            42.512069,
            250.11
          ],
          [
            2.868721,
            42.512153,
            245.54
          ],
          [
            2.86848,
            42.512221,
            242.59
          ],
          [
            2.868273,
            42.512303,
            239.69
          ],
          [
            2.868118,
            42.512401,
            237.2
          ],
          [
            2.867995,
            42.512504,
            234.97
          ],
          [
            2.867859,
            42.512719,
            231.2
          ],
          [
            2.867831,
            42.512858,
            228.92
          ],
          [
            2.867865,
            42.512943,
            227.54
          ],
          [
            2.867972,
            42.513022,
            226.14
          ],
          [
            2.868234,
            42.513128,
            223.85
          ],
          [
            2.868233,
            42.513187,
            222.52
          ],
          [
            2.868206,
            42.513272,
            221.14
          ],
          [
            2.868267,
            42.513473,
            220.89
          ],
          [
            2.86825,
            42.513573,
            221.61
          ],
          [
            2.868165,
            42.513671,
            222.49
          ],
          [
            2.868105,
            42.513798,
            224.02
          ],
          [
            2.868069,
            42.513918,
            225.24
          ],
          [
            2.868004,
            42.514209,
            228.71
          ],
          [
            2.868054,
            42.514369,
            230.77
          ],
          [
            2.868195,
            42.514654,
            235.36
          ],
          [
            2.868183,
            42.514781,
            236.74
          ],
          [
            2.868153,
            42.514868,
            237.07
          ],
          [
            2.86807,
            42.51485,
            236.83
          ],
          [
            2.868022,
            42.514781,
            237.11
          ],
          [
            2.868,
            42.514672,
            238.0
          ],
          [
            2.867936,
            42.514599,
            238.8
          ],
          [
            2.867834,
            42.514522,
            239.89
          ],
          [
            2.867694,
            42.514472,
            240.52
          ],
          [
            2.867584,
            42.514478,
            240.69
          ],
          [
            2.867424,
            42.514522,
            240.61
          ],
          [
            2.867107,
            42.51463,
            240.18
          ],
          [
            2.865946,
            42.514891,
            237.52
          ],
          [
            2.865318,
            42.515095,
            236.49
          ],
          [
            2.864924,
            42.515237,
            235.77
          ],
          [
            2.8648,
            42.515261,
            235.47
          ],
          [
            2.864707,
            42.515267,
            235.23
          ],
          [
            2.864631,
            42.515257,
            235.04
          ],
          [
            2.864505,
            42.515219,
            234.69
          ],
          [
            2.864436,
            42.515221,
            234.5
          ],
          [
            2.864041,
            42.515263,
            232.93
          ],
          [
            2.863859,
            42.515263,
            231.99
          ],
          [
            2.863583,
            42.515249,
            230.24
          ],
          [
            2.863395,
            42.515255,
            228.92
          ],
          [
            2.8631,
            42.515279,
            226.9
          ],
          [
            2.862794,
            42.515326,
            224.84
          ],
          [
            2.862338,
            42.515425,
            222.15
          ],
          [
            2.862196,
            42.515484,
            221.23
          ],
          [
            2.861949,
            42.515629,
            219.97
          ],
          [
            2.861826,
            42.515682,
            219.7
          ],
          [
            2.861601,
            42.515714,
            219.84
          ],
          [
            2.861541,
            42.515747,
            219.9
          ],
          [
            2.861507,
            42.515818,
            220.0
          ],
          [
            2.861354,
            42.515913,
            220.16
          ],
          [
            2.861209,
            42.515965,
            221.04
          ],
          [
            2.861019,
            42.516006,
            222.75
          ],
          [
            2.860699,
            42.516048,
            223.84
          ],
          [
            2.860546,
            42.516081,
            224.24
          ],
          [
            2.86023,
            42.51621,
            225.06
          ],
          [
            2.860007,
            42.51623,
            225.26
          ],
          [
            2.859903,
            42.516269,
            225.2
          ],
          [
            2.859549,
            42.516429,
            224.49
          ],
          [
            2.859474,
            42.516445,
            224.36
          ],
          [
            2.858881,
            42.516429,
            223.07
          ],
          [
            2.858768,
            42.516447,
            222.62
          ],
          [
            2.858722,
            42.516493,
            221.62
          ],
          [
            2.858671,
            42.516597,
            218.99
          ],
          [
            2.858599,
            42.51669,
            216.59
          ],
          [
            2.85846,
            42.516967,
            211.05
          ],
          [
            2.85824,
            42.517224,
            204.92
          ],
          [
            2.858017,
            42.51738,
            199.58
          ],
          [
            2.857878,
            42.517511,
            195.39
          ],
          [
            2.8578,
            42.517639,
            191.78
          ],
          [
            2.857722,
            42.517799,
            187.39
          ],
          [
            2.857647,
            42.517991,
            182.3
          ],
          [
            2.857575,
            42.518135,
            177.64
          ],
          [
            2.857446,
            42.518351,
            171.98
          ],
          [
            2.857355,
            42.518428,
            170.29
          ],
          [
            2.857175,
            42.518521,
            168.44
          ],
          [
            2.857097,
            42.518539,
            167.23
          ],
          [
            2.856968,
            42.518551,
            165.62
          ],
          [
            2.856834,
            42.518604,
            162.32
          ],
          [
            2.856759,
            42.518673,
            159.2
          ],
          [
            2.856714,
            42.5188,
            155.02
          ],
          [
            2.856647,
            42.518891,
            150.71
          ],
          [
            2.856612,
            42.518988,
            146.49
          ],
          [
            2.856606,
            42.519033,
            145.77
          ],
          [
            2.856569,
            42.519053,
            145.53
          ],
          [
            2.856526,
            42.519051,
            145.39
          ],
          [
            2.85648,
            42.519021,
            144.88
          ],
          [
            2.85629,
            42.518798,
            143.52
          ],
          [
            2.856177,
            42.518644,
            142.62
          ],
          [
            2.856158,
            42.518535,
            141.89
          ],
          [
            2.85619,
            42.518456,
            141.38
          ],
          [
            2.856271,
            42.518349,
            140.72
          ],
          [
            2.856274,
            42.518282,
            140.33
          ],
          [
            2.856236,
            42.518246,
            140.07
          ],
          [
            2.856132,
            42.518234,
            139.58
          ],
          [
            2.855877,
            42.518246,
            138.35
          ],
          [
            2.855686,
            42.51826,
            137.57
          ],
          [
            2.85563,
            42.518278,
            137.32
          ],
          [
            2.8556,
            42.518323,
            137.03
          ],
          [
            2.855565,
            42.51846,
            136.19
          ],
          [
            2.855488,
            42.518566,
            135.5
          ],
          [
            2.855405,
            42.51862,
            135.01
          ],
          [
            2.855271,
            42.518655,
            134.35
          ],
          [
            2.855211,
            42.518707,
            133.91
          ],
          [
            2.855203,
            42.518764,
            133.54
          ],
          [
            2.855262,
            42.518885,
            132.62
          ],
          [
            2.855278,
            42.518962,
            132.06
          ],
          [
            2.855265,
            42.519181,
            130.57
          ],
          [
            2.855276,
            42.519318,
            129.63
          ],
          [
            2.855262,
            42.519399,
            128.97
          ],
          [
            2.855123,
            42.519654,
            126.6
          ],
          [
            2.85511,
            42.519727,
            125.99
          ],
          [
            2.855115,
            42.519847,
            124.98
          ],
          [
            2.855169,
            42.52017,
            122.31
          ],
          [
            2.855171,
            42.520263,
            121.59
          ],
          [
            2.855072,
            42.520468,
            119.89
          ],
          [
            2.855069,
            42.520547,
            119.3
          ],
          [
            2.855088,
            42.520644,
            118.58
          ],
          [
            2.855155,
            42.520763,
            117.7
          ],
          [
            2.855273,
            42.520937,
            116.5
          ],
          [
            2.855308,
            42.521045,
            115.84
          ],
          [
            2.855311,
            42.521136,
            115.35
          ],
          [
            2.855271,
            42.521215,
            114.93
          ],
          [
            2.855155,
            42.521301,
            114.36
          ],
          [
            2.854994,
            42.521372,
            113.68
          ],
          [
            2.854839,
            42.521419,
            113.13
          ],
          [
            2.854742,
            42.521419,
            112.81
          ],
          [
            2.85467,
            42.521389,
            112.53
          ],
          [
            2.854627,
            42.521348,
            112.29
          ],
          [
            2.85456,
            42.521196,
            111.56
          ],
          [
            2.854471,
            42.520747,
            109.11
          ],
          [
            2.85442,
            42.520662,
            108.59
          ],
          [
            2.854316,
            42.520585,
            107.94
          ],
          [
            2.854157,
            42.520524,
            107.0
          ],
          [
            2.854074,
            42.52047,
            106.32
          ],
          [
            2.854039,
            42.520407,
            105.73
          ],
          [
            2.854018,
            42.520288,
            104.7
          ],
          [
            2.853986,
            42.520255,
            104.38
          ],
          [
            2.853927,
            42.520245,
            104.04
          ],
          [
            2.85383,
            42.520279,
            103.45
          ],
          [
            2.85368,
            42.520383,
            102.27
          ],
          [
            2.853543,
            42.520443,
            101.32
          ],
          [
            2.853465,
            42.520441,
            100.87
          ],
          [
            2.853412,
            42.520409,
            100.47
          ],
          [
            2.853377,
            42.520359,
            100.04
          ],
          [
            2.853385,
            42.520195,
            98.69
          ],
          [
            2.853361,
            42.52012,
            98.02
          ],
          [
            2.853318,
            42.520037,
            97.24
          ],
          [
            2.853256,
            42.519956,
            96.48
          ],
          [
            2.853042,
            42.519757,
            94.55
          ],
          [
            2.852669,
            42.519331,
            90.57
          ],
          [
            2.852457,
            42.51911,
            89.67
          ],
          [
            2.852323,
            42.518997,
            89.11
          ],
          [
            2.852199,
            42.518958,
            88.81
          ],
          [
            2.852068,
            42.518956,
            88.93
          ],
          [
            2.85192,
            42.519049,
            90.03
          ],
          [
            2.851795,
            42.519262,
            92.7
          ],
          [
            2.851913,
            42.519464,
            92.85
          ],
          [
            2.851969,
            42.519641,
            92.85
          ],
          [
            2.851969,
            42.519753,
            92.78
          ],
          [
            2.851938,
            42.519856,
            92.72
          ],
          [
            2.851829,
            42.520085,
            92.62
          ],
          [
            2.851621,
            42.520473,
            92.3
          ],
          [
            2.851482,
            42.520533,
            92.21
          ],
          [
            2.851304,
            42.520569,
            91.85
          ],
          [
            2.851008,
            42.520542,
            91.03
          ],
          [
            2.850354,
            42.520383,
            89.69
          ],
          [
            2.849722,
            42.520216,
            88.97
          ],
          [
            2.849031,
            42.520083,
            88.65
          ],
          [
            2.848675,
            42.520069,
            87.95
          ],
          [
            2.848475,
            42.520165,
            87.32
          ],
          [
            2.848318,
            42.520032,
            87.54
          ],
          [
            2.84724,
            42.519947,
            85.0
          ],
          [
            2.84675,
            42.519987,
            84.23
          ],
          [
            2.845948,
            42.520107,
            83.17
          ],
          [
            2.845871,
            42.520124,
            83.04
          ],
          [
            2.845552,
            42.519875,
            84.0
          ],
          [
            2.845393,
            42.519937,
            83.7
          ],
          [
            2.845252,
            42.52001,
            83.49
          ],
          [
            2.845011,
            42.520203,
            83.14
          ],
          [
            2.844806,
            42.520419,
            83.0
          ],
          [
            2.844569,
            42.520265,
            83.0
          ],
          [
            2.844274,
            42.520098,
            83.0
          ],
          [
            2.843901,
            42.519968,
            83.45
          ],
          [
            2.84374,
            42.519883,
            83.82
          ],
          [
            2.84312,
            42.519442,
            84.43
          ],
          [
            2.842705,
            42.519756,
            83.39
          ],
          [
            2.841944,
            42.519256,
            85.72
          ],
          [
            2.841795,
            42.519173,
            85.84
          ],
          [
            2.841529,
            42.519054,
            85.41
          ],
          [
            2.841414,
            42.518993,
            85.19
          ],
          [
            2.841216,
            42.518846,
            85.0
          ],
          [
            2.838765,
            42.516995,
            85.77
          ],
          [
            2.837276,
            42.516265,
            86.58
          ],
          [
            2.837086,
            42.516233,
            87.0
          ],
          [
            2.836991,
            42.516138,
            87.0
          ],
          [
            2.835843,
            42.515565,
            88.0
          ],
          [
            2.83569,
            42.515741,
            88.0
          ],
          [
            2.835072,
            42.51657,
            87.27
          ],
          [
            2.834718,
            42.516589,
            86.95
          ],
          [
            2.834628,
            42.516559,
            87.16
          ],
          [
            2.834558,
            42.516611,
            86.15
          ],
          [
            2.83445,
            42.516609,
            85.17
          ],
          [
            2.834149,
            42.516557,
            82.17
          ],
          [
            2.834026,
            42.516555,
            80.27
          ],
          [
            2.833899,
            42.516985,
            74.28
          ],
          [
            2.833839,
            42.517066,
            75.04
          ],
          [
            2.833754,
            42.517132,
            74.62
          ],
          [
            2.833656,
            42.517181,
            74.3
          ],
          [
            2.833573,
            42.517239,
            74.01
          ],
          [
            2.833494,
            42.517386,
            73.65
          ],
          [
            2.833377,
            42.517512,
            73.48
          ],
          [
            2.833178,
            42.517678,
            73.05
          ],
          [
            2.832833,
            42.517913,
            72.97
          ],
          [
            2.8327,
            42.518044,
            73.25
          ],
          [
            2.832172,
            42.517938,
            76.05
          ],
          [
            2.832122,
            42.517976,
            76.48
          ],
          [
            2.832099,
            42.518013,
            76.14
          ],
          [
            2.831583,
            42.51959,
            73.83
          ],
          [
            2.83158,
            42.519694,
            75.79
          ],
          [
            2.831552,
            42.519839,
            76.35
          ],
          [
            2.831548,
            42.519937,
            76.6
          ],
          [
            2.831574,
            42.520066,
            76.93
          ],
          [
            2.831623,
            42.520158,
            77.0
          ],
          [
            2.831504,
            42.52015,
            77.08
          ],
          [
            2.831569,
            42.520353,
            77.61
          ],
          [
            2.832078,
            42.52165,
            80.35
          ],
          [
            2.830931,
            42.521451,
            84.43
          ],
          [
            2.830571,
            42.522009,
            86.0
          ],
          [
            2.830271,
            42.52251,
            86.53
          ],
          [
            2.83004,
            42.522837,
            87.01
          ],
          [
            2.829496,
            42.522944,
            88.0
          ],
          [
            2.827194,
            42.522429,
            89.0
          ],
          [
            2.82713,
            42.522431,
            89.0
          ],
          [
            2.82675,
            42.522363,
            89.34
          ],
          [
            2.826489,
            42.52234,
            90.0
          ],
          [
            2.826376,
            42.522364,
            90.0
          ],
          [
            2.826266,
            42.522405,
            90.0
          ],
          [
            2.826154,
            42.522529,
            90.0
          ],
          [
            2.826081,
            42.522658,
            90.0
          ],
          [
            2.825947,
            42.522951,
            90.0
          ],
          [
            2.825832,
            42.523245,
            90.0
          ]
        ]
      }
    },
    {
      "type": "Feature",
      "properties": {
        "source": "Coll_de_Gascons.gpx",
        "type": "route"
      },
      "geometry": {
        "type": "LineString",
        "coordinates": [
          [
            2.878552,
            42.506213
          ],
          [
            2.873581,
            42.509741
          ],
          [
            2.873625,
            42.509772
          ],
          [
            2.876699,
            42.509869
          ],
          [
            2.884202,
            42.506335
          ],
          [
            2.884277,
            42.508026
          ],
          [
            2.885408,
            42.508659
          ],
          [
            2.885408,
            42.508659
          ],
          [
            2.884277,
            42.508026
          ],
          [
            2.884202,
            42.506335
          ],
          [
            2.873625,
            42.509772
          ],
          [
            2.873499,
            42.509681
          ],
          [
            2.873056,
            42.510686
          ],
          [
            2.872305,
            42.5112
          ],
          [
            2.868153,
            42.514868
          ],
          [
            2.858722,
            42.516493
          ],
          [
            2.856606,
            42.519033
          ],
          [
            2.856526,
            42.519051
          ],
          [
            2.851795,
            42.519262
          ],
          [
            2.851621,
            42.520473
          ],
          [
            2.848475,
            42.520165
          ],
          [
            2.845871,
            42.520124
          ],
          [
            2.845552,
            42.519875
          ],
          [
            2.844806,
            42.520419
          ],
          [
            2.84312,
            42.519442
          ],
          [
            2.842705,
            42.519756
          ],
          [
            2.841216,
            42.518846
          ],
          [
            2.837086,
            42.516233
          ],
          [
            2.835843,
            42.515565
          ],
          [
            2.834628,
            42.516559
          ],
          [
            2.834026,
            42.516555
          ],
          [
            2.8327,
            42.518044
          ],
          [
            2.832172,
            42.517938
          ],
          [
            2.831623,
            42.520158
          ],
          [
            2.831504,
            42.52015
          ],
          [
            2.832078,
            42.52165
          ],
          [
            2.830931,
            42.521451
          ],
          [
            2.829496,
            42.522944
          ],
          [
            2.826489,
            42.52234
          ],
          [
            2.825832,
            42.523245
          ]
        ]
      }
    }
  ]
}