{
    "type": "FeatureCollection",
    "name": "GR",
    "crs": {
        "type": "name",
        "properties": {
            "name": "urn:ogc:def:crs:OGC:1.3:CRS84"
        }
    },
    "features": [
        {
            "type": "Feature",
            "properties": {
                "nom": "GR"
            },
            "geometry": {
                "type": "MultiLineString",
                "coordinates": [
                    [
                        [
                            2.118372916716447,
                            44.60977597104995
                        ],
                        [
                            2.118308912866992,
                            44.6100456505986
                        ],
                        [
                            2.118004818281822,
                            44.61053969203544
                        ],
                        [
                            2.117903182640873,
                            44.61077332245307
                        ],
                        [
                            2.11790226824364,
                            44.61100715340759
                        ],
                        [
                            2.117876349983391,
                            44.61119596636908
                        ],
                        [
                            2.118455120098712,
                            44.611296046495234
                        ],
                        [
                            2.118782153957841,
                            44.61137763767456
                        ]
                    ]
                ]
            }
        },
        {
            "type": "Feature",
            "properties": {
                "nom": "GR"
            },
            "geometry": {
                "type": "MultiLineString",
                "coordinates": [
                    [
                        [
                            1.215383007457841,
                            44.6295384376603
                        ],
                        [
                            1.215331016663118,
                            44.62961885802898
                        ],
                        [
                            1.215040831388828,
                            44.62964288382128
                        ],
                        [
                            1.214234501254487,
                            44.62965264793935
                        ],
                        [
                            1.213843389610428,
                            44.62968463513103
                        ],
                        [
                            1.213133301507966,
                            44.62992023746263
                        ],
                        [
                            1.212396218948149,
                            44.630245505041046
                        ],
                        [
                            1.212026681525883,
                            44.63045759680769
                        ],
                        [
                            1.211819235289778,
                            44.630752296473155
                        ],
                        [
                            1.211725489917637,
                            44.6310301694793
                        ],
                        [
                            1.211223874695502,
                            44.631546722895784
                        ],
                        [
                            1.210649214561065,
                            44.63193660363717
                        ],
                        [
                            1.209697092462003,
                            44.63230462500275
                        ],
                        [
                            1.208972732964,
                            44.63262100710907
                        ],
                        [
                            1.20871922606602,
                            44.6326993586853
                        ],
                        [
                            1.208190098546841,
                            44.632702927181874
                        ],
                        [
                            1.207519722063568,
                            44.63283996122623
                        ],
                        [
                            1.207176063367523,
                            44.6330163246883
                        ],
                        [
                            1.206806489381523,
                            44.63322840015788
                        ],
                        [
                            1.206598280031092,
                            44.63355906062999
                        ],
                        [
                            1.206492815583283,
                            44.63379183662714
                        ],
                        [
                            1.206209218490667,
                            44.63411272789463
                        ],
                        [
                            1.20585186532205,
                            44.63434291409772
                        ],
                        [
                            1.205605136925182,
                            44.63470915606389
                        ],
                        [
                            1.205216420994075,
                            44.63524483403153
                        ],
                        [
                            1.204850890243078,
                            44.63587968993965
                        ],
                        [
                            1.20485070853356,
                            44.63588868296592
                        ],
                        [
                            1.204565638845721,
                            44.6362815118191
                        ],
                        [
                            1.204118467732197,
                            44.63659172058205
                        ],
                        [
                            1.203810016277728,
                            44.63689436123089
                        ],
                        [
                            1.203560273646761,
                            44.63721835665
                        ]
                    ]
                ]
            }
        },
        {
            "type": "Feature",
            "properties": {
                "nom": "GR"
            },
            "geometry": {
                "type": "MultiLineString",
                "coordinates": [
                    [
                        [
                            1.190144115952055,
                            44.60596440218271
                        ],
                        [
                            1.190393374582789,
                            44.606026480132165
                        ],
                        [
                            1.190784630147323,
                            44.60604303553991
                        ],
                        [
                            1.191089678166146,
                            44.60590230349587
                        ],
                        [
                            1.191518583855442,
                            44.605861798829764
                        ],
                        [
                            1.192098177215494,
                            44.605840851768654
                        ],
                        [
                            1.19260554194935,
                            44.60565724803312
                        ],
                        [
                            1.193076916847149,
                            44.60600394321653
                        ],
                        [
                            1.193684200088362,
                            44.606477971986465
                        ],
                        [
                            1.194229103253864,
                            44.60692436588939
                        ],
                        [
                            1.194192026471849,
                            44.60750862254429
                        ],
                        [
                            1.194442144035609,
                            44.60759217205392
                        ],
                        [
                            1.195144344114523,
                            44.607734382486996
                        ],
                        [
                            1.195658087663064,
                            44.60785664465375
                        ],
                        [
                            1.196258672776648,
                            44.60804276539356
                        ],
                        [
                            1.196972193043553,
                            44.60824804358454
                        ],
                        [
                            1.197835684938743,
                            44.608508837626076
                        ],
                        [
                            1.198874148472582,
                            44.60883439688999
                        ],
                        [
                            1.198983251882078,
                            44.6090423988597
                        ],
                        [
                            1.199103851232783,
                            44.60930448689637
                        ],
                        [
                            1.199150924651086,
                            44.60946687483992
                        ],
                        [
                            1.19906627702417,
                            44.60991572363115
                        ],
                        [
                            1.1989334602663,
                            44.61025614014302
                        ]
                    ]
                ]
            }
        },
        {
            "type": "Feature",
            "properties": {
                "nom": "GR"
            },
            "geometry": {
                "type": "MultiLineString",
                "coordinates": [
                    [
                        [
                            1.205464967561544,
                            44.613552549658415
                        ],
                        [
                            1.205738314933615,
                            44.61373525113171
                        ],
                        [
                            1.206325139825458,
                            44.61398413598124
                        ],
                        [
                            1.20737525861204,
                            44.614363698913664
                        ],
                        [
                            1.207469280570172,
                            44.61469746134748
                        ],
                        [
                            1.207534867545891,
                            44.61519283191932
                        ],
                        [
                            1.207680338356846,
                            44.615473155120135
                        ],
                        [
                            1.207695203391686,
                            44.61598599397858
                        ],
                        [
                            1.207824107112476,
                            44.616464026636066
                        ],
                        [
                            1.207974285976476,
                            44.616510540531955
                        ],
                        [
                            1.209041933591655,
                            44.61664741535246
                        ]
                    ]
                ]
            }
        },
        {
            "type": "Feature",
            "properties": {
                "nom": "GR"
            },
            "geometry": {
                "type": "MultiLineString",
                "coordinates": [
                    [
                        [
                            2.036131377356587,
                            44.59620831798299
                        ],
                        [
                            2.036259124101598,
                            44.596111639546834
                        ],
                        [
                            2.036348012195749,
                            44.59600725571563
                        ],
                        [
                            2.036376005003825,
                            44.59550202691224
                        ],
                        [
                            2.039590748550675,
                            44.596844729279
                        ],
                        [
                            2.040156305970988,
                            44.59641259434742
                        ],
                        [
                            2.041186218336661,
                            44.59684565234496
                        ],
                        [
                            2.042008358972675,
                            44.59715694766802
                        ],
                        [
                            2.042685156950983,
                            44.597193987957084
                        ],
                        [
                            2.044823331859996,
                            44.597310980805524
                        ],
                        [
                            2.044987011243352,
                            44.597302422602326
                        ],
                        [
                            2.045188499849141,
                            44.59728497068399
                        ],
                        [
                            2.045365188807254,
                            44.597195503844816
                        ],
                        [
                            2.045680240589713,
                            44.597124390817356
                        ],
                        [
                            2.045957345136851,
                            44.59708915016823
                        ],
                        [
                            2.046447916556862,
                            44.59715340299573
                        ],
                        [
                            2.046649172279154,
                            44.59718091456648
                        ],
                        [
                            2.04691317686847,
                            44.5972445664102
                        ],
                        [
                            2.047391628266619,
                            44.59721884713059
                        ],
                        [
                            2.047831900393446,
                            44.59727396673423
                        ],
                        [
                            2.048284762273952,
                            44.59732911827521
                        ],
                        [
                            2.048724943276479,
                            44.59740222096074
                        ],
                        [
                            2.04914004530074,
                            44.5974572699194
                        ],
                        [
                            2.049605725921559,
                            44.59746748165796
                        ],
                        [
                            2.05008440842019,
                            44.59739678366663
                        ],
                        [
                            2.05036169496488,
                            44.5973255586828
                        ],
                        [
                            2.050979200247918,
                            44.59718326987697
                        ],
                        [
                            2.051432704684322,
                            44.597112500218515
                        ],
                        [
                            2.051924060045317,
                            44.597023840040016
                        ],
                        [
                            2.052529108637281,
                            44.59685452982724
                        ],
                        [
                            2.053159235896163,
                            44.596703268288124
                        ],
                        [
                            2.053133925578535,
                            44.59673018425983
                        ],
                        [
                            2.053473912240479,
                            44.596704080523104
                        ],
                        [
                            2.053965034755109,
                            44.596660378341255
                        ],
                        [
                            2.054632736444097,
                            44.59654517897162
                        ],
                        [
                            2.055161798154763,
                            44.59646559524034
                        ],
                        [
                            2.05562796841496,
                            44.596376853734604
                        ],
                        [
                            2.056194112722096,
                            44.596432262022134
                        ],
                        [
                            2.056621666216522,
                            44.596514295135485
                        ],
                        [
                            2.057124653183492,
                            44.59661450476966
                        ],
                        [
                            2.057715213296468,
                            44.596822857515924
                        ],
                        [
                            2.058130095804443,
                            44.59692283975363
                        ],
                        [
                            2.058532436454289,
                            44.597013794150236
                        ],
                        [
                            2.058859211116866,
                            44.59711355056629
                        ],
                        [
                            2.059261599673464,
                            44.59719550944841
                        ],
                        [
                            2.059676709209019,
                            44.59725051791496
                        ],
                        [
                            2.060003931068449,
                            44.5972603368043
                        ],
                        [
                            2.060205460111007,
                            44.597233863740456
                        ],
                        [
                            2.060419663201911,
                            44.59718943503913
                        ],
                        [
                            2.060721976709355,
                            44.59714522726981
                        ],
                        [
                            2.060885212075655,
                            44.59722657878298
                        ],
                        [
                            2.061362065550599,
                            44.59752456143899
                        ],
                        [
                            2.062039970008001,
                            44.59789499361832
                        ],
                        [
                            2.062542407089115,
                            44.5981120932722
                        ],
                        [
                            2.062919588888533,
                            44.5982029694388
                        ],
                        [
                            2.063372296588975,
                            44.59829403248568
                        ],
                        [
                            2.063636412108756,
                            44.59833965683957
                        ],
                        [
                            2.064227497246465,
                            44.59844904785566
                        ],
                        [
                            2.064931871014051,
                            44.59855871457121
                        ],
                        [
                            2.065346734672432,
                            44.598667662660155
                        ],
                        [
                            2.065673400400606,
                            44.598794379440086
                        ],
                        [
                            2.065710815825224,
                            44.59886641938467
                        ],
                        [
                            2.065684727215952,
                            44.59905521915021
                        ],
                        [
                            2.065708902040219,
                            44.59926213056478
                        ],
                        [
                            2.065834212861332,
                            44.59937935488994
                        ],
                        [
                            2.065996983483573,
                            44.599559626957706
                        ],
                        [
                            2.066297829430851,
                            44.59982118091314
                        ],
                        [
                            2.066757067801503,
                            44.60022043441988
                        ],
                        [
                            2.06704591162249,
                            44.600471545770404
                        ],
                        [
                            2.067220976035594,
                            44.600875400740705
                        ],
                        [
                            2.067343252722305,
                            44.60144065533342
                        ],
                        [
                            2.067515860093569,
                            44.60223855585039
                        ],
                        [
                            2.067649456812719,
                            44.6028561116239
                        ],
                        [
                            2.068017877219599,
                            44.60328678563695
                        ],
                        [
                            2.068697804484219,
                            44.60367538302678
                        ],
                        [
                            2.069426408007601,
                            44.6039636307197
                        ],
                        [
                            2.069702881889294,
                            44.60407300676119
                        ],
                        [
                            2.07018116215424,
                            44.604319936050636
                        ],
                        [
                            2.070771110548947,
                            44.60462451041288
                        ],
                        [
                            2.071139716525052,
                            44.604919086390225
                        ],
                        [
                            2.071474398048339,
                            44.60518654670305
                        ],
                        [
                            2.071778434654546,
                            44.605528976428296
                        ],
                        [
                            2.072073540125813,
                            44.60586134133424
                        ],
                        [
                            2.072323140362699,
                            44.60614245382517
                        ],
                        [
                            2.073107112001901,
                            44.606493932627956
                        ],
                        [
                            2.072580158219676,
                            44.604803560902006
                        ],
                        [
                            2.073255369308159,
                            44.60490997809585
                        ],
                        [
                            2.074900571823823,
                            44.60549470002197
                        ],
                        [
                            2.076157930458374,
                            44.60594155437306
                        ],
                        [
                            2.076209988902819,
                            44.60620354225537
                        ],
                        [
                            2.076430339248068,
                            44.60652779611469
                        ],
                        [
                            2.076709077435625,
                            44.606731632871664
                        ],
                        [
                            2.077318949309373,
                            44.60681061199066
                        ],
                        [
                            2.078004103538447,
                            44.60746115608186
                        ],
                        [
                            2.078363404723208,
                            44.60791418682061
                        ],
                        [
                            2.078890711308923,
                            44.60844384710614
                        ],
                        [
                            2.079361200026894,
                            44.60899855656956
                        ],
                        [
                            2.079424726093752,
                            44.609073452765315
                        ],
                        [
                            2.079285910172266,
                            44.61135514910102
                        ]
                    ]
                ]
            }
        },
        {
            "type": "Feature",
            "properties": {
                "nom": "GR"
            },
            "geometry": {
                "type": "MultiLineString",
                "coordinates": [
                    [
                        [
                            1.557418805289491,
                            44.80404465185776
                        ],
                        [
                            1.557431563253644,
                            44.80403574737097
                        ],
                        [
                            1.557740524451508,
                            44.803624169928405
                        ],
                        [
                            1.55816430387522,
                            44.803132449768164
                        ],
                        [
                            1.558653493987736,
                            44.80247928305765
                        ],
                        [
                            1.559078633030282,
                            44.801888626688225
                        ],
                        [
                            1.559542160946937,
                            44.801262259706725
                        ],
                        [
                            1.55985458999141,
                            44.80059884842636
                        ],
                        [
                            1.559996920057946,
                            44.80035699202613
                        ],
                        [
                            1.560201660407492,
                            44.80016954350591
                        ],
                        [
                            1.560405276236614,
                            44.8000630402744
                        ],
                        [
                            1.560724202449849,
                            44.79984041594754
                        ],
                        [
                            1.560802118249564,
                            44.79968805399046
                        ],
                        [
                            1.560677293997619,
                            44.799579238547665
                        ],
                        [
                            1.560313334061722,
                            44.79940577606546
                        ],
                        [
                            1.560200768819657,
                            44.79932403063233
                        ],
                        [
                            1.560229030009598,
                            44.79910835537814
                        ],
                        [
                            1.560651254904127,
                            44.79872455423229
                        ],
                        [
                            1.56095629409321,
                            44.79859177889598
                        ],
                        [
                            1.561225307372904,
                            44.798323828916935
                        ],
                        [
                            1.561329230043032,
                            44.79811768062137
                        ],
                        [
                            1.561533832621281,
                            44.797939223833055
                        ],
                        [
                            1.562055599410356,
                            44.79766405368949
                        ],
                        [
                            1.56252546342508,
                            44.797487458785156
                        ],
                        [
                            1.562842874702382,
                            44.79737275544022
                        ],
                        [
                            1.563593241253559,
                            44.79700923432698
                        ],
                        [
                            1.564206017274965,
                            44.79654580296567
                        ],
                        [
                            1.564590177485971,
                            44.79617071475357
                        ],
                        [
                            1.564770246036061,
                            44.79593811296054
                        ],
                        [
                            1.565151915488616,
                            44.795742899412886
                        ],
                        [
                            1.565624730582412,
                            44.79535043874731
                        ],
                        [
                            1.565933705965423,
                            44.7949298474166
                        ],
                        [
                            1.566430036332017,
                            44.794663473768104
                        ],
                        [
                            1.566771446802927,
                            44.7946388742148
                        ],
                        [
                            1.567084994760302,
                            44.7948029681187
                        ],
                        [
                            1.567433717193872,
                            44.79516519119217
                        ],
                        [
                            1.567996062391902,
                            44.79560985436701
                        ],
                        [
                            1.568283615528987,
                            44.79582773160488
                        ],
                        [
                            1.56873661439681,
                            44.795956813778375
                        ],
                        [
                            1.569406076241623,
                            44.79596147461423
                        ],
                        [
                            1.570257308603388,
                            44.79560760569796
                        ],
                        [
                            1.570856767179271,
                            44.795189019063635
                        ],
                        [
                            1.571228981542843,
                            44.79475985743201
                        ],
                        [
                            1.57164999061772,
                            44.7944569587754
                        ],
                        [
                            1.572109994899639,
                            44.79407337670804
                        ],
                        [
                            1.572428718631543,
                            44.793859713242675
                        ],
                        [
                            1.573178976294592,
                            44.79349612860736
                        ],
                        [
                            1.573622772971602,
                            44.79337327477694
                        ],
                        [
                            1.574042040879386,
                            44.79319628123683
                        ],
                        [
                            1.574550825359986,
                            44.79293895314798
                        ],
                        [
                            1.574894795145694,
                            44.792725457058026
                        ],
                        [
                            1.575252248813648,
                            44.79244909087909
                        ],
                        [
                            1.576055070421819,
                            44.79193293917468
                        ],
                        [
                            1.576372544261424,
                            44.791809203261344
                        ],
                        [
                            1.576702034980163,
                            44.79173052229365
                        ],
                        [
                            1.577475664999616,
                            44.79150199081971
                        ],
                        [
                            1.578096260865009,
                            44.7913803368007
                        ]
                    ]
                ]
            }
        },
        {
            "type": "Feature",
            "properties": {
                "nom": "GR"
            },
            "geometry": {
                "type": "MultiLineString",
                "coordinates": [
                    [
                        [
                            1.209041933591655,
                            44.61664741535246
                        ],
                        [
                            1.209616934808697,
                            44.61686018366017
                        ],
                        [
                            1.209839770036358,
                            44.617051351428465
                        ],
                        [
                            1.209984354258692,
                            44.61737663486984
                        ],
                        [
                            1.2099756861163,
                            44.61780828234284
                        ],
                        [
                            1.209818638697597,
                            44.61810349250393
                        ],
                        [
                            1.209676528353112,
                            44.618281926562794
                        ],
                        [
                            1.209623635366982,
                            44.61840730785919
                        ],
                        [
                            1.209567672061532,
                            44.618685563467906
                        ],
                        [
                            1.209940701216601,
                            44.618923243640886
                        ],
                        [
                            1.210388195516984,
                            44.6192156515137
                        ],
                        [
                            1.21056158089947,
                            44.61936133935758
                        ],
                        [
                            1.210645927698427,
                            44.6195510874508
                        ],
                        [
                            1.210589245331103,
                            44.61986531561983
                        ],
                        [
                            1.210280740581104,
                            44.62017696444786
                        ],
                        [
                            1.209972592819005,
                            44.6204706273711
                        ],
                        [
                            1.209677757036909,
                            44.6207284476378
                        ],
                        [
                            1.209369603150148,
                            44.621022108043675
                        ]
                    ]
                ]
            }
        },
        {
            "type": "Feature",
            "properties": {
                "nom": "GR"
            },
            "geometry": {
                "type": "MultiLineString",
                "coordinates": [
                    [
                        [
                            1.1989334602663,
                            44.61025614014302
                        ],
                        [
                            1.199480811108308,
                            44.61058560521726
                        ],
                        [
                            1.199927272991671,
                            44.610923018220085
                        ],
                        [
                            1.200337976156957,
                            44.6111611200275
                        ],
                        [
                            1.20059961728616,
                            44.611298740915174
                        ],
                        [
                            1.201238933788189,
                            44.61144026173098
                        ],
                        [
                            1.201509709601348,
                            44.61174887014463
                        ],
                        [
                            1.202272744465414,
                            44.61199959508305
                        ],
                        [
                            1.203149999467538,
                            44.61220652039599
                        ],
                        [
                            1.203562541342032,
                            44.61235468449149
                        ],
                        [
                            1.204036399892124,
                            44.61258442825478
                        ],
                        [
                            1.204182935721688,
                            44.612810799885104
                        ],
                        [
                            1.204481273493631,
                            44.613002756091625
                        ],
                        [
                            1.20469166649553,
                            44.61318481209521
                        ],
                        [
                            1.205051685536601,
                            44.61344036348409
                        ],
                        [
                            1.205464967561544,
                            44.613552549658415
                        ]
                    ]
                ]
            }
        },
        {
            "type": "Feature",
            "properties": {
                "nom": "GR"
            },
            "geometry": {
                "type": "MultiLineString",
                "coordinates": [
                    [
                        [
                            1.224016145232044,
                            44.64389147485527
                        ],
                        [
                            1.224952565799946,
                            44.64368506955181
                        ],
                        [
                            1.224926660577673,
                            44.643720787025195
                        ],
                        [
                            1.224952565799946,
                            44.64368506955181
                        ],
                        [
                            1.225268725330146,
                            44.6436253018917
                        ],
                        [
                            1.226268474760317,
                            44.643401536329534
                        ],
                        [
                            1.227165309705462,
                            44.64328465861746
                        ]
                    ]
                ]
            }
        },
        {
            "type": "Feature",
            "properties": {
                "nom": "GR"
            },
            "geometry": {
                "type": "MultiLineString",
                "coordinates": [
                    [
                        [
                            1.212267921034541,
                            44.635389085848324
                        ],
                        [
                            1.212265937864577,
                            44.635488006594265
                        ],
                        [
                            1.212038306206463,
                            44.63616027353237
                        ],
                        [
                            1.212191761179638,
                            44.63667453306132
                        ],
                        [
                            1.212142797235567,
                            44.637231696275926
                        ],
                        [
                            1.21226351929191,
                            44.637493773755466
                        ],
                        [
                            1.212600520875488,
                            44.63765012526689
                        ],
                        [
                            1.213453924893673,
                            44.637811748845834
                        ],
                        [
                            1.213956649793504,
                            44.63787084822227
                        ],
                        [
                            1.215002950325132,
                            44.63846616834433
                        ],
                        [
                            1.215562188477062,
                            44.63884964077353
                        ],
                        [
                            1.215871141628058,
                            44.63914960980874
                        ],
                        [
                            1.216470333304546,
                            44.639425550042255
                        ],
                        [
                            1.216819236043343,
                            44.639617987686854
                        ],
                        [
                            1.217243176272594,
                            44.63983817162289
                        ],
                        [
                            1.217517945831212,
                            44.63995789709076
                        ],
                        [
                            1.21814449883024,
                            44.64012617085521
                        ],
                        [
                            1.21849789373107,
                            44.64009378468051
                        ],
                        [
                            1.218608923952935,
                            44.64021184275067
                        ],
                        [
                            1.219208499187493,
                            44.64046978213277
                        ],
                        [
                            1.219383227258983,
                            44.640552507661134
                        ],
                        [
                            1.219897324997544,
                            44.64067465696872
                        ],
                        [
                            1.220221234074656,
                            44.64085783574289
                        ],
                        [
                            1.220509685199296,
                            44.64092372428331
                        ],
                        [
                            1.222220569467653,
                            44.64231723913068
                        ],
                        [
                            1.223063357883681,
                            44.64301835579151
                        ],
                        [
                            1.223670939614943,
                            44.643510211061276
                        ],
                        [
                            1.223943243032857,
                            44.6437558185711
                        ],
                        [
                            1.224016145232044,
                            44.64389147485527
                        ]
                    ]
                ]
            }
        },
        {
            "type": "Feature",
            "properties": {
                "nom": "GR"
            },
            "geometry": {
                "type": "MultiLineString",
                "coordinates": [
                    [
                        [
                            1.209369603150148,
                            44.621022108043675
                        ],
                        [
                            1.209416715909176,
                            44.62118449236129
                        ],
                        [
                            1.20941328210416,
                            44.62135535369254
                        ],
                        [
                            1.209194710293844,
                            44.62157797607487
                        ],
                        [
                            1.20940189882776,
                            44.621921892124206
                        ],
                        [
                            1.209832306933194,
                            44.622438990024676
                        ],
                        [
                            1.210018292850686,
                            44.622584808078706
                        ],
                        [
                            1.210324960502925,
                            44.622992703027556
                        ],
                        [
                            1.210990120184376,
                            44.62373706364089
                        ],
                        [
                            1.210517538862833,
                            44.62406502378659
                        ],
                        [
                            1.21024732801154,
                            44.62435008219114
                        ],
                        [
                            1.210279506989162,
                            44.624629242626824
                        ],
                        [
                            1.210348739662501,
                            44.624944759706814
                        ],
                        [
                            1.210420321910849,
                            44.62514337318692
                        ],
                        [
                            1.210390804181377,
                            44.62535893982624
                        ],
                        [
                            1.210338086946234,
                            44.62547532881213
                        ],
                        [
                            1.210272056062775,
                            44.62562755979154
                        ],
                        [
                            1.210268083457098,
                            44.62582539866587
                        ],
                        [
                            1.210302430447335,
                            44.625996646804936
                        ],
                        [
                            1.210449207041345,
                            44.626214019215205
                        ],
                        [
                            1.210493799005656,
                            44.626502300978
                        ],
                        [
                            1.210489827116326,
                            44.62670013992772
                        ],
                        [
                            1.210635343563576,
                            44.62698046052139
                        ],
                        [
                            1.210858040224475,
                            44.62718062087802
                        ],
                        [
                            1.211178414879101,
                            44.62753468608545
                        ],
                        [
                            1.211527225954207,
                            44.627727140438154
                        ],
                        [
                            1.211901044131962,
                            44.6279288436771
                        ],
                        [
                            1.212524020675475,
                            44.62826800944625
                        ],
                        [
                            1.213160678944734,
                            44.62855334514097
                        ],
                        [
                            1.21448186950636,
                            44.6292504171243
                        ],
                        [
                            1.214994234290427,
                            44.62945352318366
                        ],
                        [
                            1.215383007457841,
                            44.6295384376603
                        ]
                    ]
                ]
            }
        }
    ]
}