{
  "type": "FeatureCollection",
  "features": [
    {
      "type": "Feature",
      "properties": {
        "name": "GraphHopper Track",
        "source": "Circuit_de_Caylus.gpx",
        "type": "track"
      },
      "geometry": {
        "type": "LineString",
        "coordinates": [
          [
            1.74659,
            44.235264,
            328.85
          ],
          [
            1.746639,
            44.235304,
            328.88
          ],
          [
            1.746679,
            44.235318,
            328.9
          ],
          [
            1.746895,
            44.235307,
            328.97
          ],
          [
            1.747321,
            44.235254,
            329.4
          ],
          [
            1.747551,
            44.235274,
            329.64
          ],
          [
            1.74767,
            44.235308,
            329.89
          ],
          [
            1.747718,
            44.235314,
            329.96
          ],
          [
            1.747819,
            44.23531,
            330.0
          ],
          [
            1.747974,
            44.23527,
            330.0
          ],
          [
            1.748052,
            44.235246,
            330.0
          ],
          [
            1.748154,
            44.235226,
            329.98
          ],
          [
            1.748417,
            44.235191,
            329.61
          ],
          [
            1.749216,
            44.235059,
            327.47
          ],
          [
            1.749704,
            44.234946,
            326.16
          ],
          [
            1.75035,
            44.234744,
            324.99
          ],
          [
            1.750447,
            44.234747,
            324.94
          ],
          [
            1.750654,
            44.234824,
            325.3
          ],
          [
            1.750814,
            44.234857,
            325.45
          ],
          [
            1.751125,
            44.234885,
            325.06
          ],
          [
            1.75122,
            44.234887,
            324.89
          ],
          [
            1.751628,
            44.234958,
            324.04
          ],
          [
            1.752441,
            44.235155,
            322.25
          ],
          [
            1.752843,
            44.235278,
            322.95
          ],
          [
            1.753547,
            44.235535,
            322.01
          ],
          [
            1.753635,
            44.235577,
            321.74
          ],
          [
            1.753702,
            44.235594,
            321.51
          ],
          [
            1.753874,
            44.235673,
            321.07
          ],
          [
            1.753973,
            44.235704,
            321.0
          ],
          [
            1.754073,
            44.235729,
            321.0
          ],
          [
            1.754384,
            44.235777,
            321.12
          ],
          [
            1.754872,
            44.235873,
            322.32
          ],
          [
            1.755105,
            44.235953,
            322.93
          ],
          [
            1.755394,
            44.236031,
            324.02
          ],
          [
            1.755615,
            44.236117,
            324.8
          ],
          [
            1.755841,
            44.23614,
            325.5
          ],
          [
            1.756099,
            44.236175,
            326.4
          ],
          [
            1.756659,
            44.236283,
            327.59
          ],
          [
            1.756908,
            44.236357,
            328.18
          ],
          [
            1.757305,
            44.236461,
            328.36
          ],
          [
            1.757647,
            44.236591,
            327.59
          ],
          [
            1.757707,
            44.236627,
            327.13
          ],
          [
            1.758185,
            44.236834,
            326.28
          ],
          [
            1.758497,
            44.236903,
            326.87
          ],
          [
            1.758938,
            44.236973,
            327.83
          ],
          [
            1.759146,
            44.236982,
            328.4
          ],
          [
            1.759401,
            44.236982,
            329.04
          ],
          [
            1.759707,
            44.236954,
            329.76
          ],
          [
            1.760115,
            44.236933,
            330.29
          ],
          [
            1.760444,
            44.236906,
            330.27
          ],
          [
            1.760977,
            44.236883,
            329.18
          ],
          [
            1.761147,
            44.236897,
            328.78
          ],
          [
            1.761551,
            44.236957,
            326.96
          ],
          [
            1.761732,
            44.236968,
            325.6
          ],
          [
            1.761956,
            44.236972,
            323.91
          ],
          [
            1.762332,
            44.23697,
            320.98
          ],
          [
            1.762593,
            44.237005,
            319.51
          ],
          [
            1.762813,
            44.237019,
            318.58
          ],
          [
            1.76302,
            44.237042,
            317.53
          ],
          [
            1.763275,
            44.237091,
            316.35
          ],
          [
            1.763523,
            44.237111,
            315.5
          ],
          [
            1.76385,
            44.237189,
            314.0
          ],
          [
            1.763856,
            44.237362,
            313.67
          ],
          [
            1.764079,
            44.238109,
            311.24
          ],
          [
            1.764248,
            44.238458,
            310.96
          ],
          [
            1.764426,
            44.238899,
            311.17
          ],
          [
            1.764506,
            44.239063,
            311.3
          ],
          [
            1.764565,
            44.239151,
            311.53
          ],
          [
            1.764633,
            44.23923,
            311.98
          ],
          [
            1.764789,
            44.239374,
            313.22
          ],
          [
            1.765227,
            44.239511,
            314.3
          ],
          [
            1.765437,
            44.23955,
            314.66
          ],
          [
            1.765598,
            44.2396,
            315.1
          ],
          [
            1.765696,
            44.239668,
            315.61
          ],
          [
            1.765903,
            44.239905,
            316.45
          ],
          [
            1.766513,
            44.240827,
            315.38
          ],
          [
            1.766601,
            44.240903,
            315.02
          ],
          [
            1.76671,
            44.240977,
            314.56
          ],
          [
            1.766873,
            44.241068,
            313.92
          ],
          [
            1.767129,
            44.241231,
            312.95
          ],
          [
            1.767331,
            44.241402,
            312.4
          ],
          [
            1.767394,
            44.241471,
            312.29
          ],
          [
            1.767519,
            44.241677,
            312.25
          ],
          [
            1.767568,
            44.24183,
            312.62
          ],
          [
            1.767648,
            44.242177,
            314.21
          ],
          [
            1.76771,
            44.24229,
            314.89
          ],
          [
            1.767828,
            44.24243,
            315.84
          ],
          [
            1.767901,
            44.242537,
            316.53
          ],
          [
            1.768001,
            44.242762,
            317.77
          ],
          [
            1.768035,
            44.242856,
            318.18
          ],
          [
            1.768128,
            44.243301,
            319.54
          ],
          [
            1.768156,
            44.243368,
            319.71
          ],
          [
            1.768202,
            44.243443,
            319.92
          ],
          [
            1.768459,
            44.243756,
            320.71
          ],
          [
            1.76858,
            44.243968,
            320.09
          ],
          [
            1.768986,
            44.244678,
            319.01
          ],
          [
            1.769268,
            44.245019,
            316.76
          ],
          [
            1.769519,
            44.245301,
            313.91
          ],
          [
            1.769927,
            44.245654,
            310.29
          ],
          [
            1.770323,
            44.245942,
            308.41
          ],
          [
            1.770696,
            44.246234,
            302.23
          ],
          [
            1.771018,
            44.24658,
            298.02
          ],
          [
            1.77114,
            44.246838,
            295.74
          ],
          [
            1.771172,
            44.247053,
            294.01
          ],
          [
            1.771181,
            44.247651,
            287.56
          ],
          [
            1.77121,
            44.248073,
            280.56
          ],
          [
            1.771171,
            44.248246,
            277.14
          ],
          [
            1.771061,
            44.248462,
            272.39
          ],
          [
            1.770881,
            44.248666,
            267.29
          ],
          [
            1.770658,
            44.24886,
            262.12
          ],
          [
            1.770415,
            44.249027,
            257.6
          ],
          [
            1.770393,
            44.249056,
            257.04
          ],
          [
            1.770391,
            44.24908,
            256.61
          ],
          [
            1.770419,
            44.24911,
            255.98
          ],
          [
            1.770651,
            44.249195,
            252.6
          ],
          [
            1.770731,
            44.249243,
            251.3
          ],
          [
            1.771053,
            44.24963,
            245.54
          ],
          [
            1.771237,
            44.249697,
            245.75
          ],
          [
            1.771414,
            44.249739,
            245.69
          ],
          [
            1.771525,
            44.249754,
            245.74
          ],
          [
            1.771678,
            44.249741,
            245.75
          ],
          [
            1.771871,
            44.249707,
            245.86
          ],
          [
            1.772057,
            44.249665,
            246.0
          ],
          [
            1.772502,
            44.24954,
            246.0
          ],
          [
            1.772478,
            44.249605,
            246.0
          ],
          [
            1.772634,
            44.24961,
            245.66
          ],
          [
            1.772718,
            44.249628,
            245.31
          ],
          [
            1.772776,
            44.249668,
            244.91
          ],
          [
            1.77281,
            44.249723,
            244.36
          ],
          [
            1.772832,
            44.249783,
            243.73
          ],
          [
            1.77286,
            44.249807,
            243.41
          ],
          [
            1.772912,
            44.249816,
            243.05
          ],
          [
            1.773042,
            44.249796,
            242.27
          ],
          [
            1.773153,
            44.249798,
            241.47
          ],
          [
            1.773277,
            44.249809,
            240.47
          ],
          [
            1.773499,
            44.249847,
            239.22
          ],
          [
            1.773546,
            44.249822,
            239.04
          ],
          [
            1.773752,
            44.24975,
            238.44
          ],
          [
            1.774047,
            44.248997,
            226.26
          ],
          [
            1.774142,
            44.248827,
            222.19
          ],
          [
            1.774247,
            44.248571,
            217.72
          ],
          [
            1.774249,
            44.248078,
            210.62
          ],
          [
            1.77423,
            44.246745,
            200.1
          ],
          [
            1.774243,
            44.246567,
            198.55
          ],
          [
            1.774317,
            44.246676,
            198.5
          ],
          [
            1.774395,
            44.246753,
            198.48
          ],
          [
            1.774627,
            44.24694,
            199.12
          ],
          [
            1.77486,
            44.247111,
            199.96
          ],
          [
            1.775027,
            44.2472,
            200.36
          ],
          [
            1.775399,
            44.247356,
            201.27
          ],
          [
            1.775399,
            44.247356,
            201.27
          ],
          [
            1.775027,
            44.2472,
            200.36
          ],
          [
            1.77486,
            44.247111,
            199.96
          ],
          [
            1.774627,
            44.24694,
            199.12
          ],
          [
            1.774395,
            44.246753,
            198.48
          ],
          [
            1.774317,
            44.246676,
            198.5
          ],
          [
            1.774243,
            44.246567,
            198.55
          ],
          [
            1.774192,
            44.246219,
            196.46
          ],
          [
            1.774149,
            44.245744,
            194.9
          ],
          [
            1.774145,
            44.245606,
            194.57
          ],
          [
            1.774184,
            44.245443,
            194.28
          ],
          [
            1.77444,
            44.244921,
            193.94
          ],
          [
            1.774577,
            44.244705,
            193.89
          ],
          [
            1.774643,
            44.244552,
            193.86
          ],
          [
            1.774681,
            44.244433,
            193.87
          ],
          [
            1.774692,
            44.244298,
            193.91
          ],
          [
            1.774681,
            44.244156,
            193.96
          ],
          [
            1.774697,
            44.244031,
            194.01
          ],
          [
            1.774779,
            44.243724,
            194.09
          ],
          [
            1.774859,
            44.243578,
            194.1
          ],
          [
            1.774969,
            44.243421,
            194.09
          ],
          [
            1.775481,
            44.242876,
            193.64
          ],
          [
            1.775531,
            44.242798,
            193.59
          ],
          [
            1.775594,
            44.242586,
            193.54
          ],
          [
            1.775678,
            44.242126,
            193.23
          ],
          [
            1.775697,
            44.241944,
            193.12
          ],
          [
            1.775681,
            44.241321,
            192.19
          ],
          [
            1.775712,
            44.241039,
            191.61
          ],
          [
            1.775782,
            44.240813,
            191.36
          ],
          [
            1.77582,
            44.240626,
            191.3
          ],
          [
            1.775776,
            44.240268,
            190.9
          ],
          [
            1.775764,
            44.239898,
            191.24
          ],
          [
            1.775745,
            44.239747,
            191.44
          ],
          [
            1.775563,
            44.239218,
            194.04
          ],
          [
            1.775588,
            44.239177,
            193.59
          ],
          [
            1.775757,
            44.239198,
            192.05
          ],
          [
            1.775904,
            44.239198,
            191.65
          ],
          [
            1.77683,
            44.239151,
            194.0
          ],
          [
            1.777432,
            44.239135,
            194.8
          ],
          [
            1.779774,
            44.238848,
            205.02
          ],
          [
            1.780215,
            44.238808,
            207.83
          ],
          [
            1.780693,
            44.238787,
            210.97
          ],
          [
            1.780949,
            44.238812,
            212.52
          ],
          [
            1.781087,
            44.23874,
            212.69
          ],
          [
            1.781391,
            44.238765,
            211.72
          ],
          [
            1.781838,
            44.238913,
            212.0
          ],
          [
            1.782424,
            44.239132,
            213.28
          ],
          [
            1.78283,
            44.239224,
            214.96
          ],
          [
            1.783309,
            44.239305,
            217.21
          ],
          [
            1.783761,
            44.239317,
            219.43
          ],
          [
            1.784401,
            44.239295,
            222.66
          ],
          [
            1.78523,
            44.239253,
            226.48
          ],
          [
            1.787199,
            44.239195,
            234.44
          ],
          [
            1.792272,
            44.239008,
            248.86
          ],
          [
            1.7928,
            44.23903,
            247.46
          ],
          [
            1.793337,
            44.239122,
            245.8
          ],
          [
            1.793819,
            44.239266,
            245.12
          ],
          [
            1.79844,
            44.241173,
            242.23
          ],
          [
            1.799595,
            44.241711,
            243.69
          ],
          [
            1.79988,
            44.241811,
            243.85
          ],
          [
            1.800105,
            44.241838,
            244.1
          ],
          [
            1.800569,
            44.241772,
            244.0
          ],
          [
            1.801023,
            44.24172,
            244.36
          ],
          [
            1.801227,
            44.241741,
            244.87
          ],
          [
            1.801543,
            44.241841,
            245.6
          ],
          [
            1.802035,
            44.242011,
            246.56
          ],
          [
            1.802251,
            44.242124,
            248.31
          ],
          [
            1.802421,
            44.242312,
            249.95
          ],
          [
            1.802594,
            44.242543,
            251.36
          ],
          [
            1.802786,
            44.242719,
            252.78
          ],
          [
            1.803056,
            44.242811,
            254.09
          ],
          [
            1.803333,
            44.242877,
            255.35
          ],
          [
            1.804329,
            44.243032,
            259.11
          ],
          [
            1.804737,
            44.243035,
            260.43
          ],
          [
            1.80522,
            44.242993,
            261.92
          ],
          [
            1.805894,
            44.243029,
            264.2
          ],
          [
            1.806186,
            44.243081,
            265.14
          ],
          [
            1.806359,
            44.243209,
            265.85
          ],
          [
            1.806557,
            44.243376,
            266.68
          ],
          [
            1.806776,
            44.243546,
            267.44
          ],
          [
            1.807669,
            44.243969,
            269.27
          ],
          [
            1.808535,
            44.244324,
            271.12
          ],
          [
            1.809045,
            44.24463,
            271.88
          ],
          [
            1.809429,
            44.244904,
            271.93
          ],
          [
            1.809635,
            44.245005,
            271.68
          ],
          [
            1.809851,
            44.245072,
            271.39
          ],
          [
            1.810152,
            44.245084,
            271.0
          ],
          [
            1.810389,
            44.245081,
            270.57
          ],
          [
            1.810674,
            44.245132,
            269.99
          ],
          [
            1.811288,
            44.245278,
            269.51
          ],
          [
            1.812555,
            44.245613,
            272.28
          ],
          [
            1.814114,
            44.245956,
            276.55
          ],
          [
            1.814364,
            44.246074,
            277.77
          ],
          [
            1.815257,
            44.246703,
            281.73
          ],
          [
            1.816579,
            44.247673,
            286.48
          ],
          [
            1.818223,
            44.248834,
            294.6
          ],
          [
            1.818323,
            44.248952,
            295.47
          ],
          [
            1.818381,
            44.249077,
            296.3
          ],
          [
            1.81839,
            44.249214,
            297.18
          ],
          [
            1.818384,
            44.249387,
            298.33
          ],
          [
            1.818217,
            44.250478,
            305.9
          ],
          [
            1.818214,
            44.250709,
            307.32
          ],
          [
            1.818293,
            44.251195,
            310.63
          ],
          [
            1.818348,
            44.251398,
            311.94
          ],
          [
            1.818496,
            44.251559,
            313.71
          ],
          [
            1.818624,
            44.251618,
            314.8
          ],
          [
            1.818824,
            44.251677,
            315.67
          ],
          [
            1.824863,
            44.253222,
            331.19
          ],
          [
            1.826527,
            44.253628,
            330.41
          ],
          [
            1.827804,
            44.254026,
            331.04
          ],
          [
            1.82811,
            44.254111,
            330.61
          ],
          [
            1.82843,
            44.254154,
            330.1
          ],
          [
            1.828986,
            44.254187,
            328.21
          ],
          [
            1.832018,
            44.25442,
            326.36
          ],
          [
            1.833997,
            44.254478,
            329.76
          ],
          [
            1.837576,
            44.254618,
            315.47
          ],
          [
            1.83831,
            44.254609,
            312.66
          ],
          [
            1.838511,
            44.254581,
            311.78
          ],
          [
            1.83872,
            44.254521,
            310.79
          ],
          [
            1.840158,
            44.254025,
            306.0
          ],
          [
            1.840359,
            44.253977,
            305.62
          ],
          [
            1.840514,
            44.253963,
            305.16
          ],
          [
            1.840622,
            44.253973,
            304.87
          ],
          [
            1.84053,
            44.253862,
            304.67
          ],
          [
            1.840497,
            44.253834,
            304.53
          ],
          [
            1.840317,
            44.253754,
            303.9
          ],
          [
            1.840231,
            44.253697,
            303.56
          ],
          [
            1.840203,
            44.253639,
            303.3
          ],
          [
            1.840215,
            44.253577,
            303.03
          ],
          [
            1.840245,
            44.253545,
            302.87
          ],
          [
            1.840286,
            44.253518,
            302.69
          ],
          [
            1.840343,
            44.253496,
            302.5
          ],
          [
            1.840403,
            44.253484,
            302.35
          ]
        ]
      }
    },
    {
      "type": "Feature",
      "properties": {
        "source": "Circuit_de_Caylus.gpx",
        "type": "route"
      },
      "geometry": {
        "type": "LineString",
        "coordinates": [
          [
            1.74659,
            44.235264
          ],
          [
            1.747974,
            44.23527
          ],
          [
            1.753973,
            44.235704
          ],
          [
            1.76385,
            44.237189
          ],
          [
            1.764789,
            44.239374
          ],
          [
            1.76858,
            44.243968
          ],
          [
            1.768986,
            44.244678
          ],
          [
            1.771053,
            44.24963
          ],
          [
            1.772502,
            44.24954
          ],
          [
            1.772478,
            44.249605
          ],
          [
            1.773499,
            44.249847
          ],
          [
            1.773752,
            44.24975
          ],
          [
            1.774243,
            44.246567
          ],
          [
            1.775399,
            44.247356
          ],
          [
            1.775399,
            44.247356
          ],
          [
            1.775588,
            44.239177
          ],
          [
            1.780949,
            44.238812
          ],
          [
            1.840622,
            44.253973
          ],
          [
            1.840403,
            44.253484
          ]
        ]
      }
    }
  ]
}