{
  "type": "FeatureCollection",
  "features": [
    {
      "type": "Feature",
      "properties": {
        "name": "GraphHopper Track",
        "source": "Roujan__Pézenas.gpx",
        "type": "track"
      },
      "geometry": {
        "type": "LineString",
        "coordinates": [
          [
            3.313006,
            43.503511,
            102.69
          ],
          [
            3.313271,
            43.503416,
            101.6
          ],
          [
            3.31434,
            43.502985,
            98.0
          ],
          [
            3.314443,
            43.503021,
            97.82
          ],
          [
            3.31594,
            43.502966,
            95.01
          ],
          [
            3.316072,
            43.502808,
            95.17
          ],
          [
            3.31612,
            43.502776,
            95.0
          ],
          [
            3.316649,
            43.50272,
            94.54
          ],
          [
            3.317109,
            43.502649,
            93.46
          ],
          [
            3.318065,
            43.502634,
            91.62
          ],
          [
            3.318307,
            43.502575,
            91.0
          ],
          [
            3.31829,
            43.50261,
            91.0
          ],
          [
            3.318584,
            43.502656,
            90.31
          ],
          [
            3.318601,
            43.502504,
            90.0
          ],
          [
            3.321489,
            43.501326,
            86.67
          ],
          [
            3.323297,
            43.500649,
            84.63
          ],
          [
            3.323434,
            43.500572,
            84.53
          ],
          [
            3.323911,
            43.50024,
            83.99
          ],
          [
            3.323994,
            43.50017,
            84.0
          ],
          [
            3.324115,
            43.500146,
            83.79
          ],
          [
            3.32417,
            43.500091,
            83.91
          ],
          [
            3.324228,
            43.500053,
            83.87
          ],
          [
            3.324566,
            43.499902,
            83.09
          ],
          [
            3.324743,
            43.499835,
            82.54
          ],
          [
            3.324941,
            43.499773,
            82.1
          ],
          [
            3.325429,
            43.499657,
            80.91
          ],
          [
            3.325608,
            43.4996,
            80.49
          ],
          [
            3.325797,
            43.499521,
            79.99
          ],
          [
            3.325966,
            43.499426,
            79.5
          ],
          [
            3.326133,
            43.499318,
            79.03
          ],
          [
            3.326425,
            43.499082,
            78.02
          ],
          [
            3.32672,
            43.498862,
            77.04
          ],
          [
            3.326871,
            43.498804,
            76.7
          ],
          [
            3.327187,
            43.498707,
            76.01
          ],
          [
            3.327296,
            43.498662,
            75.8
          ],
          [
            3.327395,
            43.498613,
            75.63
          ],
          [
            3.327523,
            43.498534,
            75.4
          ],
          [
            3.327978,
            43.498252,
            74.96
          ],
          [
            3.32834,
            43.498015,
            74.91
          ],
          [
            3.328531,
            43.497939,
            75.28
          ],
          [
            3.328618,
            43.49792,
            75.45
          ],
          [
            3.328659,
            43.497955,
            75.18
          ],
          [
            3.330031,
            43.497313,
            76.71
          ],
          [
            3.330787,
            43.49698,
            76.73
          ],
          [
            3.332688,
            43.496217,
            75.18
          ],
          [
            3.333651,
            43.495922,
            74.45
          ],
          [
            3.334977,
            43.495435,
            74.58
          ],
          [
            3.3352,
            43.495305,
            75.1
          ],
          [
            3.335299,
            43.495167,
            75.74
          ],
          [
            3.335273,
            43.495065,
            76.0
          ],
          [
            3.337466,
            43.494236,
            76.0
          ],
          [
            3.337528,
            43.494661,
            74.97
          ],
          [
            3.337681,
            43.494641,
            74.62
          ],
          [
            3.337787,
            43.494616,
            74.95
          ],
          [
            3.338863,
            43.494294,
            76.12
          ],
          [
            3.339314,
            43.494176,
            76.3
          ],
          [
            3.339455,
            43.494158,
            76.33
          ],
          [
            3.339997,
            43.494127,
            76.29
          ],
          [
            3.340175,
            43.494104,
            76.21
          ],
          [
            3.341147,
            43.493761,
            75.67
          ],
          [
            3.341359,
            43.493702,
            75.65
          ],
          [
            3.342015,
            43.493569,
            75.81
          ],
          [
            3.342214,
            43.493499,
            75.91
          ],
          [
            3.342679,
            43.493313,
            75.99
          ],
          [
            3.342808,
            43.49325,
            75.96
          ],
          [
            3.343099,
            43.493071,
            75.8
          ],
          [
            3.34328,
            43.492978,
            75.69
          ],
          [
            3.34408,
            43.49264,
            74.93
          ],
          [
            3.344326,
            43.492511,
            74.5
          ],
          [
            3.34493,
            43.492113,
            73.22
          ],
          [
            3.345154,
            43.491974,
            72.61
          ],
          [
            3.345333,
            43.491882,
            72.18
          ],
          [
            3.346435,
            43.491394,
            70.01
          ],
          [
            3.346583,
            43.491321,
            69.84
          ],
          [
            3.346629,
            43.491286,
            69.71
          ],
          [
            3.346644,
            43.491245,
            69.49
          ],
          [
            3.347204,
            43.49156,
            68.78
          ],
          [
            3.348017,
            43.491965,
            64.07
          ],
          [
            3.348234,
            43.492105,
            62.35
          ],
          [
            3.348667,
            43.492522,
            57.67
          ],
          [
            3.348755,
            43.492644,
            56.53
          ],
          [
            3.349061,
            43.493134,
            52.18
          ],
          [
            3.349226,
            43.493433,
            49.86
          ],
          [
            3.349294,
            43.493611,
            50.02
          ],
          [
            3.349591,
            43.494577,
            53.64
          ],
          [
            3.349698,
            43.494838,
            54.07
          ],
          [
            3.349894,
            43.495371,
            55.12
          ],
          [
            3.350989,
            43.495319,
            52.99
          ],
          [
            3.352933,
            43.495189,
            57.61
          ],
          [
            3.353628,
            43.49519,
            59.09
          ],
          [
            3.354076,
            43.495237,
            59.96
          ],
          [
            3.355213,
            43.495407,
            61.76
          ],
          [
            3.357877,
            43.495832,
            68.03
          ],
          [
            3.358136,
            43.495836,
            69.19
          ],
          [
            3.358373,
            43.495813,
            70.36
          ],
          [
            3.358624,
            43.495724,
            71.44
          ],
          [
            3.358824,
            43.4956,
            72.28
          ],
          [
            3.358951,
            43.495572,
            72.74
          ],
          [
            3.359137,
            43.495563,
            73.25
          ],
          [
            3.359205,
            43.495583,
            73.68
          ],
          [
            3.35928,
            43.495638,
            74.39
          ],
          [
            3.359346,
            43.49573,
            75.05
          ],
          [
            3.359442,
            43.495985,
            77.94
          ],
          [
            3.359546,
            43.495977,
            77.97
          ],
          [
            3.359659,
            43.495996,
            77.91
          ],
          [
            3.360228,
            43.496249,
            77.24
          ],
          [
            3.360432,
            43.4963,
            77.17
          ],
          [
            3.360641,
            43.496296,
            77.53
          ],
          [
            3.36158,
            43.496172,
            83.06
          ],
          [
            3.362451,
            43.495933,
            88.65
          ],
          [
            3.364219,
            43.495168,
            91.18
          ],
          [
            3.365056,
            43.494856,
            90.76
          ],
          [
            3.366547,
            43.494195,
            88.99
          ],
          [
            3.367977,
            43.493591,
            87.94
          ],
          [
            3.369664,
            43.493003,
            87.0
          ],
          [
            3.370298,
            43.493296,
            85.57
          ],
          [
            3.370674,
            43.493516,
            84.47
          ],
          [
            3.371578,
            43.494138,
            82.09
          ],
          [
            3.371689,
            43.494201,
            82.0
          ],
          [
            3.371666,
            43.494073,
            81.95
          ],
          [
            3.371703,
            43.493923,
            81.82
          ],
          [
            3.372448,
            43.492843,
            80.96
          ],
          [
            3.373122,
            43.491547,
            82.0
          ],
          [
            3.373763,
            43.490394,
            82.0
          ],
          [
            3.373932,
            43.490011,
            82.0
          ],
          [
            3.374231,
            43.489848,
            82.1
          ],
          [
            3.374891,
            43.48939,
            83.01
          ],
          [
            3.376264,
            43.488563,
            86.48
          ],
          [
            3.376549,
            43.488429,
            87.45
          ],
          [
            3.377302,
            43.488145,
            89.21
          ],
          [
            3.377919,
            43.487851,
            89.09
          ],
          [
            3.378414,
            43.487584,
            88.79
          ],
          [
            3.378979,
            43.487322,
            88.07
          ],
          [
            3.379489,
            43.487038,
            87.34
          ],
          [
            3.3799,
            43.486942,
            86.16
          ],
          [
            3.381444,
            43.486392,
            84.82
          ],
          [
            3.381594,
            43.486292,
            84.6
          ],
          [
            3.381985,
            43.485979,
            84.06
          ],
          [
            3.38217,
            43.485757,
            83.76
          ],
          [
            3.382382,
            43.485416,
            83.37
          ],
          [
            3.382471,
            43.485315,
            83.15
          ],
          [
            3.382633,
            43.485241,
            83.0
          ],
          [
            3.382749,
            43.485251,
            82.98
          ],
          [
            3.382976,
            43.485353,
            82.04
          ],
          [
            3.383023,
            43.485432,
            81.57
          ],
          [
            3.383209,
            43.485558,
            80.63
          ],
          [
            3.3834,
            43.485624,
            80.85
          ],
          [
            3.383814,
            43.485884,
            80.62
          ],
          [
            3.383814,
            43.485884,
            80.62
          ],
          [
            3.3834,
            43.485624,
            80.85
          ],
          [
            3.383209,
            43.485558,
            80.63
          ],
          [
            3.383023,
            43.485432,
            81.57
          ],
          [
            3.382976,
            43.485353,
            82.04
          ],
          [
            3.382749,
            43.485251,
            82.98
          ],
          [
            3.382633,
            43.485241,
            83.0
          ],
          [
            3.383126,
            43.484816,
            82.97
          ],
          [
            3.38315,
            43.484726,
            82.89
          ],
          [
            3.383102,
            43.484582,
            82.83
          ],
          [
            3.382989,
            43.484449,
            82.76
          ],
          [
            3.382705,
            43.484185,
            82.24
          ],
          [
            3.382705,
            43.484115,
            82.19
          ],
          [
            3.383016,
            43.483963,
            82.67
          ],
          [
            3.383402,
            43.483799,
            82.38
          ],
          [
            3.383808,
            43.483586,
            82.03
          ],
          [
            3.384143,
            43.483397,
            81.58
          ],
          [
            3.38472,
            43.48303,
            80.36
          ],
          [
            3.384841,
            43.482915,
            79.97
          ],
          [
            3.385054,
            43.48259,
            78.55
          ],
          [
            3.385449,
            43.48212,
            76.91
          ],
          [
            3.385625,
            43.481595,
            75.28
          ],
          [
            3.385859,
            43.480756,
            72.89
          ],
          [
            3.385846,
            43.480674,
            72.34
          ],
          [
            3.385548,
            43.479768,
            69.01
          ],
          [
            3.385345,
            43.479402,
            67.52
          ],
          [
            3.385334,
            43.479297,
            67.16
          ],
          [
            3.385386,
            43.479167,
            67.03
          ],
          [
            3.385642,
            43.478282,
            67.2
          ],
          [
            3.385694,
            43.478166,
            67.08
          ],
          [
            3.385776,
            43.478091,
            66.94
          ],
          [
            3.385883,
            43.478041,
            66.78
          ],
          [
            3.386647,
            43.477887,
            64.88
          ],
          [
            3.387367,
            43.477771,
            61.61
          ],
          [
            3.387422,
            43.477745,
            61.24
          ],
          [
            3.387427,
            43.477665,
            60.59
          ],
          [
            3.387338,
            43.47652,
            49.83
          ],
          [
            3.387288,
            43.476177,
            47.12
          ],
          [
            3.387291,
            43.476023,
            46.3
          ],
          [
            3.387321,
            43.47591,
            45.95
          ],
          [
            3.387398,
            43.47584,
            45.64
          ],
          [
            3.387802,
            43.475785,
            45.14
          ],
          [
            3.3884,
            43.475685,
            44.45
          ],
          [
            3.388952,
            43.47557,
            43.96
          ],
          [
            3.389431,
            43.47546,
            43.94
          ],
          [
            3.389755,
            43.475408,
            43.97
          ],
          [
            3.390296,
            43.475383,
            43.84
          ],
          [
            3.390651,
            43.475323,
            43.65
          ],
          [
            3.390824,
            43.475205,
            43.47
          ],
          [
            3.39108,
            43.474951,
            43.03
          ],
          [
            3.391352,
            43.47466,
            42.41
          ],
          [
            3.391405,
            43.474325,
            41.77
          ],
          [
            3.391479,
            43.474156,
            41.31
          ],
          [
            3.391625,
            43.474079,
            41.09
          ],
          [
            3.392215,
            43.473889,
            41.21
          ],
          [
            3.39254,
            43.473834,
            41.15
          ],
          [
            3.392898,
            43.473825,
            41.03
          ],
          [
            3.393288,
            43.473737,
            40.81
          ],
          [
            3.393691,
            43.473679,
            40.42
          ],
          [
            3.395217,
            43.473526,
            37.12
          ],
          [
            3.395592,
            43.473375,
            36.1
          ],
          [
            3.395793,
            43.473329,
            35.63
          ],
          [
            3.395885,
            43.473287,
            35.38
          ],
          [
            3.396054,
            43.47306,
            34.55
          ],
          [
            3.396424,
            43.472337,
            32.2
          ],
          [
            3.396954,
            43.471361,
            29.99
          ],
          [
            3.397075,
            43.471103,
            29.66
          ],
          [
            3.397174,
            43.471073,
            29.42
          ],
          [
            3.397499,
            43.470304,
            28.01
          ],
          [
            3.39755,
            43.470262,
            27.92
          ],
          [
            3.397634,
            43.470252,
            27.82
          ],
          [
            3.397881,
            43.470271,
            27.52
          ],
          [
            3.398135,
            43.470274,
            27.24
          ],
          [
            3.398245,
            43.470248,
            27.11
          ],
          [
            3.398319,
            43.470178,
            26.99
          ],
          [
            3.398405,
            43.469808,
            26.52
          ],
          [
            3.398466,
            43.469733,
            26.44
          ],
          [
            3.398556,
            43.469691,
            26.38
          ],
          [
            3.399135,
            43.469538,
            26.04
          ],
          [
            3.399748,
            43.469364,
            26.0
          ],
          [
            3.400463,
            43.469026,
            25.94
          ],
          [
            3.400632,
            43.469006,
            25.9
          ],
          [
            3.401971,
            43.468505,
            25.2
          ],
          [
            3.402169,
            43.468417,
            25.08
          ],
          [
            3.40238,
            43.4683,
            24.98
          ],
          [
            3.40259,
            43.468209,
            24.96
          ],
          [
            3.402803,
            43.468132,
            24.87
          ],
          [
            3.402903,
            43.468142,
            24.93
          ],
          [
            3.40378,
            43.46911,
            25.03
          ],
          [
            3.404455,
            43.469903,
            25.83
          ],
          [
            3.405491,
            43.470995,
            27.0
          ],
          [
            3.406239,
            43.470361,
            25.93
          ],
          [
            3.40657,
            43.470059,
            25.16
          ],
          [
            3.406862,
            43.469756,
            24.93
          ],
          [
            3.407814,
            43.4687,
            24.0
          ],
          [
            3.408114,
            43.468391,
            23.65
          ],
          [
            3.408357,
            43.468186,
            23.33
          ],
          [
            3.408621,
            43.46799,
            23.0
          ],
          [
            3.409244,
            43.467564,
            23.0
          ],
          [
            3.410259,
            43.466993,
            22.0
          ],
          [
            3.410462,
            43.466854,
            22.0
          ],
          [
            3.410657,
            43.466696,
            22.0
          ],
          [
            3.410712,
            43.466708,
            22.0
          ],
          [
            3.410818,
            43.466704,
            22.0
          ],
          [
            3.410928,
            43.466668,
            22.04
          ],
          [
            3.411165,
            43.466453,
            22.01
          ],
          [
            3.411548,
            43.46598,
            21.87
          ],
          [
            3.412063,
            43.465116,
            21.29
          ],
          [
            3.412213,
            43.464781,
            20.96
          ],
          [
            3.412341,
            43.464664,
            20.87
          ],
          [
            3.4125,
            43.464578,
            20.39
          ],
          [
            3.412494,
            43.46447,
            19.52
          ],
          [
            3.412531,
            43.464357,
            19.53
          ],
          [
            3.412566,
            43.464309,
            19.87
          ],
          [
            3.412795,
            43.464208,
            20.46
          ],
          [
            3.41328,
            43.463953,
            21.23
          ],
          [
            3.413394,
            43.463837,
            21.45
          ],
          [
            3.413689,
            43.463315,
            22.0
          ],
          [
            3.413824,
            43.463109,
            22.0
          ],
          [
            3.413865,
            43.463028,
            22.0
          ],
          [
            3.413864,
            43.463,
            22.0
          ],
          [
            3.415068,
            43.462801,
            22.0
          ],
          [
            3.416099,
            43.462643,
            22.0
          ],
          [
            3.416756,
            43.462526,
            22.05
          ],
          [
            3.41694,
            43.462475,
            22.11
          ],
          [
            3.417123,
            43.462412,
            22.66
          ],
          [
            3.417163,
            43.462449,
            22.38
          ],
          [
            3.417662,
            43.462669,
            22.0
          ],
          [
            3.418212,
            43.462871,
            22.26
          ],
          [
            3.419733,
            43.461866,
            21.51
          ],
          [
            3.419852,
            43.461792,
            21.93
          ],
          [
            3.419898,
            43.461807,
            21.85
          ],
          [
            3.419935,
            43.461798,
            21.89
          ],
          [
            3.41995,
            43.461788,
            21.97
          ],
          [
            3.420151,
            43.461797,
            21.95
          ],
          [
            3.420268,
            43.461776,
            22.0
          ],
          [
            3.420423,
            43.461795,
            21.91
          ],
          [
            3.420494,
            43.461773,
            22.07
          ],
          [
            3.420426,
            43.461624,
            22.64
          ],
          [
            3.420446,
            43.461539,
            22.98
          ],
          [
            3.420472,
            43.461527,
            23.0
          ],
          [
            3.420504,
            43.46149,
            23.0
          ],
          [
            3.420502,
            43.461447,
            23.0
          ],
          [
            3.420489,
            43.461427,
            23.0
          ],
          [
            3.420574,
            43.461369,
            23.0
          ],
          [
            3.42107,
            43.460869,
            23.0
          ],
          [
            3.421277,
            43.46103,
            23.98
          ],
          [
            3.421373,
            43.460966,
            23.99
          ],
          [
            3.421513,
            43.460893,
            24.11
          ],
          [
            3.421934,
            43.46074,
            24.73
          ],
          [
            3.422103,
            43.460823,
            25.04
          ],
          [
            3.422273,
            43.460718,
            23.85
          ],
          [
            3.422519,
            43.460607,
            22.61
          ],
          [
            3.422579,
            43.460571,
            22.26
          ]
        ]
      }
    },
    {
      "type": "Feature",
      "properties": {
        "source": "Roujan__Pézenas.gpx",
        "type": "route"
      },
      "geometry": {
        "type": "LineString",
        "coordinates": [
          [
            3.313006,
            43.503511
          ],
          [
            3.31434,
            43.502985
          ],
          [
            3.31594,
            43.502966
          ],
          [
            3.31612,
            43.502776
          ],
          [
            3.318065,
            43.502634
          ],
          [
            3.318307,
            43.502575
          ],
          [
            3.31829,
            43.50261
          ],
          [
            3.318584,
            43.502656
          ],
          [
            3.318601,
            43.502504
          ],
          [
            3.323994,
            43.50017
          ],
          [
            3.324115,
            43.500146
          ],
          [
            3.328618,
            43.49792
          ],
          [
            3.328659,
            43.497955
          ],
          [
            3.335273,
            43.495065
          ],
          [
            3.337466,
            43.494236
          ],
          [
            3.337528,
            43.494661
          ],
          [
            3.346644,
            43.491245
          ],
          [
            3.349894,
            43.495371
          ],
          [
            3.359442,
            43.495985
          ],
          [
            3.369664,
            43.493003
          ],
          [
            3.371689,
            43.494201
          ],
          [
            3.373932,
            43.490011
          ],
          [
            3.382633,
            43.485241
          ],
          [
            3.382749,
            43.485251
          ],
          [
            3.382976,
            43.485353
          ],
          [
            3.383814,
            43.485884
          ],
          [
            3.383814,
            43.485884
          ],
          [
            3.382976,
            43.485353
          ],
          [
            3.382633,
            43.485241
          ],
          [
            3.382705,
            43.484115
          ],
          [
            3.391479,
            43.474156
          ],
          [
            3.397075,
            43.471103
          ],
          [
            3.397174,
            43.471073
          ],
          [
            3.405491,
            43.470995
          ],
          [
            3.410657,
            43.466696
          ],
          [
            3.4125,
            43.464578
          ],
          [
            3.413864,
            43.463
          ],
          [
            3.417123,
            43.462412
          ],
          [
            3.418212,
            43.462871
          ],
          [
            3.419733,
            43.461866
          ],
          [
            3.419852,
            43.461792
          ],
          [
            3.41995,
            43.461788
          ],
          [
            3.420494,
            43.461773
          ],
          [
            3.420426,
            43.461624
          ],
          [
            3.420446,
            43.461539
          ],
          [
            3.42107,
            43.460869
          ],
          [
            3.421277,
            43.46103
          ],
          [
            3.422103,
            43.460823
          ],
          [
            3.422579,
            43.460571
          ]
        ]
      }
    }
  ]
}