{
  "type": "FeatureCollection",
  "features": [
    {
      "type": "Feature",
      "properties": {
        "name": "GraphHopper Track",
        "source": "Mont_Tauch.gpx",
        "type": "track"
      },
      "geometry": {
        "type": "LineString",
        "coordinates": [
          [
            2.72122,
            42.888448,
            162.14
          ],
          [
            2.721368,
            42.888425,
            162.0
          ],
          [
            2.721402,
            42.888364,
            161.92
          ],
          [
            2.721453,
            42.887891,
            160.06
          ],
          [
            2.721436,
            42.887847,
            159.91
          ],
          [
            2.72124,
            42.88758,
            159.0
          ],
          [
            2.721585,
            42.887391,
            158.0
          ],
          [
            2.721566,
            42.887365,
            158.0
          ],
          [
            2.721551,
            42.887224,
            158.0
          ],
          [
            2.72169,
            42.88643,
            156.14
          ],
          [
            2.721733,
            42.886305,
            156.0
          ],
          [
            2.722004,
            42.885882,
            155.69
          ],
          [
            2.722008,
            42.88573,
            155.0
          ],
          [
            2.722045,
            42.885391,
            153.15
          ],
          [
            2.72217,
            42.885112,
            152.44
          ],
          [
            2.722211,
            42.884888,
            151.81
          ],
          [
            2.722306,
            42.884534,
            150.91
          ],
          [
            2.722346,
            42.884312,
            150.81
          ],
          [
            2.722386,
            42.884263,
            150.79
          ],
          [
            2.72226,
            42.884084,
            150.17
          ],
          [
            2.722182,
            42.883932,
            149.9
          ],
          [
            2.722128,
            42.883781,
            149.63
          ],
          [
            2.722096,
            42.88358,
            149.26
          ],
          [
            2.722085,
            42.883291,
            148.79
          ],
          [
            2.722131,
            42.882967,
            148.29
          ],
          [
            2.722161,
            42.882584,
            147.83
          ],
          [
            2.722185,
            42.882468,
            147.7
          ],
          [
            2.722246,
            42.882271,
            147.51
          ],
          [
            2.722305,
            42.882138,
            147.38
          ],
          [
            2.722512,
            42.881776,
            147.03
          ],
          [
            2.722565,
            42.881664,
            146.89
          ],
          [
            2.7226,
            42.88155,
            146.76
          ],
          [
            2.722641,
            42.881365,
            146.55
          ],
          [
            2.722695,
            42.881274,
            146.75
          ],
          [
            2.722786,
            42.88121,
            146.97
          ],
          [
            2.723545,
            42.880876,
            146.97
          ],
          [
            2.723719,
            42.880791,
            146.75
          ],
          [
            2.723732,
            42.880699,
            146.4
          ],
          [
            2.723011,
            42.87959,
            143.24
          ],
          [
            2.722906,
            42.879473,
            143.13
          ],
          [
            2.722659,
            42.879327,
            143.04
          ],
          [
            2.722552,
            42.879203,
            142.93
          ],
          [
            2.722482,
            42.878973,
            143.05
          ],
          [
            2.722676,
            42.878901,
            143.15
          ],
          [
            2.72275,
            42.878852,
            142.81
          ],
          [
            2.722761,
            42.878764,
            142.33
          ],
          [
            2.72267,
            42.878492,
            141.15
          ],
          [
            2.722564,
            42.878003,
            139.49
          ],
          [
            2.722515,
            42.877879,
            139.16
          ],
          [
            2.722141,
            42.877375,
            137.98
          ],
          [
            2.722014,
            42.877254,
            137.74
          ],
          [
            2.722022,
            42.877163,
            137.62
          ],
          [
            2.723299,
            42.876353,
            137.0
          ],
          [
            2.724716,
            42.875443,
            135.86
          ],
          [
            2.724494,
            42.875197,
            135.57
          ],
          [
            2.724227,
            42.874963,
            135.42
          ],
          [
            2.723681,
            42.874422,
            135.17
          ],
          [
            2.723402,
            42.874183,
            135.11
          ],
          [
            2.723282,
            42.874103,
            135.09
          ],
          [
            2.723245,
            42.874066,
            135.09
          ],
          [
            2.723201,
            42.873979,
            135.1
          ],
          [
            2.723168,
            42.873936,
            135.12
          ],
          [
            2.722846,
            42.873654,
            135.3
          ],
          [
            2.722744,
            42.873595,
            135.36
          ],
          [
            2.722457,
            42.873371,
            135.91
          ],
          [
            2.722402,
            42.873354,
            135.94
          ],
          [
            2.722328,
            42.87335,
            136.07
          ],
          [
            2.722254,
            42.873368,
            136.28
          ],
          [
            2.722175,
            42.873286,
            136.22
          ],
          [
            2.721541,
            42.872919,
            137.47
          ],
          [
            2.721332,
            42.87286,
            137.69
          ],
          [
            2.721131,
            42.872794,
            137.87
          ],
          [
            2.721024,
            42.872701,
            137.92
          ],
          [
            2.720849,
            42.872433,
            137.76
          ],
          [
            2.720795,
            42.872335,
            137.67
          ],
          [
            2.720796,
            42.872235,
            137.57
          ],
          [
            2.720861,
            42.8721,
            137.38
          ],
          [
            2.720894,
            42.871939,
            137.13
          ],
          [
            2.720877,
            42.871788,
            136.92
          ],
          [
            2.720692,
            42.871375,
            136.36
          ],
          [
            2.720503,
            42.870988,
            136.18
          ],
          [
            2.720107,
            42.870313,
            136.28
          ],
          [
            2.719553,
            42.869455,
            137.28
          ],
          [
            2.719475,
            42.869378,
            137.39
          ],
          [
            2.719292,
            42.869248,
            137.0
          ],
          [
            2.719152,
            42.869163,
            137.0
          ],
          [
            2.719001,
            42.86903,
            136.65
          ],
          [
            2.718919,
            42.868974,
            136.51
          ],
          [
            2.718642,
            42.868936,
            136.41
          ],
          [
            2.718578,
            42.868897,
            136.45
          ],
          [
            2.718531,
            42.868838,
            136.47
          ],
          [
            2.718383,
            42.868243,
            136.53
          ],
          [
            2.718369,
            42.868058,
            136.53
          ],
          [
            2.718406,
            42.867904,
            136.52
          ],
          [
            2.718594,
            42.867611,
            136.38
          ],
          [
            2.718616,
            42.867511,
            136.31
          ],
          [
            2.718613,
            42.867408,
            136.24
          ],
          [
            2.718493,
            42.867045,
            136.07
          ],
          [
            2.718326,
            42.866476,
            136.43
          ],
          [
            2.718284,
            42.866388,
            136.5
          ],
          [
            2.718215,
            42.866343,
            136.55
          ],
          [
            2.718122,
            42.866332,
            136.6
          ],
          [
            2.716653,
            42.866667,
            138.39
          ],
          [
            2.716535,
            42.866667,
            138.8
          ],
          [
            2.716425,
            42.866638,
            139.57
          ],
          [
            2.716507,
            42.866535,
            139.25
          ],
          [
            2.716574,
            42.866424,
            139.02
          ],
          [
            2.716608,
            42.866304,
            138.76
          ],
          [
            2.716607,
            42.866177,
            138.49
          ],
          [
            2.716383,
            42.865322,
            137.91
          ],
          [
            2.716364,
            42.865191,
            137.92
          ],
          [
            2.716369,
            42.865066,
            137.96
          ],
          [
            2.716394,
            42.864874,
            138.08
          ],
          [
            2.716475,
            42.864615,
            138.23
          ],
          [
            2.716528,
            42.864521,
            138.33
          ],
          [
            2.716607,
            42.864431,
            138.57
          ],
          [
            2.716735,
            42.864325,
            139.0
          ],
          [
            2.717217,
            42.863968,
            137.37
          ],
          [
            2.717182,
            42.863888,
            135.11
          ],
          [
            2.71725,
            42.863808,
            134.22
          ],
          [
            2.717459,
            42.863618,
            133.27
          ],
          [
            2.717533,
            42.863518,
            133.08
          ],
          [
            2.717588,
            42.863154,
            132.51
          ],
          [
            2.717599,
            42.86274,
            132.6
          ],
          [
            2.717677,
            42.862645,
            132.94
          ],
          [
            2.717682,
            42.862525,
            132.4
          ],
          [
            2.717651,
            42.862358,
            132.17
          ],
          [
            2.717735,
            42.862238,
            132.11
          ],
          [
            2.718163,
            42.861878,
            132.0
          ],
          [
            2.718345,
            42.861698,
            132.0
          ],
          [
            2.718419,
            42.86158,
            131.99
          ],
          [
            2.71843,
            42.861256,
            131.99
          ],
          [
            2.718477,
            42.861199,
            131.99
          ],
          [
            2.718593,
            42.861156,
            132.0
          ],
          [
            2.718779,
            42.861167,
            132.0
          ],
          [
            2.718835,
            42.859862,
            132.31
          ],
          [
            2.718886,
            42.859003,
            133.67
          ],
          [
            2.718958,
            42.858944,
            133.86
          ],
          [
            2.718886,
            42.858469,
            135.0
          ],
          [
            2.718875,
            42.858365,
            135.26
          ],
          [
            2.718888,
            42.858276,
            135.61
          ],
          [
            2.718917,
            42.858206,
            135.84
          ],
          [
            2.719193,
            42.857889,
            137.06
          ],
          [
            2.719787,
            42.857208,
            141.16
          ],
          [
            2.719871,
            42.857073,
            142.79
          ],
          [
            2.719686,
            42.857087,
            143.46
          ],
          [
            2.719297,
            42.857145,
            144.86
          ],
          [
            2.718925,
            42.857067,
            147.05
          ],
          [
            2.718797,
            42.856803,
            148.67
          ],
          [
            2.718753,
            42.856593,
            149.75
          ],
          [
            2.718736,
            42.85626,
            151.54
          ],
          [
            2.718825,
            42.855786,
            154.26
          ],
          [
            2.71882,
            42.855651,
            154.28
          ],
          [
            2.718735,
            42.85512,
            152.86
          ],
          [
            2.718659,
            42.854899,
            152.04
          ],
          [
            2.718285,
            42.85452,
            150.77
          ],
          [
            2.718318,
            42.854425,
            150.27
          ],
          [
            2.71835,
            42.854376,
            149.78
          ],
          [
            2.71838,
            42.854299,
            149.25
          ],
          [
            2.718389,
            42.854163,
            147.77
          ],
          [
            2.718378,
            42.854072,
            147.19
          ],
          [
            2.718239,
            42.853962,
            146.08
          ],
          [
            2.71819,
            42.853801,
            145.02
          ],
          [
            2.71819,
            42.853687,
            144.21
          ],
          [
            2.71797,
            42.853207,
            141.46
          ],
          [
            2.717963,
            42.853086,
            140.15
          ],
          [
            2.717947,
            42.853021,
            140.14
          ],
          [
            2.717852,
            42.85294,
            140.58
          ],
          [
            2.717627,
            42.852865,
            140.57
          ],
          [
            2.717488,
            42.852771,
            140.62
          ],
          [
            2.717332,
            42.852716,
            141.01
          ],
          [
            2.717289,
            42.852664,
            141.26
          ],
          [
            2.717305,
            42.852594,
            141.6
          ],
          [
            2.717697,
            42.852019,
            144.77
          ],
          [
            2.717713,
            42.85189,
            145.64
          ],
          [
            2.71767,
            42.851791,
            146.37
          ],
          [
            2.717595,
            42.851685,
            147.24
          ],
          [
            2.717579,
            42.851516,
            148.4
          ],
          [
            2.71782,
            42.851076,
            152.81
          ],
          [
            2.71782,
            42.851076,
            152.81
          ],
          [
            2.717579,
            42.851516,
            148.4
          ],
          [
            2.717595,
            42.851685,
            147.24
          ],
          [
            2.71767,
            42.851791,
            146.37
          ],
          [
            2.717713,
            42.85189,
            145.64
          ],
          [
            2.717697,
            42.852019,
            144.77
          ],
          [
            2.717305,
            42.852594,
            141.6
          ],
          [
            2.717289,
            42.852664,
            141.26
          ],
          [
            2.717332,
            42.852716,
            141.01
          ],
          [
            2.717488,
            42.852771,
            140.62
          ],
          [
            2.717627,
            42.852865,
            140.57
          ],
          [
            2.717852,
            42.85294,
            140.58
          ],
          [
            2.717947,
            42.853021,
            140.14
          ],
          [
            2.717963,
            42.853086,
            140.15
          ],
          [
            2.71797,
            42.853207,
            141.46
          ],
          [
            2.71819,
            42.853687,
            144.21
          ],
          [
            2.71819,
            42.853801,
            145.02
          ],
          [
            2.718239,
            42.853962,
            146.08
          ],
          [
            2.718378,
            42.854072,
            147.19
          ],
          [
            2.718389,
            42.854163,
            147.77
          ],
          [
            2.71838,
            42.854299,
            149.25
          ],
          [
            2.71835,
            42.854376,
            149.78
          ],
          [
            2.718318,
            42.854425,
            150.27
          ],
          [
            2.718285,
            42.85452,
            150.77
          ],
          [
            2.718659,
            42.854899,
            152.04
          ],
          [
            2.718735,
            42.85512,
            152.86
          ],
          [
            2.71882,
            42.855651,
            154.28
          ],
          [
            2.718825,
            42.855786,
            154.26
          ],
          [
            2.718736,
            42.85626,
            151.54
          ],
          [
            2.718753,
            42.856593,
            149.75
          ],
          [
            2.718797,
            42.856803,
            148.67
          ],
          [
            2.718925,
            42.857067,
            147.05
          ],
          [
            2.718925,
            42.857126,
            147.06
          ],
          [
            2.718787,
            42.857402,
            146.09
          ],
          [
            2.718685,
            42.857562,
            145.86
          ],
          [
            2.718818,
            42.857609,
            144.15
          ],
          [
            2.718772,
            42.857727,
            143.2
          ],
          [
            2.718642,
            42.857998,
            140.79
          ],
          [
            2.718457,
            42.858647,
            135.6
          ],
          [
            2.718437,
            42.858651,
            135.61
          ],
          [
            2.718565,
            42.858697,
            134.97
          ],
          [
            2.718653,
            42.858752,
            134.6
          ],
          [
            2.718749,
            42.858858,
            134.15
          ],
          [
            2.718802,
            42.858938,
            133.92
          ],
          [
            2.718886,
            42.859003,
            133.67
          ],
          [
            2.718835,
            42.859862,
            132.31
          ],
          [
            2.718779,
            42.861167,
            132.0
          ],
          [
            2.718593,
            42.861156,
            132.0
          ],
          [
            2.718477,
            42.861199,
            131.99
          ],
          [
            2.71843,
            42.861256,
            131.99
          ],
          [
            2.718419,
            42.86158,
            131.99
          ],
          [
            2.718345,
            42.861698,
            132.0
          ],
          [
            2.718163,
            42.861878,
            132.0
          ],
          [
            2.717735,
            42.862238,
            132.11
          ],
          [
            2.717651,
            42.862358,
            132.17
          ],
          [
            2.717682,
            42.862525,
            132.4
          ],
          [
            2.717677,
            42.862645,
            132.94
          ],
          [
            2.717599,
            42.86274,
            132.6
          ],
          [
            2.717588,
            42.863154,
            132.51
          ],
          [
            2.717533,
            42.863518,
            133.08
          ],
          [
            2.717459,
            42.863618,
            133.27
          ],
          [
            2.71725,
            42.863808,
            134.22
          ],
          [
            2.717182,
            42.863888,
            135.11
          ],
          [
            2.717217,
            42.863968,
            137.37
          ],
          [
            2.716735,
            42.864325,
            139.0
          ],
          [
            2.716607,
            42.864431,
            138.57
          ],
          [
            2.716528,
            42.864521,
            138.33
          ],
          [
            2.716475,
            42.864615,
            138.23
          ],
          [
            2.716394,
            42.864874,
            138.08
          ],
          [
            2.716369,
            42.865066,
            137.96
          ],
          [
            2.716364,
            42.865191,
            137.92
          ],
          [
            2.716383,
            42.865322,
            137.91
          ],
          [
            2.716607,
            42.866177,
            138.49
          ],
          [
            2.716608,
            42.866304,
            138.76
          ],
          [
            2.716574,
            42.866424,
            139.02
          ],
          [
            2.716507,
            42.866535,
            139.25
          ],
          [
            2.716425,
            42.866638,
            139.57
          ],
          [
            2.716535,
            42.866667,
            138.8
          ],
          [
            2.716653,
            42.866667,
            138.39
          ],
          [
            2.718122,
            42.866332,
            136.6
          ],
          [
            2.718215,
            42.866343,
            136.55
          ],
          [
            2.718284,
            42.866388,
            136.5
          ],
          [
            2.718326,
            42.866476,
            136.43
          ],
          [
            2.718493,
            42.867045,
            136.07
          ],
          [
            2.718613,
            42.867408,
            136.24
          ],
          [
            2.718616,
            42.867511,
            136.31
          ],
          [
            2.718594,
            42.867611,
            136.38
          ],
          [
            2.718406,
            42.867904,
            136.52
          ],
          [
            2.718369,
            42.868058,
            136.53
          ],
          [
            2.718383,
            42.868243,
            136.53
          ],
          [
            2.718531,
            42.868838,
            136.47
          ],
          [
            2.718578,
            42.868897,
            136.45
          ],
          [
            2.718642,
            42.868936,
            136.41
          ],
          [
            2.718919,
            42.868974,
            136.51
          ],
          [
            2.719001,
            42.86903,
            136.65
          ],
          [
            2.719152,
            42.869163,
            137.0
          ],
          [
            2.719292,
            42.869248,
            137.0
          ],
          [
            2.719475,
            42.869378,
            137.39
          ],
          [
            2.719553,
            42.869455,
            137.28
          ],
          [
            2.720107,
            42.870313,
            136.28
          ],
          [
            2.720503,
            42.870988,
            136.18
          ],
          [
            2.720692,
            42.871375,
            136.36
          ],
          [
            2.720877,
            42.871788,
            136.92
          ],
          [
            2.720894,
            42.871939,
            137.13
          ],
          [
            2.720861,
            42.8721,
            137.38
          ],
          [
            2.720796,
            42.872235,
            137.57
          ],
          [
            2.720795,
            42.872335,
            137.67
          ],
          [
            2.720849,
            42.872433,
            137.76
          ],
          [
            2.721024,
            42.872701,
            137.92
          ],
          [
            2.721131,
            42.872794,
            137.87
          ],
          [
            2.721332,
            42.87286,
            137.69
          ],
          [
            2.721541,
            42.872919,
            137.47
          ],
          [
            2.722175,
            42.873286,
            136.22
          ],
          [
            2.722254,
            42.873368,
            136.28
          ],
          [
            2.722328,
            42.87335,
            136.07
          ],
          [
            2.722402,
            42.873354,
            135.94
          ],
          [
            2.722457,
            42.873371,
            135.91
          ],
          [
            2.722744,
            42.873595,
            135.36
          ],
          [
            2.722846,
            42.873654,
            135.3
          ],
          [
            2.723168,
            42.873936,
            135.12
          ],
          [
            2.723201,
            42.873979,
            135.1
          ],
          [
            2.723245,
            42.874066,
            135.09
          ],
          [
            2.723282,
            42.874103,
            135.09
          ],
          [
            2.723402,
            42.874183,
            135.11
          ],
          [
            2.723681,
            42.874422,
            135.17
          ],
          [
            2.724227,
            42.874963,
            135.42
          ],
          [
            2.724494,
            42.875197,
            135.57
          ],
          [
            2.724716,
            42.875443,
            135.86
          ],
          [
            2.723299,
            42.876353,
            137.0
          ],
          [
            2.722022,
            42.877163,
            137.62
          ],
          [
            2.722014,
            42.877254,
            137.74
          ],
          [
            2.722141,
            42.877375,
            137.98
          ],
          [
            2.722515,
            42.877879,
            139.16
          ],
          [
            2.722564,
            42.878003,
            139.49
          ],
          [
            2.72267,
            42.878492,
            141.15
          ],
          [
            2.722761,
            42.878764,
            142.33
          ],
          [
            2.72275,
            42.878852,
            142.81
          ],
          [
            2.722676,
            42.878901,
            143.15
          ],
          [
            2.722482,
            42.878973,
            143.05
          ],
          [
            2.722552,
            42.879203,
            142.93
          ],
          [
            2.722659,
            42.879327,
            143.04
          ],
          [
            2.722906,
            42.879473,
            143.13
          ],
          [
            2.723011,
            42.87959,
            143.24
          ],
          [
            2.723732,
            42.880699,
            146.4
          ],
          [
            2.723719,
            42.880791,
            146.75
          ],
          [
            2.723545,
            42.880876,
            146.97
          ],
          [
            2.722786,
            42.88121,
            146.97
          ],
          [
            2.722695,
            42.881274,
            146.75
          ],
          [
            2.722641,
            42.881365,
            146.55
          ],
          [
            2.7226,
            42.88155,
            146.76
          ],
          [
            2.722565,
            42.881664,
            146.89
          ],
          [
            2.722512,
            42.881776,
            147.03
          ],
          [
            2.722305,
            42.882138,
            147.38
          ],
          [
            2.722246,
            42.882271,
            147.51
          ],
          [
            2.722185,
            42.882468,
            147.7
          ],
          [
            2.722161,
            42.882584,
            147.83
          ],
          [
            2.722131,
            42.882967,
            148.29
          ],
          [
            2.722085,
            42.883291,
            148.79
          ],
          [
            2.722096,
            42.88358,
            149.26
          ],
          [
            2.722128,
            42.883781,
            149.63
          ],
          [
            2.722182,
            42.883932,
            149.9
          ],
          [
            2.72226,
            42.884084,
            150.17
          ],
          [
            2.722386,
            42.884263,
            150.79
          ],
          [
            2.722346,
            42.884312,
            150.81
          ],
          [
            2.722306,
            42.884534,
            150.91
          ],
          [
            2.722211,
            42.884888,
            151.81
          ],
          [
            2.72217,
            42.885112,
            152.44
          ],
          [
            2.722045,
            42.885391,
            153.15
          ],
          [
            2.722008,
            42.88573,
            155.0
          ],
          [
            2.722004,
            42.885882,
            155.69
          ],
          [
            2.721733,
            42.886305,
            156.0
          ],
          [
            2.72169,
            42.88643,
            156.14
          ],
          [
            2.721551,
            42.887224,
            158.0
          ],
          [
            2.721566,
            42.887365,
            158.0
          ],
          [
            2.721585,
            42.887391,
            158.0
          ],
          [
            2.72124,
            42.88758,
            159.0
          ],
          [
            2.721436,
            42.887847,
            159.91
          ],
          [
            2.721453,
            42.887891,
            160.06
          ],
          [
            2.721402,
            42.888364,
            161.92
          ],
          [
            2.721368,
            42.888425,
            162.0
          ],
          [
            2.72122,
            42.888448,
            162.14
          ]
        ]
      }
    },
    {
      "type": "Feature",
      "properties": {
        "source": "Mont_Tauch.gpx",
        "type": "route"
      },
      "geometry": {
        "type": "LineString",
        "coordinates": [
          [
            2.72122,
            42.888448
          ],
          [
            2.721368,
            42.888425
          ],
          [
            2.72124,
            42.88758
          ],
          [
            2.721585,
            42.887391
          ],
          [
            2.722004,
            42.885882
          ],
          [
            2.722386,
            42.884263
          ],
          [
            2.722695,
            42.881274
          ],
          [
            2.722482,
            42.878973
          ],
          [
            2.724716,
            42.875443
          ],
          [
            2.722254,
            42.873368
          ],
          [
            2.716425,
            42.866638
          ],
          [
            2.717217,
            42.863968
          ],
          [
            2.717677,
            42.862645
          ],
          [
            2.718593,
            42.861156
          ],
          [
            2.718779,
            42.861167
          ],
          [
            2.718958,
            42.858944
          ],
          [
            2.719193,
            42.857889
          ],
          [
            2.719871,
            42.857073
          ],
          [
            2.718925,
            42.857067
          ],
          [
            2.71838,
            42.854299
          ],
          [
            2.71797,
            42.853207
          ],
          [
            2.71782,
            42.851076
          ],
          [
            2.71782,
            42.851076
          ],
          [
            2.718685,
            42.857562
          ],
          [
            2.718818,
            42.857609
          ],
          [
            2.718437,
            42.858651
          ],
          [
            2.718886,
            42.859003
          ],
          [
            2.718779,
            42.861167
          ],
          [
            2.718593,
            42.861156
          ],
          [
            2.717217,
            42.863968
          ],
          [
            2.716425,
            42.866638
          ],
          [
            2.722254,
            42.873368
          ],
          [
            2.724716,
            42.875443
          ],
          [
            2.722482,
            42.878973
          ],
          [
            2.722386,
            42.884263
          ],
          [
            2.721585,
            42.887391
          ],
          [
            2.72124,
            42.88758
          ],
          [
            2.721368,
            42.888425
          ],
          [
            2.72122,
            42.888448
          ]
        ]
      }
    }
  ]
}