{
  "type": "FeatureCollection",
  "features": [
    {
      "type": "Feature",
      "properties": {
        "name": "GraphHopper Track",
        "source": "Sentier_de_lOliveraie.gpx",
        "type": "track"
      },
      "geometry": {
        "type": "LineString",
        "coordinates": [
          [
            1.482374,
            43.655395,
            156.46
          ],
          [
            1.482841,
            43.655103,
            156.02
          ],
          [
            1.483028,
            43.654962,
            155.34
          ],
          [
            1.482884,
            43.654829,
            154.55
          ],
          [
            1.482783,
            43.65475,
            154.0
          ],
          [
            1.482777,
            43.654727,
            154.0
          ],
          [
            1.482736,
            43.654694,
            154.0
          ],
          [
            1.482712,
            43.654644,
            153.97
          ],
          [
            1.482665,
            43.654587,
            153.86
          ],
          [
            1.482661,
            43.654551,
            153.57
          ],
          [
            1.482674,
            43.654514,
            153.28
          ],
          [
            1.482804,
            43.654438,
            153.0
          ],
          [
            1.482258,
            43.653984,
            152.01
          ],
          [
            1.482552,
            43.653831,
            151.88
          ],
          [
            1.482844,
            43.653707,
            151.48
          ],
          [
            1.482921,
            43.653544,
            151.0
          ],
          [
            1.482708,
            43.652763,
            148.09
          ],
          [
            1.482431,
            43.652761,
            148.02
          ],
          [
            1.482544,
            43.65262,
            147.05
          ],
          [
            1.482743,
            43.652083,
            143.74
          ],
          [
            1.482266,
            43.651985,
            141.98
          ],
          [
            1.482099,
            43.651941,
            141.61
          ],
          [
            1.481798,
            43.6519,
            140.91
          ],
          [
            1.480966,
            43.651863,
            139.92
          ],
          [
            1.480789,
            43.651829,
            139.7
          ],
          [
            1.480596,
            43.651777,
            139.87
          ],
          [
            1.480286,
            43.651643,
            139.2
          ],
          [
            1.479956,
            43.651513,
            139.0
          ],
          [
            1.478904,
            43.651006,
            138.0
          ],
          [
            1.478774,
            43.650952,
            138.0
          ],
          [
            1.478142,
            43.650633,
            137.68
          ],
          [
            1.478022,
            43.650542,
            137.45
          ],
          [
            1.477162,
            43.650059,
            137.0
          ],
          [
            1.477803,
            43.649471,
            136.0
          ],
          [
            1.477729,
            43.649347,
            136.0
          ],
          [
            1.477523,
            43.64887,
            136.57
          ],
          [
            1.477482,
            43.6488,
            136.4
          ],
          [
            1.476986,
            43.648741,
            136.55
          ],
          [
            1.476867,
            43.648462,
            136.0
          ],
          [
            1.476467,
            43.648555,
            136.0
          ],
          [
            1.476425,
            43.648486,
            136.0
          ],
          [
            1.476284,
            43.648517,
            136.0
          ],
          [
            1.47615,
            43.648439,
            136.0
          ],
          [
            1.475949,
            43.648487,
            136.0
          ],
          [
            1.475788,
            43.648573,
            136.0
          ],
          [
            1.475567,
            43.648636,
            135.92
          ],
          [
            1.475567,
            43.648636,
            135.92
          ],
          [
            1.475788,
            43.648573,
            136.0
          ],
          [
            1.475949,
            43.648487,
            136.0
          ],
          [
            1.47615,
            43.648439,
            136.0
          ],
          [
            1.476284,
            43.648517,
            136.0
          ],
          [
            1.476425,
            43.648486,
            136.0
          ],
          [
            1.476467,
            43.648555,
            136.0
          ],
          [
            1.476867,
            43.648462,
            136.0
          ],
          [
            1.476986,
            43.648741,
            136.55
          ],
          [
            1.477482,
            43.6488,
            136.4
          ],
          [
            1.477523,
            43.64887,
            136.57
          ],
          [
            1.477729,
            43.649347,
            136.0
          ],
          [
            1.477803,
            43.649471,
            136.0
          ],
          [
            1.477162,
            43.650059,
            137.0
          ],
          [
            1.478022,
            43.650542,
            137.45
          ],
          [
            1.478142,
            43.650633,
            137.68
          ],
          [
            1.478774,
            43.650952,
            138.0
          ],
          [
            1.478904,
            43.651006,
            138.0
          ],
          [
            1.479956,
            43.651513,
            139.0
          ],
          [
            1.480286,
            43.651643,
            139.2
          ],
          [
            1.480596,
            43.651777,
            139.87
          ],
          [
            1.480789,
            43.651829,
            139.7
          ],
          [
            1.480966,
            43.651863,
            139.92
          ],
          [
            1.481798,
            43.6519,
            140.91
          ],
          [
            1.482099,
            43.651941,
            141.61
          ],
          [
            1.482266,
            43.651985,
            141.98
          ],
          [
            1.482743,
            43.652083,
            143.74
          ],
          [
            1.482544,
            43.65262,
            147.05
          ],
          [
            1.482431,
            43.652761,
            148.02
          ],
          [
            1.482708,
            43.652763,
            148.09
          ],
          [
            1.482921,
            43.653544,
            151.0
          ],
          [
            1.482844,
            43.653707,
            151.48
          ],
          [
            1.482552,
            43.653831,
            151.88
          ],
          [
            1.482258,
            43.653984,
            152.01
          ],
          [
            1.482804,
            43.654438,
            153.0
          ],
          [
            1.482674,
            43.654514,
            153.28
          ],
          [
            1.482661,
            43.654551,
            153.57
          ],
          [
            1.482665,
            43.654587,
            153.86
          ],
          [
            1.482712,
            43.654644,
            153.97
          ],
          [
            1.482736,
            43.654694,
            154.0
          ],
          [
            1.482777,
            43.654727,
            154.0
          ],
          [
            1.482783,
            43.65475,
            154.0
          ],
          [
            1.482884,
            43.654829,
            154.55
          ],
          [
            1.483028,
            43.654962,
            155.34
          ],
          [
            1.482841,
            43.655103,
            156.02
          ],
          [
            1.482374,
            43.655395,
            156.46
          ]
        ]
      }
    },
    {
      "type": "Feature",
      "properties": {
        "source": "Sentier_de_lOliveraie.gpx",
        "type": "route"
      },
      "geometry": {
        "type": "LineString",
        "coordinates": [
          [
            1.482374,
            43.655395
          ],
          [
            1.483028,
            43.654962
          ],
          [
            1.482884,
            43.654829
          ],
          [
            1.482783,
            43.65475
          ],
          [
            1.482804,
            43.654438
          ],
          [
            1.482258,
            43.653984
          ],
          [
            1.482708,
            43.652763
          ],
          [
            1.482431,
            43.652761
          ],
          [
            1.482743,
            43.652083
          ],
          [
            1.477162,
            43.650059
          ],
          [
            1.477803,
            43.649471
          ],
          [
            1.477523,
            43.64887
          ],
          [
            1.476867,
            43.648462
          ],
          [
            1.476467,
            43.648555
          ],
          [
            1.476425,
            43.648486
          ],
          [
            1.476284,
            43.648517
          ],
          [
            1.47615,
            43.648439
          ],
          [
            1.475567,
            43.648636
          ],
          [
            1.475567,
            43.648636
          ],
          [
            1.47615,
            43.648439
          ],
          [
            1.476284,
            43.648517
          ],
          [
            1.476425,
            43.648486
          ],
          [
            1.476467,
            43.648555
          ],
          [
            1.476867,
            43.648462
          ],
          [
            1.477523,
            43.64887
          ],
          [
            1.477803,
            43.649471
          ],
          [
            1.477162,
            43.650059
          ],
          [
            1.482743,
            43.652083
          ],
          [
            1.482431,
            43.652761
          ],
          [
            1.482708,
            43.652763
          ],
          [
            1.482258,
            43.653984
          ],
          [
            1.482804,
            43.654438
          ],
          [
            1.482665,
            43.654587
          ],
          [
            1.482736,
            43.654694
          ],
          [
            1.483028,
            43.654962
          ],
          [
            1.482374,
            43.655395
          ]
        ]
      }
    }
  ]
}