{
  "type": "FeatureCollection",
  "features": [
    {
      "type": "Feature",
      "properties": {
        "name": "GraphHopper Track",
        "source": "La_Romieu__Fonsomme.gpx",
        "type": "track"
      },
      "geometry": {
        "type": "LineString",
        "coordinates": [
          [
            0.501511,
            43.985262,
            181.88
          ],
          [
            0.500835,
            43.985209,
            179.0
          ],
          [
            0.500751,
            43.985088,
            178.9
          ],
          [
            0.500574,
            43.984925,
            178.36
          ],
          [
            0.50068,
            43.984803,
            178.98
          ],
          [
            0.500837,
            43.984661,
            179.45
          ],
          [
            0.500961,
            43.98459,
            179.98
          ],
          [
            0.50097,
            43.984531,
            180.07
          ],
          [
            0.501266,
            43.984171,
            182.73
          ],
          [
            0.501467,
            43.983869,
            184.9
          ],
          [
            0.501661,
            43.983484,
            187.9
          ],
          [
            0.501808,
            43.983084,
            189.0
          ],
          [
            0.501843,
            43.982913,
            189.0
          ],
          [
            0.501865,
            43.982651,
            188.91
          ],
          [
            0.501902,
            43.982034,
            190.73
          ],
          [
            0.501982,
            43.981729,
            192.48
          ],
          [
            0.502065,
            43.98156,
            193.06
          ],
          [
            0.502116,
            43.9815,
            193.22
          ],
          [
            0.50247,
            43.981205,
            193.79
          ],
          [
            0.50257,
            43.981111,
            193.89
          ],
          [
            0.502595,
            43.980967,
            193.11
          ],
          [
            0.502784,
            43.980897,
            194.25
          ],
          [
            0.503312,
            43.980675,
            194.91
          ],
          [
            0.503436,
            43.980634,
            195.16
          ],
          [
            0.503551,
            43.98061,
            195.51
          ],
          [
            0.503854,
            43.980328,
            195.43
          ],
          [
            0.50326,
            43.979623,
            192.23
          ],
          [
            0.503143,
            43.979516,
            191.89
          ],
          [
            0.503023,
            43.979435,
            191.3
          ],
          [
            0.502016,
            43.978939,
            185.41
          ],
          [
            0.501867,
            43.978857,
            184.41
          ],
          [
            0.501758,
            43.97877,
            183.48
          ],
          [
            0.501682,
            43.978674,
            182.8
          ],
          [
            0.501412,
            43.978321,
            181.04
          ],
          [
            0.501242,
            43.978161,
            180.45
          ],
          [
            0.500284,
            43.977333,
            181.68
          ],
          [
            0.499995,
            43.977033,
            183.81
          ],
          [
            0.499223,
            43.975996,
            186.14
          ],
          [
            0.49816,
            43.974468,
            187.99
          ],
          [
            0.498043,
            43.974325,
            188.35
          ],
          [
            0.497928,
            43.974206,
            188.36
          ],
          [
            0.497789,
            43.974086,
            188.6
          ],
          [
            0.497306,
            43.973749,
            188.69
          ],
          [
            0.496803,
            43.973337,
            187.4
          ],
          [
            0.496637,
            43.973222,
            187.54
          ],
          [
            0.496464,
            43.973135,
            187.79
          ],
          [
            0.495702,
            43.972834,
            189.27
          ],
          [
            0.495531,
            43.972741,
            190.66
          ],
          [
            0.495349,
            43.972624,
            191.94
          ],
          [
            0.494974,
            43.972329,
            193.49
          ],
          [
            0.493927,
            43.97167,
            196.63
          ],
          [
            0.493643,
            43.971464,
            198.78
          ],
          [
            0.49332,
            43.97118,
            200.56
          ],
          [
            0.492722,
            43.970621,
            202.87
          ],
          [
            0.492477,
            43.970377,
            203.19
          ],
          [
            0.491438,
            43.969153,
            204.86
          ],
          [
            0.491291,
            43.969016,
            205.08
          ],
          [
            0.490613,
            43.968523,
            205.79
          ],
          [
            0.489757,
            43.967828,
            204.05
          ],
          [
            0.489656,
            43.967769,
            203.9
          ],
          [
            0.489546,
            43.967737,
            203.34
          ],
          [
            0.489431,
            43.967738,
            203.05
          ],
          [
            0.489144,
            43.967794,
            202.31
          ],
          [
            0.489038,
            43.967767,
            202.0
          ],
          [
            0.487643,
            43.967048,
            195.14
          ],
          [
            0.487434,
            43.96695,
            193.61
          ],
          [
            0.486787,
            43.966716,
            188.57
          ],
          [
            0.485938,
            43.966312,
            181.52
          ],
          [
            0.484781,
            43.965883,
            175.06
          ],
          [
            0.484608,
            43.965802,
            174.2
          ],
          [
            0.484431,
            43.965702,
            173.31
          ],
          [
            0.484151,
            43.965455,
            171.6
          ],
          [
            0.484005,
            43.965364,
            170.84
          ],
          [
            0.483682,
            43.965203,
            169.35
          ],
          [
            0.483575,
            43.965108,
            168.67
          ],
          [
            0.483502,
            43.964994,
            168.1
          ],
          [
            0.48347,
            43.964864,
            167.98
          ],
          [
            0.483485,
            43.964731,
            168.08
          ],
          [
            0.483607,
            43.964171,
            168.84
          ],
          [
            0.483621,
            43.964064,
            168.95
          ],
          [
            0.483596,
            43.963977,
            169.04
          ],
          [
            0.483524,
            43.963881,
            169.15
          ],
          [
            0.483422,
            43.963811,
            169.25
          ],
          [
            0.482878,
            43.963623,
            169.85
          ],
          [
            0.482731,
            43.963548,
            170.08
          ],
          [
            0.482644,
            43.963466,
            170.28
          ],
          [
            0.481765,
            43.962477,
            171.8
          ],
          [
            0.481603,
            43.962336,
            172.0
          ],
          [
            0.481198,
            43.962247,
            171.88
          ],
          [
            0.481058,
            43.962196,
            171.6
          ],
          [
            0.480862,
            43.962091,
            170.96
          ],
          [
            0.480679,
            43.962029,
            170.35
          ],
          [
            0.480525,
            43.962004,
            169.98
          ],
          [
            0.479821,
            43.961944,
            169.06
          ],
          [
            0.478771,
            43.961807,
            171.01
          ],
          [
            0.4786,
            43.9618,
            171.6
          ],
          [
            0.478259,
            43.96181,
            173.37
          ],
          [
            0.477011,
            43.961903,
            177.76
          ],
          [
            0.475868,
            43.962026,
            176.93
          ],
          [
            0.474312,
            43.962343,
            175.9
          ],
          [
            0.474152,
            43.962399,
            175.88
          ],
          [
            0.474004,
            43.96247,
            175.87
          ],
          [
            0.473876,
            43.96255,
            175.86
          ],
          [
            0.473748,
            43.962656,
            175.87
          ],
          [
            0.473651,
            43.962763,
            175.87
          ],
          [
            0.473304,
            43.963335,
            175.69
          ],
          [
            0.473158,
            43.963519,
            175.57
          ],
          [
            0.472931,
            43.963712,
            175.28
          ],
          [
            0.472688,
            43.963872,
            174.88
          ],
          [
            0.471912,
            43.964283,
            173.69
          ],
          [
            0.470839,
            43.964736,
            173.85
          ],
          [
            0.470623,
            43.964797,
            174.11
          ],
          [
            0.469584,
            43.965015,
            175.11
          ],
          [
            0.469517,
            43.96505,
            174.81
          ],
          [
            0.469471,
            43.965084,
            174.55
          ],
          [
            0.469438,
            43.96514,
            174.09
          ],
          [
            0.469363,
            43.965486,
            171.1
          ],
          [
            0.469328,
            43.965586,
            170.26
          ],
          [
            0.469274,
            43.965682,
            169.66
          ],
          [
            0.469192,
            43.965784,
            169.0
          ],
          [
            0.468433,
            43.966414,
            166.81
          ],
          [
            0.469478,
            43.967322,
            155.13
          ],
          [
            0.469557,
            43.967365,
            154.21
          ],
          [
            0.469694,
            43.967343,
            153.12
          ],
          [
            0.469797,
            43.967311,
            152.66
          ],
          [
            0.469935,
            43.967246,
            152.43
          ],
          [
            0.470357,
            43.966916,
            152.14
          ],
          [
            0.470492,
            43.966856,
            152.06
          ],
          [
            0.470774,
            43.966748,
            152.0
          ],
          [
            0.471047,
            43.96662,
            151.93
          ],
          [
            0.471835,
            43.966148,
            151.26
          ],
          [
            0.471952,
            43.966097,
            151.14
          ],
          [
            0.471952,
            43.966097,
            151.14
          ],
          [
            0.471835,
            43.966148,
            151.26
          ],
          [
            0.471047,
            43.96662,
            151.93
          ],
          [
            0.470774,
            43.966748,
            152.0
          ],
          [
            0.470492,
            43.966856,
            152.06
          ],
          [
            0.470357,
            43.966916,
            152.14
          ],
          [
            0.469935,
            43.967246,
            152.43
          ],
          [
            0.469797,
            43.967311,
            152.66
          ],
          [
            0.469694,
            43.967343,
            153.12
          ],
          [
            0.469557,
            43.967365,
            154.21
          ],
          [
            0.469478,
            43.967322,
            155.13
          ],
          [
            0.468433,
            43.966414,
            166.81
          ],
          [
            0.469192,
            43.965784,
            169.0
          ],
          [
            0.469274,
            43.965682,
            169.66
          ],
          [
            0.469328,
            43.965586,
            170.26
          ],
          [
            0.469363,
            43.965486,
            171.1
          ],
          [
            0.469438,
            43.96514,
            174.09
          ],
          [
            0.469471,
            43.965084,
            174.55
          ],
          [
            0.469517,
            43.96505,
            174.81
          ],
          [
            0.469584,
            43.965015,
            175.11
          ],
          [
            0.470623,
            43.964797,
            174.11
          ],
          [
            0.470839,
            43.964736,
            173.85
          ],
          [
            0.471912,
            43.964283,
            173.69
          ],
          [
            0.472688,
            43.963872,
            174.88
          ],
          [
            0.472931,
            43.963712,
            175.28
          ],
          [
            0.473158,
            43.963519,
            175.57
          ],
          [
            0.473304,
            43.963335,
            175.69
          ],
          [
            0.473651,
            43.962763,
            175.87
          ],
          [
            0.473748,
            43.962656,
            175.87
          ],
          [
            0.473876,
            43.96255,
            175.86
          ],
          [
            0.474004,
            43.96247,
            175.87
          ],
          [
            0.474152,
            43.962399,
            175.88
          ],
          [
            0.474312,
            43.962343,
            175.9
          ],
          [
            0.475868,
            43.962026,
            176.93
          ],
          [
            0.477011,
            43.961903,
            177.76
          ],
          [
            0.478259,
            43.96181,
            173.37
          ],
          [
            0.4786,
            43.9618,
            171.6
          ],
          [
            0.478771,
            43.961807,
            171.01
          ],
          [
            0.479821,
            43.961944,
            169.06
          ],
          [
            0.480525,
            43.962004,
            169.98
          ],
          [
            0.480679,
            43.962029,
            170.35
          ],
          [
            0.480862,
            43.962091,
            170.96
          ],
          [
            0.481058,
            43.962196,
            171.6
          ],
          [
            0.481198,
            43.962247,
            171.88
          ],
          [
            0.481603,
            43.962336,
            172.0
          ],
          [
            0.481765,
            43.962477,
            171.8
          ],
          [
            0.482644,
            43.963466,
            170.28
          ],
          [
            0.482731,
            43.963548,
            170.08
          ],
          [
            0.482878,
            43.963623,
            169.85
          ],
          [
            0.483422,
            43.963811,
            169.25
          ],
          [
            0.483524,
            43.963881,
            169.15
          ],
          [
            0.483596,
            43.963977,
            169.04
          ],
          [
            0.483621,
            43.964064,
            168.95
          ],
          [
            0.483607,
            43.964171,
            168.84
          ],
          [
            0.483485,
            43.964731,
            168.08
          ],
          [
            0.48347,
            43.964864,
            167.98
          ],
          [
            0.483502,
            43.964994,
            168.1
          ],
          [
            0.483575,
            43.965108,
            168.67
          ],
          [
            0.483682,
            43.965203,
            169.35
          ],
          [
            0.484005,
            43.965364,
            170.84
          ],
          [
            0.484151,
            43.965455,
            171.6
          ],
          [
            0.484431,
            43.965702,
            173.31
          ],
          [
            0.484608,
            43.965802,
            174.2
          ],
          [
            0.484781,
            43.965883,
            175.06
          ],
          [
            0.485938,
            43.966312,
            181.52
          ],
          [
            0.486787,
            43.966716,
            188.57
          ],
          [
            0.487434,
            43.96695,
            193.61
          ],
          [
            0.487643,
            43.967048,
            195.14
          ],
          [
            0.489038,
            43.967767,
            202.0
          ],
          [
            0.489144,
            43.967794,
            202.31
          ],
          [
            0.48889,
            43.967917,
            202.57
          ],
          [
            0.488758,
            43.967991,
            202.9
          ],
          [
            0.487713,
            43.968966,
            206.4
          ],
          [
            0.487685,
            43.969016,
            206.53
          ],
          [
            0.487677,
            43.969072,
            206.66
          ],
          [
            0.487776,
            43.969186,
            206.99
          ],
          [
            0.487773,
            43.969223,
            207.08
          ],
          [
            0.487744,
            43.969254,
            207.18
          ],
          [
            0.487575,
            43.969338,
            207.57
          ],
          [
            0.487556,
            43.969376,
            207.68
          ],
          [
            0.487555,
            43.969423,
            207.81
          ],
          [
            0.487595,
            43.969472,
            207.97
          ],
          [
            0.488363,
            43.969934,
            210.4
          ],
          [
            0.488466,
            43.970028,
            210.79
          ],
          [
            0.488505,
            43.970095,
            211.0
          ],
          [
            0.488524,
            43.970175,
            211.25
          ],
          [
            0.488286,
            43.970805,
            212.0
          ],
          [
            0.488122,
            43.97091,
            211.48
          ],
          [
            0.487985,
            43.971025,
            211.08
          ],
          [
            0.487849,
            43.971187,
            210.72
          ],
          [
            0.487272,
            43.972119,
            210.0
          ],
          [
            0.487221,
            43.972222,
            210.0
          ],
          [
            0.487183,
            43.972318,
            210.0
          ],
          [
            0.487163,
            43.972447,
            210.0
          ],
          [
            0.48719,
            43.972685,
            210.0
          ],
          [
            0.487176,
            43.972837,
            210.0
          ],
          [
            0.487136,
            43.972995,
            210.01
          ],
          [
            0.486676,
            43.974261,
            211.0
          ],
          [
            0.487777,
            43.974384,
            205.18
          ],
          [
            0.488131,
            43.974444,
            203.52
          ],
          [
            0.491386,
            43.97506,
            192.22
          ],
          [
            0.491603,
            43.975125,
            191.56
          ],
          [
            0.491783,
            43.975234,
            191.52
          ],
          [
            0.491948,
            43.975383,
            190.93
          ],
          [
            0.493824,
            43.977274,
            182.07
          ],
          [
            0.494291,
            43.977876,
            180.9
          ],
          [
            0.49452,
            43.978273,
            180.22
          ],
          [
            0.495011,
            43.978971,
            179.6
          ],
          [
            0.495122,
            43.979195,
            179.89
          ],
          [
            0.495157,
            43.979329,
            180.19
          ],
          [
            0.495172,
            43.979486,
            180.64
          ],
          [
            0.495171,
            43.979999,
            182.81
          ],
          [
            0.495202,
            43.98044,
            184.88
          ],
          [
            0.495212,
            43.980742,
            185.82
          ],
          [
            0.49526,
            43.981285,
            187.69
          ],
          [
            0.495316,
            43.981445,
            187.86
          ],
          [
            0.495341,
            43.981488,
            187.63
          ],
          [
            0.495396,
            43.981533,
            187.24
          ],
          [
            0.495923,
            43.981758,
            183.83
          ],
          [
            0.496091,
            43.981818,
            183.66
          ],
          [
            0.496337,
            43.98193,
            184.21
          ],
          [
            0.496473,
            43.981832,
            183.26
          ],
          [
            0.496657,
            43.981714,
            182.39
          ],
          [
            0.496802,
            43.981849,
            184.24
          ],
          [
            0.496982,
            43.982162,
            185.47
          ],
          [
            0.497433,
            43.982037,
            187.06
          ],
          [
            0.497604,
            43.982252,
            186.0
          ],
          [
            0.497975,
            43.982658,
            183.57
          ],
          [
            0.498035,
            43.982647,
            183.66
          ],
          [
            0.498157,
            43.982768,
            182.69
          ],
          [
            0.49832,
            43.98296,
            181.13
          ],
          [
            0.498511,
            43.983205,
            179.49
          ],
          [
            0.498682,
            43.983387,
            179.04
          ],
          [
            0.498735,
            43.983456,
            178.79
          ],
          [
            0.49886,
            43.983634,
            179.23
          ],
          [
            0.499089,
            43.984066,
            179.81
          ],
          [
            0.499145,
            43.984159,
            179.98
          ],
          [
            0.499183,
            43.984204,
            180.02
          ],
          [
            0.499269,
            43.98427,
            179.88
          ],
          [
            0.500174,
            43.984683,
            178.35
          ],
          [
            0.500393,
            43.984802,
            178.18
          ],
          [
            0.500574,
            43.984925,
            178.36
          ],
          [
            0.500751,
            43.985088,
            178.9
          ],
          [
            0.500835,
            43.985209,
            179.0
          ],
          [
            0.501511,
            43.985262,
            181.88
          ]
        ]
      }
    },
    {
      "type": "Feature",
      "properties": {
        "source": "La_Romieu__Fonsomme.gpx",
        "type": "route"
      },
      "geometry": {
        "type": "LineString",
        "coordinates": [
          [
            0.501511,
            43.985262
          ],
          [
            0.500835,
            43.985209
          ],
          [
            0.500574,
            43.984925
          ],
          [
            0.50068,
            43.984803
          ],
          [
            0.501865,
            43.982651
          ],
          [
            0.502595,
            43.980967
          ],
          [
            0.503551,
            43.98061
          ],
          [
            0.503854,
            43.980328
          ],
          [
            0.501682,
            43.978674
          ],
          [
            0.468433,
            43.966414
          ],
          [
            0.469557,
            43.967365
          ],
          [
            0.471952,
            43.966097
          ],
          [
            0.471952,
            43.966097
          ],
          [
            0.469557,
            43.967365
          ],
          [
            0.468433,
            43.966414
          ],
          [
            0.489144,
            43.967794
          ],
          [
            0.488286,
            43.970805
          ],
          [
            0.486676,
            43.974261
          ],
          [
            0.49526,
            43.981285
          ],
          [
            0.496337,
            43.98193
          ],
          [
            0.496657,
            43.981714
          ],
          [
            0.496982,
            43.982162
          ],
          [
            0.497433,
            43.982037
          ],
          [
            0.497975,
            43.982658
          ],
          [
            0.498035,
            43.982647
          ],
          [
            0.500835,
            43.985209
          ],
          [
            0.501511,
            43.985262
          ]
        ]
      }
    }
  ]
}