{
  "type": "FeatureCollection",
  "features": [
    {
      "type": "Feature",
      "properties": {
        "name": "GraphHopper Track",
        "source": "Sentier_Pech_dAlet.gpx",
        "type": "track"
      },
      "geometry": {
        "type": "LineString",
        "coordinates": [
          [
            2.254005,
            42.994503,
            211.48
          ],
          [
            2.2538,
            42.994647,
            211.29
          ],
          [
            2.253588,
            42.994824,
            211.07
          ],
          [
            2.253449,
            42.994983,
            210.87
          ],
          [
            2.253076,
            42.995535,
            209.81
          ],
          [
            2.25302,
            42.995604,
            209.53
          ],
          [
            2.252956,
            42.995658,
            209.31
          ],
          [
            2.252569,
            42.995863,
            208.23
          ],
          [
            2.252495,
            42.995937,
            207.92
          ],
          [
            2.252454,
            42.996024,
            207.2
          ],
          [
            2.252382,
            42.996255,
            208.19
          ],
          [
            2.252346,
            42.996331,
            210.13
          ],
          [
            2.252238,
            42.996464,
            213.7
          ],
          [
            2.252219,
            42.996524,
            214.53
          ],
          [
            2.252185,
            42.99658,
            215.61
          ],
          [
            2.252121,
            42.996696,
            215.59
          ],
          [
            2.251906,
            42.996934,
            213.84
          ],
          [
            2.251041,
            42.998067,
            207.31
          ],
          [
            2.250933,
            42.998223,
            206.92
          ],
          [
            2.250918,
            42.99827,
            206.81
          ],
          [
            2.250923,
            42.998305,
            206.72
          ],
          [
            2.250959,
            42.998361,
            206.55
          ],
          [
            2.251087,
            42.998423,
            206.18
          ],
          [
            2.251401,
            42.998544,
            205.22
          ],
          [
            2.251457,
            42.998586,
            204.94
          ],
          [
            2.251689,
            42.998424,
            205.05
          ],
          [
            2.251936,
            42.99824,
            205.04
          ],
          [
            2.252207,
            42.997942,
            205.01
          ],
          [
            2.252379,
            42.997694,
            205.28
          ],
          [
            2.252562,
            42.997465,
            205.43
          ],
          [
            2.252815,
            42.997175,
            205.03
          ],
          [
            2.252913,
            42.997111,
            204.65
          ],
          [
            2.253057,
            42.997052,
            203.49
          ],
          [
            2.254298,
            42.99712,
            199.72
          ],
          [
            2.25456,
            42.997139,
            204.0
          ],
          [
            2.25481,
            42.997109,
            203.44
          ],
          [
            2.254921,
            42.99705,
            203.0
          ],
          [
            2.254974,
            42.996989,
            203.0
          ],
          [
            2.255166,
            42.996681,
            203.0
          ],
          [
            2.255263,
            42.996471,
            203.2
          ],
          [
            2.255508,
            42.996579,
            203.97
          ],
          [
            2.255832,
            42.996688,
            204.27
          ],
          [
            2.25618,
            42.996627,
            204.98
          ],
          [
            2.256302,
            42.996581,
            205.26
          ],
          [
            2.256531,
            42.996536,
            205.69
          ],
          [
            2.256767,
            42.996458,
            206.24
          ],
          [
            2.256787,
            42.996446,
            206.3
          ],
          [
            2.256923,
            42.996188,
            206.63
          ],
          [
            2.256972,
            42.996123,
            206.26
          ],
          [
            2.257353,
            42.995794,
            208.35
          ],
          [
            2.257977,
            42.996641,
            215.68
          ],
          [
            2.258392,
            42.997133,
            227.71
          ],
          [
            2.258494,
            42.997283,
            230.0
          ],
          [
            2.258486,
            42.997364,
            230.97
          ],
          [
            2.258075,
            42.997691,
            229.78
          ],
          [
            2.257885,
            42.997778,
            228.04
          ],
          [
            2.257885,
            42.997778,
            228.04
          ],
          [
            2.258075,
            42.997691,
            229.78
          ],
          [
            2.258486,
            42.997364,
            230.97
          ],
          [
            2.258494,
            42.997283,
            230.0
          ],
          [
            2.258392,
            42.997133,
            227.71
          ],
          [
            2.257977,
            42.996641,
            215.68
          ],
          [
            2.257353,
            42.995794,
            208.35
          ],
          [
            2.256972,
            42.996123,
            206.26
          ],
          [
            2.256923,
            42.996188,
            206.63
          ],
          [
            2.256787,
            42.996446,
            206.3
          ],
          [
            2.256767,
            42.996458,
            206.24
          ],
          [
            2.256531,
            42.996536,
            205.69
          ],
          [
            2.256302,
            42.996581,
            205.26
          ],
          [
            2.25618,
            42.996627,
            204.98
          ],
          [
            2.255832,
            42.996688,
            204.27
          ],
          [
            2.255508,
            42.996579,
            203.97
          ],
          [
            2.255263,
            42.996471,
            203.2
          ],
          [
            2.255166,
            42.996681,
            203.0
          ],
          [
            2.254974,
            42.996989,
            203.0
          ],
          [
            2.254921,
            42.99705,
            203.0
          ],
          [
            2.25481,
            42.997109,
            203.44
          ],
          [
            2.25456,
            42.997139,
            204.0
          ],
          [
            2.254298,
            42.99712,
            199.72
          ],
          [
            2.253057,
            42.997052,
            203.49
          ],
          [
            2.252913,
            42.997111,
            204.65
          ],
          [
            2.252815,
            42.997175,
            205.03
          ],
          [
            2.252562,
            42.997465,
            205.43
          ],
          [
            2.252379,
            42.997694,
            205.28
          ],
          [
            2.252207,
            42.997942,
            205.01
          ],
          [
            2.251936,
            42.99824,
            205.04
          ],
          [
            2.251457,
            42.998586,
            204.94
          ],
          [
            2.251401,
            42.998544,
            205.22
          ],
          [
            2.251087,
            42.998423,
            206.18
          ],
          [
            2.250959,
            42.998361,
            206.55
          ],
          [
            2.250923,
            42.998305,
            206.72
          ],
          [
            2.250918,
            42.99827,
            206.81
          ],
          [
            2.250933,
            42.998223,
            206.92
          ],
          [
            2.251041,
            42.998067,
            207.31
          ],
          [
            2.251906,
            42.996934,
            213.84
          ],
          [
            2.252121,
            42.996696,
            215.59
          ],
          [
            2.252219,
            42.996524,
            214.53
          ],
          [
            2.252238,
            42.996464,
            213.7
          ],
          [
            2.252228,
            42.996439,
            213.59
          ],
          [
            2.252196,
            42.99642,
            213.71
          ],
          [
            2.252055,
            42.996387,
            214.67
          ],
          [
            2.251945,
            42.99634,
            215.37
          ],
          [
            2.251882,
            42.996291,
            215.83
          ],
          [
            2.25154,
            42.995965,
            219.65
          ],
          [
            2.251423,
            42.995885,
            220.83
          ],
          [
            2.25064,
            42.995431,
            229.84
          ],
          [
            2.250579,
            42.995374,
            230.91
          ],
          [
            2.250543,
            42.995299,
            232.22
          ],
          [
            2.250544,
            42.995263,
            232.75
          ],
          [
            2.250562,
            42.995222,
            233.23
          ],
          [
            2.250591,
            42.995186,
            233.09
          ],
          [
            2.250645,
            42.995154,
            232.41
          ],
          [
            2.250627,
            42.995096,
            233.19
          ],
          [
            2.250593,
            42.995065,
            233.72
          ],
          [
            2.250501,
            42.995035,
            234.74
          ],
          [
            2.250357,
            42.99502,
            236.3
          ],
          [
            2.250257,
            42.994996,
            237.53
          ],
          [
            2.250024,
            42.994851,
            240.25
          ],
          [
            2.249968,
            42.994792,
            240.86
          ],
          [
            2.24993,
            42.994735,
            241.45
          ],
          [
            2.249879,
            42.994715,
            241.86
          ],
          [
            2.249839,
            42.994721,
            242.15
          ],
          [
            2.24982,
            42.994751,
            242.44
          ],
          [
            2.249831,
            42.994782,
            242.72
          ],
          [
            2.250002,
            42.994939,
            244.23
          ],
          [
            2.250029,
            42.994996,
            244.63
          ],
          [
            2.250032,
            42.995065,
            245.05
          ],
          [
            2.25,
            42.995253,
            246.02
          ],
          [
            2.249997,
            42.995347,
            246.32
          ],
          [
            2.249973,
            42.995522,
            246.52
          ],
          [
            2.249973,
            42.995608,
            246.64
          ],
          [
            2.25004,
            42.995887,
            246.58
          ],
          [
            2.250088,
            42.995926,
            246.5
          ],
          [
            2.250174,
            42.995947,
            246.42
          ],
          [
            2.250418,
            42.995961,
            246.38
          ],
          [
            2.250636,
            42.995963,
            245.47
          ],
          [
            2.25077,
            42.995998,
            244.88
          ],
          [
            2.25096,
            42.996114,
            244.43
          ]
        ]
      }
    },
    {
      "type": "Feature",
      "properties": {
        "source": "Sentier_Pech_dAlet.gpx",
        "type": "route"
      },
      "geometry": {
        "type": "LineString",
        "coordinates": [
          [
            2.254005,
            42.994503
          ],
          [
            2.252238,
            42.996464
          ],
          [
            2.252185,
            42.99658
          ],
          [
            2.251457,
            42.998586
          ],
          [
            2.251689,
            42.998424
          ],
          [
            2.252379,
            42.997694
          ],
          [
            2.255263,
            42.996471
          ],
          [
            2.255832,
            42.996688
          ],
          [
            2.257353,
            42.995794
          ],
          [
            2.258494,
            42.997283
          ],
          [
            2.257885,
            42.997778
          ],
          [
            2.257885,
            42.997778
          ],
          [
            2.257353,
            42.995794
          ],
          [
            2.255832,
            42.996688
          ],
          [
            2.255263,
            42.996471
          ],
          [
            2.253057,
            42.997052
          ],
          [
            2.252815,
            42.997175
          ],
          [
            2.252379,
            42.997694
          ],
          [
            2.251457,
            42.998586
          ],
          [
            2.252238,
            42.996464
          ],
          [
            2.250645,
            42.995154
          ],
          [
            2.25096,
            42.996114
          ]
        ]
      }
    }
  ]
}