{
  "type": "FeatureCollection",
  "features": [
    {
      "type": "Feature",
      "properties": {
        "name": "GraphHopper Track",
        "source": "Boucle_de_Raissac.gpx",
        "type": "track"
      },
      "geometry": {
        "type": "LineString",
        "coordinates": [
          [
            1.813295,
            42.941066,
            583.86
          ],
          [
            1.812618,
            42.941276,
            583.08
          ],
          [
            1.812799,
            42.94172,
            587.95
          ],
          [
            1.812879,
            42.941917,
            592.21
          ],
          [
            1.813179,
            42.942843,
            618.84
          ],
          [
            1.81316,
            42.943186,
            629.82
          ],
          [
            1.812827,
            42.943579,
            645.34
          ],
          [
            1.812857,
            42.943671,
            648.49
          ],
          [
            1.814477,
            42.94408,
            690.53
          ],
          [
            1.814608,
            42.944298,
            699.33
          ],
          [
            1.816177,
            42.945018,
            748.88
          ],
          [
            1.816411,
            42.945362,
            760.84
          ],
          [
            1.816942,
            42.946035,
            780.73
          ],
          [
            1.816952,
            42.946548,
            791.68
          ],
          [
            1.817229,
            42.946948,
            799.94
          ],
          [
            1.817489,
            42.947139,
            804.52
          ],
          [
            1.81791,
            42.947773,
            812.99
          ],
          [
            1.818047,
            42.948136,
            815.67
          ],
          [
            1.81826,
            42.948212,
            815.3
          ],
          [
            1.818118,
            42.948387,
            813.73
          ],
          [
            1.817888,
            42.94891,
            799.27
          ],
          [
            1.817693,
            42.949021,
            794.73
          ],
          [
            1.817668,
            42.949471,
            784.97
          ],
          [
            1.817859,
            42.949695,
            780.52
          ],
          [
            1.818075,
            42.949894,
            777.01
          ],
          [
            1.8185,
            42.950384,
            771.7
          ],
          [
            1.81873,
            42.950612,
            768.98
          ],
          [
            1.818811,
            42.950853,
            766.33
          ],
          [
            1.81893,
            42.951032,
            764.01
          ],
          [
            1.818973,
            42.951343,
            760.02
          ],
          [
            1.819385,
            42.951949,
            750.74
          ],
          [
            1.819722,
            42.952411,
            742.97
          ],
          [
            1.819978,
            42.95283,
            736.79
          ],
          [
            1.820733,
            42.953384,
            730.18
          ],
          [
            1.820796,
            42.953834,
            726.62
          ],
          [
            1.820857,
            42.953895,
            725.79
          ],
          [
            1.820996,
            42.9539,
            725.15
          ],
          [
            1.821204,
            42.953953,
            724.38
          ],
          [
            1.821859,
            42.954171,
            716.53
          ],
          [
            1.822891,
            42.954579,
            705.47
          ],
          [
            1.82372,
            42.954916,
            696.06
          ],
          [
            1.823986,
            42.954982,
            692.91
          ],
          [
            1.824207,
            42.955008,
            690.3
          ],
          [
            1.824446,
            42.955002,
            687.4
          ],
          [
            1.824745,
            42.954948,
            683.51
          ],
          [
            1.825558,
            42.954772,
            671.7
          ],
          [
            1.82613,
            42.95472,
            661.84
          ],
          [
            1.826416,
            42.954671,
            657.46
          ],
          [
            1.826814,
            42.954558,
            651.3
          ],
          [
            1.827456,
            42.954289,
            640.31
          ],
          [
            1.828095,
            42.953949,
            628.44
          ],
          [
            1.828288,
            42.953901,
            626.51
          ],
          [
            1.828476,
            42.953908,
            625.17
          ],
          [
            1.828862,
            42.953944,
            623.35
          ],
          [
            1.829725,
            42.954091,
            617.25
          ],
          [
            1.830104,
            42.954128,
            614.03
          ],
          [
            1.830397,
            42.954183,
            611.25
          ],
          [
            1.830588,
            42.954246,
            609.33
          ],
          [
            1.830705,
            42.954268,
            608.23
          ],
          [
            1.831039,
            42.954265,
            605.2
          ],
          [
            1.831437,
            42.954243,
            601.45
          ],
          [
            1.831674,
            42.954189,
            599.19
          ],
          [
            1.831926,
            42.954079,
            596.81
          ],
          [
            1.832132,
            42.954007,
            594.97
          ],
          [
            1.83226,
            42.953947,
            593.68
          ],
          [
            1.83238,
            42.953861,
            592.31
          ],
          [
            1.832433,
            42.953779,
            591.39
          ],
          [
            1.83244,
            42.953575,
            589.15
          ],
          [
            1.832455,
            42.953498,
            587.59
          ],
          [
            1.8325,
            42.953454,
            586.36
          ],
          [
            1.832669,
            42.953413,
            584.32
          ],
          [
            1.833223,
            42.953368,
            579.12
          ],
          [
            1.833697,
            42.953296,
            575.29
          ],
          [
            1.834509,
            42.953125,
            569.51
          ],
          [
            1.835133,
            42.953026,
            564.22
          ],
          [
            1.835305,
            42.952971,
            562.4
          ],
          [
            1.835405,
            42.952876,
            560.8
          ],
          [
            1.835487,
            42.952652,
            557.64
          ],
          [
            1.835543,
            42.952561,
            556.2
          ],
          [
            1.835593,
            42.95252,
            555.39
          ],
          [
            1.835732,
            42.952483,
            553.8
          ],
          [
            1.835732,
            42.952483,
            553.8
          ],
          [
            1.835593,
            42.95252,
            555.39
          ],
          [
            1.835543,
            42.952561,
            556.2
          ],
          [
            1.835487,
            42.952652,
            557.64
          ],
          [
            1.835405,
            42.952876,
            560.8
          ],
          [
            1.835305,
            42.952971,
            562.4
          ],
          [
            1.835133,
            42.953026,
            564.22
          ],
          [
            1.834509,
            42.953125,
            569.51
          ],
          [
            1.833697,
            42.953296,
            575.29
          ],
          [
            1.833223,
            42.953368,
            579.12
          ],
          [
            1.832669,
            42.953413,
            584.32
          ],
          [
            1.8325,
            42.953454,
            586.36
          ],
          [
            1.832455,
            42.953498,
            587.59
          ],
          [
            1.83244,
            42.953575,
            589.15
          ],
          [
            1.832433,
            42.953779,
            591.39
          ],
          [
            1.83238,
            42.953861,
            592.31
          ],
          [
            1.83226,
            42.953947,
            593.68
          ],
          [
            1.832132,
            42.954007,
            594.97
          ],
          [
            1.831926,
            42.954079,
            596.81
          ],
          [
            1.831674,
            42.954189,
            599.19
          ],
          [
            1.831437,
            42.954243,
            601.45
          ],
          [
            1.831039,
            42.954265,
            605.2
          ],
          [
            1.830705,
            42.954268,
            608.23
          ],
          [
            1.830588,
            42.954246,
            609.33
          ],
          [
            1.830397,
            42.954183,
            611.25
          ],
          [
            1.830104,
            42.954128,
            614.03
          ],
          [
            1.829725,
            42.954091,
            617.25
          ],
          [
            1.828862,
            42.953944,
            623.35
          ],
          [
            1.828476,
            42.953908,
            625.17
          ],
          [
            1.828288,
            42.953901,
            626.51
          ],
          [
            1.828095,
            42.953949,
            628.44
          ],
          [
            1.827456,
            42.954289,
            640.31
          ],
          [
            1.826814,
            42.954558,
            651.3
          ],
          [
            1.826416,
            42.954671,
            657.46
          ],
          [
            1.82613,
            42.95472,
            661.84
          ],
          [
            1.825937,
            42.954735,
            665.47
          ],
          [
            1.825558,
            42.954772,
            671.7
          ],
          [
            1.824745,
            42.954948,
            683.51
          ],
          [
            1.824446,
            42.955002,
            687.4
          ],
          [
            1.824207,
            42.955008,
            690.3
          ],
          [
            1.823986,
            42.954982,
            692.91
          ],
          [
            1.82372,
            42.954916,
            696.06
          ],
          [
            1.822891,
            42.954579,
            705.47
          ],
          [
            1.821859,
            42.954171,
            716.53
          ],
          [
            1.821204,
            42.953953,
            724.38
          ],
          [
            1.820996,
            42.9539,
            725.15
          ],
          [
            1.820857,
            42.953895,
            725.79
          ],
          [
            1.820796,
            42.953834,
            726.62
          ],
          [
            1.820733,
            42.953384,
            730.18
          ],
          [
            1.819978,
            42.95283,
            736.79
          ],
          [
            1.819722,
            42.952411,
            742.97
          ],
          [
            1.819385,
            42.951949,
            750.74
          ],
          [
            1.818973,
            42.951343,
            760.02
          ],
          [
            1.81893,
            42.951032,
            764.01
          ],
          [
            1.818811,
            42.950853,
            766.33
          ],
          [
            1.81873,
            42.950612,
            768.98
          ],
          [
            1.8185,
            42.950384,
            771.7
          ],
          [
            1.818075,
            42.949894,
            777.01
          ],
          [
            1.817859,
            42.949695,
            780.52
          ],
          [
            1.817668,
            42.949471,
            784.97
          ],
          [
            1.817693,
            42.949021,
            794.73
          ],
          [
            1.817888,
            42.94891,
            799.27
          ],
          [
            1.818118,
            42.948387,
            813.73
          ],
          [
            1.81826,
            42.948212,
            815.3
          ],
          [
            1.818047,
            42.948136,
            815.67
          ],
          [
            1.81791,
            42.947773,
            812.99
          ],
          [
            1.817489,
            42.947139,
            804.52
          ],
          [
            1.817229,
            42.946948,
            799.94
          ],
          [
            1.816952,
            42.946548,
            791.68
          ],
          [
            1.816942,
            42.946035,
            780.73
          ],
          [
            1.816411,
            42.945362,
            760.84
          ],
          [
            1.816177,
            42.945018,
            748.88
          ],
          [
            1.814608,
            42.944298,
            699.33
          ],
          [
            1.814477,
            42.94408,
            690.53
          ],
          [
            1.812857,
            42.943671,
            648.49
          ],
          [
            1.812827,
            42.943579,
            645.34
          ],
          [
            1.81316,
            42.943186,
            629.82
          ],
          [
            1.813179,
            42.942843,
            618.84
          ],
          [
            1.812879,
            42.941917,
            592.21
          ],
          [
            1.812618,
            42.941276,
            583.08
          ],
          [
            1.813295,
            42.941066,
            583.86
          ]
        ]
      }
    },
    {
      "type": "Feature",
      "properties": {
        "source": "Boucle_de_Raissac.gpx",
        "type": "route"
      },
      "geometry": {
        "type": "LineString",
        "coordinates": [
          [
            1.813295,
            42.941066
          ],
          [
            1.812618,
            42.941276
          ],
          [
            1.812799,
            42.94172
          ],
          [
            1.812879,
            42.941917
          ],
          [
            1.81826,
            42.948212
          ],
          [
            1.820857,
            42.953895
          ],
          [
            1.835732,
            42.952483
          ],
          [
            1.835732,
            42.952483
          ],
          [
            1.825937,
            42.954735
          ],
          [
            1.820857,
            42.953895
          ],
          [
            1.81826,
            42.948212
          ],
          [
            1.812618,
            42.941276
          ],
          [
            1.813295,
            42.941066
          ]
        ]
      }
    }
  ]
}