{
  "type": "FeatureCollection",
  "features": [
    {
      "type": "Feature",
      "properties": {
        "name": "GraphHopper Track",
        "source": "Patrimoine_Verdun.gpx",
        "type": "track"
      },
      "geometry": {
        "type": "LineString",
        "coordinates": [
          [
            1.234429,
            43.853491,
            100.75
          ],
          [
            1.234397,
            43.8537,
            100.9
          ],
          [
            1.234346,
            43.853717,
            100.83
          ],
          [
            1.234196,
            43.853715,
            101.0
          ],
          [
            1.234214,
            43.853797,
            100.94
          ],
          [
            1.234649,
            43.854461,
            100.91
          ],
          [
            1.234822,
            43.854417,
            101.45
          ],
          [
            1.235018,
            43.854405,
            105.54
          ],
          [
            1.235282,
            43.854406,
            107.48
          ],
          [
            1.23537,
            43.854406,
            107.73
          ],
          [
            1.235429,
            43.854415,
            107.85
          ],
          [
            1.235536,
            43.854463,
            107.16
          ],
          [
            1.235536,
            43.854463,
            107.16
          ],
          [
            1.235429,
            43.854415,
            107.85
          ],
          [
            1.23537,
            43.854406,
            107.73
          ],
          [
            1.235282,
            43.854406,
            107.48
          ],
          [
            1.235018,
            43.854405,
            105.54
          ],
          [
            1.234822,
            43.854417,
            101.45
          ],
          [
            1.234523,
            43.854492,
            100.94
          ],
          [
            1.233332,
            43.854713,
            100.95
          ],
          [
            1.232256,
            43.854665,
            104.76
          ],
          [
            1.232039,
            43.854596,
            105.72
          ],
          [
            1.23171,
            43.854435,
            106.9
          ],
          [
            1.231268,
            43.854319,
            108.0
          ],
          [
            1.231223,
            43.854734,
            109.48
          ],
          [
            1.231208,
            43.855137,
            110.68
          ],
          [
            1.231241,
            43.855753,
            109.79
          ],
          [
            1.231236,
            43.855979,
            110.07
          ],
          [
            1.231145,
            43.856459,
            110.86
          ]
        ]
      }
    },
    {
      "type": "Feature",
      "properties": {
        "source": "Patrimoine_Verdun.gpx",
        "type": "route"
      },
      "geometry": {
        "type": "LineString",
        "coordinates": [
          [
            1.234429,
            43.853491
          ],
          [
            1.234397,
            43.8537
          ],
          [
            1.234196,
            43.853715
          ],
          [
            1.234649,
            43.854461
          ],
          [
            1.235282,
            43.854406
          ],
          [
            1.235536,
            43.854463
          ],
          [
            1.235536,
            43.854463
          ],
          [
            1.235282,
            43.854406
          ],
          [
            1.23171,
            43.854435
          ],
          [
            1.231268,
            43.854319
          ],
          [
            1.231145,
            43.856459
          ]
        ]
      }
    }
  ]
}