{
  "type": "FeatureCollection",
  "features": [
    {
      "type": "Feature",
      "properties": {
        "name": "GraphHopper Track",
        "source": "Cap_de_Salières.gpx",
        "type": "track"
      },
      "geometry": {
        "type": "LineString",
        "coordinates": [
          [
            0.453498,
            42.801518,
            1492.89
          ],
          [
            0.454667,
            42.801604,
            1503.19
          ],
          [
            0.454908,
            42.80158,
            1505.25
          ],
          [
            0.455407,
            42.801486,
            1509.63
          ],
          [
            0.4559,
            42.801454,
            1514.35
          ],
          [
            0.456426,
            42.801486,
            1520.84
          ],
          [
            0.457043,
            42.801482,
            1529.03
          ],
          [
            0.45737,
            42.801521,
            1533.58
          ],
          [
            0.457657,
            42.801676,
            1536.62
          ],
          [
            0.457766,
            42.801748,
            1538.3
          ],
          [
            0.457782,
            42.801794,
            1539.34
          ],
          [
            0.458076,
            42.80182,
            1541.96
          ],
          [
            0.458104,
            42.801776,
            1541.79
          ],
          [
            0.458235,
            42.801755,
            1542.88
          ],
          [
            0.45864,
            42.801774,
            1546.33
          ],
          [
            0.458735,
            42.801812,
            1547.21
          ],
          [
            0.458745,
            42.801862,
            1547.63
          ],
          [
            0.45934,
            42.801904,
            1552.55
          ],
          [
            0.460596,
            42.802062,
            1558.01
          ],
          [
            0.460582,
            42.802096,
            1558.69
          ],
          [
            0.460492,
            42.802162,
            1559.79
          ],
          [
            0.460636,
            42.802162,
            1560.5
          ],
          [
            0.460857,
            42.802195,
            1561.26
          ],
          [
            0.461286,
            42.802236,
            1562.38
          ],
          [
            0.461666,
            42.802236,
            1563.2
          ],
          [
            0.461732,
            42.802186,
            1563.01
          ],
          [
            0.462299,
            42.80225,
            1567.22
          ],
          [
            0.462272,
            42.802302,
            1567.22
          ],
          [
            0.462245,
            42.802328,
            1567.96
          ],
          [
            0.462161,
            42.802371,
            1569.24
          ],
          [
            0.461565,
            42.802516,
            1575.51
          ],
          [
            0.460837,
            42.802595,
            1580.53
          ],
          [
            0.460732,
            42.802585,
            1580.99
          ],
          [
            0.460541,
            42.802597,
            1582.01
          ],
          [
            0.460298,
            42.802632,
            1583.44
          ],
          [
            0.460036,
            42.802636,
            1584.62
          ],
          [
            0.459885,
            42.802621,
            1585.51
          ],
          [
            0.459789,
            42.802629,
            1586.13
          ],
          [
            0.459629,
            42.802709,
            1587.32
          ],
          [
            0.45959,
            42.802712,
            1587.59
          ],
          [
            0.459508,
            42.802689,
            1588.25
          ],
          [
            0.459429,
            42.802682,
            1588.87
          ],
          [
            0.4593,
            42.802686,
            1590.02
          ],
          [
            0.459181,
            42.802717,
            1591.34
          ],
          [
            0.459088,
            42.802776,
            1592.77
          ],
          [
            0.459046,
            42.802786,
            1593.3
          ],
          [
            0.459006,
            42.802781,
            1593.78
          ],
          [
            0.458947,
            42.802755,
            1594.56
          ],
          [
            0.45882,
            42.802755,
            1595.97
          ],
          [
            0.458248,
            42.802793,
            1601.86
          ],
          [
            0.458064,
            42.802822,
            1603.52
          ],
          [
            0.458039,
            42.802837,
            1603.84
          ],
          [
            0.458038,
            42.802852,
            1604.05
          ],
          [
            0.458057,
            42.802868,
            1604.36
          ],
          [
            0.458088,
            42.802871,
            1604.72
          ],
          [
            0.458226,
            42.802848,
            1606.4
          ],
          [
            0.458304,
            42.802851,
            1607.3
          ],
          [
            0.458515,
            42.802895,
            1609.38
          ],
          [
            0.458863,
            42.802988,
            1613.11
          ],
          [
            0.458982,
            42.80306,
            1614.71
          ],
          [
            0.459025,
            42.803075,
            1615.19
          ],
          [
            0.459082,
            42.803081,
            1615.8
          ],
          [
            0.459168,
            42.803062,
            1616.8
          ],
          [
            0.459289,
            42.80305,
            1618.28
          ],
          [
            0.459397,
            42.80307,
            1619.71
          ],
          [
            0.459557,
            42.803169,
            1622.46
          ],
          [
            0.459603,
            42.803181,
            1623.12
          ],
          [
            0.459671,
            42.803176,
            1624.04
          ],
          [
            0.459736,
            42.80316,
            1624.94
          ],
          [
            0.459795,
            42.803161,
            1625.69
          ],
          [
            0.459917,
            42.803181,
            1627.11
          ],
          [
            0.460145,
            42.803247,
            1630.23
          ],
          [
            0.460522,
            42.803313,
            1635.35
          ],
          [
            0.461349,
            42.803477,
            1644.63
          ],
          [
            0.46236,
            42.80363,
            1653.37
          ],
          [
            0.462381,
            42.803639,
            1653.55
          ],
          [
            0.46239,
            42.803658,
            1653.77
          ],
          [
            0.462363,
            42.803682,
            1654.1
          ],
          [
            0.4619,
            42.803699,
            1658.04
          ],
          [
            0.460442,
            42.803838,
            1672.43
          ],
          [
            0.460047,
            42.80384,
            1676.07
          ],
          [
            0.459514,
            42.80387,
            1680.74
          ],
          [
            0.458685,
            42.80395,
            1688.21
          ],
          [
            0.4584,
            42.803985,
            1690.85
          ],
          [
            0.458297,
            42.803984,
            1691.8
          ],
          [
            0.458179,
            42.803967,
            1693.0
          ],
          [
            0.457842,
            42.803983,
            1696.76
          ],
          [
            0.457482,
            42.803974,
            1701.11
          ],
          [
            0.457431,
            42.803983,
            1701.74
          ],
          [
            0.457367,
            42.80402,
            1702.66
          ],
          [
            0.457118,
            42.804207,
            1706.73
          ],
          [
            0.456879,
            42.804457,
            1712.21
          ],
          [
            0.456763,
            42.804555,
            1713.42
          ],
          [
            0.456733,
            42.804599,
            1713.37
          ],
          [
            0.456735,
            42.804642,
            1713.66
          ],
          [
            0.45678,
            42.804714,
            1715.71
          ],
          [
            0.456808,
            42.804705,
            1716.48
          ],
          [
            0.456868,
            42.804719,
            1717.78
          ],
          [
            0.456895,
            42.804768,
            1718.24
          ],
          [
            0.456909,
            42.804912,
            1720.41
          ],
          [
            0.456971,
            42.804946,
            1721.29
          ],
          [
            0.45704,
            42.804946,
            1722.14
          ],
          [
            0.457112,
            42.804888,
            1723.55
          ],
          [
            0.457122,
            42.804788,
            1725.5
          ],
          [
            0.457189,
            42.804716,
            1727.09
          ],
          [
            0.457299,
            42.804683,
            1728.61
          ],
          [
            0.457727,
            42.80465,
            1733.88
          ],
          [
            0.458276,
            42.804635,
            1740.18
          ],
          [
            0.45888,
            42.804655,
            1744.42
          ],
          [
            0.459408,
            42.804657,
            1742.52
          ],
          [
            0.459422,
            42.804712,
            1744.82
          ],
          [
            0.459392,
            42.804797,
            1747.85
          ],
          [
            0.459325,
            42.804864,
            1750.41
          ],
          [
            0.45926,
            42.804904,
            1752.28
          ],
          [
            0.45919,
            42.805405,
            1767.99
          ],
          [
            0.459179,
            42.805553,
            1772.07
          ],
          [
            0.459148,
            42.805724,
            1776.34
          ],
          [
            0.459225,
            42.80594,
            1781.15
          ],
          [
            0.459179,
            42.80627,
            1787.37
          ],
          [
            0.459065,
            42.806497,
            1790.72
          ],
          [
            0.458857,
            42.806791,
            1792.78
          ],
          [
            0.458721,
            42.806947,
            1792.73
          ],
          [
            0.458605,
            42.807038,
            1792.31
          ],
          [
            0.458466,
            42.807209,
            1792.32
          ],
          [
            0.457954,
            42.807488,
            1781.36
          ],
          [
            0.457987,
            42.807519,
            1779.48
          ],
          [
            0.457977,
            42.807661,
            1773.13
          ],
          [
            0.457826,
            42.807968,
            1768.81
          ],
          [
            0.457858,
            42.80812,
            1766.54
          ],
          [
            0.457867,
            42.808356,
            1768.49
          ],
          [
            0.457762,
            42.808529,
            1771.9
          ],
          [
            0.457754,
            42.808586,
            1771.83
          ],
          [
            0.457796,
            42.808653,
            1772.14
          ],
          [
            0.458,
            42.808873,
            1774.31
          ],
          [
            0.458094,
            42.808996,
            1775.19
          ],
          [
            0.45801,
            42.809331,
            1777.33
          ],
          [
            0.457728,
            42.809814,
            1780.71
          ],
          [
            0.457628,
            42.809905,
            1781.34
          ],
          [
            0.457647,
            42.81001,
            1781.92
          ],
          [
            0.457596,
            42.810146,
            1783.07
          ],
          [
            0.457493,
            42.810313,
            1784.46
          ],
          [
            0.45742,
            42.810379,
            1784.98
          ],
          [
            0.457391,
            42.810498,
            1785.34
          ],
          [
            0.457317,
            42.810606,
            1785.66
          ],
          [
            0.457215,
            42.810632,
            1786.07
          ],
          [
            0.457151,
            42.810662,
            1786.34
          ],
          [
            0.45702,
            42.810871,
            1787.3
          ],
          [
            0.457071,
            42.810989,
            1788.11
          ],
          [
            0.456902,
            42.811202,
            1790.61
          ],
          [
            0.456937,
            42.811308,
            1791.57
          ],
          [
            0.45694,
            42.811404,
            1792.55
          ],
          [
            0.45694,
            42.811404,
            1792.55
          ],
          [
            0.456854,
            42.811482,
            1793.71
          ],
          [
            0.456729,
            42.811693,
            1797.21
          ],
          [
            0.456636,
            42.81193,
            1800.95
          ],
          [
            0.456601,
            42.812237,
            1806.68
          ],
          [
            0.456556,
            42.81246,
            1811.06
          ],
          [
            0.456409,
            42.812596,
            1814.75
          ],
          [
            0.456393,
            42.812749,
            1818.37
          ],
          [
            0.456425,
            42.812871,
            1821.5
          ],
          [
            0.456473,
            42.812991,
            1824.86
          ],
          [
            0.456619,
            42.813159,
            1830.7
          ],
          [
            0.456709,
            42.813317,
            1835.69
          ],
          [
            0.456818,
            42.813454,
            1840.34
          ],
          [
            0.456985,
            42.813692,
            1847.85
          ],
          [
            0.457006,
            42.81375,
            1849.53
          ],
          [
            0.457038,
            42.813796,
            1850.97
          ],
          [
            0.457031,
            42.813847,
            1852.43
          ],
          [
            0.457049,
            42.813942,
            1855.14
          ],
          [
            0.457206,
            42.814218,
            1860.76
          ],
          [
            0.457294,
            42.814453,
            1864.84
          ],
          [
            0.457288,
            42.814639,
            1867.46
          ],
          [
            0.457364,
            42.814933,
            1871.77
          ],
          [
            0.457437,
            42.815097,
            1873.63
          ],
          [
            0.457516,
            42.815192,
            1874.63
          ],
          [
            0.457717,
            42.815354,
            1871.24
          ],
          [
            0.457733,
            42.815417,
            1869.28
          ],
          [
            0.457713,
            42.815524,
            1866.13
          ],
          [
            0.457665,
            42.815666,
            1862.56
          ],
          [
            0.4576,
            42.815757,
            1860.25
          ],
          [
            0.457471,
            42.815864,
            1857.14
          ],
          [
            0.457294,
            42.815988,
            1853.95
          ],
          [
            0.457217,
            42.816177,
            1851.25
          ],
          [
            0.45693,
            42.816703,
            1848.18
          ],
          [
            0.456851,
            42.816954,
            1848.93
          ],
          [
            0.456865,
            42.817059,
            1849.4
          ],
          [
            0.456819,
            42.817168,
            1849.79
          ],
          [
            0.456865,
            42.817367,
            1850.2
          ],
          [
            0.456846,
            42.817576,
            1850.04
          ],
          [
            0.45678,
            42.81782,
            1849.22
          ],
          [
            0.456713,
            42.817938,
            1848.53
          ],
          [
            0.456678,
            42.818284,
            1846.18
          ],
          [
            0.456659,
            42.81853,
            1843.92
          ],
          [
            0.456686,
            42.818705,
            1843.08
          ],
          [
            0.456681,
            42.818857,
            1842.72
          ],
          [
            0.456898,
            42.819289,
            1847.24
          ],
          [
            0.457638,
            42.821542,
            1873.35
          ],
          [
            0.457873,
            42.822392,
            1895.75
          ],
          [
            0.457898,
            42.82251,
            1900.06
          ],
          [
            0.458025,
            42.822649,
            1906.35
          ],
          [
            0.458012,
            42.822905,
            1916.66
          ],
          [
            0.458096,
            42.823093,
            1924.63
          ],
          [
            0.458088,
            42.823127,
            1925.93
          ],
          [
            0.458126,
            42.823251,
            1930.82
          ],
          [
            0.458674,
            42.823079,
            1919.47
          ],
          [
            0.460026,
            42.823157,
            1894.81
          ],
          [
            0.460568,
            42.82298,
            1886.04
          ],
          [
            0.461039,
            42.82287,
            1879.9
          ],
          [
            0.461758,
            42.822634,
            1870.66
          ],
          [
            0.46266,
            42.822217,
            1853.31
          ],
          [
            0.463024,
            42.821914,
            1839.72
          ],
          [
            0.463368,
            42.821717,
            1826.07
          ],
          [
            0.463534,
            42.82156,
            1816.58
          ],
          [
            0.463893,
            42.821178,
            1793.08
          ],
          [
            0.464189,
            42.821052,
            1781.08
          ],
          [
            0.464344,
            42.820804,
            1769.14
          ],
          [
            0.464832,
            42.820816,
            1755.34
          ],
          [
            0.465149,
            42.820769,
            1747.54
          ],
          [
            0.465218,
            42.820702,
            1745.04
          ],
          [
            0.464913,
            42.82023,
            1730.48
          ],
          [
            0.464816,
            42.819911,
            1722.18
          ],
          [
            0.464832,
            42.819549,
            1713.02
          ],
          [
            0.465176,
            42.819207,
            1701.93
          ],
          [
            0.466157,
            42.818577,
            1678.23
          ],
          [
            0.466865,
            42.818369,
            1663.47
          ],
          [
            0.467589,
            42.818337,
            1647.59
          ],
          [
            0.467927,
            42.818278,
            1640.21
          ],
          [
            0.469816,
            42.817523,
            1603.71
          ]
        ]
      }
    },
    {
      "type": "Feature",
      "properties": {
        "source": "Cap_de_Salières.gpx",
        "type": "route"
      },
      "geometry": {
        "type": "LineString",
        "coordinates": [
          [
            0.453498,
            42.801518
          ],
          [
            0.457782,
            42.801794
          ],
          [
            0.460596,
            42.802062
          ],
          [
            0.460492,
            42.802162
          ],
          [
            0.461732,
            42.802186
          ],
          [
            0.462299,
            42.80225
          ],
          [
            0.45678,
            42.804714
          ],
          [
            0.459408,
            42.804657
          ],
          [
            0.457954,
            42.807488
          ],
          [
            0.45694,
            42.811404
          ],
          [
            0.45694,
            42.811404
          ],
          [
            0.458126,
            42.823251
          ],
          [
            0.469816,
            42.817523
          ]
        ]
      }
    }
  ]
}