{
  "type": "FeatureCollection",
  "features": [
    {
      "type": "Feature",
      "properties": {
        "name": "GraphHopper Track",
        "source": "Passerelle_Péquerin.gpx",
        "type": "track"
      },
      "geometry": {
        "type": "LineString",
        "coordinates": [
          [
            0.58491,
            42.747955,
            1027.03
          ],
          [
            0.58481,
            42.748014,
            1027.98
          ],
          [
            0.584625,
            42.748091,
            1029.53
          ],
          [
            0.583979,
            42.748331,
            1034.67
          ],
          [
            0.583568,
            42.748445,
            1037.83
          ],
          [
            0.583413,
            42.748478,
            1039.08
          ],
          [
            0.582998,
            42.748512,
            1042.53
          ],
          [
            0.582249,
            42.748536,
            1048.79
          ],
          [
            0.581413,
            42.748603,
            1054.98
          ],
          [
            0.581228,
            42.748629,
            1056.18
          ],
          [
            0.580976,
            42.748677,
            1057.72
          ],
          [
            0.580804,
            42.748696,
            1058.67
          ],
          [
            0.580267,
            42.748702,
            1061.49
          ],
          [
            0.580121,
            42.748694,
            1062.15
          ],
          [
            0.57997,
            42.748674,
            1062.78
          ],
          [
            0.579548,
            42.748579,
            1064.18
          ],
          [
            0.579419,
            42.748573,
            1064.47
          ],
          [
            0.578806,
            42.748672,
            1065.17
          ],
          [
            0.578601,
            42.748718,
            1065.13
          ],
          [
            0.578436,
            42.748771,
            1065.0
          ],
          [
            0.578027,
            42.749007,
            1064.72
          ],
          [
            0.577899,
            42.749062,
            1065.56
          ],
          [
            0.577725,
            42.749113,
            1066.19
          ],
          [
            0.577521,
            42.749161,
            1066.24
          ],
          [
            0.577355,
            42.749184,
            1066.22
          ],
          [
            0.577192,
            42.749187,
            1066.37
          ],
          [
            0.577092,
            42.749177,
            1066.51
          ],
          [
            0.57695,
            42.74914,
            1066.71
          ],
          [
            0.576783,
            42.749067,
            1067.02
          ],
          [
            0.576415,
            42.74886,
            1068.3
          ],
          [
            0.576222,
            42.748771,
            1069.4
          ],
          [
            0.576058,
            42.748719,
            1070.4
          ],
          [
            0.575869,
            42.748678,
            1071.56
          ],
          [
            0.575399,
            42.748599,
            1074.55
          ],
          [
            0.57522,
            42.748578,
            1075.87
          ],
          [
            0.575013,
            42.748569,
            1077.23
          ],
          [
            0.57484,
            42.748578,
            1078.02
          ],
          [
            0.574227,
            42.748641,
            1080.29
          ],
          [
            0.57408,
            42.748645,
            1080.63
          ],
          [
            0.573952,
            42.748638,
            1080.78
          ],
          [
            0.573839,
            42.748615,
            1080.75
          ],
          [
            0.573757,
            42.748586,
            1080.54
          ],
          [
            0.573069,
            42.748249,
            1085.86
          ],
          [
            0.573097,
            42.748145,
            1083.7
          ],
          [
            0.572998,
            42.747809,
            1075.32
          ],
          [
            0.573122,
            42.747937,
            1074.77
          ],
          [
            0.573212,
            42.747982,
            1073.34
          ],
          [
            0.573538,
            42.747858,
            1066.48
          ],
          [
            0.573756,
            42.747637,
            1068.24
          ],
          [
            0.575096,
            42.74713,
            1066.99
          ],
          [
            0.576846,
            42.747156,
            1066.88
          ],
          [
            0.578233,
            42.747343,
            1059.93
          ],
          [
            0.578927,
            42.747226,
            1055.25
          ],
          [
            0.580314,
            42.74699,
            1064.27
          ],
          [
            0.583655,
            42.746345,
            1071.19
          ],
          [
            0.584307,
            42.745781,
            1081.14
          ],
          [
            0.586414,
            42.744062,
            1132.01
          ],
          [
            0.586999,
            42.743657,
            1152.49
          ],
          [
            0.587083,
            42.742969,
            1174.47
          ],
          [
            0.5873,
            42.742613,
            1183.62
          ],
          [
            0.587183,
            42.742134,
            1191.84
          ],
          [
            0.58745,
            42.741962,
            1196.72
          ],
          [
            0.588337,
            42.741839,
            1208.41
          ],
          [
            0.588685,
            42.741897,
            1214.39
          ],
          [
            0.588685,
            42.741897,
            1214.39
          ],
          [
            0.588337,
            42.741839,
            1208.41
          ],
          [
            0.58745,
            42.741962,
            1196.72
          ],
          [
            0.587183,
            42.742134,
            1191.84
          ],
          [
            0.5873,
            42.742613,
            1183.62
          ],
          [
            0.587083,
            42.742969,
            1174.47
          ],
          [
            0.586999,
            42.743657,
            1152.49
          ],
          [
            0.586414,
            42.744062,
            1132.01
          ],
          [
            0.584307,
            42.745781,
            1081.14
          ],
          [
            0.583655,
            42.746345,
            1071.19
          ],
          [
            0.580314,
            42.74699,
            1064.27
          ],
          [
            0.578927,
            42.747226,
            1055.25
          ],
          [
            0.578233,
            42.747343,
            1059.93
          ],
          [
            0.576846,
            42.747156,
            1066.88
          ],
          [
            0.575096,
            42.74713,
            1066.99
          ],
          [
            0.573756,
            42.747637,
            1068.24
          ],
          [
            0.573538,
            42.747858,
            1066.48
          ],
          [
            0.573212,
            42.747982,
            1073.34
          ],
          [
            0.573122,
            42.747937,
            1074.77
          ],
          [
            0.572998,
            42.747809,
            1075.32
          ],
          [
            0.573097,
            42.748145,
            1083.7
          ],
          [
            0.573069,
            42.748249,
            1085.86
          ],
          [
            0.573757,
            42.748586,
            1080.54
          ],
          [
            0.573839,
            42.748615,
            1080.75
          ],
          [
            0.573952,
            42.748638,
            1080.78
          ],
          [
            0.57408,
            42.748645,
            1080.63
          ],
          [
            0.574227,
            42.748641,
            1080.29
          ],
          [
            0.57484,
            42.748578,
            1078.02
          ],
          [
            0.575013,
            42.748569,
            1077.23
          ],
          [
            0.57522,
            42.748578,
            1075.87
          ],
          [
            0.575399,
            42.748599,
            1074.55
          ],
          [
            0.575869,
            42.748678,
            1071.56
          ],
          [
            0.576058,
            42.748719,
            1070.4
          ],
          [
            0.576222,
            42.748771,
            1069.4
          ],
          [
            0.576415,
            42.74886,
            1068.3
          ],
          [
            0.576783,
            42.749067,
            1067.02
          ],
          [
            0.57695,
            42.74914,
            1066.71
          ],
          [
            0.577092,
            42.749177,
            1066.51
          ],
          [
            0.577192,
            42.749187,
            1066.37
          ],
          [
            0.577355,
            42.749184,
            1066.22
          ],
          [
            0.577521,
            42.749161,
            1066.24
          ],
          [
            0.577725,
            42.749113,
            1066.19
          ],
          [
            0.577899,
            42.749062,
            1065.56
          ],
          [
            0.578027,
            42.749007,
            1064.72
          ],
          [
            0.578436,
            42.748771,
            1065.0
          ],
          [
            0.578601,
            42.748718,
            1065.13
          ],
          [
            0.578806,
            42.748672,
            1065.17
          ],
          [
            0.579419,
            42.748573,
            1064.47
          ],
          [
            0.579548,
            42.748579,
            1064.18
          ],
          [
            0.57997,
            42.748674,
            1062.78
          ],
          [
            0.580121,
            42.748694,
            1062.15
          ],
          [
            0.580267,
            42.748702,
            1061.49
          ],
          [
            0.580804,
            42.748696,
            1058.67
          ],
          [
            0.580976,
            42.748677,
            1057.72
          ],
          [
            0.581228,
            42.748629,
            1056.18
          ],
          [
            0.581413,
            42.748603,
            1054.98
          ],
          [
            0.582249,
            42.748536,
            1048.79
          ],
          [
            0.582998,
            42.748512,
            1042.53
          ],
          [
            0.583413,
            42.748478,
            1039.08
          ],
          [
            0.583568,
            42.748445,
            1037.83
          ],
          [
            0.583979,
            42.748331,
            1034.67
          ],
          [
            0.584625,
            42.748091,
            1029.53
          ],
          [
            0.58481,
            42.748014,
            1027.98
          ],
          [
            0.58491,
            42.747955,
            1027.03
          ]
        ]
      }
    },
    {
      "type": "Feature",
      "properties": {
        "source": "Passerelle_Péquerin.gpx",
        "type": "route"
      },
      "geometry": {
        "type": "LineString",
        "coordinates": [
          [
            0.58491,
            42.747955
          ],
          [
            0.573069,
            42.748249
          ],
          [
            0.572998,
            42.747809
          ],
          [
            0.588685,
            42.741897
          ],
          [
            0.588685,
            42.741897
          ],
          [
            0.572998,
            42.747809
          ],
          [
            0.573069,
            42.748249
          ],
          [
            0.58491,
            42.747955
          ]
        ]
      }
    }
  ]
}