{
  "type": "FeatureCollection",
  "features": [
    {
      "type": "Feature",
      "properties": {
        "name": "GraphHopper Track",
        "source": "Plateau_du_Lienz.gpx",
        "type": "track"
      },
      "geometry": {
        "type": "LineString",
        "coordinates": [
          [
            0.148182,
            43.06404,
            549.31
          ],
          [
            0.148414,
            43.064119,
            549.85
          ],
          [
            0.148952,
            43.064357,
            550.0
          ],
          [
            0.14884,
            43.064918,
            549.74
          ],
          [
            0.148914,
            43.064859,
            549.94
          ],
          [
            0.149314,
            43.064846,
            550.24
          ],
          [
            0.149667,
            43.064813,
            551.0
          ],
          [
            0.149646,
            43.064871,
            551.0
          ],
          [
            0.149639,
            43.064947,
            550.98
          ],
          [
            0.149688,
            43.065004,
            550.91
          ],
          [
            0.149738,
            43.065002,
            550.91
          ],
          [
            0.149838,
            43.065021,
            550.81
          ],
          [
            0.150655,
            43.065377,
            549.08
          ],
          [
            0.150565,
            43.065522,
            549.04
          ],
          [
            0.150565,
            43.065522,
            549.04
          ],
          [
            0.150655,
            43.065377,
            549.08
          ],
          [
            0.151443,
            43.065583,
            547.41
          ],
          [
            0.151747,
            43.06568,
            547.19
          ],
          [
            0.152379,
            43.065944,
            547.0
          ],
          [
            0.15251,
            43.066016,
            546.05
          ],
          [
            0.152854,
            43.066246,
            546.06
          ],
          [
            0.153368,
            43.066838,
            545.79
          ],
          [
            0.154173,
            43.067637,
            545.0
          ],
          [
            0.155035,
            43.068546,
            544.0
          ],
          [
            0.155874,
            43.069408,
            542.0
          ],
          [
            0.156452,
            43.069978,
            541.62
          ],
          [
            0.156491,
            43.070029,
            541.84
          ],
          [
            0.156546,
            43.070013,
            541.98
          ],
          [
            0.156575,
            43.070017,
            542.0
          ],
          [
            0.156621,
            43.070044,
            542.0
          ],
          [
            0.156955,
            43.069893,
            542.54
          ],
          [
            0.157028,
            43.069833,
            542.97
          ],
          [
            0.15712,
            43.069847,
            543.05
          ],
          [
            0.158182,
            43.06976,
            545.64
          ],
          [
            0.159627,
            43.069724,
            552.35
          ],
          [
            0.159814,
            43.069711,
            553.77
          ],
          [
            0.159943,
            43.069683,
            554.86
          ],
          [
            0.160055,
            43.069638,
            555.94
          ],
          [
            0.160118,
            43.069598,
            556.43
          ],
          [
            0.160166,
            43.069552,
            556.5
          ],
          [
            0.160233,
            43.069623,
            557.36
          ],
          [
            0.160214,
            43.06974,
            557.85
          ],
          [
            0.160207,
            43.06991,
            559.28
          ],
          [
            0.160385,
            43.070338,
            564.94
          ],
          [
            0.160461,
            43.070421,
            566.16
          ],
          [
            0.160536,
            43.070472,
            567.28
          ]
        ]
      }
    },
    {
      "type": "Feature",
      "properties": {
        "source": "Plateau_du_Lienz.gpx",
        "type": "route"
      },
      "geometry": {
        "type": "LineString",
        "coordinates": [
          [
            0.148182,
            43.06404
          ],
          [
            0.148952,
            43.064357
          ],
          [
            0.14884,
            43.064918
          ],
          [
            0.149667,
            43.064813
          ],
          [
            0.149688,
            43.065004
          ],
          [
            0.149838,
            43.065021
          ],
          [
            0.150655,
            43.065377
          ],
          [
            0.150565,
            43.065522
          ],
          [
            0.150565,
            43.065522
          ],
          [
            0.150655,
            43.065377
          ],
          [
            0.152379,
            43.065944
          ],
          [
            0.156491,
            43.070029
          ],
          [
            0.157028,
            43.069833
          ],
          [
            0.160166,
            43.069552
          ],
          [
            0.160536,
            43.070472
          ]
        ]
      }
    }
  ]
}