{
  "type": "FeatureCollection",
  "features": [
    {
      "type": "Feature",
      "properties": {
        "name": "GraphHopper Track",
        "source": "Moulins_Anciens.gpx",
        "type": "track"
      },
      "geometry": {
        "type": "LineString",
        "coordinates": [
          [
            1.831913,
            44.646674,
            304.46
          ],
          [
            1.830367,
            44.645555,
            300.96
          ],
          [
            1.829028,
            44.644554,
            302.14
          ],
          [
            1.827942,
            44.643842,
            302.18
          ],
          [
            1.827625,
            44.643685,
            302.05
          ],
          [
            1.824099,
            44.642282,
            303.21
          ],
          [
            1.824099,
            44.642282,
            303.21
          ],
          [
            1.827625,
            44.643685,
            302.05
          ],
          [
            1.827942,
            44.643842,
            302.18
          ],
          [
            1.829028,
            44.644554,
            302.14
          ],
          [
            1.830367,
            44.645555,
            300.96
          ],
          [
            1.831913,
            44.646674,
            304.46
          ]
        ]
      }
    },
    {
      "type": "Feature",
      "properties": {
        "source": "Moulins_Anciens.gpx",
        "type": "route"
      },
      "geometry": {
        "type": "LineString",
        "coordinates": [
          [
            1.831913,
            44.646674
          ],
          [
            1.824099,
            44.642282
          ],
          [
            1.824099,
            44.642282
          ],
          [
            1.831913,
            44.646674
          ]
        ]
      }
    }
  ]
}