{
  "type": "FeatureCollection",
  "features": [
    {
      "type": "Feature",
      "properties": {
        "name": "GraphHopper Track",
        "source": "Étang_dArbu.gpx",
        "type": "track"
      },
      "geometry": {
        "type": "LineString",
        "coordinates": [
          [
            1.415501,
            42.80546,
            1455.09
          ],
          [
            1.415818,
            42.805463,
            1449.74
          ],
          [
            1.415932,
            42.80552,
            1448.42
          ],
          [
            1.415959,
            42.805477,
            1448.04
          ],
          [
            1.416005,
            42.805446,
            1447.41
          ],
          [
            1.41605,
            42.805429,
            1446.69
          ],
          [
            1.416112,
            42.80542,
            1445.82
          ],
          [
            1.416165,
            42.805422,
            1445.24
          ],
          [
            1.416205,
            42.805432,
            1444.89
          ],
          [
            1.416252,
            42.80546,
            1444.52
          ],
          [
            1.416311,
            42.80554,
            1444.05
          ],
          [
            1.416419,
            42.805844,
            1441.71
          ],
          [
            1.41646,
            42.805891,
            1441.16
          ],
          [
            1.416507,
            42.805923,
            1440.69
          ],
          [
            1.416563,
            42.805951,
            1440.21
          ],
          [
            1.416641,
            42.805973,
            1439.66
          ],
          [
            1.416723,
            42.805981,
            1439.15
          ],
          [
            1.416811,
            42.805977,
            1438.63
          ],
          [
            1.417435,
            42.805952,
            1434.42
          ],
          [
            1.418508,
            42.805889,
            1425.94
          ],
          [
            1.418742,
            42.805878,
            1423.99
          ],
          [
            1.418847,
            42.805884,
            1423.07
          ],
          [
            1.419078,
            42.805923,
            1420.92
          ],
          [
            1.419729,
            42.806089,
            1415.4
          ],
          [
            1.420129,
            42.806148,
            1412.47
          ],
          [
            1.42024,
            42.806193,
            1411.64
          ],
          [
            1.420293,
            42.806261,
            1411.17
          ],
          [
            1.420365,
            42.806398,
            1411.23
          ],
          [
            1.420397,
            42.806428,
            1411.31
          ],
          [
            1.420435,
            42.806449,
            1411.16
          ],
          [
            1.420472,
            42.806455,
            1410.69
          ],
          [
            1.420519,
            42.806454,
            1409.51
          ],
          [
            1.420556,
            42.806442,
            1408.25
          ],
          [
            1.420692,
            42.806522,
            1408.58
          ],
          [
            1.420778,
            42.806536,
            1407.67
          ],
          [
            1.421106,
            42.806545,
            1403.17
          ],
          [
            1.421411,
            42.806667,
            1399.32
          ],
          [
            1.421588,
            42.806801,
            1396.54
          ],
          [
            1.421802,
            42.806917,
            1393.66
          ],
          [
            1.421885,
            42.806984,
            1392.41
          ],
          [
            1.421982,
            42.807013,
            1391.36
          ],
          [
            1.422245,
            42.807057,
            1388.87
          ],
          [
            1.422503,
            42.807112,
            1386.63
          ],
          [
            1.422827,
            42.807119,
            1384.48
          ],
          [
            1.423264,
            42.807215,
            1382.07
          ],
          [
            1.423447,
            42.807306,
            1381.42
          ],
          [
            1.423585,
            42.807397,
            1381.18
          ],
          [
            1.423993,
            42.807604,
            1381.05
          ],
          [
            1.424077,
            42.807726,
            1381.57
          ],
          [
            1.424346,
            42.807873,
            1382.06
          ],
          [
            1.424551,
            42.807903,
            1382.81
          ],
          [
            1.424599,
            42.808043,
            1383.62
          ],
          [
            1.424683,
            42.808066,
            1383.95
          ],
          [
            1.424733,
            42.808018,
            1384.18
          ],
          [
            1.424814,
            42.807961,
            1384.45
          ],
          [
            1.424878,
            42.807946,
            1384.61
          ],
          [
            1.425066,
            42.80796,
            1385.11
          ],
          [
            1.425173,
            42.807947,
            1385.47
          ],
          [
            1.425955,
            42.807782,
            1387.8
          ],
          [
            1.426714,
            42.807654,
            1389.7
          ],
          [
            1.427316,
            42.807609,
            1391.62
          ],
          [
            1.427576,
            42.807623,
            1392.5
          ],
          [
            1.427977,
            42.807758,
            1394.49
          ],
          [
            1.428095,
            42.807839,
            1395.4
          ],
          [
            1.428161,
            42.807917,
            1396.19
          ],
          [
            1.428238,
            42.808257,
            1399.43
          ],
          [
            1.428188,
            42.808872,
            1406.24
          ],
          [
            1.42811,
            42.809097,
            1408.49
          ],
          [
            1.428006,
            42.809344,
            1410.83
          ],
          [
            1.427913,
            42.80969,
            1413.69
          ],
          [
            1.42787,
            42.809769,
            1414.38
          ],
          [
            1.42793,
            42.810098,
            1416.13
          ],
          [
            1.428179,
            42.810234,
            1413.2
          ],
          [
            1.428258,
            42.810299,
            1412.21
          ],
          [
            1.428314,
            42.810388,
            1411.02
          ],
          [
            1.428314,
            42.810388,
            1411.02
          ],
          [
            1.428258,
            42.810299,
            1412.21
          ],
          [
            1.428179,
            42.810234,
            1413.2
          ],
          [
            1.42793,
            42.810098,
            1416.13
          ],
          [
            1.42787,
            42.809769,
            1414.38
          ],
          [
            1.427913,
            42.80969,
            1413.69
          ],
          [
            1.428006,
            42.809344,
            1410.83
          ],
          [
            1.42811,
            42.809097,
            1408.49
          ],
          [
            1.428188,
            42.808872,
            1406.24
          ],
          [
            1.428238,
            42.808257,
            1399.43
          ],
          [
            1.428161,
            42.807917,
            1396.19
          ],
          [
            1.428095,
            42.807839,
            1395.4
          ],
          [
            1.427977,
            42.807758,
            1394.49
          ],
          [
            1.427576,
            42.807623,
            1392.5
          ],
          [
            1.427316,
            42.807609,
            1391.62
          ],
          [
            1.426714,
            42.807654,
            1389.7
          ],
          [
            1.425955,
            42.807782,
            1387.8
          ],
          [
            1.425173,
            42.807947,
            1385.47
          ],
          [
            1.425066,
            42.80796,
            1385.11
          ],
          [
            1.424878,
            42.807946,
            1384.61
          ],
          [
            1.424814,
            42.807961,
            1384.45
          ],
          [
            1.424733,
            42.808018,
            1384.18
          ],
          [
            1.424683,
            42.808066,
            1383.95
          ],
          [
            1.424599,
            42.808043,
            1383.62
          ],
          [
            1.424551,
            42.807903,
            1382.81
          ],
          [
            1.424346,
            42.807873,
            1382.06
          ],
          [
            1.424077,
            42.807726,
            1381.57
          ],
          [
            1.423993,
            42.807604,
            1381.05
          ],
          [
            1.423585,
            42.807397,
            1381.18
          ],
          [
            1.423447,
            42.807306,
            1381.42
          ],
          [
            1.423264,
            42.807215,
            1382.07
          ],
          [
            1.422827,
            42.807119,
            1384.48
          ],
          [
            1.422503,
            42.807112,
            1386.63
          ],
          [
            1.422245,
            42.807057,
            1388.87
          ],
          [
            1.421982,
            42.807013,
            1391.36
          ],
          [
            1.421885,
            42.806984,
            1392.41
          ],
          [
            1.421802,
            42.806917,
            1393.66
          ],
          [
            1.421588,
            42.806801,
            1396.54
          ],
          [
            1.421411,
            42.806667,
            1399.32
          ],
          [
            1.421106,
            42.806545,
            1403.17
          ],
          [
            1.420778,
            42.806536,
            1407.67
          ],
          [
            1.420692,
            42.806522,
            1408.58
          ],
          [
            1.420556,
            42.806442,
            1408.25
          ],
          [
            1.420519,
            42.806454,
            1409.51
          ],
          [
            1.420472,
            42.806455,
            1410.69
          ],
          [
            1.420435,
            42.806449,
            1411.16
          ],
          [
            1.420397,
            42.806428,
            1411.31
          ],
          [
            1.420365,
            42.806398,
            1411.23
          ],
          [
            1.420293,
            42.806261,
            1411.17
          ],
          [
            1.42024,
            42.806193,
            1411.64
          ],
          [
            1.420129,
            42.806148,
            1412.47
          ],
          [
            1.419729,
            42.806089,
            1415.4
          ],
          [
            1.419078,
            42.805923,
            1420.92
          ],
          [
            1.418847,
            42.805884,
            1423.07
          ],
          [
            1.418742,
            42.805878,
            1423.99
          ],
          [
            1.418508,
            42.805889,
            1425.94
          ],
          [
            1.417435,
            42.805952,
            1434.42
          ],
          [
            1.416811,
            42.805977,
            1438.63
          ],
          [
            1.416723,
            42.805981,
            1439.15
          ],
          [
            1.416641,
            42.805973,
            1439.66
          ],
          [
            1.416563,
            42.805951,
            1440.21
          ],
          [
            1.416507,
            42.805923,
            1440.69
          ],
          [
            1.41646,
            42.805891,
            1441.16
          ],
          [
            1.416419,
            42.805844,
            1441.71
          ],
          [
            1.416311,
            42.80554,
            1444.05
          ],
          [
            1.416252,
            42.80546,
            1444.52
          ],
          [
            1.416205,
            42.805432,
            1444.89
          ],
          [
            1.416165,
            42.805422,
            1445.24
          ],
          [
            1.416112,
            42.80542,
            1445.82
          ],
          [
            1.41605,
            42.805429,
            1446.69
          ],
          [
            1.416005,
            42.805446,
            1447.41
          ],
          [
            1.415959,
            42.805477,
            1448.04
          ],
          [
            1.415932,
            42.80552,
            1448.42
          ],
          [
            1.415818,
            42.805463,
            1449.74
          ],
          [
            1.415501,
            42.80546,
            1455.09
          ]
        ]
      }
    },
    {
      "type": "Feature",
      "properties": {
        "source": "Étang_dArbu.gpx",
        "type": "route"
      },
      "geometry": {
        "type": "LineString",
        "coordinates": [
          [
            1.415501,
            42.80546
          ],
          [
            1.415932,
            42.80552
          ],
          [
            1.420556,
            42.806442
          ],
          [
            1.428314,
            42.810388
          ],
          [
            1.428314,
            42.810388
          ],
          [
            1.420556,
            42.806442
          ],
          [
            1.415932,
            42.80552
          ],
          [
            1.415818,
            42.805463
          ],
          [
            1.415501,
            42.80546
          ]
        ]
      }
    }
  ]
}