{
  "type": "FeatureCollection",
  "features": [
    {
      "type": "Feature",
      "properties": {
        "name": "GraphHopper Track",
        "source": "Roc_Malpas.gpx",
        "type": "track"
      },
      "geometry": {
        "type": "LineString",
        "coordinates": [
          [
            2.834849,
            43.11925,
            63.2
          ],
          [
            2.835033,
            43.119313,
            65.05
          ],
          [
            2.835226,
            43.119276,
            66.2
          ],
          [
            2.835382,
            43.119217,
            67.1
          ],
          [
            2.835623,
            43.119201,
            68.22
          ],
          [
            2.836483,
            43.119197,
            71.95
          ],
          [
            2.83662,
            43.119207,
            72.34
          ],
          [
            2.836746,
            43.119232,
            72.68
          ],
          [
            2.836813,
            43.119258,
            73.32
          ],
          [
            2.837227,
            43.119326,
            74.47
          ],
          [
            2.838194,
            43.119408,
            73.71
          ],
          [
            2.839317,
            43.119173,
            70.26
          ],
          [
            2.839824,
            43.119074,
            70.81
          ],
          [
            2.840765,
            43.118919,
            70.49
          ],
          [
            2.841009,
            43.118908,
            70.26
          ],
          [
            2.841079,
            43.118898,
            70.18
          ],
          [
            2.841213,
            43.118851,
            70.02
          ],
          [
            2.842622,
            43.118443,
            69.0
          ],
          [
            2.843269,
            43.119046,
            68.7
          ],
          [
            2.843809,
            43.119758,
            68.87
          ],
          [
            2.843889,
            43.119947,
            68.73
          ],
          [
            2.843897,
            43.120167,
            68.53
          ],
          [
            2.843742,
            43.120972,
            67.97
          ],
          [
            2.843696,
            43.121268,
            67.78
          ],
          [
            2.843747,
            43.12154,
            67.59
          ],
          [
            2.84421,
            43.122839,
            67.59
          ],
          [
            2.84429,
            43.12466,
            67.77
          ],
          [
            2.844278,
            43.125491,
            67.75
          ],
          [
            2.844278,
            43.125491,
            67.75
          ],
          [
            2.844276,
            43.125629,
            67.75
          ],
          [
            2.844216,
            43.125789,
            67.36
          ],
          [
            2.843472,
            43.126703,
            63.73
          ],
          [
            2.843024,
            43.127229,
            63.75
          ],
          [
            2.842899,
            43.127429,
            63.83
          ],
          [
            2.84279,
            43.127578,
            64.0
          ],
          [
            2.841935,
            43.127495,
            63.0
          ],
          [
            2.842518,
            43.130243,
            60.53
          ],
          [
            2.842703,
            43.130966,
            60.0
          ],
          [
            2.842846,
            43.131256,
            59.82
          ],
          [
            2.842947,
            43.131419,
            59.68
          ],
          [
            2.843613,
            43.132376,
            58.19
          ],
          [
            2.84384,
            43.132684,
            58.0
          ],
          [
            2.8445,
            43.133643,
            57.09
          ],
          [
            2.845029,
            43.13432,
            56.0
          ],
          [
            2.847087,
            43.13384,
            57.71
          ],
          [
            2.850504,
            43.133081,
            63.68
          ],
          [
            2.850666,
            43.13305,
            63.94
          ],
          [
            2.85079,
            43.133063,
            64.1
          ],
          [
            2.851144,
            43.133476,
            64.2
          ],
          [
            2.852068,
            43.134487,
            61.56
          ],
          [
            2.852187,
            43.13455,
            61.14
          ],
          [
            2.852661,
            43.134911,
            61.29
          ],
          [
            2.853007,
            43.135067,
            61.87
          ],
          [
            2.853101,
            43.135073,
            62.01
          ],
          [
            2.85394,
            43.134811,
            63.8
          ],
          [
            2.854935,
            43.134461,
            66.35
          ],
          [
            2.855217,
            43.134404,
            67.02
          ],
          [
            2.855456,
            43.134375,
            67.69
          ]
        ]
      }
    },
    {
      "type": "Feature",
      "properties": {
        "source": "Roc_Malpas.gpx",
        "type": "route"
      },
      "geometry": {
        "type": "LineString",
        "coordinates": [
          [
            2.834849,
            43.11925
          ],
          [
            2.836813,
            43.119258
          ],
          [
            2.839317,
            43.119173
          ],
          [
            2.842622,
            43.118443
          ],
          [
            2.844278,
            43.125491
          ],
          [
            2.844278,
            43.125491
          ],
          [
            2.843024,
            43.127229
          ],
          [
            2.84279,
            43.127578
          ],
          [
            2.841935,
            43.127495
          ],
          [
            2.845029,
            43.13432
          ],
          [
            2.855456,
            43.134375
          ]
        ]
      }
    }
  ]
}