{
  "type": "FeatureCollection",
  "features": [
    {
      "type": "Feature",
      "properties": {
        "name": "GraphHopper Track",
        "source": "Moulins_et_Vallons.gpx",
        "type": "track"
      },
      "geometry": {
        "type": "LineString",
        "coordinates": [
          [
            1.210015,
            44.338347,
            192.19
          ],
          [
            1.209945,
            44.338333,
            192.65
          ],
          [
            1.210023,
            44.338117,
            191.07
          ],
          [
            1.210063,
            44.338104,
            190.76
          ],
          [
            1.210106,
            44.33804,
            190.24
          ],
          [
            1.210069,
            44.338028,
            190.27
          ],
          [
            1.209831,
            44.337883,
            190.31
          ],
          [
            1.209553,
            44.337762,
            190.34
          ],
          [
            1.209254,
            44.337651,
            190.22
          ],
          [
            1.208689,
            44.33751,
            190.47
          ],
          [
            1.208573,
            44.337495,
            190.34
          ],
          [
            1.208189,
            44.337465,
            189.85
          ],
          [
            1.207909,
            44.337456,
            188.86
          ],
          [
            1.20791,
            44.337382,
            188.26
          ],
          [
            1.207268,
            44.337366,
            187.73
          ],
          [
            1.207134,
            44.337381,
            187.33
          ],
          [
            1.207052,
            44.3374,
            186.91
          ],
          [
            1.206728,
            44.336689,
            172.97
          ],
          [
            1.206663,
            44.336431,
            167.45
          ],
          [
            1.206586,
            44.335991,
            160.95
          ],
          [
            1.206646,
            44.335841,
            160.35
          ],
          [
            1.206792,
            44.33553,
            160.27
          ],
          [
            1.206805,
            44.335473,
            160.48
          ],
          [
            1.207051,
            44.335016,
            163.75
          ],
          [
            1.207097,
            44.334961,
            164.14
          ],
          [
            1.20716,
            44.334914,
            164.48
          ],
          [
            1.207164,
            44.334802,
            165.41
          ],
          [
            1.207127,
            44.334736,
            165.48
          ],
          [
            1.206873,
            44.334572,
            166.35
          ],
          [
            1.206614,
            44.33434,
            168.16
          ],
          [
            1.206487,
            44.334204,
            169.14
          ],
          [
            1.206416,
            44.334051,
            170.27
          ],
          [
            1.206395,
            44.333901,
            171.44
          ],
          [
            1.206331,
            44.333716,
            172.98
          ],
          [
            1.206181,
            44.333469,
            175.34
          ],
          [
            1.206033,
            44.333283,
            177.36
          ],
          [
            1.205843,
            44.333019,
            180.48
          ],
          [
            1.205747,
            44.33285,
            182.67
          ],
          [
            1.205677,
            44.332686,
            184.93
          ],
          [
            1.205611,
            44.332462,
            188.36
          ],
          [
            1.205398,
            44.331294,
            214.99
          ],
          [
            1.205521,
            44.33112,
            220.52
          ],
          [
            1.205602,
            44.331037,
            223.25
          ],
          [
            1.20575,
            44.330989,
            226.31
          ],
          [
            1.205784,
            44.330968,
            227.13
          ],
          [
            1.205783,
            44.330937,
            227.91
          ],
          [
            1.205739,
            44.330838,
            230.46
          ],
          [
            1.205889,
            44.330816,
            233.08
          ],
          [
            1.205895,
            44.330791,
            233.67
          ],
          [
            1.205776,
            44.330706,
            236.36
          ],
          [
            1.205744,
            44.330663,
            237.4
          ],
          [
            1.205696,
            44.330246,
            244.51
          ],
          [
            1.20579,
            44.329992,
            247.88
          ],
          [
            1.205784,
            44.329756,
            245.91
          ],
          [
            1.20589,
            44.329626,
            244.06
          ],
          [
            1.205967,
            44.329556,
            242.31
          ],
          [
            1.206051,
            44.329463,
            239.55
          ],
          [
            1.206134,
            44.329318,
            236.07
          ],
          [
            1.206304,
            44.32917,
            232.62
          ],
          [
            1.207309,
            44.328732,
            222.94
          ],
          [
            1.207433,
            44.328645,
            222.79
          ],
          [
            1.207431,
            44.32852,
            222.95
          ],
          [
            1.20725,
            44.328243,
            225.2
          ],
          [
            1.207321,
            44.328217,
            226.33
          ],
          [
            1.207759,
            44.328137,
            228.76
          ],
          [
            1.208039,
            44.328037,
            230.87
          ],
          [
            1.208241,
            44.327879,
            232.54
          ],
          [
            1.208517,
            44.327607,
            234.81
          ],
          [
            1.209277,
            44.326182,
            242.57
          ],
          [
            1.20947,
            44.325922,
            244.89
          ],
          [
            1.209358,
            44.325845,
            245.46
          ],
          [
            1.209227,
            44.325736,
            246.43
          ],
          [
            1.209076,
            44.325562,
            247.87
          ],
          [
            1.20869,
            44.325029,
            251.34
          ],
          [
            1.208632,
            44.324967,
            251.68
          ],
          [
            1.208586,
            44.324886,
            252.05
          ],
          [
            1.208513,
            44.324657,
            252.98
          ],
          [
            1.208445,
            44.324511,
            253.58
          ],
          [
            1.207904,
            44.323588,
            259.24
          ],
          [
            1.207737,
            44.323377,
            260.48
          ],
          [
            1.207696,
            44.323273,
            260.89
          ],
          [
            1.207665,
            44.323144,
            261.31
          ],
          [
            1.207714,
            44.322538,
            261.62
          ],
          [
            1.207703,
            44.322429,
            261.56
          ],
          [
            1.207642,
            44.322297,
            261.71
          ],
          [
            1.207554,
            44.32217,
            261.63
          ],
          [
            1.207347,
            44.321918,
            261.7
          ],
          [
            1.207164,
            44.321489,
            261.49
          ],
          [
            1.207085,
            44.321341,
            261.24
          ],
          [
            1.206942,
            44.321197,
            260.87
          ],
          [
            1.206433,
            44.320733,
            258.52
          ],
          [
            1.206346,
            44.320622,
            257.95
          ],
          [
            1.206269,
            44.320472,
            257.28
          ],
          [
            1.206155,
            44.31994,
            255.94
          ],
          [
            1.206101,
            44.319818,
            255.88
          ],
          [
            1.205598,
            44.319259,
            256.91
          ],
          [
            1.20552,
            44.319156,
            256.99
          ],
          [
            1.205464,
            44.319046,
            256.91
          ],
          [
            1.205249,
            44.318778,
            255.89
          ],
          [
            1.205113,
            44.318666,
            255.11
          ],
          [
            1.204746,
            44.318417,
            253.71
          ],
          [
            1.204628,
            44.318358,
            253.42
          ],
          [
            1.204508,
            44.318274,
            253.14
          ],
          [
            1.20442,
            44.318186,
            252.92
          ],
          [
            1.203961,
            44.317304,
            253.31
          ],
          [
            1.203816,
            44.316986,
            253.85
          ],
          [
            1.203693,
            44.316815,
            254.0
          ],
          [
            1.203498,
            44.316618,
            253.28
          ],
          [
            1.203427,
            44.316481,
            252.59
          ],
          [
            1.203317,
            44.31614,
            251.98
          ],
          [
            1.203278,
            44.316066,
            251.89
          ],
          [
            1.203212,
            44.315998,
            251.72
          ],
          [
            1.203099,
            44.315931,
            251.51
          ],
          [
            1.202494,
            44.315678,
            252.45
          ],
          [
            1.20236,
            44.315668,
            252.28
          ],
          [
            1.201966,
            44.31567,
            252.15
          ],
          [
            1.20166,
            44.315688,
            251.99
          ],
          [
            1.201358,
            44.315727,
            251.67
          ],
          [
            1.201139,
            44.315743,
            251.41
          ],
          [
            1.200954,
            44.315716,
            251.13
          ],
          [
            1.200824,
            44.315678,
            250.9
          ],
          [
            1.200714,
            44.315627,
            250.67
          ],
          [
            1.20061,
            44.315555,
            250.41
          ],
          [
            1.200523,
            44.315516,
            250.18
          ],
          [
            1.200254,
            44.315428,
            249.41
          ],
          [
            1.200128,
            44.315369,
            248.99
          ],
          [
            1.199923,
            44.31522,
            248.3
          ],
          [
            1.199837,
            44.315145,
            248.03
          ],
          [
            1.199716,
            44.314996,
            247.7
          ],
          [
            1.19949,
            44.314849,
            247.28
          ],
          [
            1.199237,
            44.314739,
            246.9
          ],
          [
            1.198923,
            44.314673,
            246.68
          ],
          [
            1.198811,
            44.314634,
            246.63
          ],
          [
            1.198649,
            44.314542,
            246.56
          ],
          [
            1.198562,
            44.314513,
            246.54
          ],
          [
            1.198395,
            44.314498,
            246.52
          ],
          [
            1.198156,
            44.314521,
            246.47
          ],
          [
            1.197949,
            44.314554,
            246.33
          ],
          [
            1.197585,
            44.314636,
            246.26
          ],
          [
            1.197426,
            44.314657,
            246.44
          ],
          [
            1.197256,
            44.314669,
            246.53
          ],
          [
            1.197043,
            44.314722,
            245.91
          ],
          [
            1.196903,
            44.314747,
            245.57
          ],
          [
            1.196705,
            44.314751,
            244.99
          ],
          [
            1.196456,
            44.314765,
            244.18
          ],
          [
            1.195996,
            44.314845,
            242.93
          ],
          [
            1.195581,
            44.314929,
            241.78
          ],
          [
            1.194979,
            44.315025,
            240.0
          ],
          [
            1.19462,
            44.31512,
            238.76
          ],
          [
            1.194073,
            44.315239,
            236.15
          ],
          [
            1.193727,
            44.315284,
            234.75
          ],
          [
            1.193345,
            44.315355,
            232.39
          ],
          [
            1.193159,
            44.315403,
            230.19
          ],
          [
            1.192931,
            44.315504,
            227.64
          ],
          [
            1.192878,
            44.315543,
            226.95
          ],
          [
            1.192859,
            44.315584,
            226.4
          ],
          [
            1.192862,
            44.31563,
            225.81
          ],
          [
            1.192917,
            44.315661,
            225.19
          ],
          [
            1.193622,
            44.315949,
            217.57
          ],
          [
            1.193715,
            44.316005,
            216.88
          ],
          [
            1.193751,
            44.316055,
            216.59
          ],
          [
            1.193741,
            44.316091,
            216.1
          ],
          [
            1.193695,
            44.316099,
            215.31
          ],
          [
            1.193617,
            44.316069,
            214.63
          ],
          [
            1.193515,
            44.316008,
            214.08
          ],
          [
            1.193358,
            44.315958,
            213.1
          ],
          [
            1.193068,
            44.315924,
            211.61
          ],
          [
            1.192635,
            44.315886,
            210.97
          ],
          [
            1.192452,
            44.315847,
            210.57
          ],
          [
            1.192248,
            44.315777,
            210.15
          ],
          [
            1.191997,
            44.315655,
            209.74
          ],
          [
            1.191874,
            44.315633,
            209.88
          ],
          [
            1.191773,
            44.315607,
            210.01
          ],
          [
            1.191715,
            44.315578,
            209.93
          ],
          [
            1.191639,
            44.315502,
            209.18
          ],
          [
            1.19162,
            44.315461,
            208.9
          ],
          [
            1.191619,
            44.315428,
            208.67
          ],
          [
            1.191601,
            44.3154,
            208.32
          ],
          [
            1.191518,
            44.315377,
            207.15
          ],
          [
            1.191494,
            44.315351,
            206.46
          ],
          [
            1.191491,
            44.315324,
            206.1
          ],
          [
            1.191505,
            44.315277,
            205.52
          ],
          [
            1.191653,
            44.315104,
            204.64
          ],
          [
            1.19189,
            44.314891,
            203.14
          ],
          [
            1.192791,
            44.314174,
            197.33
          ],
          [
            1.192852,
            44.314108,
            196.8
          ],
          [
            1.1929,
            44.314014,
            196.12
          ],
          [
            1.192917,
            44.313954,
            195.68
          ],
          [
            1.19292,
            44.313878,
            195.11
          ],
          [
            1.192895,
            44.313797,
            194.48
          ],
          [
            1.192845,
            44.313731,
            193.89
          ],
          [
            1.192762,
            44.313681,
            193.26
          ],
          [
            1.192656,
            44.313647,
            192.59
          ],
          [
            1.192514,
            44.313639,
            191.79
          ],
          [
            1.192385,
            44.313644,
            191.09
          ],
          [
            1.192235,
            44.313678,
            190.25
          ],
          [
            1.192049,
            44.313736,
            189.14
          ],
          [
            1.19123,
            44.314067,
            184.29
          ],
          [
            1.19108,
            44.314111,
            183.52
          ],
          [
            1.190107,
            44.314294,
            179.13
          ],
          [
            1.18947,
            44.314454,
            177.17
          ],
          [
            1.188964,
            44.314595,
            176.41
          ],
          [
            1.188178,
            44.314861,
            175.97
          ],
          [
            1.187824,
            44.315002,
            175.98
          ],
          [
            1.187566,
            44.315137,
            176.0
          ],
          [
            1.186985,
            44.315522,
            176.11
          ],
          [
            1.186819,
            44.315623,
            176.11
          ],
          [
            1.186656,
            44.315748,
            176.04
          ],
          [
            1.186525,
            44.315879,
            175.91
          ],
          [
            1.186525,
            44.315879,
            175.91
          ],
          [
            1.186656,
            44.315748,
            176.04
          ],
          [
            1.186819,
            44.315623,
            176.11
          ],
          [
            1.186985,
            44.315522,
            176.11
          ],
          [
            1.187566,
            44.315137,
            176.0
          ],
          [
            1.187824,
            44.315002,
            175.98
          ],
          [
            1.188178,
            44.314861,
            175.97
          ],
          [
            1.188964,
            44.314595,
            176.41
          ],
          [
            1.18947,
            44.314454,
            177.17
          ],
          [
            1.190107,
            44.314294,
            179.13
          ],
          [
            1.19108,
            44.314111,
            183.52
          ],
          [
            1.19123,
            44.314067,
            184.29
          ],
          [
            1.192049,
            44.313736,
            189.14
          ],
          [
            1.192235,
            44.313678,
            190.25
          ],
          [
            1.192385,
            44.313644,
            191.09
          ],
          [
            1.192514,
            44.313639,
            191.79
          ],
          [
            1.192656,
            44.313647,
            192.59
          ],
          [
            1.192762,
            44.313681,
            193.26
          ],
          [
            1.192845,
            44.313731,
            193.89
          ],
          [
            1.192895,
            44.313797,
            194.48
          ],
          [
            1.19292,
            44.313878,
            195.11
          ],
          [
            1.192917,
            44.313954,
            195.68
          ],
          [
            1.1929,
            44.314014,
            196.12
          ],
          [
            1.192852,
            44.314108,
            196.8
          ],
          [
            1.192791,
            44.314174,
            197.33
          ],
          [
            1.19189,
            44.314891,
            203.14
          ],
          [
            1.191653,
            44.315104,
            204.64
          ],
          [
            1.191505,
            44.315277,
            205.52
          ],
          [
            1.191491,
            44.315324,
            206.1
          ],
          [
            1.191494,
            44.315351,
            206.46
          ],
          [
            1.191518,
            44.315377,
            207.15
          ],
          [
            1.191601,
            44.3154,
            208.32
          ],
          [
            1.191619,
            44.315428,
            208.67
          ],
          [
            1.19162,
            44.315461,
            208.9
          ],
          [
            1.191639,
            44.315502,
            209.18
          ],
          [
            1.191715,
            44.315578,
            209.93
          ],
          [
            1.191773,
            44.315607,
            210.01
          ],
          [
            1.191874,
            44.315633,
            209.88
          ],
          [
            1.191997,
            44.315655,
            209.74
          ],
          [
            1.192248,
            44.315777,
            210.15
          ],
          [
            1.192452,
            44.315847,
            210.57
          ],
          [
            1.192635,
            44.315886,
            210.97
          ],
          [
            1.193068,
            44.315924,
            211.61
          ],
          [
            1.193358,
            44.315958,
            213.1
          ],
          [
            1.193515,
            44.316008,
            214.08
          ],
          [
            1.193617,
            44.316069,
            214.63
          ],
          [
            1.193695,
            44.316099,
            215.31
          ],
          [
            1.193741,
            44.316091,
            216.1
          ],
          [
            1.193751,
            44.316055,
            216.59
          ],
          [
            1.193715,
            44.316005,
            216.88
          ],
          [
            1.193622,
            44.315949,
            217.57
          ],
          [
            1.192917,
            44.315661,
            225.19
          ],
          [
            1.192862,
            44.31563,
            225.81
          ],
          [
            1.192859,
            44.315584,
            226.4
          ],
          [
            1.192878,
            44.315543,
            226.95
          ],
          [
            1.192931,
            44.315504,
            227.64
          ],
          [
            1.193159,
            44.315403,
            230.19
          ],
          [
            1.193345,
            44.315355,
            232.39
          ],
          [
            1.193535,
            44.315319,
            233.81
          ],
          [
            1.193727,
            44.315284,
            234.75
          ],
          [
            1.193944,
            44.315257,
            235.56
          ],
          [
            1.194073,
            44.315239,
            236.15
          ],
          [
            1.19462,
            44.31512,
            238.76
          ],
          [
            1.194979,
            44.315025,
            240.0
          ],
          [
            1.195581,
            44.314929,
            241.78
          ],
          [
            1.195996,
            44.314845,
            242.93
          ],
          [
            1.196456,
            44.314765,
            244.18
          ],
          [
            1.196705,
            44.314751,
            244.99
          ],
          [
            1.196903,
            44.314747,
            245.57
          ],
          [
            1.197043,
            44.314722,
            245.91
          ],
          [
            1.197256,
            44.314669,
            246.53
          ],
          [
            1.197426,
            44.314657,
            246.44
          ],
          [
            1.197585,
            44.314636,
            246.26
          ],
          [
            1.197949,
            44.314554,
            246.33
          ],
          [
            1.198156,
            44.314521,
            246.47
          ],
          [
            1.198395,
            44.314498,
            246.52
          ],
          [
            1.198562,
            44.314513,
            246.54
          ],
          [
            1.198649,
            44.314542,
            246.56
          ],
          [
            1.198811,
            44.314634,
            246.63
          ],
          [
            1.198923,
            44.314673,
            246.68
          ],
          [
            1.199237,
            44.314739,
            246.9
          ],
          [
            1.19949,
            44.314849,
            247.28
          ],
          [
            1.199716,
            44.314996,
            247.7
          ],
          [
            1.199837,
            44.315145,
            248.03
          ],
          [
            1.199923,
            44.31522,
            248.3
          ],
          [
            1.200128,
            44.315369,
            248.99
          ],
          [
            1.200254,
            44.315428,
            249.41
          ],
          [
            1.200523,
            44.315516,
            250.18
          ],
          [
            1.20061,
            44.315555,
            250.41
          ],
          [
            1.200714,
            44.315627,
            250.67
          ],
          [
            1.200824,
            44.315678,
            250.9
          ],
          [
            1.200954,
            44.315716,
            251.13
          ],
          [
            1.201139,
            44.315743,
            251.41
          ],
          [
            1.201358,
            44.315727,
            251.67
          ],
          [
            1.20166,
            44.315688,
            251.99
          ],
          [
            1.201966,
            44.31567,
            252.15
          ],
          [
            1.20236,
            44.315668,
            252.28
          ],
          [
            1.202494,
            44.315678,
            252.45
          ],
          [
            1.203099,
            44.315931,
            251.51
          ],
          [
            1.203212,
            44.315998,
            251.72
          ],
          [
            1.203278,
            44.316066,
            251.89
          ],
          [
            1.203317,
            44.31614,
            251.98
          ],
          [
            1.203427,
            44.316481,
            252.59
          ],
          [
            1.203498,
            44.316618,
            253.28
          ],
          [
            1.203693,
            44.316815,
            254.0
          ],
          [
            1.203816,
            44.316986,
            253.85
          ],
          [
            1.203961,
            44.317304,
            253.31
          ],
          [
            1.20442,
            44.318186,
            252.92
          ],
          [
            1.204508,
            44.318274,
            253.14
          ],
          [
            1.204628,
            44.318358,
            253.42
          ],
          [
            1.204746,
            44.318417,
            253.71
          ],
          [
            1.205113,
            44.318666,
            255.11
          ],
          [
            1.205249,
            44.318778,
            255.89
          ],
          [
            1.205464,
            44.319046,
            256.91
          ],
          [
            1.20552,
            44.319156,
            256.99
          ],
          [
            1.205598,
            44.319259,
            256.91
          ],
          [
            1.206101,
            44.319818,
            255.88
          ],
          [
            1.206155,
            44.31994,
            255.94
          ],
          [
            1.206269,
            44.320472,
            257.28
          ],
          [
            1.206346,
            44.320622,
            257.95
          ],
          [
            1.206433,
            44.320733,
            258.52
          ],
          [
            1.206942,
            44.321197,
            260.87
          ],
          [
            1.207085,
            44.321341,
            261.24
          ],
          [
            1.207164,
            44.321489,
            261.49
          ],
          [
            1.207347,
            44.321918,
            261.7
          ],
          [
            1.207554,
            44.32217,
            261.63
          ],
          [
            1.207642,
            44.322297,
            261.71
          ],
          [
            1.207703,
            44.322429,
            261.56
          ],
          [
            1.207714,
            44.322538,
            261.62
          ],
          [
            1.207665,
            44.323144,
            261.31
          ],
          [
            1.207696,
            44.323273,
            260.89
          ],
          [
            1.207737,
            44.323377,
            260.48
          ],
          [
            1.207904,
            44.323588,
            259.24
          ],
          [
            1.208445,
            44.324511,
            253.58
          ],
          [
            1.208513,
            44.324657,
            252.98
          ],
          [
            1.208586,
            44.324886,
            252.05
          ],
          [
            1.208632,
            44.324967,
            251.68
          ],
          [
            1.20869,
            44.325029,
            251.34
          ],
          [
            1.209076,
            44.325562,
            247.87
          ],
          [
            1.209227,
            44.325736,
            246.43
          ],
          [
            1.209358,
            44.325845,
            245.46
          ],
          [
            1.20947,
            44.325922,
            244.89
          ],
          [
            1.209277,
            44.326182,
            242.57
          ],
          [
            1.208517,
            44.327607,
            234.81
          ],
          [
            1.208241,
            44.327879,
            232.54
          ],
          [
            1.208039,
            44.328037,
            230.87
          ],
          [
            1.207759,
            44.328137,
            228.76
          ],
          [
            1.207321,
            44.328217,
            226.33
          ],
          [
            1.20725,
            44.328243,
            225.2
          ],
          [
            1.207431,
            44.32852,
            222.95
          ],
          [
            1.207433,
            44.328645,
            222.79
          ],
          [
            1.207309,
            44.328732,
            222.94
          ],
          [
            1.206304,
            44.32917,
            232.62
          ],
          [
            1.206134,
            44.329318,
            236.07
          ],
          [
            1.206051,
            44.329463,
            239.55
          ],
          [
            1.205967,
            44.329556,
            242.31
          ],
          [
            1.20589,
            44.329626,
            244.06
          ],
          [
            1.205784,
            44.329756,
            245.91
          ],
          [
            1.20579,
            44.329992,
            247.88
          ],
          [
            1.205696,
            44.330246,
            244.51
          ],
          [
            1.205744,
            44.330663,
            237.4
          ],
          [
            1.205776,
            44.330706,
            236.36
          ],
          [
            1.205895,
            44.330791,
            233.67
          ],
          [
            1.205889,
            44.330816,
            233.08
          ],
          [
            1.205739,
            44.330838,
            230.46
          ],
          [
            1.205783,
            44.330937,
            227.91
          ],
          [
            1.205784,
            44.330968,
            227.13
          ],
          [
            1.20575,
            44.330989,
            226.31
          ],
          [
            1.205602,
            44.331037,
            223.25
          ],
          [
            1.205521,
            44.33112,
            220.52
          ],
          [
            1.205398,
            44.331294,
            214.99
          ],
          [
            1.205611,
            44.332462,
            188.36
          ],
          [
            1.205677,
            44.332686,
            184.93
          ],
          [
            1.205747,
            44.33285,
            182.67
          ],
          [
            1.205843,
            44.333019,
            180.48
          ],
          [
            1.206033,
            44.333283,
            177.36
          ],
          [
            1.206181,
            44.333469,
            175.34
          ],
          [
            1.206331,
            44.333716,
            172.98
          ],
          [
            1.206395,
            44.333901,
            171.44
          ],
          [
            1.206416,
            44.334051,
            170.27
          ],
          [
            1.206487,
            44.334204,
            169.14
          ],
          [
            1.206614,
            44.33434,
            168.16
          ],
          [
            1.206873,
            44.334572,
            166.35
          ],
          [
            1.207127,
            44.334736,
            165.48
          ],
          [
            1.207164,
            44.334802,
            165.41
          ],
          [
            1.20716,
            44.334914,
            164.48
          ],
          [
            1.207097,
            44.334961,
            164.14
          ],
          [
            1.207051,
            44.335016,
            163.75
          ],
          [
            1.206805,
            44.335473,
            160.48
          ],
          [
            1.206792,
            44.33553,
            160.27
          ],
          [
            1.206646,
            44.335841,
            160.35
          ],
          [
            1.206586,
            44.335991,
            160.95
          ],
          [
            1.206806,
            44.336035,
            161.26
          ],
          [
            1.207921,
            44.336135,
            163.21
          ],
          [
            1.208174,
            44.336185,
            163.91
          ],
          [
            1.20834,
            44.336229,
            164.34
          ],
          [
            1.208519,
            44.33631,
            164.87
          ],
          [
            1.208788,
            44.336457,
            166.23
          ],
          [
            1.209,
            44.33654,
            166.71
          ],
          [
            1.208856,
            44.336659,
            169.52
          ],
          [
            1.208739,
            44.336793,
            173.01
          ],
          [
            1.208702,
            44.336844,
            174.41
          ],
          [
            1.208656,
            44.336939,
            176.93
          ],
          [
            1.208573,
            44.337495,
            190.34
          ],
          [
            1.208689,
            44.33751,
            190.47
          ],
          [
            1.209254,
            44.337651,
            190.22
          ],
          [
            1.209553,
            44.337762,
            190.34
          ],
          [
            1.209831,
            44.337883,
            190.31
          ],
          [
            1.210069,
            44.338028,
            190.27
          ],
          [
            1.210106,
            44.33804,
            190.24
          ],
          [
            1.210063,
            44.338104,
            190.76
          ],
          [
            1.210023,
            44.338117,
            191.07
          ],
          [
            1.209945,
            44.338333,
            192.65
          ],
          [
            1.210015,
            44.338347,
            192.19
          ]
        ]
      }
    },
    {
      "type": "Feature",
      "properties": {
        "source": "Moulins_et_Vallons.gpx",
        "type": "route"
      },
      "geometry": {
        "type": "LineString",
        "coordinates": [
          [
            1.210015,
            44.338347
          ],
          [
            1.209945,
            44.338333
          ],
          [
            1.210106,
            44.33804
          ],
          [
            1.207909,
            44.337456
          ],
          [
            1.20791,
            44.337382
          ],
          [
            1.207052,
            44.3374
          ],
          [
            1.206586,
            44.335991
          ],
          [
            1.20716,
            44.334914
          ],
          [
            1.20725,
            44.328243
          ],
          [
            1.20947,
            44.325922
          ],
          [
            1.186525,
            44.315879
          ],
          [
            1.186525,
            44.315879
          ],
          [
            1.193695,
            44.316099
          ],
          [
            1.193944,
            44.315257
          ],
          [
            1.20947,
            44.325922
          ],
          [
            1.20725,
            44.328243
          ],
          [
            1.206586,
            44.335991
          ],
          [
            1.209,
            44.33654
          ],
          [
            1.208573,
            44.337495
          ],
          [
            1.210106,
            44.33804
          ],
          [
            1.209945,
            44.338333
          ],
          [
            1.210015,
            44.338347
          ]
        ]
      }
    }
  ]
}