{
  "type": "FeatureCollection",
  "features": [
    {
      "type": "Feature",
      "properties": {
        "name": "GraphHopper Track",
        "source": "Chemin_Hospitaliers.gpx",
        "type": "track"
      },
      "geometry": {
        "type": "LineString",
        "coordinates": [
          [
            2.360335,
            44.39375,
            612.27
          ],
          [
            2.360335,
            44.39375,
            612.27
          ],
          [
            2.360008,
            44.394143,
            612.07
          ],
          [
            2.359924,
            44.393728,
            611.32
          ],
          [
            2.359869,
            44.393582,
            611.27
          ],
          [
            2.359755,
            44.393411,
            611.16
          ],
          [
            2.359692,
            44.39328,
            611.03
          ],
          [
            2.359665,
            44.393143,
            610.89
          ],
          [
            2.359602,
            44.392361,
            608.91
          ],
          [
            2.359609,
            44.391356,
            603.22
          ],
          [
            2.359596,
            44.391195,
            602.96
          ],
          [
            2.359535,
            44.39109,
            602.94
          ],
          [
            2.359202,
            44.390835,
            603.63
          ],
          [
            2.359102,
            44.390699,
            604.28
          ],
          [
            2.359011,
            44.390532,
            605.18
          ],
          [
            2.358926,
            44.390288,
            606.19
          ],
          [
            2.358887,
            44.390054,
            606.84
          ],
          [
            2.358894,
            44.389815,
            607.23
          ],
          [
            2.359053,
            44.388861,
            605.99
          ],
          [
            2.359078,
            44.388549,
            605.31
          ],
          [
            2.359074,
            44.388343,
            605.06
          ],
          [
            2.359051,
            44.388194,
            605.08
          ],
          [
            2.35896,
            44.387977,
            605.38
          ],
          [
            2.358948,
            44.387867,
            605.61
          ],
          [
            2.35896,
            44.387772,
            605.75
          ],
          [
            2.359177,
            44.38721,
            608.0
          ],
          [
            2.358758,
            44.387068,
            608.69
          ],
          [
            2.357826,
            44.386899,
            610.12
          ],
          [
            2.356653,
            44.386761,
            612.82
          ],
          [
            2.356061,
            44.386711,
            614.38
          ],
          [
            2.355575,
            44.386646,
            615.82
          ],
          [
            2.355323,
            44.386599,
            616.72
          ],
          [
            2.354872,
            44.386423,
            619.14
          ],
          [
            2.354347,
            44.386201,
            623.04
          ],
          [
            2.353878,
            44.386033,
            627.51
          ],
          [
            2.353724,
            44.386001,
            628.58
          ],
          [
            2.353624,
            44.386008,
            628.99
          ],
          [
            2.353545,
            44.386029,
            629.37
          ],
          [
            2.353435,
            44.38609,
            630.03
          ],
          [
            2.353317,
            44.386182,
            630.59
          ],
          [
            2.353148,
            44.386339,
            631.11
          ],
          [
            2.353022,
            44.386507,
            631.99
          ],
          [
            2.352909,
            44.386631,
            632.46
          ],
          [
            2.352818,
            44.386788,
            633.08
          ],
          [
            2.352681,
            44.387093,
            634.08
          ],
          [
            2.352622,
            44.387148,
            634.14
          ],
          [
            2.352483,
            44.387175,
            634.56
          ],
          [
            2.352178,
            44.387319,
            635.17
          ],
          [
            2.352118,
            44.387356,
            635.28
          ],
          [
            2.352018,
            44.387467,
            635.46
          ],
          [
            2.351906,
            44.387541,
            635.66
          ],
          [
            2.351768,
            44.387584,
            635.82
          ],
          [
            2.351389,
            44.387647,
            636.0
          ],
          [
            2.351361,
            44.387697,
            636.03
          ],
          [
            2.351347,
            44.387778,
            636.0
          ],
          [
            2.351375,
            44.387881,
            635.59
          ],
          [
            2.351448,
            44.388007,
            634.87
          ],
          [
            2.351593,
            44.388214,
            633.21
          ],
          [
            2.351787,
            44.388446,
            631.14
          ],
          [
            2.352179,
            44.388851,
            626.46
          ],
          [
            2.352216,
            44.389004,
            624.78
          ],
          [
            2.352101,
            44.389124,
            623.12
          ],
          [
            2.352204,
            44.389145,
            622.23
          ],
          [
            2.352497,
            44.389122,
            619.81
          ],
          [
            2.352683,
            44.389177,
            618.24
          ],
          [
            2.353038,
            44.389417,
            615.3
          ],
          [
            2.353368,
            44.389578,
            612.92
          ],
          [
            2.353626,
            44.389645,
            612.76
          ],
          [
            2.353872,
            44.389696,
            613.51
          ],
          [
            2.354138,
            44.389696,
            613.92
          ],
          [
            2.354748,
            44.389612,
            613.55
          ],
          [
            2.355355,
            44.389556,
            612.65
          ]
        ]
      }
    },
    {
      "type": "Feature",
      "properties": {
        "source": "Chemin_Hospitaliers.gpx",
        "type": "route"
      },
      "geometry": {
        "type": "LineString",
        "coordinates": [
          [
            2.360335,
            44.39375
          ],
          [
            2.360335,
            44.39375
          ],
          [
            2.360008,
            44.394143
          ],
          [
            2.359177,
            44.38721
          ],
          [
            2.358758,
            44.387068
          ],
          [
            2.353724,
            44.386001
          ],
          [
            2.352483,
            44.387175
          ],
          [
            2.351389,
            44.387647
          ],
          [
            2.353872,
            44.389696
          ],
          [
            2.355355,
            44.389556
          ]
        ]
      }
    }
  ]
}