{
  "type": "FeatureCollection",
  "features": [
    {
      "type": "Feature",
      "properties": {
        "name": "GraphHopper Track",
        "source": "Loubressac-St-Céré.gpx",
        "type": "track"
      },
      "geometry": {
        "type": "LineString",
        "coordinates": [
          [
            1.888664,
            44.85967,
            150.0
          ],
          [
            1.888548,
            44.859726,
            150.0
          ],
          [
            1.888484,
            44.859781,
            149.96
          ],
          [
            1.888415,
            44.859893,
            149.57
          ],
          [
            1.888394,
            44.859993,
            149.24
          ],
          [
            1.888409,
            44.860065,
            149.24
          ],
          [
            1.888432,
            44.860115,
            149.18
          ],
          [
            1.88837,
            44.860158,
            149.04
          ],
          [
            1.888358,
            44.860283,
            149.17
          ],
          [
            1.888281,
            44.860359,
            149.15
          ],
          [
            1.888278,
            44.860405,
            149.13
          ],
          [
            1.888318,
            44.860552,
            149.09
          ],
          [
            1.888219,
            44.86069,
            149.09
          ],
          [
            1.887995,
            44.860747,
            149.0
          ],
          [
            1.88773,
            44.860742,
            149.0
          ],
          [
            1.887632,
            44.861053,
            149.0
          ],
          [
            1.887628,
            44.861091,
            149.0
          ],
          [
            1.887638,
            44.861125,
            149.0
          ],
          [
            1.887552,
            44.861138,
            149.0
          ],
          [
            1.887526,
            44.861293,
            149.0
          ],
          [
            1.887411,
            44.861369,
            149.0
          ],
          [
            1.887509,
            44.861802,
            149.0
          ],
          [
            1.886255,
            44.862044,
            148.0
          ],
          [
            1.886246,
            44.862124,
            148.0
          ],
          [
            1.886149,
            44.862266,
            148.0
          ],
          [
            1.885849,
            44.862392,
            148.0
          ],
          [
            1.885423,
            44.862464,
            147.99
          ],
          [
            1.884777,
            44.862525,
            147.77
          ],
          [
            1.884244,
            44.86268,
            147.5
          ],
          [
            1.883507,
            44.863031,
            147.09
          ],
          [
            1.883111,
            44.863172,
            147.0
          ],
          [
            1.882081,
            44.863391,
            146.54
          ],
          [
            1.881928,
            44.863408,
            146.41
          ],
          [
            1.880869,
            44.863402,
            146.01
          ],
          [
            1.880423,
            44.86337,
            146.0
          ],
          [
            1.878986,
            44.86317,
            145.3
          ],
          [
            1.878532,
            44.863136,
            145.0
          ],
          [
            1.878291,
            44.863141,
            145.0
          ],
          [
            1.878039,
            44.863164,
            145.0
          ],
          [
            1.877674,
            44.863239,
            145.0
          ],
          [
            1.876523,
            44.863518,
            144.51
          ],
          [
            1.874705,
            44.86382,
            144.03
          ],
          [
            1.873407,
            44.864056,
            143.97
          ],
          [
            1.873192,
            44.864083,
            143.98
          ],
          [
            1.873058,
            44.864077,
            143.98
          ],
          [
            1.872932,
            44.864033,
            143.99
          ],
          [
            1.872827,
            44.863959,
            143.99
          ],
          [
            1.872696,
            44.863797,
            144.0
          ],
          [
            1.872334,
            44.863237,
            145.65
          ],
          [
            1.87226,
            44.863229,
            145.35
          ],
          [
            1.870908,
            44.863713,
            144.38
          ],
          [
            1.868671,
            44.864557,
            143.97
          ],
          [
            1.867971,
            44.864793,
            143.96
          ],
          [
            1.867247,
            44.864924,
            143.92
          ],
          [
            1.866396,
            44.865064,
            143.83
          ],
          [
            1.86631,
            44.864815,
            144.63
          ],
          [
            1.862791,
            44.8653,
            144.37
          ],
          [
            1.862471,
            44.865347,
            144.04
          ],
          [
            1.862348,
            44.865373,
            143.94
          ],
          [
            1.862088,
            44.865443,
            143.87
          ],
          [
            1.861955,
            44.86549,
            143.88
          ],
          [
            1.861705,
            44.865609,
            144.3
          ],
          [
            1.861556,
            44.865696,
            144.14
          ],
          [
            1.86134,
            44.865841,
            143.99
          ],
          [
            1.861182,
            44.865967,
            143.85
          ],
          [
            1.861129,
            44.865962,
            144.3
          ],
          [
            1.860828,
            44.866105,
            145.15
          ],
          [
            1.860702,
            44.866183,
            145.46
          ],
          [
            1.860483,
            44.86629,
            146.08
          ],
          [
            1.860278,
            44.866369,
            146.67
          ],
          [
            1.859744,
            44.866517,
            148.16
          ],
          [
            1.859264,
            44.866528,
            149.43
          ],
          [
            1.858872,
            44.866481,
            150.51
          ],
          [
            1.858432,
            44.86637,
            151.11
          ],
          [
            1.858401,
            44.866449,
            149.43
          ],
          [
            1.8583,
            44.866517,
            147.91
          ],
          [
            1.858354,
            44.86661,
            147.15
          ],
          [
            1.858445,
            44.866919,
            145.95
          ],
          [
            1.858402,
            44.866951,
            145.82
          ],
          [
            1.858375,
            44.86699,
            145.73
          ],
          [
            1.858364,
            44.867033,
            145.74
          ],
          [
            1.858226,
            44.867103,
            145.79
          ],
          [
            1.85811,
            44.867142,
            145.69
          ],
          [
            1.857929,
            44.867184,
            145.77
          ],
          [
            1.857738,
            44.86724,
            145.85
          ],
          [
            1.856466,
            44.867829,
            145.8
          ],
          [
            1.855976,
            44.868025,
            145.42
          ],
          [
            1.855633,
            44.868136,
            145.13
          ],
          [
            1.852262,
            44.869157,
            142.25
          ],
          [
            1.851186,
            44.86947,
            141.52
          ],
          [
            1.847221,
            44.870533,
            140.06
          ],
          [
            1.846269,
            44.870781,
            140.01
          ],
          [
            1.845668,
            44.870906,
            140.0
          ],
          [
            1.845668,
            44.870906,
            140.0
          ],
          [
            1.845437,
            44.870954,
            140.0
          ],
          [
            1.844993,
            44.871029,
            140.0
          ],
          [
            1.842403,
            44.871387,
            140.91
          ],
          [
            1.840757,
            44.871604,
            141.0
          ],
          [
            1.83984,
            44.871738,
            141.0
          ],
          [
            1.839795,
            44.871687,
            141.0
          ],
          [
            1.839016,
            44.871807,
            140.14
          ],
          [
            1.837268,
            44.87217,
            139.05
          ],
          [
            1.837135,
            44.872235,
            139.81
          ],
          [
            1.836915,
            44.87253,
            139.13
          ],
          [
            1.836282,
            44.873263,
            138.03
          ],
          [
            1.836264,
            44.873319,
            137.99
          ],
          [
            1.836296,
            44.873342,
            137.97
          ],
          [
            1.833116,
            44.875357,
            136.31
          ],
          [
            1.832537,
            44.875708,
            136.21
          ],
          [
            1.832289,
            44.875837,
            136.28
          ],
          [
            1.832057,
            44.875936,
            136.43
          ],
          [
            1.831772,
            44.876037,
            136.67
          ],
          [
            1.831446,
            44.876119,
            136.99
          ],
          [
            1.828126,
            44.876661,
            140.38
          ],
          [
            1.828115,
            44.876629,
            140.83
          ],
          [
            1.828078,
            44.876615,
            141.03
          ],
          [
            1.827978,
            44.876601,
            141.41
          ],
          [
            1.827603,
            44.876595,
            142.92
          ],
          [
            1.827052,
            44.876606,
            144.78
          ],
          [
            1.825677,
            44.876761,
            149.56
          ],
          [
            1.824438,
            44.876852,
            154.38
          ],
          [
            1.823943,
            44.876807,
            155.96
          ],
          [
            1.823314,
            44.8766,
            157.89
          ],
          [
            1.82306,
            44.876348,
            158.96
          ],
          [
            1.822973,
            44.875721,
            162.42
          ],
          [
            1.822855,
            44.875349,
            165.16
          ],
          [
            1.822543,
            44.874683,
            169.54
          ],
          [
            1.822356,
            44.874559,
            170.73
          ],
          [
            1.822111,
            44.874523,
            171.99
          ],
          [
            1.821844,
            44.874578,
            173.48
          ],
          [
            1.821036,
            44.875096,
            179.41
          ],
          [
            1.820503,
            44.875477,
            182.51
          ],
          [
            1.820116,
            44.87592,
            184.54
          ],
          [
            1.819963,
            44.876008,
            185.09
          ],
          [
            1.819513,
            44.876073,
            186.13
          ],
          [
            1.818983,
            44.875956,
            188.06
          ],
          [
            1.81849,
            44.875808,
            190.48
          ],
          [
            1.817935,
            44.875618,
            193.46
          ],
          [
            1.817501,
            44.875451,
            196.17
          ],
          [
            1.816702,
            44.874974,
            200.81
          ],
          [
            1.815865,
            44.874613,
            202.05
          ],
          [
            1.815679,
            44.874517,
            202.14
          ],
          [
            1.815314,
            44.874249,
            202.68
          ],
          [
            1.814458,
            44.873749,
            206.58
          ],
          [
            1.814293,
            44.873749,
            202.01
          ],
          [
            1.813132,
            44.872913,
            188.78
          ],
          [
            1.812667,
            44.872556,
            182.22
          ],
          [
            1.812611,
            44.872436,
            182.67
          ],
          [
            1.812553,
            44.871961,
            186.36
          ],
          [
            1.81254,
            44.871927,
            186.71
          ],
          [
            1.811972,
            44.871992,
            187.07
          ],
          [
            1.811867,
            44.87208,
            188.67
          ],
          [
            1.81176,
            44.872373,
            191.86
          ],
          [
            1.811659,
            44.872974,
            198.89
          ],
          [
            1.811401,
            44.873859,
            212.71
          ],
          [
            1.811283,
            44.874602,
            226.75
          ],
          [
            1.81117,
            44.874851,
            231.61
          ],
          [
            1.811028,
            44.875375,
            241.19
          ],
          [
            1.810911,
            44.875514,
            244.21
          ],
          [
            1.810484,
            44.875576,
            246.47
          ],
          [
            1.810092,
            44.875602,
            247.71
          ],
          [
            1.809438,
            44.875678,
            249.16
          ],
          [
            1.809357,
            44.875806,
            249.03
          ],
          [
            1.809277,
            44.875878,
            249.0
          ],
          [
            1.809067,
            44.875805,
            248.83
          ],
          [
            1.808868,
            44.875723,
            249.09
          ],
          [
            1.808496,
            44.875545,
            249.8
          ],
          [
            1.808114,
            44.874699,
            258.93
          ],
          [
            1.80767,
            44.874202,
            267.09
          ],
          [
            1.807468,
            44.873843,
            273.85
          ],
          [
            1.807258,
            44.873532,
            280.67
          ],
          [
            1.806783,
            44.873076,
            294.06
          ],
          [
            1.806177,
            44.872714,
            311.83
          ],
          [
            1.806118,
            44.872547,
            314.43
          ],
          [
            1.806027,
            44.872387,
            317.02
          ],
          [
            1.805888,
            44.871973,
            322.32
          ],
          [
            1.805859,
            44.871918,
            322.95
          ],
          [
            1.805819,
            44.871876,
            323.5
          ],
          [
            1.805464,
            44.871656,
            328.78
          ],
          [
            1.805413,
            44.871686,
            329.0
          ],
          [
            1.805093,
            44.871736,
            328.98
          ],
          [
            1.804833,
            44.871735,
            328.34
          ],
          [
            1.804509,
            44.871861,
            326.56
          ],
          [
            1.804578,
            44.87188,
            326.98
          ],
          [
            1.804494,
            44.872065,
            327.34
          ],
          [
            1.804504,
            44.872146,
            327.64
          ],
          [
            1.804575,
            44.872285,
            328.59
          ],
          [
            1.804541,
            44.872353,
            328.36
          ],
          [
            1.804617,
            44.872376,
            329.54
          ],
          [
            1.804515,
            44.872506,
            329.14
          ]
        ]
      }
    },
    {
      "type": "Feature",
      "properties": {
        "source": "Loubressac-St-Céré.gpx",
        "type": "route"
      },
      "geometry": {
        "type": "LineString",
        "coordinates": [
          [
            1.888664,
            44.85967
          ],
          [
            1.888432,
            44.860115
          ],
          [
            1.88773,
            44.860742
          ],
          [
            1.887638,
            44.861125
          ],
          [
            1.887552,
            44.861138
          ],
          [
            1.887526,
            44.861293
          ],
          [
            1.887509,
            44.861802
          ],
          [
            1.886255,
            44.862044
          ],
          [
            1.886149,
            44.862266
          ],
          [
            1.866396,
            44.865064
          ],
          [
            1.86631,
            44.864815
          ],
          [
            1.861182,
            44.865967
          ],
          [
            1.858432,
            44.86637
          ],
          [
            1.8583,
            44.866517
          ],
          [
            1.858354,
            44.86661
          ],
          [
            1.858445,
            44.866919
          ],
          [
            1.845668,
            44.870906
          ],
          [
            1.845668,
            44.870906
          ],
          [
            1.83984,
            44.871738
          ],
          [
            1.839795,
            44.871687
          ],
          [
            1.836296,
            44.873342
          ],
          [
            1.828126,
            44.876661
          ],
          [
            1.814458,
            44.873749
          ],
          [
            1.81254,
            44.871927
          ],
          [
            1.809438,
            44.875678
          ],
          [
            1.809277,
            44.875878
          ],
          [
            1.808496,
            44.875545
          ],
          [
            1.80767,
            44.874202
          ],
          [
            1.806177,
            44.872714
          ],
          [
            1.805464,
            44.871656
          ],
          [
            1.804833,
            44.871735
          ],
          [
            1.804509,
            44.871861
          ],
          [
            1.804578,
            44.87188
          ],
          [
            1.804541,
            44.872353
          ],
          [
            1.804617,
            44.872376
          ],
          [
            1.804515,
            44.872506
          ]
        ]
      }
    }
  ]
}