{
  "type": "FeatureCollection",
  "features": [
    {
      "type": "Feature",
      "properties": {
        "name": "GraphHopper Track",
        "source": "Sentiers_faciles.gpx",
        "type": "track"
      },
      "geometry": {
        "type": "LineString",
        "coordinates": [
          [
            1.889353,
            44.861321,
            149.0
          ],
          [
            1.889598,
            44.861144,
            149.0
          ],
          [
            1.889695,
            44.86109,
            149.0
          ],
          [
            1.889912,
            44.861219,
            149.0
          ],
          [
            1.889954,
            44.861176,
            149.0
          ],
          [
            1.890125,
            44.861051,
            149.0
          ],
          [
            1.89027,
            44.861136,
            149.32
          ],
          [
            1.890348,
            44.861125,
            149.51
          ],
          [
            1.89054,
            44.861053,
            150.01
          ],
          [
            1.890875,
            44.86098,
            150.2
          ],
          [
            1.890828,
            44.860822,
            150.76
          ],
          [
            1.891143,
            44.860707,
            150.79
          ],
          [
            1.891274,
            44.860622,
            150.85
          ],
          [
            1.891412,
            44.860561,
            151.0
          ],
          [
            1.891401,
            44.86055,
            151.0
          ],
          [
            1.891401,
            44.86055,
            151.0
          ],
          [
            1.891154,
            44.860298,
            150.75
          ],
          [
            1.891033,
            44.860153,
            150.0
          ],
          [
            1.891139,
            44.860084,
            150.0
          ],
          [
            1.890653,
            44.859681,
            150.0
          ],
          [
            1.890775,
            44.859583,
            150.0
          ],
          [
            1.890657,
            44.85947,
            150.45
          ],
          [
            1.890644,
            44.859431,
            150.64
          ],
          [
            1.890665,
            44.859413,
            150.72
          ],
          [
            1.890633,
            44.859337,
            150.96
          ],
          [
            1.890787,
            44.859273,
            150.55
          ],
          [
            1.890807,
            44.859215,
            150.32
          ],
          [
            1.890755,
            44.85917,
            150.0
          ],
          [
            1.890807,
            44.859089,
            150.04
          ],
          [
            1.89059,
            44.859052,
            150.0
          ],
          [
            1.890501,
            44.859052,
            150.0
          ],
          [
            1.890442,
            44.858996,
            150.0
          ],
          [
            1.890397,
            44.858966,
            150.0
          ],
          [
            1.890401,
            44.858952,
            149.97
          ],
          [
            1.890267,
            44.858862,
            148.65
          ],
          [
            1.890103,
            44.858653,
            148.18
          ],
          [
            1.88999,
            44.858697,
            148.3
          ]
        ]
      }
    },
    {
      "type": "Feature",
      "properties": {
        "source": "Sentiers_faciles.gpx",
        "type": "route"
      },
      "geometry": {
        "type": "LineString",
        "coordinates": [
          [
            1.889353,
            44.861321
          ],
          [
            1.889695,
            44.86109
          ],
          [
            1.890125,
            44.861051
          ],
          [
            1.890875,
            44.86098
          ],
          [
            1.890828,
            44.860822
          ],
          [
            1.891412,
            44.860561
          ],
          [
            1.891401,
            44.86055
          ],
          [
            1.891401,
            44.86055
          ],
          [
            1.891033,
            44.860153
          ],
          [
            1.891139,
            44.860084
          ],
          [
            1.890653,
            44.859681
          ],
          [
            1.890775,
            44.859583
          ],
          [
            1.890657,
            44.85947
          ],
          [
            1.890633,
            44.859337
          ],
          [
            1.890755,
            44.85917
          ],
          [
            1.890807,
            44.859089
          ],
          [
            1.890501,
            44.859052
          ],
          [
            1.890397,
            44.858966
          ],
          [
            1.890103,
            44.858653
          ],
          [
            1.88999,
            44.858697
          ]
        ]
      }
    }
  ]
}