{
  "type": "FeatureCollection",
  "features": [
    {
      "type": "Feature",
      "properties": {
        "name": "GraphHopper Track",
        "source": "Crêtes_du_Caroux.gpx",
        "type": "track"
      },
      "geometry": {
        "type": "LineString",
        "coordinates": [
          [
            2.978707,
            43.614136,
            844.76
          ],
          [
            2.978877,
            43.614213,
            843.84
          ],
          [
            2.978915,
            43.614223,
            843.67
          ],
          [
            2.979134,
            43.614212,
            842.75
          ],
          [
            2.979795,
            43.613842,
            840.27
          ],
          [
            2.979895,
            43.613807,
            840.39
          ],
          [
            2.980221,
            43.613771,
            840.98
          ],
          [
            2.980391,
            43.613732,
            841.37
          ],
          [
            2.980492,
            43.613668,
            842.54
          ],
          [
            2.98034,
            43.613654,
            842.95
          ],
          [
            2.980202,
            43.613621,
            843.26
          ],
          [
            2.979884,
            43.613514,
            844.16
          ],
          [
            2.979937,
            43.613439,
            845.2
          ],
          [
            2.979959,
            43.613427,
            845.3
          ],
          [
            2.980018,
            43.613417,
            845.42
          ],
          [
            2.980068,
            43.613416,
            845.46
          ],
          [
            2.980444,
            43.613461,
            845.49
          ],
          [
            2.980572,
            43.613467,
            845.36
          ],
          [
            2.980627,
            43.613455,
            845.48
          ],
          [
            2.980688,
            43.613382,
            846.69
          ],
          [
            2.980678,
            43.613159,
            850.77
          ],
          [
            2.980718,
            43.612965,
            854.21
          ],
          [
            2.980825,
            43.612743,
            858.33
          ],
          [
            2.980809,
            43.612635,
            860.33
          ],
          [
            2.980841,
            43.612514,
            862.61
          ],
          [
            2.981032,
            43.612359,
            866.5
          ],
          [
            2.981209,
            43.612184,
            870.51
          ],
          [
            2.981257,
            43.612017,
            873.79
          ],
          [
            2.981249,
            43.611902,
            876.16
          ],
          [
            2.981136,
            43.611838,
            878.23
          ],
          [
            2.980901,
            43.611835,
            880.53
          ],
          [
            2.981064,
            43.611768,
            881.14
          ],
          [
            2.981226,
            43.611674,
            882.0
          ],
          [
            2.981389,
            43.611603,
            882.92
          ],
          [
            2.981638,
            43.611635,
            884.02
          ],
          [
            2.981909,
            43.611721,
            885.43
          ],
          [
            2.982267,
            43.611823,
            887.01
          ],
          [
            2.982495,
            43.611768,
            889.03
          ],
          [
            2.982939,
            43.611705,
            892.1
          ],
          [
            2.983438,
            43.611658,
            895.44
          ],
          [
            2.984435,
            43.611525,
            902.29
          ],
          [
            2.985086,
            43.611423,
            907.19
          ],
          [
            2.985228,
            43.611423,
            907.47
          ],
          [
            2.982135,
            43.609819,
            944.32
          ],
          [
            2.981786,
            43.609919,
            941.86
          ],
          [
            2.980959,
            43.610103,
            936.55
          ],
          [
            2.980853,
            43.610135,
            935.74
          ],
          [
            2.980766,
            43.610178,
            934.58
          ],
          [
            2.980536,
            43.610135,
            936.85
          ],
          [
            2.980007,
            43.609938,
            943.05
          ],
          [
            2.979363,
            43.609679,
            950.01
          ],
          [
            2.978906,
            43.60941,
            955.65
          ],
          [
            2.979621,
            43.609441,
            960.86
          ],
          [
            2.979979,
            43.609286,
            964.12
          ],
          [
            2.980708,
            43.60912,
            970.18
          ],
          [
            2.981423,
            43.608872,
            976.0
          ],
          [
            2.981459,
            43.608734,
            979.86
          ],
          [
            2.981539,
            43.608634,
            982.31
          ],
          [
            2.981577,
            43.608599,
            983.12
          ],
          [
            2.98169,
            43.60858,
            984.6
          ],
          [
            2.981724,
            43.608553,
            985.29
          ],
          [
            2.981822,
            43.608503,
            987.06
          ],
          [
            2.981845,
            43.608476,
            987.76
          ],
          [
            2.981888,
            43.608447,
            988.75
          ],
          [
            2.98192,
            43.608441,
            989.32
          ],
          [
            2.981957,
            43.608423,
            990.09
          ],
          [
            2.981828,
            43.608344,
            992.6
          ],
          [
            2.98179,
            43.608304,
            993.52
          ],
          [
            2.981843,
            43.608241,
            995.05
          ],
          [
            2.981924,
            43.608197,
            996.71
          ],
          [
            2.981962,
            43.608097,
            999.45
          ],
          [
            2.981965,
            43.608023,
            1001.65
          ],
          [
            2.981886,
            43.607917,
            1005.48
          ],
          [
            2.981685,
            43.607908,
            1007.66
          ],
          [
            2.981187,
            43.60792,
            1011.6
          ],
          [
            2.980835,
            43.607906,
            1014.41
          ],
          [
            2.980646,
            43.607907,
            1015.93
          ],
          [
            2.980507,
            43.607888,
            1017.05
          ],
          [
            2.980154,
            43.607803,
            1019.94
          ],
          [
            2.98003,
            43.607782,
            1020.86
          ],
          [
            2.979711,
            43.60777,
            1023.15
          ],
          [
            2.979531,
            43.607737,
            1024.59
          ],
          [
            2.979471,
            43.607721,
            1025.09
          ],
          [
            2.979359,
            43.607674,
            1025.98
          ],
          [
            2.979156,
            43.607562,
            1027.55
          ],
          [
            2.979081,
            43.607512,
            1028.19
          ],
          [
            2.978889,
            43.607353,
            1030.75
          ],
          [
            2.97893,
            43.607322,
            1032.39
          ],
          [
            2.978937,
            43.607284,
            1033.73
          ],
          [
            2.979036,
            43.607158,
            1038.66
          ],
          [
            2.979239,
            43.607177,
            1039.42
          ],
          [
            2.979642,
            43.607163,
            1041.81
          ],
          [
            2.979899,
            43.607128,
            1043.52
          ],
          [
            2.980044,
            43.607096,
            1044.46
          ],
          [
            2.980162,
            43.607061,
            1045.26
          ],
          [
            2.98047,
            43.606942,
            1047.51
          ],
          [
            2.981269,
            43.606573,
            1053.44
          ],
          [
            2.981387,
            43.606535,
            1054.21
          ],
          [
            2.981558,
            43.606495,
            1055.27
          ],
          [
            2.981705,
            43.606446,
            1056.21
          ],
          [
            2.982189,
            43.60623,
            1059.42
          ],
          [
            2.982242,
            43.606181,
            1059.86
          ],
          [
            2.982258,
            43.606144,
            1060.14
          ],
          [
            2.982252,
            43.606076,
            1060.63
          ],
          [
            2.982141,
            43.605715,
            1060.5
          ],
          [
            2.982146,
            43.605516,
            1059.44
          ],
          [
            2.982171,
            43.605429,
            1058.91
          ],
          [
            2.982208,
            43.605382,
            1058.75
          ],
          [
            2.982286,
            43.605333,
            1058.46
          ],
          [
            2.982422,
            43.605293,
            1058.17
          ],
          [
            2.98258,
            43.605188,
            1057.94
          ],
          [
            2.982639,
            43.605097,
            1057.7
          ],
          [
            2.982811,
            43.605002,
            1057.38
          ],
          [
            2.982918,
            43.60493,
            1057.26
          ],
          [
            2.983069,
            43.604708,
            1057.15
          ],
          [
            2.983194,
            43.604594,
            1057.16
          ],
          [
            2.983237,
            43.604509,
            1057.22
          ],
          [
            2.983487,
            43.60427,
            1057.14
          ],
          [
            2.983596,
            43.6042,
            1057.06
          ],
          [
            2.983784,
            43.60406,
            1056.89
          ],
          [
            2.983822,
            43.604005,
            1056.81
          ],
          [
            2.98387,
            43.603881,
            1056.62
          ],
          [
            2.983972,
            43.603726,
            1056.29
          ],
          [
            2.984012,
            43.603601,
            1056.01
          ],
          [
            2.984103,
            43.603399,
            1055.2
          ],
          [
            2.9842,
            43.603296,
            1054.65
          ],
          [
            2.984334,
            43.603201,
            1054.07
          ],
          [
            2.984447,
            43.603153,
            1053.7
          ],
          [
            2.984495,
            43.603104,
            1053.47
          ],
          [
            2.984519,
            43.60306,
            1053.26
          ],
          [
            2.984519,
            43.602984,
            1052.93
          ],
          [
            2.984557,
            43.602863,
            1052.39
          ],
          [
            2.984694,
            43.602751,
            1051.78
          ],
          [
            2.984924,
            43.602677,
            1051.08
          ],
          [
            2.985088,
            43.602562,
            1050.33
          ],
          [
            2.985286,
            43.602539,
            1049.94
          ],
          [
            2.985428,
            43.602496,
            1049.54
          ],
          [
            2.985494,
            43.602484,
            1049.45
          ],
          [
            2.985494,
            43.602484,
            1049.45
          ],
          [
            2.985428,
            43.602496,
            1049.54
          ],
          [
            2.985286,
            43.602539,
            1049.94
          ],
          [
            2.985088,
            43.602562,
            1050.33
          ],
          [
            2.984924,
            43.602677,
            1051.08
          ],
          [
            2.984694,
            43.602751,
            1051.78
          ],
          [
            2.984594,
            43.602828,
            1052.21
          ],
          [
            2.984557,
            43.602863,
            1052.39
          ],
          [
            2.984519,
            43.602984,
            1052.93
          ],
          [
            2.984519,
            43.60306,
            1053.26
          ],
          [
            2.984495,
            43.603104,
            1053.47
          ],
          [
            2.984447,
            43.603153,
            1053.7
          ],
          [
            2.984334,
            43.603201,
            1054.07
          ],
          [
            2.9842,
            43.603296,
            1054.65
          ],
          [
            2.984103,
            43.603399,
            1055.2
          ],
          [
            2.984012,
            43.603601,
            1056.01
          ],
          [
            2.983972,
            43.603726,
            1056.29
          ],
          [
            2.98387,
            43.603881,
            1056.62
          ],
          [
            2.983822,
            43.604005,
            1056.81
          ],
          [
            2.983784,
            43.60406,
            1056.89
          ],
          [
            2.983596,
            43.6042,
            1057.06
          ],
          [
            2.983487,
            43.60427,
            1057.14
          ],
          [
            2.983237,
            43.604509,
            1057.22
          ],
          [
            2.983194,
            43.604594,
            1057.16
          ],
          [
            2.983069,
            43.604708,
            1057.15
          ],
          [
            2.982918,
            43.60493,
            1057.26
          ],
          [
            2.982811,
            43.605002,
            1057.38
          ],
          [
            2.982639,
            43.605097,
            1057.7
          ],
          [
            2.98258,
            43.605188,
            1057.94
          ],
          [
            2.982422,
            43.605293,
            1058.17
          ],
          [
            2.982286,
            43.605333,
            1058.46
          ],
          [
            2.982208,
            43.605382,
            1058.75
          ],
          [
            2.982171,
            43.605429,
            1058.91
          ],
          [
            2.982146,
            43.605516,
            1059.44
          ],
          [
            2.982141,
            43.605715,
            1060.5
          ],
          [
            2.982252,
            43.606076,
            1060.63
          ],
          [
            2.982258,
            43.606144,
            1060.14
          ],
          [
            2.982242,
            43.606181,
            1059.86
          ],
          [
            2.982189,
            43.60623,
            1059.42
          ],
          [
            2.981705,
            43.606446,
            1056.21
          ],
          [
            2.981558,
            43.606495,
            1055.27
          ],
          [
            2.981387,
            43.606535,
            1054.21
          ],
          [
            2.981269,
            43.606573,
            1053.44
          ],
          [
            2.98047,
            43.606942,
            1047.51
          ],
          [
            2.980162,
            43.607061,
            1045.26
          ],
          [
            2.980044,
            43.607096,
            1044.46
          ],
          [
            2.979899,
            43.607128,
            1043.52
          ],
          [
            2.979642,
            43.607163,
            1041.81
          ],
          [
            2.979239,
            43.607177,
            1039.42
          ],
          [
            2.979036,
            43.607158,
            1038.66
          ],
          [
            2.978937,
            43.607284,
            1033.73
          ],
          [
            2.97893,
            43.607322,
            1032.39
          ],
          [
            2.978889,
            43.607353,
            1030.75
          ],
          [
            2.979081,
            43.607512,
            1028.19
          ],
          [
            2.979156,
            43.607562,
            1027.55
          ],
          [
            2.979359,
            43.607674,
            1025.98
          ],
          [
            2.979471,
            43.607721,
            1025.09
          ],
          [
            2.979531,
            43.607737,
            1024.59
          ],
          [
            2.979711,
            43.60777,
            1023.15
          ],
          [
            2.98003,
            43.607782,
            1020.86
          ],
          [
            2.980154,
            43.607803,
            1019.94
          ],
          [
            2.980507,
            43.607888,
            1017.05
          ],
          [
            2.980646,
            43.607907,
            1015.93
          ],
          [
            2.980835,
            43.607906,
            1014.41
          ],
          [
            2.981187,
            43.60792,
            1011.6
          ],
          [
            2.981685,
            43.607908,
            1007.66
          ],
          [
            2.981886,
            43.607917,
            1005.48
          ],
          [
            2.98194,
            43.607923,
            1004.94
          ],
          [
            2.982162,
            43.607978,
            1003.06
          ],
          [
            2.982372,
            43.608041,
            1001.1
          ],
          [
            2.982548,
            43.608102,
            999.42
          ],
          [
            2.982823,
            43.608222,
            996.67
          ],
          [
            2.983592,
            43.608517,
            989.54
          ],
          [
            2.983833,
            43.608641,
            987.3
          ],
          [
            2.984308,
            43.608807,
            982.78
          ],
          [
            2.98455,
            43.608903,
            980.41
          ],
          [
            2.984703,
            43.609003,
            978.68
          ],
          [
            2.985012,
            43.609236,
            975.03
          ],
          [
            2.985121,
            43.609304,
            973.87
          ],
          [
            2.985289,
            43.609391,
            972.2
          ],
          [
            2.985433,
            43.609452,
            970.97
          ],
          [
            2.98557,
            43.609507,
            969.89
          ],
          [
            2.985828,
            43.609591,
            968.04
          ],
          [
            2.985872,
            43.609622,
            967.66
          ],
          [
            2.985869,
            43.609662,
            967.31
          ],
          [
            2.98584,
            43.609683,
            967.05
          ],
          [
            2.985783,
            43.60969,
            966.7
          ],
          [
            2.985588,
            43.609658,
            965.46
          ],
          [
            2.985187,
            43.609631,
            962.98
          ],
          [
            2.984672,
            43.609627,
            959.94
          ],
          [
            2.984093,
            43.6096,
            956.33
          ],
          [
            2.98376,
            43.609608,
            954.33
          ],
          [
            2.983516,
            43.609603,
            952.91
          ],
          [
            2.983151,
            43.609623,
            950.76
          ],
          [
            2.982833,
            43.609657,
            948.87
          ],
          [
            2.982347,
            43.609758,
            946.0
          ],
          [
            2.982135,
            43.609819,
            944.32
          ],
          [
            2.985228,
            43.611423,
            907.47
          ],
          [
            2.985378,
            43.611423,
            907.76
          ],
          [
            2.986137,
            43.611235,
            914.07
          ],
          [
            2.986419,
            43.611195,
            916.18
          ],
          [
            2.986777,
            43.611078,
            918.66
          ],
          [
            2.987156,
            43.610968,
            920.61
          ],
          [
            2.987601,
            43.61085,
            922.17
          ],
          [
            2.988024,
            43.610779,
            922.99
          ],
          [
            2.988392,
            43.61074,
            923.02
          ],
          [
            2.988577,
            43.610685,
            923.48
          ],
          [
            2.988522,
            43.610866,
            918.59
          ],
          [
            2.988338,
            43.611062,
            912.64
          ],
          [
            2.988284,
            43.611187,
            909.02
          ],
          [
            2.988371,
            43.611399,
            902.85
          ],
          [
            2.988555,
            43.611698,
            893.71
          ],
          [
            2.988609,
            43.611847,
            889.31
          ],
          [
            2.988598,
            43.611972,
            885.73
          ],
          [
            2.988653,
            43.612184,
            879.69
          ],
          [
            2.988989,
            43.612742,
            862.39
          ],
          [
            2.989108,
            43.612899,
            857.33
          ],
          [
            2.989281,
            43.613236,
            847.57
          ],
          [
            2.989281,
            43.61333,
            845.13
          ],
          [
            2.989466,
            43.613487,
            839.74
          ],
          [
            2.989596,
            43.613644,
            835.23
          ],
          [
            2.989596,
            43.613754,
            832.96
          ],
          [
            2.989682,
            43.613872,
            830.15
          ],
          [
            2.989693,
            43.614013,
            827.02
          ],
          [
            2.989806,
            43.614115,
            824.89
          ],
          [
            2.989699,
            43.61427,
            823.13
          ],
          [
            2.989206,
            43.61457,
            819.89
          ],
          [
            2.989098,
            43.614669,
            819.19
          ],
          [
            2.988974,
            43.61474,
            818.42
          ],
          [
            2.988819,
            43.614752,
            817.64
          ],
          [
            2.988581,
            43.614741,
            816.68
          ],
          [
            2.988344,
            43.61472,
            815.97
          ],
          [
            2.988108,
            43.61469,
            813.99
          ],
          [
            2.987925,
            43.614678,
            812.02
          ],
          [
            2.988468,
            43.614894,
            814.14
          ],
          [
            2.988942,
            43.614903,
            812.13
          ],
          [
            2.989285,
            43.615064,
            810.58
          ],
          [
            2.989392,
            43.615147,
            809.71
          ],
          [
            2.98966,
            43.615227,
            808.08
          ],
          [
            2.989926,
            43.615213,
            806.82
          ],
          [
            2.990071,
            43.615268,
            806.14
          ],
          [
            2.990355,
            43.615414,
            805.44
          ],
          [
            2.990712,
            43.615544,
            805.35
          ],
          [
            2.990798,
            43.615604,
            804.67
          ],
          [
            2.990752,
            43.615702,
            804.46
          ],
          [
            2.990709,
            43.61593,
            807.96
          ],
          [
            2.990782,
            43.615942,
            808.17
          ],
          [
            2.991055,
            43.615965,
            807.82
          ],
          [
            2.991204,
            43.615986,
            807.6
          ],
          [
            2.991301,
            43.616009,
            807.69
          ],
          [
            2.991673,
            43.616126,
            807.6
          ],
          [
            2.991824,
            43.616155,
            807.46
          ],
          [
            2.993098,
            43.616297,
            806.37
          ],
          [
            2.993212,
            43.616299,
            806.36
          ],
          [
            2.993388,
            43.61629,
            806.41
          ],
          [
            2.993965,
            43.616244,
            807.09
          ],
          [
            2.995071,
            43.616206,
            808.36
          ],
          [
            2.995347,
            43.616204,
            808.15
          ],
          [
            2.995513,
            43.616222,
            808.36
          ],
          [
            2.995334,
            43.616283,
            809.19
          ],
          [
            2.995048,
            43.616321,
            810.5
          ],
          [
            2.994838,
            43.616366,
            811.64
          ],
          [
            2.994864,
            43.616389,
            812.03
          ],
          [
            2.994953,
            43.616434,
            812.94
          ],
          [
            2.995228,
            43.616552,
            815.01
          ],
          [
            2.995476,
            43.616635,
            816.45
          ],
          [
            2.995729,
            43.616681,
            817.5
          ],
          [
            2.995991,
            43.616714,
            818.54
          ],
          [
            2.996605,
            43.616723,
            820.44
          ],
          [
            2.996766,
            43.616732,
            820.88
          ],
          [
            2.996985,
            43.616759,
            821.47
          ],
          [
            2.997668,
            43.616821,
            823.68
          ],
          [
            2.997905,
            43.616864,
            824.51
          ],
          [
            2.998058,
            43.616901,
            825.0
          ],
          [
            2.998387,
            43.617013,
            825.92
          ],
          [
            2.999045,
            43.617387,
            826.94
          ],
          [
            2.999123,
            43.617441,
            826.94
          ],
          [
            2.999139,
            43.617479,
            826.91
          ],
          [
            2.999127,
            43.617514,
            826.89
          ],
          [
            2.999094,
            43.617543,
            826.86
          ],
          [
            2.999007,
            43.617592,
            826.79
          ],
          [
            2.998931,
            43.617658,
            826.63
          ],
          [
            2.999039,
            43.617642,
            826.26
          ],
          [
            2.999302,
            43.61763,
            825.1
          ],
          [
            2.999774,
            43.617649,
            823.1
          ],
          [
            2.999865,
            43.617643,
            822.71
          ],
          [
            3.000153,
            43.617596,
            821.36
          ],
          [
            3.000297,
            43.61758,
            820.6
          ],
          [
            3.000759,
            43.617547,
            817.85
          ],
          [
            3.000823,
            43.617547,
            817.44
          ],
          [
            3.000938,
            43.617564,
            816.67
          ],
          [
            3.001064,
            43.617597,
            815.76
          ],
          [
            3.001708,
            43.617796,
            810.88
          ],
          [
            3.00204,
            43.61796,
            808.16
          ],
          [
            3.002193,
            43.618025,
            806.94
          ],
          [
            3.002513,
            43.618122,
            804.42
          ],
          [
            3.002616,
            43.618161,
            803.53
          ],
          [
            3.00295,
            43.61831,
            800.62
          ],
          [
            3.003177,
            43.618437,
            797.77
          ],
          [
            3.003224,
            43.618456,
            797.18
          ],
          [
            3.003417,
            43.618507,
            795.13
          ],
          [
            3.003535,
            43.618557,
            794.3
          ],
          [
            3.003494,
            43.618585,
            794.07
          ],
          [
            3.003664,
            43.618624,
            793.09
          ],
          [
            3.003865,
            43.618656,
            791.78
          ],
          [
            3.004246,
            43.618694,
            789.02
          ],
          [
            3.004552,
            43.618685,
            786.33
          ],
          [
            3.005024,
            43.618585,
            783.55
          ],
          [
            3.005426,
            43.618522,
            781.08
          ],
          [
            3.005754,
            43.618402,
            778.66
          ],
          [
            3.006247,
            43.618557,
            775.33
          ],
          [
            3.006902,
            43.618703,
            772.84
          ],
          [
            3.007408,
            43.618858,
            769.55
          ],
          [
            3.007867,
            43.61893,
            765.01
          ],
          [
            3.008739,
            43.619103,
            751.79
          ],
          [
            3.009659,
            43.619359,
            734.7
          ],
          [
            3.009691,
            43.619229,
            735.77
          ],
          [
            3.009774,
            43.619215,
            734.45
          ],
          [
            3.009892,
            43.619215,
            732.73
          ],
          [
            3.010045,
            43.619235,
            730.85
          ],
          [
            3.010337,
            43.619336,
            727.25
          ],
          [
            3.010468,
            43.619373,
            725.53
          ],
          [
            3.010659,
            43.619406,
            723.02
          ],
          [
            3.010844,
            43.6194,
            720.66
          ],
          [
            3.011088,
            43.619262,
            716.88
          ],
          [
            3.011187,
            43.619221,
            715.59
          ],
          [
            3.011356,
            43.619194,
            713.82
          ],
          [
            3.011571,
            43.619112,
            711.85
          ],
          [
            3.011643,
            43.618928,
            710.15
          ],
          [
            3.011649,
            43.618809,
            709.34
          ],
          [
            3.011641,
            43.618726,
            708.93
          ],
          [
            3.011796,
            43.618631,
            708.52
          ],
          [
            3.011925,
            43.618586,
            708.61
          ],
          [
            3.012107,
            43.618543,
            709.06
          ],
          [
            3.012263,
            43.618485,
            709.68
          ],
          [
            3.012596,
            43.618332,
            711.16
          ],
          [
            3.012803,
            43.618187,
            715.46
          ],
          [
            3.012989,
            43.618197,
            714.32
          ],
          [
            3.013365,
            43.618192,
            711.67
          ],
          [
            3.013701,
            43.618166,
            709.63
          ],
          [
            3.013986,
            43.618173,
            707.59
          ],
          [
            3.014148,
            43.618164,
            706.43
          ],
          [
            3.014272,
            43.618167,
            705.55
          ],
          [
            3.014438,
            43.618158,
            704.34
          ],
          [
            3.014547,
            43.618135,
            703.47
          ],
          [
            3.014627,
            43.618132,
            702.81
          ],
          [
            3.014718,
            43.618141,
            702.06
          ],
          [
            3.01532,
            43.618262,
            696.9
          ],
          [
            3.015483,
            43.618286,
            695.52
          ],
          [
            3.015762,
            43.618264,
            693.64
          ],
          [
            3.015835,
            43.61828,
            693.14
          ],
          [
            3.015903,
            43.618309,
            692.25
          ],
          [
            3.015949,
            43.618345,
            691.46
          ],
          [
            3.015996,
            43.61841,
            692.09
          ],
          [
            3.016034,
            43.618441,
            693.22
          ],
          [
            3.016079,
            43.618461,
            693.85
          ],
          [
            3.01614,
            43.618464,
            694.07
          ],
          [
            3.016469,
            43.618416,
            693.83
          ],
          [
            3.017256,
            43.61835,
            692.73
          ],
          [
            3.017512,
            43.618341,
            692.42
          ],
          [
            3.017954,
            43.618354,
            691.98
          ],
          [
            3.018396,
            43.618401,
            691.78
          ],
          [
            3.018506,
            43.618428,
            691.72
          ],
          [
            3.018584,
            43.618457,
            691.62
          ],
          [
            3.018658,
            43.618501,
            691.6
          ],
          [
            3.018722,
            43.618561,
            691.65
          ],
          [
            3.018794,
            43.618665,
            691.88
          ],
          [
            3.018878,
            43.618697,
            691.72
          ],
          [
            3.018926,
            43.618707,
            691.79
          ],
          [
            3.019057,
            43.618713,
            691.82
          ],
          [
            3.01944,
            43.618701,
            691.69
          ],
          [
            3.019919,
            43.618707,
            691.51
          ],
          [
            3.020222,
            43.61867,
            691.57
          ],
          [
            3.020332,
            43.618668,
            691.69
          ],
          [
            3.020624,
            43.618455,
            691.31
          ],
          [
            3.02077,
            43.618378,
            691.09
          ],
          [
            3.020904,
            43.61832,
            691.03
          ],
          [
            3.021012,
            43.618251,
            690.94
          ],
          [
            3.021208,
            43.618195,
            691.21
          ],
          [
            3.021531,
            43.618025,
            693.27
          ],
          [
            3.021967,
            43.617866,
            695.6
          ],
          [
            3.023869,
            43.616952,
            699.09
          ],
          [
            3.02427,
            43.616813,
            697.98
          ],
          [
            3.024955,
            43.616461,
            694.84
          ],
          [
            3.025088,
            43.616402,
            694.27
          ],
          [
            3.025388,
            43.616291,
            693.46
          ],
          [
            3.025438,
            43.616265,
            693.38
          ],
          [
            3.025936,
            43.615889,
            694.62
          ],
          [
            3.026074,
            43.615795,
            695.47
          ],
          [
            3.026369,
            43.615623,
            697.8
          ],
          [
            3.026469,
            43.615556,
            698.72
          ],
          [
            3.026535,
            43.615505,
            699.36
          ],
          [
            3.026736,
            43.615286,
            701.8
          ],
          [
            3.026793,
            43.615239,
            702.38
          ],
          [
            3.027185,
            43.614984,
            705.8
          ],
          [
            3.027235,
            43.614943,
            706.26
          ],
          [
            3.027275,
            43.614895,
            706.73
          ],
          [
            3.027562,
            43.614384,
            711.13
          ],
          [
            3.027698,
            43.614074,
            713.85
          ],
          [
            3.027798,
            43.613795,
            716.1
          ],
          [
            3.027829,
            43.613732,
            716.6
          ],
          [
            3.027913,
            43.613628,
            717.56
          ],
          [
            3.028062,
            43.613407,
            719.73
          ],
          [
            3.028168,
            43.613307,
            720.96
          ],
          [
            3.028256,
            43.61325,
            721.84
          ],
          [
            3.028478,
            43.613136,
            723.75
          ],
          [
            3.028576,
            43.613066,
            724.72
          ],
          [
            3.028922,
            43.612781,
            729.85
          ],
          [
            3.029737,
            43.612536,
            737.69
          ],
          [
            3.030184,
            43.612368,
            741.04
          ],
          [
            3.031166,
            43.612072,
            746.89
          ],
          [
            3.032104,
            43.612749,
            741.78
          ],
          [
            3.03261,
            43.613119,
            745.62
          ],
          [
            3.033269,
            43.613619,
            753.76
          ],
          [
            3.033328,
            43.613624,
            753.8
          ],
          [
            3.033421,
            43.613704,
            753.11
          ],
          [
            3.03345,
            43.6137,
            752.97
          ],
          [
            3.034912,
            43.613761,
            738.15
          ],
          [
            3.035594,
            43.613881,
            730.33
          ],
          [
            3.036929,
            43.614332,
            708.97
          ],
          [
            3.037772,
            43.614235,
            699.33
          ],
          [
            3.038341,
            43.614049,
            697.53
          ],
          [
            3.039202,
            43.614017,
            693.59
          ],
          [
            3.04007,
            43.614003,
            690.57
          ],
          [
            3.04042,
            43.61397,
            688.7
          ],
          [
            3.040626,
            43.613919,
            688.5
          ],
          [
            3.040678,
            43.613882,
            688.49
          ],
          [
            3.040701,
            43.613768,
            689.0
          ],
          [
            3.040706,
            43.613745,
            688.97
          ],
          [
            3.041051,
            43.613584,
            687.86
          ],
          [
            3.04184,
            43.613005,
            685.07
          ],
          [
            3.044017,
            43.611732,
            688.77
          ],
          [
            3.044758,
            43.611351,
            693.35
          ],
          [
            3.044951,
            43.611479,
            689.8
          ],
          [
            3.045174,
            43.611574,
            686.83
          ],
          [
            3.045289,
            43.611562,
            684.82
          ],
          [
            3.045412,
            43.611562,
            682.23
          ],
          [
            3.045522,
            43.61159,
            679.4
          ],
          [
            3.045624,
            43.611655,
            676.2
          ],
          [
            3.04571,
            43.611784,
            671.85
          ],
          [
            3.045613,
            43.611933,
            666.59
          ],
          [
            3.045635,
            43.612015,
            663.81
          ],
          [
            3.045777,
            43.612147,
            657.82
          ],
          [
            3.045943,
            43.612174,
            653.34
          ],
          [
            3.046432,
            43.612283,
            641.19
          ],
          [
            3.046635,
            43.612357,
            636.42
          ],
          [
            3.047188,
            43.612382,
            626.45
          ],
          [
            3.047365,
            43.612417,
            623.11
          ],
          [
            3.047574,
            43.612436,
            619.2
          ],
          [
            3.047665,
            43.612388,
            617.13
          ],
          [
            3.047885,
            43.612355,
            613.18
          ],
          [
            3.047923,
            43.612358,
            612.49
          ],
          [
            3.048009,
            43.612514,
            608.14
          ],
          [
            3.048087,
            43.612562,
            605.3
          ],
          [
            3.048156,
            43.612588,
            603.01
          ],
          [
            3.04838,
            43.61263,
            597.4
          ],
          [
            3.048517,
            43.612562,
            596.78
          ],
          [
            3.048648,
            43.61251,
            596.51
          ],
          [
            3.048813,
            43.61249,
            594.88
          ],
          [
            3.049624,
            43.612082,
            587.83
          ],
          [
            3.050161,
            43.611849,
            583.24
          ],
          [
            3.050504,
            43.61169,
            580.1
          ],
          [
            3.050937,
            43.611595,
            576.37
          ],
          [
            3.051322,
            43.611563,
            573.31
          ],
          [
            3.052299,
            43.611623,
            570.58
          ],
          [
            3.052416,
            43.611603,
            570.07
          ],
          [
            3.052431,
            43.611594,
            570.01
          ],
          [
            3.052638,
            43.611476,
            568.6
          ],
          [
            3.053046,
            43.611163,
            563.47
          ],
          [
            3.05309,
            43.611141,
            562.79
          ],
          [
            3.054064,
            43.610813,
            555.66
          ],
          [
            3.054477,
            43.610637,
            553.39
          ],
          [
            3.055101,
            43.610345,
            551.31
          ],
          [
            3.055479,
            43.610143,
            550.51
          ],
          [
            3.056093,
            43.609846,
            549.39
          ],
          [
            3.056331,
            43.609709,
            548.71
          ],
          [
            3.056528,
            43.609406,
            547.29
          ],
          [
            3.056613,
            43.609309,
            546.73
          ],
          [
            3.056698,
            43.609261,
            546.33
          ],
          [
            3.057259,
            43.609156,
            543.74
          ],
          [
            3.057683,
            43.609051,
            542.0
          ],
          [
            3.057873,
            43.609041,
            541.4
          ],
          [
            3.058093,
            43.609075,
            540.8
          ],
          [
            3.058456,
            43.609181,
            540.02
          ],
          [
            3.059403,
            43.608948,
            539.04
          ],
          [
            3.059636,
            43.608805,
            538.11
          ],
          [
            3.05966,
            43.608674,
            536.97
          ],
          [
            3.059832,
            43.608426,
            534.06
          ],
          [
            3.059939,
            43.608294,
            532.3
          ],
          [
            3.059966,
            43.608232,
            531.71
          ],
          [
            3.060084,
            43.608088,
            530.33
          ],
          [
            3.060583,
            43.607738,
            526.66
          ],
          [
            3.060872,
            43.607637,
            526.73
          ],
          [
            3.06098,
            43.607653,
            527.48
          ],
          [
            3.061109,
            43.60754,
            526.85
          ],
          [
            3.061189,
            43.607525,
            526.38
          ],
          [
            3.061345,
            43.607525,
            524.98
          ],
          [
            3.061516,
            43.607494,
            523.17
          ],
          [
            3.061752,
            43.607467,
            519.51
          ],
          [
            3.061951,
            43.607556,
            516.01
          ],
          [
            3.062101,
            43.607579,
            513.63
          ],
          [
            3.062278,
            43.607548,
            510.62
          ],
          [
            3.062519,
            43.607463,
            505.86
          ],
          [
            3.062648,
            43.607505,
            503.13
          ],
          [
            3.062707,
            43.607482,
            501.76
          ],
          [
            3.06297,
            43.607435,
            495.91
          ],
          [
            3.063083,
            43.607459,
            493.39
          ],
          [
            3.063372,
            43.607544,
            486.71
          ],
          [
            3.063705,
            43.607552,
            479.1
          ],
          [
            3.063812,
            43.607505,
            476.1
          ],
          [
            3.063877,
            43.607373,
            471.32
          ],
          [
            3.063989,
            43.60728,
            466.95
          ],
          [
            3.064327,
            43.607218,
            457.97
          ],
          [
            3.064708,
            43.607191,
            448.13
          ],
          [
            3.064998,
            43.607206,
            440.33
          ],
          [
            3.06511,
            43.607284,
            436.22
          ],
          [
            3.065239,
            43.607307,
            432.78
          ],
          [
            3.065432,
            43.607381,
            427.15
          ],
          [
            3.065619,
            43.60744,
            422.58
          ],
          [
            3.065582,
            43.607313,
            422.85
          ],
          [
            3.065622,
            43.606989,
            422.76
          ],
          [
            3.065581,
            43.60684,
            422.43
          ],
          [
            3.065436,
            43.606707,
            422.42
          ],
          [
            3.065315,
            43.606664,
            422.24
          ],
          [
            3.06516,
            43.606631,
            421.9
          ],
          [
            3.064994,
            43.606617,
            422.5
          ],
          [
            3.064588,
            43.606675,
            423.41
          ],
          [
            3.064376,
            43.606606,
            423.99
          ],
          [
            3.064268,
            43.606539,
            424.51
          ],
          [
            3.064044,
            43.606469,
            425.41
          ],
          [
            3.063753,
            43.606462,
            426.63
          ],
          [
            3.063613,
            43.606426,
            427.16
          ],
          [
            3.063549,
            43.606382,
            427.46
          ],
          [
            3.063515,
            43.606313,
            427.85
          ],
          [
            3.063483,
            43.606161,
            428.84
          ],
          [
            3.063448,
            43.60609,
            429.23
          ],
          [
            3.063348,
            43.606031,
            429.49
          ],
          [
            3.062993,
            43.60591,
            431.23
          ],
          [
            3.062963,
            43.605877,
            431.71
          ],
          [
            3.062955,
            43.605795,
            432.07
          ],
          [
            3.063007,
            43.605744,
            431.69
          ],
          [
            3.063193,
            43.605654,
            431.34
          ],
          [
            3.063288,
            43.60559,
            430.96
          ],
          [
            3.063395,
            43.605494,
            431.23
          ],
          [
            3.063618,
            43.605483,
            425.22
          ],
          [
            3.063759,
            43.605461,
            422.12
          ],
          [
            3.063862,
            43.605486,
            420.69
          ],
          [
            3.063917,
            43.605352,
            417.33
          ],
          [
            3.063934,
            43.605215,
            414.74
          ],
          [
            3.064115,
            43.605021,
            408.82
          ],
          [
            3.064566,
            43.605119,
            388.49
          ],
          [
            3.064901,
            43.605244,
            374.19
          ],
          [
            3.064994,
            43.605263,
            370.95
          ],
          [
            3.065236,
            43.604811,
            367.04
          ],
          [
            3.0653,
            43.604721,
            367.0
          ],
          [
            3.065656,
            43.604576,
            365.21
          ],
          [
            3.065919,
            43.604496,
            364.37
          ],
          [
            3.066014,
            43.604456,
            364.18
          ],
          [
            3.066108,
            43.604434,
            363.41
          ],
          [
            3.066159,
            43.604444,
            362.52
          ],
          [
            3.066264,
            43.604403,
            362.53
          ],
          [
            3.066414,
            43.604323,
            362.88
          ],
          [
            3.066469,
            43.604276,
            362.92
          ],
          [
            3.066492,
            43.604227,
            362.74
          ],
          [
            3.066567,
            43.604236,
            361.69
          ],
          [
            3.066671,
            43.604287,
            360.45
          ],
          [
            3.066704,
            43.604335,
            359.65
          ],
          [
            3.066758,
            43.604348,
            358.89
          ],
          [
            3.066854,
            43.60434,
            357.85
          ],
          [
            3.067213,
            43.604292,
            352.27
          ],
          [
            3.06717,
            43.604141,
            352.26
          ],
          [
            3.067122,
            43.604053,
            351.0
          ],
          [
            3.067046,
            43.603956,
            350.05
          ],
          [
            3.06668,
            43.60376,
            347.82
          ],
          [
            3.066648,
            43.603727,
            347.51
          ],
          [
            3.066647,
            43.603677,
            346.12
          ],
          [
            3.066699,
            43.603615,
            346.12
          ],
          [
            3.066761,
            43.603635,
            344.27
          ],
          [
            3.066829,
            43.603626,
            342.66
          ],
          [
            3.067023,
            43.603555,
            338.96
          ],
          [
            3.067083,
            43.603516,
            338.06
          ],
          [
            3.067293,
            43.603329,
            334.9
          ],
          [
            3.06743,
            43.603174,
            332.49
          ],
          [
            3.067519,
            43.603042,
            331.02
          ],
          [
            3.067538,
            43.60296,
            330.42
          ],
          [
            3.067564,
            43.602908,
            329.56
          ],
          [
            3.06762,
            43.602888,
            327.09
          ],
          [
            3.067633,
            43.602807,
            326.19
          ],
          [
            3.067627,
            43.602706,
            325.56
          ],
          [
            3.067639,
            43.602621,
            325.16
          ],
          [
            3.067694,
            43.602484,
            325.19
          ],
          [
            3.067786,
            43.602311,
            323.55
          ],
          [
            3.067889,
            43.602224,
            322.3
          ],
          [
            3.068138,
            43.602071,
            320.5
          ],
          [
            3.068229,
            43.602046,
            320.03
          ],
          [
            3.068426,
            43.602053,
            319.13
          ],
          [
            3.068653,
            43.602089,
            317.66
          ],
          [
            3.068783,
            43.602078,
            316.51
          ],
          [
            3.069012,
            43.602025,
            315.42
          ],
          [
            3.069445,
            43.601856,
            314.88
          ],
          [
            3.069683,
            43.601661,
            312.99
          ],
          [
            3.069746,
            43.6016,
            312.0
          ],
          [
            3.069898,
            43.601552,
            310.55
          ],
          [
            3.070174,
            43.601496,
            308.32
          ],
          [
            3.070348,
            43.60145,
            306.97
          ],
          [
            3.070807,
            43.601274,
            302.66
          ],
          [
            3.071173,
            43.601193,
            299.23
          ],
          [
            3.071486,
            43.601143,
            296.12
          ],
          [
            3.071913,
            43.600961,
            290.57
          ],
          [
            3.072253,
            43.600686,
            284.75
          ],
          [
            3.072485,
            43.600475,
            281.21
          ],
          [
            3.072691,
            43.600306,
            278.54
          ],
          [
            3.072976,
            43.600009,
            275.11
          ],
          [
            3.073271,
            43.599779,
            272.74
          ],
          [
            3.073486,
            43.599637,
            271.2
          ],
          [
            3.073789,
            43.599477,
            269.12
          ],
          [
            3.074025,
            43.599307,
            265.31
          ],
          [
            3.074184,
            43.599222,
            263.33
          ],
          [
            3.074394,
            43.599191,
            262.31
          ],
          [
            3.074607,
            43.599177,
            260.3
          ],
          [
            3.075232,
            43.599168,
            253.84
          ],
          [
            3.075515,
            43.599125,
            250.76
          ],
          [
            3.075702,
            43.599078,
            248.62
          ],
          [
            3.075719,
            43.598998,
            247.4
          ],
          [
            3.075697,
            43.598914,
            246.08
          ],
          [
            3.075706,
            43.598845,
            244.98
          ],
          [
            3.075831,
            43.598802,
            243.24
          ],
          [
            3.075952,
            43.598771,
            241.89
          ],
          [
            3.075991,
            43.598723,
            240.53
          ],
          [
            3.076019,
            43.59866,
            238.88
          ],
          [
            3.076067,
            43.598628,
            237.85
          ],
          [
            3.076515,
            43.598684,
            231.63
          ],
          [
            3.076609,
            43.598684,
            230.44
          ],
          [
            3.076639,
            43.598636,
            229.54
          ],
          [
            3.076695,
            43.598387,
            225.31
          ],
          [
            3.076721,
            43.598352,
            224.63
          ],
          [
            3.076789,
            43.598346,
            223.81
          ],
          [
            3.076909,
            43.598369,
            222.35
          ],
          [
            3.077056,
            43.598423,
            220.44
          ],
          [
            3.077261,
            43.598562,
            217.35
          ],
          [
            3.077341,
            43.598585,
            216.4
          ],
          [
            3.077414,
            43.598573,
            215.59
          ],
          [
            3.077479,
            43.598518,
            214.5
          ],
          [
            3.0777,
            43.598361,
            211.22
          ],
          [
            3.078258,
            43.598111,
            204.96
          ],
          [
            3.078287,
            43.598111,
            204.73
          ],
          [
            3.078348,
            43.59813,
            204.35
          ],
          [
            3.078431,
            43.598059,
            203.69
          ],
          [
            3.078778,
            43.597881,
            200.53
          ],
          [
            3.079309,
            43.597725,
            196.55
          ],
          [
            3.079387,
            43.597729,
            196.01
          ],
          [
            3.079495,
            43.597759,
            195.26
          ],
          [
            3.079638,
            43.597772,
            194.56
          ],
          [
            3.079871,
            43.597764,
            194.0
          ],
          [
            3.079818,
            43.597031,
            191.89
          ],
          [
            3.079874,
            43.596964,
            191.93
          ],
          [
            3.080063,
            43.596863,
            191.73
          ],
          [
            3.08181,
            43.595772,
            185.11
          ],
          [
            3.082136,
            43.595448,
            183.0
          ],
          [
            3.082215,
            43.595425,
            182.96
          ],
          [
            3.082733,
            43.595401,
            180.71
          ],
          [
            3.083184,
            43.595228,
            179.11
          ],
          [
            3.084082,
            43.594991,
            176.21
          ],
          [
            3.084174,
            43.594934,
            177.02
          ],
          [
            3.084299,
            43.594728,
            178.0
          ],
          [
            3.084369,
            43.594697,
            178.05
          ],
          [
            3.08446,
            43.594722,
            178.19
          ],
          [
            3.084606,
            43.594574,
            178.21
          ],
          [
            3.084666,
            43.594594,
            178.81
          ],
          [
            3.0847,
            43.594593,
            179.08
          ],
          [
            3.084757,
            43.594568,
            179.2
          ],
          [
            3.084783,
            43.594523,
            179.46
          ],
          [
            3.084779,
            43.594499,
            179.37
          ],
          [
            3.084743,
            43.594458,
            179.0
          ],
          [
            3.084929,
            43.594307,
            179.91
          ],
          [
            3.085033,
            43.594135,
            180.66
          ],
          [
            3.085074,
            43.593982,
            180.83
          ],
          [
            3.085164,
            43.593982,
            181.93
          ],
          [
            3.085218,
            43.593969,
            182.52
          ],
          [
            3.085313,
            43.593878,
            183.67
          ],
          [
            3.085406,
            43.593712,
            185.05
          ],
          [
            3.085456,
            43.593596,
            185.93
          ],
          [
            3.085521,
            43.593385,
            186.95
          ],
          [
            3.085561,
            43.593032,
            187.49
          ],
          [
            3.085648,
            43.592779,
            187.97
          ],
          [
            3.085719,
            43.592645,
            188.8
          ],
          [
            3.086439,
            43.591999,
            192.74
          ],
          [
            3.086701,
            43.591738,
            194.43
          ],
          [
            3.086837,
            43.591649,
            196.14
          ],
          [
            3.087457,
            43.591415,
            203.91
          ],
          [
            3.087758,
            43.591337,
            204.72
          ],
          [
            3.088428,
            43.591145,
            206.26
          ],
          [
            3.088752,
            43.591017,
            208.1
          ],
          [
            3.0889,
            43.590981,
            208.95
          ],
          [
            3.089689,
            43.590908,
            212.15
          ],
          [
            3.090299,
            43.590814,
            214.4
          ],
          [
            3.090584,
            43.590749,
            214.86
          ],
          [
            3.090828,
            43.590707,
            215.18
          ],
          [
            3.091235,
            43.590668,
            215.21
          ],
          [
            3.091761,
            43.59066,
            215.89
          ],
          [
            3.092606,
            43.590696,
            213.59
          ],
          [
            3.092815,
            43.590739,
            212.24
          ],
          [
            3.092874,
            43.590783,
            211.99
          ],
          [
            3.092897,
            43.590825,
            211.94
          ],
          [
            3.092881,
            43.591045,
            212.85
          ],
          [
            3.092932,
            43.591191,
            213.32
          ],
          [
            3.093001,
            43.591274,
            213.82
          ],
          [
            3.0933,
            43.5914,
            214.64
          ],
          [
            3.093572,
            43.591487,
            214.95
          ],
          [
            3.094345,
            43.591635,
            214.52
          ],
          [
            3.094543,
            43.591711,
            214.19
          ],
          [
            3.09467,
            43.59175,
            214.24
          ],
          [
            3.095473,
            43.591649,
            218.34
          ],
          [
            3.097322,
            43.591574,
            215.98
          ],
          [
            3.097706,
            43.591569,
            212.48
          ],
          [
            3.097936,
            43.59159,
            210.53
          ],
          [
            3.098781,
            43.591829,
            204.91
          ],
          [
            3.099379,
            43.591937,
            202.14
          ],
          [
            3.099792,
            43.59196,
            200.06
          ],
          [
            3.100137,
            43.591943,
            198.14
          ],
          [
            3.100547,
            43.591894,
            195.56
          ],
          [
            3.100803,
            43.591876,
            193.95
          ],
          [
            3.101012,
            43.591899,
            192.45
          ],
          [
            3.101334,
            43.591951,
            189.5
          ],
          [
            3.101357,
            43.591983,
            189.67
          ],
          [
            3.10146,
            43.592053,
            190.66
          ],
          [
            3.101465,
            43.592112,
            191.63
          ],
          [
            3.101431,
            43.592151,
            192.22
          ],
          [
            3.101418,
            43.592206,
            192.81
          ],
          [
            3.101476,
            43.592291,
            193.59
          ],
          [
            3.101635,
            43.592421,
            194.63
          ],
          [
            3.101876,
            43.592554,
            195.75
          ],
          [
            3.102046,
            43.592659,
            196.54
          ],
          [
            3.102338,
            43.592782,
            197.12
          ],
          [
            3.102566,
            43.59292,
            197.49
          ],
          [
            3.102645,
            43.592947,
            197.55
          ],
          [
            3.102884,
            43.592988,
            197.48
          ],
          [
            3.102947,
            43.592988,
            197.33
          ],
          [
            3.103083,
            43.592926,
            196.41
          ],
          [
            3.103536,
            43.592655,
            194.63
          ],
          [
            3.103706,
            43.592577,
            194.07
          ],
          [
            3.103806,
            43.592556,
            193.82
          ],
          [
            3.103955,
            43.592567,
            193.68
          ],
          [
            3.104091,
            43.592594,
            193.88
          ],
          [
            3.104136,
            43.592479,
            191.49
          ],
          [
            3.105212,
            43.592653,
            192.4
          ],
          [
            3.106193,
            43.592833,
            192.45
          ],
          [
            3.106898,
            43.593011,
            191.93
          ],
          [
            3.107545,
            43.593204,
            191.0
          ],
          [
            3.109049,
            43.593731,
            189.7
          ],
          [
            3.110594,
            43.594259,
            190.1
          ],
          [
            3.111131,
            43.594435,
            191.0
          ],
          [
            3.111261,
            43.594484,
            191.2
          ],
          [
            3.113501,
            43.595061,
            191.64
          ],
          [
            3.115159,
            43.595384,
            190.33
          ],
          [
            3.11567,
            43.595527,
            189.81
          ],
          [
            3.115683,
            43.595547,
            189.83
          ],
          [
            3.115704,
            43.595558,
            189.88
          ],
          [
            3.115771,
            43.595552,
            189.98
          ],
          [
            3.115967,
            43.595602,
            189.96
          ],
          [
            3.116021,
            43.595586,
            189.94
          ],
          [
            3.116097,
            43.595606,
            189.86
          ],
          [
            3.117263,
            43.595726,
            187.58
          ],
          [
            3.123404,
            43.59626,
            185.0
          ],
          [
            3.130115,
            43.596835,
            190.37
          ],
          [
            3.131871,
            43.597,
            190.59
          ],
          [
            3.132646,
            43.597083,
            190.86
          ],
          [
            3.133335,
            43.597194,
            190.93
          ],
          [
            3.133777,
            43.597278,
            191.0
          ],
          [
            3.134375,
            43.59742,
            191.08
          ],
          [
            3.134957,
            43.597602,
            191.45
          ],
          [
            3.136114,
            43.598034,
            192.93
          ],
          [
            3.137177,
            43.598446,
            198.02
          ],
          [
            3.139275,
            43.599218,
            194.0
          ],
          [
            3.140377,
            43.599635,
            192.85
          ],
          [
            3.140448,
            43.599683,
            192.96
          ],
          [
            3.140541,
            43.599794,
            193.0
          ],
          [
            3.140609,
            43.59983,
            193.02
          ],
          [
            3.140908,
            43.599964,
            193.0
          ],
          [
            3.141187,
            43.600037,
            193.09
          ],
          [
            3.142988,
            43.601239,
            195.0
          ]
        ]
      }
    },
    {
      "type": "Feature",
      "properties": {
        "source": "Crêtes_du_Caroux.gpx",
        "type": "route"
      },
      "geometry": {
        "type": "LineString",
        "coordinates": [
          [
            2.978707,
            43.614136
          ],
          [
            2.980492,
            43.613668
          ],
          [
            2.979884,
            43.613514
          ],
          [
            2.980901,
            43.611835
          ],
          [
            2.982267,
            43.611823
          ],
          [
            2.985228,
            43.611423
          ],
          [
            2.982135,
            43.609819
          ],
          [
            2.980766,
            43.610178
          ],
          [
            2.978906,
            43.60941
          ],
          [
            2.981423,
            43.608872
          ],
          [
            2.981886,
            43.607917
          ],
          [
            2.982141,
            43.605715
          ],
          [
            2.985494,
            43.602484
          ],
          [
            2.985494,
            43.602484
          ],
          [
            2.982135,
            43.609819
          ],
          [
            2.985228,
            43.611423
          ],
          [
            2.988577,
            43.610685
          ],
          [
            2.989693,
            43.614013
          ],
          [
            2.987925,
            43.614678
          ],
          [
            2.990798,
            43.615604
          ],
          [
            2.990709,
            43.61593
          ],
          [
            2.995513,
            43.616222
          ],
          [
            2.994838,
            43.616366
          ],
          [
            2.998931,
            43.617658
          ],
          [
            3.003535,
            43.618557
          ],
          [
            3.003494,
            43.618585
          ],
          [
            3.005754,
            43.618402
          ],
          [
            3.009659,
            43.619359
          ],
          [
            3.012803,
            43.618187
          ],
          [
            3.020332,
            43.618668
          ],
          [
            3.021012,
            43.618251
          ],
          [
            3.031166,
            43.612072
          ],
          [
            3.033269,
            43.613619
          ],
          [
            3.033328,
            43.613624
          ],
          [
            3.033421,
            43.613704
          ],
          [
            3.04042,
            43.61397
          ],
          [
            3.040701,
            43.613768
          ],
          [
            3.044758,
            43.611351
          ],
          [
            3.04838,
            43.61263
          ],
          [
            3.048648,
            43.61251
          ],
          [
            3.052299,
            43.611623
          ],
          [
            3.052431,
            43.611594
          ],
          [
            3.059636,
            43.608805
          ],
          [
            3.06098,
            43.607653
          ],
          [
            3.065619,
            43.60744
          ],
          [
            3.063395,
            43.605494
          ],
          [
            3.064115,
            43.605021
          ],
          [
            3.064994,
            43.605263
          ],
          [
            3.066159,
            43.604444
          ],
          [
            3.066492,
            43.604227
          ],
          [
            3.066704,
            43.604335
          ],
          [
            3.067213,
            43.604292
          ],
          [
            3.066699,
            43.603615
          ],
          [
            3.06762,
            43.602888
          ],
          [
            3.075952,
            43.598771
          ],
          [
            3.078348,
            43.59813
          ],
          [
            3.079871,
            43.597764
          ],
          [
            3.082215,
            43.595425
          ],
          [
            3.08446,
            43.594722
          ],
          [
            3.084606,
            43.594574
          ],
          [
            3.085074,
            43.593982
          ],
          [
            3.092881,
            43.591045
          ],
          [
            3.101334,
            43.591951
          ],
          [
            3.104091,
            43.592594
          ],
          [
            3.104136,
            43.592479
          ],
          [
            3.142988,
            43.601239
          ]
        ]
      }
    }
  ]
}