{
  "type": "FeatureCollection",
  "features": [
    {
      "type": "Feature",
      "properties": {
        "name": "GraphHopper Track",
        "source": "Berges_Salagou.gpx",
        "type": "track"
      },
      "geometry": {
        "type": "LineString",
        "coordinates": [
          [
            3.39278,
            43.641547,
            157.73
          ],
          [
            3.392723,
            43.641613,
            157.51
          ],
          [
            3.392237,
            43.642474,
            156.0
          ],
          [
            3.392058,
            43.642513,
            155.51
          ],
          [
            3.391463,
            43.642727,
            153.37
          ],
          [
            3.391074,
            43.642822,
            151.9
          ],
          [
            3.390833,
            43.64289,
            150.97
          ],
          [
            3.390631,
            43.642956,
            150.22
          ],
          [
            3.390468,
            43.643053,
            149.59
          ],
          [
            3.390307,
            43.643082,
            149.1
          ],
          [
            3.390178,
            43.643061,
            148.65
          ],
          [
            3.390057,
            43.643026,
            148.19
          ],
          [
            3.389923,
            43.642975,
            147.77
          ],
          [
            3.389795,
            43.64296,
            147.57
          ],
          [
            3.389626,
            43.642962,
            147.43
          ],
          [
            3.389431,
            43.643003,
            147.07
          ],
          [
            3.389306,
            43.643026,
            146.89
          ],
          [
            3.389162,
            43.6431,
            146.37
          ],
          [
            3.389057,
            43.64314,
            146.01
          ],
          [
            3.388909,
            43.643218,
            145.49
          ],
          [
            3.388811,
            43.643209,
            145.47
          ],
          [
            3.388475,
            43.643245,
            144.53
          ],
          [
            3.387898,
            43.64338,
            144.19
          ],
          [
            3.38793,
            43.643426,
            143.81
          ],
          [
            3.387946,
            43.643471,
            143.45
          ],
          [
            3.387913,
            43.643575,
            142.8
          ],
          [
            3.387873,
            43.64358,
            142.71
          ],
          [
            3.387622,
            43.643681,
            142.46
          ],
          [
            3.387482,
            43.643726,
            142.0
          ],
          [
            3.387437,
            43.643629,
            142.23
          ],
          [
            3.387439,
            43.643551,
            142.64
          ],
          [
            3.387397,
            43.643455,
            142.61
          ],
          [
            3.386918,
            43.643363,
            142.0
          ],
          [
            3.386593,
            43.643374,
            142.0
          ],
          [
            3.386153,
            43.643425,
            142.05
          ],
          [
            3.38599,
            43.643406,
            142.06
          ],
          [
            3.385897,
            43.643376,
            142.04
          ],
          [
            3.385744,
            43.643375,
            141.99
          ],
          [
            3.385613,
            43.643387,
            141.93
          ],
          [
            3.385512,
            43.643383,
            141.88
          ],
          [
            3.385342,
            43.643319,
            141.84
          ],
          [
            3.384773,
            43.643243,
            141.16
          ],
          [
            3.384586,
            43.643205,
            141.0
          ],
          [
            3.384504,
            43.643296,
            140.58
          ],
          [
            3.384405,
            43.643439,
            140.05
          ],
          [
            3.384065,
            43.643721,
            139.48
          ],
          [
            3.38385,
            43.643821,
            139.69
          ],
          [
            3.383716,
            43.643921,
            139.72
          ],
          [
            3.383597,
            43.643984,
            139.66
          ],
          [
            3.383486,
            43.64403,
            139.59
          ],
          [
            3.383287,
            43.64409,
            140.0
          ],
          [
            3.383061,
            43.644111,
            140.0
          ],
          [
            3.381414,
            43.643929,
            140.78
          ],
          [
            3.380853,
            43.643841,
            142.0
          ],
          [
            3.380123,
            43.643981,
            142.33
          ],
          [
            3.379908,
            43.643887,
            140.66
          ],
          [
            3.379737,
            43.643717,
            140.01
          ],
          [
            3.379627,
            43.643693,
            139.91
          ],
          [
            3.379464,
            43.643706,
            140.36
          ],
          [
            3.379363,
            43.643775,
            140.43
          ],
          [
            3.379236,
            43.643793,
            140.36
          ],
          [
            3.379166,
            43.643799,
            140.3
          ],
          [
            3.378989,
            43.64378,
            140.03
          ],
          [
            3.378886,
            43.643787,
            139.91
          ],
          [
            3.378573,
            43.643925,
            139.88
          ],
          [
            3.378448,
            43.643952,
            140.0
          ],
          [
            3.378231,
            43.643999,
            139.72
          ],
          [
            3.378047,
            43.644064,
            139.6
          ],
          [
            3.377839,
            43.64415,
            139.92
          ],
          [
            3.377787,
            43.644162,
            139.91
          ],
          [
            3.377623,
            43.644185,
            139.71
          ],
          [
            3.377463,
            43.644186,
            139.43
          ],
          [
            3.37727,
            43.644158,
            139.28
          ],
          [
            3.376984,
            43.644185,
            139.22
          ],
          [
            3.376777,
            43.644225,
            139.2
          ],
          [
            3.376567,
            43.644317,
            139.37
          ],
          [
            3.376078,
            43.644307,
            138.84
          ],
          [
            3.375931,
            43.644332,
            139.06
          ],
          [
            3.375784,
            43.644374,
            139.23
          ],
          [
            3.3757,
            43.644423,
            139.36
          ],
          [
            3.375588,
            43.644458,
            139.35
          ],
          [
            3.375337,
            43.644511,
            139.28
          ],
          [
            3.374502,
            43.644735,
            139.3
          ],
          [
            3.374414,
            43.644744,
            139.25
          ],
          [
            3.374268,
            43.64474,
            139.3
          ],
          [
            3.374132,
            43.644727,
            139.35
          ],
          [
            3.373982,
            43.644722,
            139.4
          ],
          [
            3.373884,
            43.644713,
            139.51
          ],
          [
            3.373791,
            43.644686,
            139.71
          ],
          [
            3.373525,
            43.64458,
            139.85
          ],
          [
            3.373066,
            43.644281,
            139.8
          ],
          [
            3.3728,
            43.644213,
            139.5
          ],
          [
            3.372503,
            43.644199,
            140.0
          ],
          [
            3.372294,
            43.644155,
            140.0
          ],
          [
            3.372129,
            43.644053,
            140.0
          ],
          [
            3.371976,
            43.643856,
            139.7
          ],
          [
            3.371851,
            43.643755,
            139.66
          ],
          [
            3.371592,
            43.64358,
            140.0
          ],
          [
            3.371443,
            43.643584,
            139.98
          ],
          [
            3.371163,
            43.643525,
            140.49
          ],
          [
            3.370939,
            43.643535,
            140.26
          ],
          [
            3.370695,
            43.643458,
            140.02
          ],
          [
            3.370495,
            43.643424,
            140.13
          ],
          [
            3.370128,
            43.643533,
            140.03
          ],
          [
            3.369966,
            43.643543,
            139.99
          ],
          [
            3.369775,
            43.643538,
            140.03
          ],
          [
            3.36935,
            43.64356,
            140.23
          ],
          [
            3.369079,
            43.643504,
            140.39
          ],
          [
            3.368853,
            43.643434,
            140.36
          ],
          [
            3.368295,
            43.64335,
            140.36
          ],
          [
            3.367145,
            43.643107,
            140.21
          ],
          [
            3.367005,
            43.643029,
            140.01
          ],
          [
            3.366911,
            43.643066,
            139.98
          ],
          [
            3.366814,
            43.643083,
            139.88
          ],
          [
            3.366698,
            43.64308,
            139.91
          ],
          [
            3.36658,
            43.643001,
            139.94
          ],
          [
            3.366462,
            43.642839,
            140.23
          ],
          [
            3.366281,
            43.642846,
            140.45
          ],
          [
            3.365679,
            43.642797,
            140.63
          ],
          [
            3.365279,
            43.642782,
            140.87
          ],
          [
            3.36495,
            43.642797,
            141.15
          ],
          [
            3.364485,
            43.642886,
            141.66
          ],
          [
            3.364162,
            43.642966,
            142.6
          ],
          [
            3.36402,
            43.64299,
            143.28
          ],
          [
            3.363818,
            43.643008,
            144.06
          ],
          [
            3.363774,
            43.643037,
            143.77
          ],
          [
            3.363563,
            43.643307,
            142.63
          ],
          [
            3.362974,
            43.643543,
            142.36
          ],
          [
            3.362904,
            43.643624,
            142.87
          ],
          [
            3.36262,
            43.643719,
            144.31
          ],
          [
            3.36247,
            43.643634,
            145.35
          ],
          [
            3.362274,
            43.643482,
            147.33
          ],
          [
            3.36226,
            43.643347,
            149.06
          ],
          [
            3.362134,
            43.64328,
            150.88
          ],
          [
            3.361896,
            43.643354,
            153.22
          ],
          [
            3.361592,
            43.643375,
            156.21
          ],
          [
            3.361639,
            43.643241,
            156.37
          ],
          [
            3.361505,
            43.643256,
            157.19
          ],
          [
            3.361669,
            43.642928,
            158.93
          ],
          [
            3.361739,
            43.642745,
            159.9
          ],
          [
            3.361816,
            43.642577,
            161.06
          ],
          [
            3.362094,
            43.642207,
            163.88
          ],
          [
            3.362378,
            43.64195,
            164.87
          ],
          [
            3.362431,
            43.641888,
            165.16
          ],
          [
            3.362673,
            43.641483,
            166.54
          ],
          [
            3.362784,
            43.641266,
            168.21
          ],
          [
            3.362901,
            43.641154,
            168.99
          ],
          [
            3.363323,
            43.640519,
            173.94
          ],
          [
            3.363469,
            43.640393,
            175.33
          ],
          [
            3.363681,
            43.640341,
            175.96
          ],
          [
            3.363681,
            43.640341,
            175.96
          ],
          [
            3.363469,
            43.640393,
            175.33
          ],
          [
            3.363323,
            43.640519,
            173.94
          ],
          [
            3.362901,
            43.641154,
            168.99
          ],
          [
            3.362784,
            43.641266,
            168.21
          ],
          [
            3.362673,
            43.641483,
            166.54
          ],
          [
            3.362431,
            43.641888,
            165.16
          ],
          [
            3.362378,
            43.64195,
            164.87
          ],
          [
            3.362094,
            43.642207,
            163.88
          ],
          [
            3.361816,
            43.642577,
            161.06
          ],
          [
            3.361739,
            43.642745,
            159.9
          ],
          [
            3.361669,
            43.642928,
            158.93
          ],
          [
            3.361505,
            43.643256,
            157.19
          ],
          [
            3.361639,
            43.643241,
            156.37
          ],
          [
            3.361718,
            43.643136,
            155.94
          ],
          [
            3.361972,
            43.642921,
            157.36
          ],
          [
            3.362255,
            43.642942,
            155.73
          ],
          [
            3.362517,
            43.642923,
            154.03
          ],
          [
            3.362805,
            43.642933,
            152.05
          ],
          [
            3.363038,
            43.642916,
            150.47
          ],
          [
            3.363212,
            43.642923,
            149.4
          ],
          [
            3.36332,
            43.642937,
            148.44
          ],
          [
            3.363438,
            43.642972,
            146.82
          ],
          [
            3.363541,
            43.643027,
            145.27
          ],
          [
            3.363686,
            43.643062,
            144.02
          ],
          [
            3.363746,
            43.643055,
            143.7
          ],
          [
            3.363818,
            43.643008,
            144.06
          ],
          [
            3.36402,
            43.64299,
            143.28
          ],
          [
            3.364162,
            43.642966,
            142.6
          ],
          [
            3.364485,
            43.642886,
            141.66
          ],
          [
            3.36495,
            43.642797,
            141.15
          ],
          [
            3.365279,
            43.642782,
            140.87
          ],
          [
            3.365679,
            43.642797,
            140.63
          ],
          [
            3.366281,
            43.642846,
            140.45
          ],
          [
            3.366462,
            43.642839,
            140.23
          ],
          [
            3.36658,
            43.643001,
            139.94
          ],
          [
            3.366698,
            43.64308,
            139.91
          ],
          [
            3.366814,
            43.643083,
            139.88
          ],
          [
            3.366911,
            43.643066,
            139.98
          ],
          [
            3.367005,
            43.643029,
            140.01
          ],
          [
            3.367145,
            43.643107,
            140.21
          ],
          [
            3.368295,
            43.64335,
            140.36
          ],
          [
            3.368853,
            43.643434,
            140.36
          ],
          [
            3.369079,
            43.643504,
            140.39
          ],
          [
            3.36935,
            43.64356,
            140.23
          ],
          [
            3.369775,
            43.643538,
            140.03
          ],
          [
            3.369966,
            43.643543,
            139.99
          ],
          [
            3.370128,
            43.643533,
            140.03
          ],
          [
            3.370495,
            43.643424,
            140.13
          ],
          [
            3.370695,
            43.643458,
            140.02
          ],
          [
            3.370939,
            43.643535,
            140.26
          ],
          [
            3.371163,
            43.643525,
            140.49
          ],
          [
            3.371443,
            43.643584,
            139.98
          ],
          [
            3.371592,
            43.64358,
            140.0
          ],
          [
            3.371851,
            43.643755,
            139.66
          ],
          [
            3.371976,
            43.643856,
            139.7
          ],
          [
            3.372129,
            43.644053,
            140.0
          ],
          [
            3.372294,
            43.644155,
            140.0
          ],
          [
            3.372503,
            43.644199,
            140.0
          ],
          [
            3.3728,
            43.644213,
            139.5
          ],
          [
            3.373066,
            43.644281,
            139.8
          ],
          [
            3.373525,
            43.64458,
            139.85
          ],
          [
            3.373791,
            43.644686,
            139.71
          ],
          [
            3.373884,
            43.644713,
            139.51
          ],
          [
            3.374268,
            43.64474,
            139.3
          ],
          [
            3.374414,
            43.644744,
            139.25
          ],
          [
            3.374502,
            43.644735,
            139.3
          ],
          [
            3.375337,
            43.644511,
            139.28
          ],
          [
            3.375588,
            43.644458,
            139.35
          ],
          [
            3.3757,
            43.644423,
            139.36
          ],
          [
            3.375784,
            43.644374,
            139.23
          ],
          [
            3.375931,
            43.644332,
            139.06
          ],
          [
            3.376078,
            43.644307,
            138.84
          ],
          [
            3.376432,
            43.644314,
            139.41
          ],
          [
            3.376567,
            43.644317,
            139.37
          ],
          [
            3.376777,
            43.644225,
            139.2
          ],
          [
            3.376984,
            43.644185,
            139.22
          ],
          [
            3.37727,
            43.644158,
            139.28
          ],
          [
            3.377463,
            43.644186,
            139.43
          ],
          [
            3.377623,
            43.644185,
            139.71
          ],
          [
            3.377787,
            43.644162,
            139.91
          ],
          [
            3.377839,
            43.64415,
            139.92
          ],
          [
            3.378047,
            43.644064,
            139.6
          ],
          [
            3.378231,
            43.643999,
            139.72
          ],
          [
            3.378573,
            43.643925,
            139.88
          ],
          [
            3.378886,
            43.643787,
            139.91
          ],
          [
            3.378989,
            43.64378,
            140.03
          ],
          [
            3.379166,
            43.643799,
            140.3
          ],
          [
            3.379236,
            43.643793,
            140.36
          ],
          [
            3.379363,
            43.643775,
            140.43
          ],
          [
            3.379464,
            43.643706,
            140.36
          ],
          [
            3.379627,
            43.643693,
            139.91
          ],
          [
            3.379737,
            43.643717,
            140.01
          ],
          [
            3.379908,
            43.643887,
            140.66
          ],
          [
            3.380123,
            43.643981,
            142.33
          ],
          [
            3.380853,
            43.643841,
            142.0
          ],
          [
            3.381414,
            43.643929,
            140.78
          ],
          [
            3.383061,
            43.644111,
            140.0
          ],
          [
            3.383287,
            43.64409,
            140.0
          ],
          [
            3.383486,
            43.64403,
            139.59
          ],
          [
            3.383597,
            43.643984,
            139.66
          ],
          [
            3.383716,
            43.643921,
            139.72
          ],
          [
            3.38385,
            43.643821,
            139.69
          ],
          [
            3.384065,
            43.643721,
            139.48
          ],
          [
            3.384405,
            43.643439,
            140.05
          ],
          [
            3.384504,
            43.643296,
            140.58
          ],
          [
            3.384586,
            43.643205,
            141.0
          ],
          [
            3.384679,
            43.642903,
            141.18
          ],
          [
            3.38459,
            43.642803,
            141.68
          ],
          [
            3.384549,
            43.642732,
            141.84
          ],
          [
            3.384537,
            43.642565,
            142.52
          ],
          [
            3.384484,
            43.642488,
            143.04
          ],
          [
            3.384439,
            43.642376,
            143.21
          ],
          [
            3.384784,
            43.642368,
            144.35
          ],
          [
            3.385226,
            43.642312,
            145.39
          ],
          [
            3.385542,
            43.642315,
            146.08
          ]
        ]
      }
    },
    {
      "type": "Feature",
      "properties": {
        "source": "Berges_Salagou.gpx",
        "type": "route"
      },
      "geometry": {
        "type": "LineString",
        "coordinates": [
          [
            3.39278,
            43.641547
          ],
          [
            3.392237,
            43.642474
          ],
          [
            3.389431,
            43.643003
          ],
          [
            3.388909,
            43.643218
          ],
          [
            3.387898,
            43.64338
          ],
          [
            3.387913,
            43.643575
          ],
          [
            3.387482,
            43.643726
          ],
          [
            3.384586,
            43.643205
          ],
          [
            3.383061,
            43.644111
          ],
          [
            3.380853,
            43.643841
          ],
          [
            3.379464,
            43.643706
          ],
          [
            3.378448,
            43.643952
          ],
          [
            3.373982,
            43.644722
          ],
          [
            3.371592,
            43.64358
          ],
          [
            3.367005,
            43.643029
          ],
          [
            3.363774,
            43.643037
          ],
          [
            3.361592,
            43.643375
          ],
          [
            3.361639,
            43.643241
          ],
          [
            3.361505,
            43.643256
          ],
          [
            3.363681,
            43.640341
          ],
          [
            3.363681,
            43.640341
          ],
          [
            3.361816,
            43.642577
          ],
          [
            3.361505,
            43.643256
          ],
          [
            3.361639,
            43.643241
          ],
          [
            3.367005,
            43.643029
          ],
          [
            3.371592,
            43.64358
          ],
          [
            3.372503,
            43.644199
          ],
          [
            3.376432,
            43.644314
          ],
          [
            3.379464,
            43.643706
          ],
          [
            3.379908,
            43.643887
          ],
          [
            3.380853,
            43.643841
          ],
          [
            3.384586,
            43.643205
          ],
          [
            3.384439,
            43.642376
          ],
          [
            3.385542,
            43.642315
          ]
        ]
      }
    }
  ]
}