{
  "type": "FeatureCollection",
  "features": [
    {
      "type": "Feature",
      "properties": {
        "name": "GraphHopper Track",
        "source": "Dolomies_Mourèze.gpx",
        "type": "track"
      },
      "geometry": {
        "type": "LineString",
        "coordinates": [
          [
            3.358405,
            43.620507,
            224.07
          ],
          [
            3.358416,
            43.620585,
            224.68
          ],
          [
            3.358411,
            43.620653,
            225.13
          ],
          [
            3.35838,
            43.620694,
            225.34
          ],
          [
            3.358338,
            43.620714,
            225.17
          ],
          [
            3.358332,
            43.62066,
            225.42
          ],
          [
            3.358284,
            43.620624,
            225.93
          ],
          [
            3.358218,
            43.620623,
            226.32
          ],
          [
            3.358187,
            43.620588,
            226.75
          ],
          [
            3.358157,
            43.620568,
            226.93
          ],
          [
            3.358104,
            43.620557,
            227.2
          ],
          [
            3.357991,
            43.620584,
            228.55
          ],
          [
            3.357884,
            43.62063,
            229.36
          ],
          [
            3.35786,
            43.620629,
            229.59
          ],
          [
            3.357836,
            43.620609,
            229.87
          ],
          [
            3.357753,
            43.620492,
            231.04
          ],
          [
            3.357707,
            43.620492,
            230.88
          ],
          [
            3.357573,
            43.620403,
            229.29
          ],
          [
            3.357498,
            43.620362,
            228.21
          ],
          [
            3.357285,
            43.620288,
            224.75
          ],
          [
            3.357194,
            43.620319,
            224.6
          ],
          [
            3.357171,
            43.620342,
            224.81
          ],
          [
            3.357125,
            43.620351,
            224.39
          ],
          [
            3.357092,
            43.620333,
            223.79
          ],
          [
            3.357063,
            43.620298,
            223.08
          ],
          [
            3.357052,
            43.620212,
            221.75
          ],
          [
            3.356979,
            43.620227,
            222.02
          ],
          [
            3.356851,
            43.620226,
            223.2
          ],
          [
            3.356803,
            43.620214,
            223.73
          ],
          [
            3.35673,
            43.62031,
            225.28
          ],
          [
            3.356695,
            43.620328,
            226.11
          ],
          [
            3.356683,
            43.620326,
            226.33
          ],
          [
            3.356634,
            43.620295,
            227.01
          ],
          [
            3.356484,
            43.620142,
            227.33
          ],
          [
            3.356436,
            43.620077,
            227.32
          ],
          [
            3.356347,
            43.619926,
            226.0
          ],
          [
            3.356274,
            43.619999,
            226.04
          ],
          [
            3.356204,
            43.620114,
            228.27
          ],
          [
            3.356171,
            43.62019,
            229.53
          ],
          [
            3.356103,
            43.620233,
            229.98
          ],
          [
            3.356006,
            43.620333,
            230.57
          ],
          [
            3.355936,
            43.620381,
            230.71
          ],
          [
            3.355905,
            43.620422,
            230.87
          ],
          [
            3.355828,
            43.620491,
            231.31
          ],
          [
            3.355784,
            43.620633,
            232.31
          ],
          [
            3.355689,
            43.620721,
            232.91
          ],
          [
            3.355666,
            43.6208,
            233.13
          ],
          [
            3.355691,
            43.621004,
            233.54
          ],
          [
            3.35574,
            43.621098,
            233.82
          ],
          [
            3.355818,
            43.62117,
            234.21
          ],
          [
            3.3558,
            43.621215,
            234.41
          ],
          [
            3.35576,
            43.621276,
            234.67
          ],
          [
            3.355718,
            43.621308,
            234.87
          ],
          [
            3.355686,
            43.621319,
            235.0
          ],
          [
            3.355635,
            43.621377,
            235.31
          ],
          [
            3.355598,
            43.621465,
            235.67
          ],
          [
            3.355599,
            43.621498,
            235.79
          ],
          [
            3.355599,
            43.621498,
            235.79
          ],
          [
            3.355598,
            43.621465,
            235.67
          ],
          [
            3.355635,
            43.621377,
            235.31
          ],
          [
            3.355686,
            43.621319,
            235.0
          ],
          [
            3.355718,
            43.621308,
            234.87
          ],
          [
            3.35576,
            43.621276,
            234.67
          ],
          [
            3.3558,
            43.621215,
            234.41
          ],
          [
            3.355818,
            43.62117,
            234.21
          ],
          [
            3.35574,
            43.621098,
            233.82
          ],
          [
            3.355691,
            43.621004,
            233.54
          ],
          [
            3.355666,
            43.6208,
            233.13
          ],
          [
            3.355689,
            43.620721,
            232.91
          ],
          [
            3.355784,
            43.620633,
            232.31
          ],
          [
            3.355828,
            43.620491,
            231.31
          ],
          [
            3.355905,
            43.620422,
            230.87
          ],
          [
            3.355936,
            43.620381,
            230.71
          ],
          [
            3.356006,
            43.620333,
            230.57
          ],
          [
            3.356103,
            43.620233,
            229.98
          ],
          [
            3.356171,
            43.62019,
            229.53
          ],
          [
            3.356204,
            43.620114,
            228.27
          ],
          [
            3.356274,
            43.619999,
            226.04
          ],
          [
            3.356347,
            43.619926,
            226.0
          ],
          [
            3.356436,
            43.620077,
            227.32
          ],
          [
            3.356484,
            43.620142,
            227.33
          ],
          [
            3.356634,
            43.620295,
            227.01
          ],
          [
            3.356683,
            43.620326,
            226.33
          ],
          [
            3.356695,
            43.620328,
            226.11
          ],
          [
            3.35673,
            43.62031,
            225.28
          ],
          [
            3.356803,
            43.620214,
            223.73
          ],
          [
            3.356851,
            43.620226,
            223.2
          ],
          [
            3.356979,
            43.620227,
            222.02
          ],
          [
            3.357052,
            43.620212,
            221.75
          ],
          [
            3.357063,
            43.620298,
            223.08
          ],
          [
            3.357092,
            43.620333,
            223.79
          ],
          [
            3.357125,
            43.620351,
            224.39
          ],
          [
            3.357171,
            43.620342,
            224.81
          ],
          [
            3.357194,
            43.620319,
            224.6
          ],
          [
            3.357285,
            43.620288,
            224.75
          ],
          [
            3.357498,
            43.620362,
            228.21
          ],
          [
            3.357573,
            43.620403,
            229.29
          ],
          [
            3.357707,
            43.620492,
            230.88
          ],
          [
            3.357753,
            43.620492,
            231.04
          ],
          [
            3.357836,
            43.620609,
            229.87
          ],
          [
            3.35786,
            43.620629,
            229.59
          ],
          [
            3.357884,
            43.62063,
            229.36
          ],
          [
            3.357991,
            43.620584,
            228.55
          ],
          [
            3.358104,
            43.620557,
            227.2
          ],
          [
            3.358157,
            43.620485,
            225.6
          ],
          [
            3.358201,
            43.620452,
            224.52
          ],
          [
            3.35825,
            43.620385,
            222.91
          ],
          [
            3.358291,
            43.620363,
            222.33
          ],
          [
            3.358338,
            43.620364,
            222.53
          ],
          [
            3.358386,
            43.62038,
            222.92
          ],
          [
            3.358406,
            43.620431,
            223.46
          ],
          [
            3.358398,
            43.620456,
            223.67
          ],
          [
            3.358405,
            43.620507,
            224.07
          ]
        ]
      }
    },
    {
      "type": "Feature",
      "properties": {
        "source": "Dolomies_Mourèze.gpx",
        "type": "route"
      },
      "geometry": {
        "type": "LineString",
        "coordinates": [
          [
            3.358405,
            43.620507
          ],
          [
            3.358338,
            43.620714
          ],
          [
            3.357884,
            43.62063
          ],
          [
            3.357753,
            43.620492
          ],
          [
            3.357285,
            43.620288
          ],
          [
            3.357052,
            43.620212
          ],
          [
            3.356347,
            43.619926
          ],
          [
            3.355599,
            43.621498
          ],
          [
            3.355599,
            43.621498
          ],
          [
            3.356347,
            43.619926
          ],
          [
            3.357052,
            43.620212
          ],
          [
            3.357171,
            43.620342
          ],
          [
            3.357285,
            43.620288
          ],
          [
            3.357753,
            43.620492
          ],
          [
            3.358104,
            43.620557
          ],
          [
            3.358405,
            43.620507
          ]
        ]
      }
    }
  ]
}