{
  "type": "FeatureCollection",
  "features": [
    {
      "type": "Feature",
      "properties": {
        "name": "GraphHopper Track",
        "source": "Ruffes_du_Salagou.gpx",
        "type": "track"
      },
      "geometry": {
        "type": "LineString",
        "coordinates": [
          [
            3.302589,
            43.655463,
            204.44
          ],
          [
            3.302497,
            43.655346,
            203.37
          ],
          [
            3.302374,
            43.655165,
            201.29
          ],
          [
            3.302379,
            43.655088,
            200.16
          ],
          [
            3.302461,
            43.654978,
            199.17
          ],
          [
            3.302625,
            43.654828,
            198.2
          ],
          [
            3.302807,
            43.654729,
            196.0
          ],
          [
            3.302883,
            43.654696,
            194.89
          ],
          [
            3.302991,
            43.654607,
            194.26
          ],
          [
            3.303107,
            43.654306,
            193.0
          ],
          [
            3.303165,
            43.654234,
            192.83
          ],
          [
            3.303672,
            43.653779,
            188.11
          ],
          [
            3.304014,
            43.653455,
            186.43
          ],
          [
            3.304724,
            43.652815,
            184.25
          ],
          [
            3.305425,
            43.652225,
            183.29
          ],
          [
            3.305524,
            43.652167,
            183.59
          ],
          [
            3.305616,
            43.652132,
            183.87
          ],
          [
            3.305564,
            43.652084,
            184.18
          ],
          [
            3.305559,
            43.652031,
            184.39
          ],
          [
            3.30562,
            43.651863,
            184.4
          ],
          [
            3.305778,
            43.651528,
            183.31
          ],
          [
            3.305795,
            43.651456,
            183.06
          ],
          [
            3.305743,
            43.651409,
            182.76
          ],
          [
            3.305292,
            43.651235,
            179.93
          ],
          [
            3.305217,
            43.65091,
            178.69
          ],
          [
            3.305214,
            43.650801,
            178.48
          ],
          [
            3.305246,
            43.650712,
            178.31
          ],
          [
            3.305344,
            43.650537,
            177.98
          ],
          [
            3.305371,
            43.650416,
            177.76
          ],
          [
            3.305448,
            43.649884,
            176.65
          ],
          [
            3.30543,
            43.649739,
            176.28
          ],
          [
            3.305436,
            43.649532,
            175.73
          ],
          [
            3.305524,
            43.649366,
            175.19
          ],
          [
            3.305909,
            43.648884,
            173.34
          ],
          [
            3.306305,
            43.648443,
            171.58
          ],
          [
            3.306909,
            43.647999,
            169.75
          ],
          [
            3.307116,
            43.647813,
            169.08
          ],
          [
            3.307252,
            43.647635,
            168.6
          ],
          [
            3.307415,
            43.647118,
            167.35
          ],
          [
            3.307527,
            43.64694,
            166.88
          ],
          [
            3.30785,
            43.646464,
            165.55
          ],
          [
            3.307968,
            43.646307,
            165.09
          ],
          [
            3.308346,
            43.64595,
            163.53
          ],
          [
            3.30834,
            43.645903,
            163.27
          ],
          [
            3.308447,
            43.645564,
            162.54
          ],
          [
            3.308474,
            43.645406,
            162.16
          ],
          [
            3.30847,
            43.645276,
            161.93
          ],
          [
            3.308433,
            43.644933,
            161.42
          ],
          [
            3.308439,
            43.64483,
            161.29
          ],
          [
            3.308552,
            43.64447,
            161.03
          ],
          [
            3.308594,
            43.644191,
            161.08
          ],
          [
            3.308587,
            43.643967,
            161.28
          ],
          [
            3.308546,
            43.643375,
            163.09
          ],
          [
            3.308492,
            43.64313,
            164.18
          ],
          [
            3.308403,
            43.642877,
            166.1
          ],
          [
            3.308303,
            43.642713,
            167.55
          ],
          [
            3.308451,
            43.642711,
            167.48
          ],
          [
            3.308687,
            43.642722,
            167.28
          ],
          [
            3.309758,
            43.64272,
            167.98
          ],
          [
            3.311541,
            43.643194,
            165.09
          ],
          [
            3.311912,
            43.643303,
            164.57
          ],
          [
            3.312187,
            43.643411,
            163.91
          ],
          [
            3.312681,
            43.643627,
            162.11
          ],
          [
            3.313316,
            43.643937,
            158.53
          ],
          [
            3.313652,
            43.643987,
            158.42
          ],
          [
            3.314085,
            43.644022,
            157.79
          ],
          [
            3.314249,
            43.644052,
            157.41
          ],
          [
            3.31486,
            43.644097,
            156.64
          ],
          [
            3.315055,
            43.644103,
            156.44
          ],
          [
            3.315215,
            43.644089,
            156.39
          ],
          [
            3.315391,
            43.64405,
            156.37
          ],
          [
            3.315652,
            43.643969,
            156.44
          ],
          [
            3.316044,
            43.643882,
            156.63
          ],
          [
            3.316202,
            43.643854,
            156.7
          ],
          [
            3.316595,
            43.643815,
            156.75
          ],
          [
            3.316939,
            43.64373,
            156.59
          ],
          [
            3.317452,
            43.643578,
            156.39
          ],
          [
            3.317565,
            43.643597,
            155.69
          ],
          [
            3.317644,
            43.643641,
            154.95
          ],
          [
            3.317764,
            43.643816,
            153.38
          ],
          [
            3.317859,
            43.643854,
            153.01
          ],
          [
            3.31798,
            43.643801,
            152.61
          ],
          [
            3.318547,
            43.643595,
            150.82
          ],
          [
            3.319061,
            43.643419,
            149.53
          ],
          [
            3.31929,
            43.643358,
            148.96
          ],
          [
            3.31946,
            43.643352,
            148.6
          ],
          [
            3.319605,
            43.643364,
            148.34
          ],
          [
            3.319798,
            43.643399,
            148.05
          ],
          [
            3.320123,
            43.643354,
            147.62
          ],
          [
            3.320198,
            43.643326,
            147.52
          ],
          [
            3.320281,
            43.643273,
            147.41
          ],
          [
            3.320569,
            43.643174,
            147.19
          ],
          [
            3.320812,
            43.643129,
            147.01
          ],
          [
            3.320971,
            43.643131,
            146.92
          ],
          [
            3.321267,
            43.64319,
            146.97
          ],
          [
            3.321692,
            43.643253,
            147.04
          ],
          [
            3.321813,
            43.643251,
            147.07
          ],
          [
            3.321987,
            43.643206,
            147.09
          ],
          [
            3.322338,
            43.643162,
            147.14
          ],
          [
            3.322866,
            43.643152,
            146.98
          ],
          [
            3.323024,
            43.643133,
            146.73
          ],
          [
            3.323149,
            43.643101,
            146.49
          ],
          [
            3.323331,
            43.643006,
            145.98
          ],
          [
            3.323515,
            43.64288,
            145.31
          ],
          [
            3.323805,
            43.64266,
            144.07
          ],
          [
            3.323932,
            43.642603,
            143.6
          ],
          [
            3.324418,
            43.642463,
            142.12
          ],
          [
            3.324929,
            43.642283,
            141.0
          ],
          [
            3.324913,
            43.642249,
            141.0
          ],
          [
            3.326151,
            43.641923,
            140.29
          ],
          [
            3.326419,
            43.641892,
            139.05
          ],
          [
            3.326514,
            43.641844,
            139.24
          ],
          [
            3.326835,
            43.641953,
            139.68
          ],
          [
            3.32693,
            43.641925,
            139.88
          ],
          [
            3.327135,
            43.642022,
            140.89
          ],
          [
            3.327237,
            43.642158,
            140.61
          ],
          [
            3.3272,
            43.642211,
            140.55
          ],
          [
            3.327208,
            43.642283,
            140.54
          ],
          [
            3.327267,
            43.642452,
            140.63
          ],
          [
            3.327399,
            43.642573,
            140.91
          ],
          [
            3.327434,
            43.642731,
            141.01
          ],
          [
            3.327643,
            43.642904,
            141.04
          ],
          [
            3.327712,
            43.642993,
            141.16
          ],
          [
            3.327788,
            43.643158,
            141.33
          ],
          [
            3.327741,
            43.643225,
            141.4
          ],
          [
            3.327652,
            43.643273,
            141.53
          ],
          [
            3.327585,
            43.643361,
            141.67
          ],
          [
            3.327605,
            43.643476,
            141.75
          ],
          [
            3.327659,
            43.643571,
            141.73
          ],
          [
            3.327689,
            43.643739,
            141.52
          ],
          [
            3.327779,
            43.643859,
            141.25
          ],
          [
            3.327898,
            43.644081,
            141.15
          ],
          [
            3.327901,
            43.644212,
            140.99
          ],
          [
            3.327875,
            43.644338,
            140.43
          ],
          [
            3.327895,
            43.644485,
            139.82
          ],
          [
            3.328314,
            43.644635,
            139.85
          ],
          [
            3.328353,
            43.644678,
            139.83
          ],
          [
            3.328395,
            43.644758,
            139.92
          ],
          [
            3.32845,
            43.644822,
            140.11
          ],
          [
            3.328809,
            43.645078,
            141.1
          ],
          [
            3.328983,
            43.645158,
            142.61
          ],
          [
            3.329235,
            43.645411,
            142.34
          ],
          [
            3.329375,
            43.645513,
            142.36
          ],
          [
            3.329461,
            43.645525,
            142.33
          ],
          [
            3.329594,
            43.64562,
            142.3
          ],
          [
            3.329708,
            43.645679,
            142.44
          ],
          [
            3.329827,
            43.64577,
            141.99
          ],
          [
            3.329869,
            43.645869,
            141.21
          ],
          [
            3.329998,
            43.646015,
            140.02
          ],
          [
            3.330035,
            43.646102,
            140.1
          ],
          [
            3.33015,
            43.64618,
            140.12
          ],
          [
            3.330159,
            43.646206,
            140.11
          ],
          [
            3.330081,
            43.646298,
            140.09
          ],
          [
            3.330116,
            43.646442,
            140.0
          ],
          [
            3.330189,
            43.646569,
            140.6
          ],
          [
            3.330309,
            43.646661,
            141.6
          ],
          [
            3.330631,
            43.646846,
            142.63
          ],
          [
            3.331144,
            43.647252,
            142.91
          ],
          [
            3.331341,
            43.64737,
            142.68
          ],
          [
            3.331912,
            43.647831,
            142.13
          ],
          [
            3.332221,
            43.648055,
            142.1
          ],
          [
            3.332456,
            43.648254,
            141.94
          ],
          [
            3.332613,
            43.648315,
            141.54
          ],
          [
            3.33276,
            43.648349,
            141.95
          ],
          [
            3.332869,
            43.648359,
            142.45
          ],
          [
            3.332851,
            43.648319,
            142.37
          ],
          [
            3.332852,
            43.648277,
            142.35
          ],
          [
            3.332938,
            43.648283,
            142.75
          ],
          [
            3.335111,
            43.648237,
            144.64
          ],
          [
            3.33577,
            43.648212,
            145.04
          ],
          [
            3.336549,
            43.648168,
            146.05
          ],
          [
            3.336825,
            43.648142,
            146.58
          ],
          [
            3.337143,
            43.648096,
            147.22
          ],
          [
            3.338642,
            43.647738,
            151.27
          ],
          [
            3.339223,
            43.647565,
            153.73
          ],
          [
            3.339883,
            43.647382,
            155.6
          ],
          [
            3.340288,
            43.647284,
            156.45
          ],
          [
            3.340821,
            43.647201,
            156.78
          ],
          [
            3.341413,
            43.647155,
            157.02
          ],
          [
            3.341956,
            43.647129,
            156.41
          ],
          [
            3.342322,
            43.647136,
            155.31
          ],
          [
            3.342322,
            43.647136,
            155.31
          ],
          [
            3.342666,
            43.647156,
            153.23
          ],
          [
            3.342801,
            43.647302,
            154.07
          ],
          [
            3.343002,
            43.647484,
            154.99
          ],
          [
            3.34264,
            43.647412,
            156.19
          ],
          [
            3.342516,
            43.647404,
            157.07
          ],
          [
            3.342218,
            43.647453,
            159.23
          ],
          [
            3.34212,
            43.647442,
            159.73
          ],
          [
            3.341958,
            43.647444,
            160.53
          ],
          [
            3.341831,
            43.647463,
            161.19
          ],
          [
            3.341485,
            43.647564,
            162.89
          ],
          [
            3.341338,
            43.647616,
            163.46
          ],
          [
            3.34112,
            43.647663,
            163.95
          ],
          [
            3.340846,
            43.647734,
            164.14
          ],
          [
            3.340434,
            43.647868,
            163.57
          ],
          [
            3.339652,
            43.648072,
            159.32
          ],
          [
            3.339378,
            43.648147,
            155.77
          ],
          [
            3.339291,
            43.648179,
            155.06
          ],
          [
            3.339171,
            43.648177,
            155.71
          ],
          [
            3.338957,
            43.648283,
            157.71
          ],
          [
            3.338785,
            43.648336,
            157.87
          ],
          [
            3.338564,
            43.64838,
            157.36
          ],
          [
            3.338095,
            43.648454,
            155.69
          ],
          [
            3.337725,
            43.648494,
            153.82
          ],
          [
            3.337459,
            43.648494,
            152.28
          ],
          [
            3.337075,
            43.648534,
            150.23
          ],
          [
            3.336889,
            43.648525,
            149.38
          ],
          [
            3.336808,
            43.648538,
            149.01
          ],
          [
            3.336698,
            43.648603,
            148.41
          ],
          [
            3.336629,
            43.648606,
            148.12
          ],
          [
            3.336526,
            43.64859,
            147.7
          ],
          [
            3.336388,
            43.648543,
            147.08
          ],
          [
            3.336293,
            43.64852,
            146.71
          ],
          [
            3.33617,
            43.648507,
            146.4
          ],
          [
            3.335473,
            43.648507,
            144.82
          ],
          [
            3.335337,
            43.648521,
            145.64
          ],
          [
            3.33523,
            43.64851,
            145.56
          ],
          [
            3.334708,
            43.648424,
            144.05
          ],
          [
            3.334183,
            43.648419,
            143.93
          ],
          [
            3.333693,
            43.648389,
            143.6
          ],
          [
            3.333123,
            43.648342,
            142.97
          ],
          [
            3.332869,
            43.648359,
            142.45
          ],
          [
            3.33276,
            43.648349,
            141.95
          ],
          [
            3.332613,
            43.648315,
            141.54
          ],
          [
            3.332456,
            43.648254,
            141.94
          ],
          [
            3.332221,
            43.648055,
            142.1
          ],
          [
            3.331912,
            43.647831,
            142.13
          ],
          [
            3.331341,
            43.64737,
            142.68
          ],
          [
            3.331144,
            43.647252,
            142.91
          ],
          [
            3.330631,
            43.646846,
            142.63
          ],
          [
            3.330309,
            43.646661,
            141.6
          ],
          [
            3.330189,
            43.646569,
            140.6
          ],
          [
            3.330116,
            43.646442,
            140.0
          ],
          [
            3.330081,
            43.646298,
            140.09
          ],
          [
            3.330159,
            43.646206,
            140.11
          ],
          [
            3.33015,
            43.64618,
            140.12
          ],
          [
            3.330035,
            43.646102,
            140.1
          ],
          [
            3.329998,
            43.646015,
            140.02
          ],
          [
            3.329869,
            43.645869,
            141.21
          ],
          [
            3.329827,
            43.64577,
            141.99
          ],
          [
            3.329708,
            43.645679,
            142.44
          ],
          [
            3.329594,
            43.64562,
            142.3
          ],
          [
            3.329461,
            43.645525,
            142.33
          ],
          [
            3.329375,
            43.645513,
            142.36
          ],
          [
            3.329235,
            43.645411,
            142.34
          ],
          [
            3.328983,
            43.645158,
            142.61
          ],
          [
            3.328809,
            43.645078,
            141.1
          ],
          [
            3.32845,
            43.644822,
            140.11
          ],
          [
            3.328395,
            43.644758,
            139.92
          ],
          [
            3.328353,
            43.644678,
            139.83
          ],
          [
            3.328314,
            43.644635,
            139.85
          ],
          [
            3.327895,
            43.644485,
            139.82
          ],
          [
            3.327875,
            43.644338,
            140.43
          ],
          [
            3.327901,
            43.644212,
            140.99
          ],
          [
            3.327898,
            43.644081,
            141.15
          ],
          [
            3.327779,
            43.643859,
            141.25
          ],
          [
            3.327689,
            43.643739,
            141.52
          ],
          [
            3.327659,
            43.643571,
            141.73
          ],
          [
            3.327605,
            43.643476,
            141.75
          ],
          [
            3.327585,
            43.643361,
            141.67
          ],
          [
            3.327652,
            43.643273,
            141.53
          ],
          [
            3.327741,
            43.643225,
            141.4
          ],
          [
            3.327788,
            43.643158,
            141.33
          ],
          [
            3.327712,
            43.642993,
            141.16
          ],
          [
            3.327643,
            43.642904,
            141.04
          ],
          [
            3.327434,
            43.642731,
            141.01
          ],
          [
            3.327399,
            43.642573,
            140.91
          ],
          [
            3.327267,
            43.642452,
            140.63
          ],
          [
            3.327208,
            43.642283,
            140.54
          ],
          [
            3.3272,
            43.642211,
            140.55
          ],
          [
            3.327237,
            43.642158,
            140.61
          ],
          [
            3.327135,
            43.642022,
            140.89
          ],
          [
            3.32693,
            43.641925,
            139.88
          ],
          [
            3.326835,
            43.641953,
            139.68
          ],
          [
            3.326514,
            43.641844,
            139.24
          ],
          [
            3.326419,
            43.641892,
            139.05
          ],
          [
            3.326151,
            43.641923,
            140.29
          ],
          [
            3.324913,
            43.642249,
            141.0
          ],
          [
            3.324929,
            43.642283,
            141.0
          ],
          [
            3.324418,
            43.642463,
            142.12
          ],
          [
            3.323932,
            43.642603,
            143.6
          ],
          [
            3.323805,
            43.64266,
            144.07
          ],
          [
            3.323515,
            43.64288,
            145.31
          ],
          [
            3.323331,
            43.643006,
            145.98
          ],
          [
            3.323149,
            43.643101,
            146.49
          ],
          [
            3.323024,
            43.643133,
            146.73
          ],
          [
            3.322866,
            43.643152,
            146.98
          ],
          [
            3.322338,
            43.643162,
            147.14
          ],
          [
            3.321987,
            43.643206,
            147.09
          ],
          [
            3.321813,
            43.643251,
            147.07
          ],
          [
            3.321692,
            43.643253,
            147.04
          ],
          [
            3.321267,
            43.64319,
            146.97
          ],
          [
            3.320971,
            43.643131,
            146.92
          ],
          [
            3.320812,
            43.643129,
            147.01
          ],
          [
            3.320569,
            43.643174,
            147.19
          ],
          [
            3.320281,
            43.643273,
            147.41
          ],
          [
            3.320198,
            43.643326,
            147.52
          ],
          [
            3.320123,
            43.643354,
            147.62
          ],
          [
            3.319798,
            43.643399,
            148.05
          ],
          [
            3.319605,
            43.643364,
            148.34
          ],
          [
            3.31946,
            43.643352,
            148.6
          ],
          [
            3.31929,
            43.643358,
            148.96
          ],
          [
            3.319061,
            43.643419,
            149.53
          ],
          [
            3.318547,
            43.643595,
            150.82
          ],
          [
            3.31798,
            43.643801,
            152.61
          ],
          [
            3.317859,
            43.643854,
            153.01
          ],
          [
            3.317764,
            43.643816,
            153.38
          ],
          [
            3.317644,
            43.643641,
            154.95
          ],
          [
            3.317565,
            43.643597,
            155.69
          ],
          [
            3.317452,
            43.643578,
            156.39
          ],
          [
            3.316939,
            43.64373,
            156.59
          ],
          [
            3.316595,
            43.643815,
            156.75
          ],
          [
            3.316202,
            43.643854,
            156.7
          ],
          [
            3.316044,
            43.643882,
            156.63
          ],
          [
            3.315652,
            43.643969,
            156.44
          ],
          [
            3.315391,
            43.64405,
            156.37
          ],
          [
            3.315215,
            43.644089,
            156.39
          ],
          [
            3.315055,
            43.644103,
            156.44
          ],
          [
            3.31486,
            43.644097,
            156.64
          ],
          [
            3.314249,
            43.644052,
            157.41
          ],
          [
            3.314085,
            43.644022,
            157.79
          ],
          [
            3.313652,
            43.643987,
            158.42
          ],
          [
            3.313316,
            43.643937,
            158.53
          ],
          [
            3.312681,
            43.643627,
            162.11
          ],
          [
            3.312187,
            43.643411,
            163.91
          ],
          [
            3.311912,
            43.643303,
            164.57
          ],
          [
            3.311541,
            43.643194,
            165.09
          ],
          [
            3.309758,
            43.64272,
            167.98
          ],
          [
            3.308687,
            43.642722,
            167.28
          ],
          [
            3.308451,
            43.642711,
            167.48
          ],
          [
            3.308303,
            43.642713,
            167.55
          ],
          [
            3.308403,
            43.642877,
            166.1
          ],
          [
            3.308492,
            43.64313,
            164.18
          ],
          [
            3.308546,
            43.643375,
            163.09
          ],
          [
            3.308587,
            43.643967,
            161.28
          ],
          [
            3.308594,
            43.644191,
            161.08
          ],
          [
            3.308552,
            43.64447,
            161.03
          ],
          [
            3.308439,
            43.64483,
            161.29
          ],
          [
            3.308433,
            43.644933,
            161.42
          ],
          [
            3.30847,
            43.645276,
            161.93
          ],
          [
            3.308474,
            43.645406,
            162.16
          ],
          [
            3.308447,
            43.645564,
            162.54
          ],
          [
            3.30834,
            43.645903,
            163.27
          ],
          [
            3.308346,
            43.64595,
            163.53
          ],
          [
            3.307968,
            43.646307,
            165.09
          ],
          [
            3.30785,
            43.646464,
            165.55
          ],
          [
            3.307527,
            43.64694,
            166.88
          ],
          [
            3.307415,
            43.647118,
            167.35
          ],
          [
            3.307252,
            43.647635,
            168.6
          ],
          [
            3.307116,
            43.647813,
            169.08
          ],
          [
            3.306909,
            43.647999,
            169.75
          ],
          [
            3.306305,
            43.648443,
            171.58
          ],
          [
            3.305909,
            43.648884,
            173.34
          ],
          [
            3.305524,
            43.649366,
            175.19
          ],
          [
            3.305436,
            43.649532,
            175.73
          ],
          [
            3.30543,
            43.649739,
            176.28
          ],
          [
            3.305448,
            43.649884,
            176.65
          ],
          [
            3.305371,
            43.650416,
            177.76
          ],
          [
            3.305344,
            43.650537,
            177.98
          ],
          [
            3.305246,
            43.650712,
            178.31
          ],
          [
            3.305214,
            43.650801,
            178.48
          ],
          [
            3.305217,
            43.65091,
            178.69
          ],
          [
            3.305292,
            43.651235,
            179.93
          ],
          [
            3.305743,
            43.651409,
            182.76
          ],
          [
            3.305795,
            43.651456,
            183.06
          ],
          [
            3.305778,
            43.651528,
            183.31
          ],
          [
            3.30562,
            43.651863,
            184.4
          ],
          [
            3.305559,
            43.652031,
            184.39
          ],
          [
            3.305564,
            43.652084,
            184.18
          ],
          [
            3.305616,
            43.652132,
            183.87
          ],
          [
            3.305524,
            43.652167,
            183.59
          ],
          [
            3.305425,
            43.652225,
            183.29
          ],
          [
            3.304724,
            43.652815,
            184.25
          ],
          [
            3.304014,
            43.653455,
            186.43
          ],
          [
            3.303672,
            43.653779,
            188.11
          ],
          [
            3.303165,
            43.654234,
            192.83
          ],
          [
            3.303107,
            43.654306,
            193.0
          ],
          [
            3.302991,
            43.654607,
            194.26
          ],
          [
            3.302883,
            43.654696,
            194.89
          ],
          [
            3.302807,
            43.654729,
            196.0
          ],
          [
            3.302625,
            43.654828,
            198.2
          ],
          [
            3.302461,
            43.654978,
            199.17
          ],
          [
            3.302379,
            43.655088,
            200.16
          ],
          [
            3.302374,
            43.655165,
            201.29
          ],
          [
            3.302497,
            43.655346,
            203.37
          ],
          [
            3.302589,
            43.655463,
            204.44
          ]
        ]
      }
    },
    {
      "type": "Feature",
      "properties": {
        "source": "Ruffes_du_Salagou.gpx",
        "type": "route"
      },
      "geometry": {
        "type": "LineString",
        "coordinates": [
          [
            3.302589,
            43.655463
          ],
          [
            3.305616,
            43.652132
          ],
          [
            3.305795,
            43.651456
          ],
          [
            3.305292,
            43.651235
          ],
          [
            3.308346,
            43.64595
          ],
          [
            3.308303,
            43.642713
          ],
          [
            3.309758,
            43.64272
          ],
          [
            3.317452,
            43.643578
          ],
          [
            3.324929,
            43.642283
          ],
          [
            3.324913,
            43.642249
          ],
          [
            3.32693,
            43.641925
          ],
          [
            3.330116,
            43.646442
          ],
          [
            3.332869,
            43.648359
          ],
          [
            3.332852,
            43.648277
          ],
          [
            3.342322,
            43.647136
          ],
          [
            3.342322,
            43.647136
          ],
          [
            3.342666,
            43.647156
          ],
          [
            3.343002,
            43.647484
          ],
          [
            3.332613,
            43.648315
          ],
          [
            3.32693,
            43.641925
          ],
          [
            3.324913,
            43.642249
          ],
          [
            3.324929,
            43.642283
          ],
          [
            3.317452,
            43.643578
          ],
          [
            3.308303,
            43.642713
          ],
          [
            3.308346,
            43.64595
          ],
          [
            3.305292,
            43.651235
          ],
          [
            3.305795,
            43.651456
          ],
          [
            3.305616,
            43.652132
          ],
          [
            3.302589,
            43.655463
          ]
        ]
      }
    }
  ]
}