{
  "type": "FeatureCollection",
  "features": [
    {
      "type": "Feature",
      "properties": {
        "name": "GraphHopper Track",
        "source": "Auzeville_Scient..gpx",
        "type": "track"
      },
      "geometry": {
        "type": "LineString",
        "coordinates": [
          [
            1.478497,
            43.535513,
            190.0
          ],
          [
            1.478666,
            43.535531,
            190.0
          ],
          [
            1.478699,
            43.535392,
            190.02
          ],
          [
            1.47941,
            43.535479,
            188.0
          ],
          [
            1.479442,
            43.535375,
            188.31
          ],
          [
            1.479474,
            43.535315,
            188.72
          ],
          [
            1.479669,
            43.535068,
            190.08
          ],
          [
            1.479785,
            43.534959,
            190.5
          ],
          [
            1.479904,
            43.534909,
            190.9
          ],
          [
            1.480063,
            43.534869,
            191.13
          ],
          [
            1.480153,
            43.534865,
            191.05
          ],
          [
            1.480374,
            43.534924,
            190.61
          ],
          [
            1.480557,
            43.534875,
            190.22
          ],
          [
            1.480735,
            43.534779,
            189.72
          ],
          [
            1.480882,
            43.534654,
            189.13
          ],
          [
            1.480953,
            43.534583,
            188.84
          ],
          [
            1.481104,
            43.534618,
            187.91
          ],
          [
            1.481442,
            43.534803,
            184.46
          ],
          [
            1.482079,
            43.535072,
            178.13
          ],
          [
            1.482124,
            43.535065,
            177.89
          ],
          [
            1.482217,
            43.534984,
            177.37
          ],
          [
            1.482355,
            43.53492,
            176.91
          ],
          [
            1.482556,
            43.534796,
            176.1
          ],
          [
            1.482623,
            43.534779,
            175.71
          ],
          [
            1.482683,
            43.534782,
            175.37
          ],
          [
            1.483836,
            43.535226,
            167.35
          ],
          [
            1.483878,
            43.535247,
            167.12
          ],
          [
            1.484039,
            43.535103,
            167.28
          ],
          [
            1.48423,
            43.534886,
            167.92
          ],
          [
            1.484537,
            43.534463,
            167.17
          ],
          [
            1.484738,
            43.534538,
            167.5
          ],
          [
            1.484878,
            43.534329,
            167.95
          ],
          [
            1.484903,
            43.534305,
            167.93
          ],
          [
            1.484995,
            43.534275,
            167.97
          ],
          [
            1.484991,
            43.53424,
            167.98
          ],
          [
            1.485014,
            43.534184,
            167.96
          ],
          [
            1.485095,
            43.534065,
            167.93
          ],
          [
            1.485375,
            43.533602,
            168.39
          ],
          [
            1.485661,
            43.533192,
            168.9
          ],
          [
            1.485823,
            43.532978,
            169.18
          ],
          [
            1.486317,
            43.532368,
            169.63
          ],
          [
            1.486432,
            43.532239,
            169.62
          ],
          [
            1.486477,
            43.532194,
            169.6
          ],
          [
            1.486509,
            43.532175,
            169.6
          ],
          [
            1.486605,
            43.532147,
            169.58
          ],
          [
            1.486817,
            43.532128,
            169.26
          ],
          [
            1.486846,
            43.53212,
            169.31
          ],
          [
            1.48689,
            43.532044,
            169.85
          ],
          [
            1.486969,
            43.532001,
            169.8
          ],
          [
            1.486945,
            43.531965,
            169.86
          ],
          [
            1.486892,
            43.531818,
            170.19
          ],
          [
            1.48689,
            43.531786,
            170.27
          ],
          [
            1.486911,
            43.531729,
            170.4
          ],
          [
            1.487558,
            43.530924,
            171.0
          ],
          [
            1.488122,
            43.530266,
            170.92
          ],
          [
            1.488703,
            43.529616,
            171.0
          ],
          [
            1.489055,
            43.529188,
            170.44
          ],
          [
            1.489549,
            43.528542,
            169.99
          ],
          [
            1.489623,
            43.528524,
            169.87
          ],
          [
            1.489635,
            43.528514,
            169.78
          ],
          [
            1.489653,
            43.528465,
            169.49
          ],
          [
            1.489713,
            43.528358,
            169.15
          ],
          [
            1.489799,
            43.528247,
            169.0
          ],
          [
            1.489888,
            43.528167,
            168.88
          ],
          [
            1.490194,
            43.527936,
            168.0
          ],
          [
            1.49023,
            43.527909,
            167.98
          ],
          [
            1.490435,
            43.527813,
            167.46
          ],
          [
            1.490496,
            43.527807,
            167.28
          ],
          [
            1.490517,
            43.527744,
            167.07
          ],
          [
            1.490678,
            43.527769,
            167.0
          ],
          [
            1.490905,
            43.527792,
            166.94
          ],
          [
            1.491814,
            43.527814,
            165.9
          ],
          [
            1.492073,
            43.527835,
            165.02
          ],
          [
            1.493456,
            43.527982,
            160.54
          ],
          [
            1.493598,
            43.527996,
            160.1
          ],
          [
            1.494331,
            43.528024,
            156.77
          ],
          [
            1.495071,
            43.528024,
            154.96
          ],
          [
            1.495531,
            43.528002,
            154.34
          ],
          [
            1.495992,
            43.527948,
            153.07
          ],
          [
            1.495493,
            43.528476,
            154.56
          ],
          [
            1.495493,
            43.528476,
            154.56
          ],
          [
            1.495992,
            43.527948,
            153.07
          ],
          [
            1.496439,
            43.527882,
            152.21
          ],
          [
            1.496785,
            43.527819,
            152.0
          ],
          [
            1.497035,
            43.527727,
            151.35
          ],
          [
            1.497382,
            43.52754,
            151.0
          ],
          [
            1.497523,
            43.527504,
            150.94
          ],
          [
            1.497648,
            43.527494,
            150.75
          ],
          [
            1.498769,
            43.526737,
            150.03
          ],
          [
            1.498759,
            43.526699,
            150.04
          ],
          [
            1.498495,
            43.526568,
            150.15
          ],
          [
            1.498691,
            43.526359,
            150.0
          ],
          [
            1.498665,
            43.526239,
            150.0
          ],
          [
            1.499431,
            43.525448,
            149.0
          ],
          [
            1.499484,
            43.525471,
            149.02
          ],
          [
            1.500153,
            43.525388,
            149.0
          ],
          [
            1.500594,
            43.525607,
            149.0
          ],
          [
            1.500676,
            43.525576,
            149.0
          ],
          [
            1.500907,
            43.525669,
            149.0
          ],
          [
            1.501794,
            43.5258,
            148.87
          ],
          [
            1.501938,
            43.525813,
            148.81
          ],
          [
            1.502071,
            43.525752,
            148.75
          ],
          [
            1.502703,
            43.525358,
            148.0
          ],
          [
            1.503464,
            43.525083,
            148.0
          ],
          [
            1.50428,
            43.524852,
            148.0
          ],
          [
            1.504331,
            43.524843,
            148.0
          ],
          [
            1.504379,
            43.524848,
            148.0
          ],
          [
            1.507105,
            43.525931,
            147.3
          ],
          [
            1.507307,
            43.52569,
            148.0
          ],
          [
            1.507595,
            43.525802,
            148.0
          ],
          [
            1.507669,
            43.525786,
            148.0
          ],
          [
            1.507784,
            43.525654,
            148.0
          ],
          [
            1.507915,
            43.525482,
            148.1
          ]
        ]
      }
    },
    {
      "type": "Feature",
      "properties": {
        "source": "Auzeville_Scient..gpx",
        "type": "route"
      },
      "geometry": {
        "type": "LineString",
        "coordinates": [
          [
            1.478497,
            43.535513
          ],
          [
            1.478666,
            43.535531
          ],
          [
            1.478699,
            43.535392
          ],
          [
            1.47941,
            43.535479
          ],
          [
            1.480953,
            43.534583
          ],
          [
            1.483878,
            43.535247
          ],
          [
            1.484537,
            43.534463
          ],
          [
            1.484738,
            43.534538
          ],
          [
            1.490194,
            43.527936
          ],
          [
            1.490517,
            43.527744
          ],
          [
            1.493456,
            43.527982
          ],
          [
            1.495992,
            43.527948
          ],
          [
            1.495493,
            43.528476
          ],
          [
            1.495493,
            43.528476
          ],
          [
            1.495992,
            43.527948
          ],
          [
            1.497648,
            43.527494
          ],
          [
            1.498495,
            43.526568
          ],
          [
            1.498665,
            43.526239
          ],
          [
            1.499431,
            43.525448
          ],
          [
            1.500153,
            43.525388
          ],
          [
            1.500594,
            43.525607
          ],
          [
            1.500676,
            43.525576
          ],
          [
            1.507105,
            43.525931
          ],
          [
            1.507307,
            43.52569
          ],
          [
            1.507915,
            43.525482
          ]
        ]
      }
    }
  ]
}