{
  "type": "FeatureCollection",
  "features": [
    {
      "type": "Feature",
      "properties": {
        "name": "GraphHopper Track",
        "source": "Castanet-Tolosan.gpx",
        "type": "track"
      },
      "geometry": {
        "type": "LineString",
        "coordinates": [
          [
            1.516742,
            43.515259,
            152.28
          ],
          [
            1.516533,
            43.515149,
            152.37
          ],
          [
            1.516223,
            43.51496,
            152.29
          ],
          [
            1.515968,
            43.514755,
            152.05
          ],
          [
            1.515831,
            43.514677,
            151.9
          ],
          [
            1.515714,
            43.514333,
            151.99
          ],
          [
            1.515757,
            43.514203,
            152.0
          ],
          [
            1.516067,
            43.514216,
            151.94
          ],
          [
            1.516252,
            43.513588,
            151.95
          ],
          [
            1.516547,
            43.512775,
            151.67
          ],
          [
            1.516717,
            43.511991,
            151.64
          ],
          [
            1.516853,
            43.511449,
            152.46
          ],
          [
            1.516954,
            43.511175,
            153.93
          ],
          [
            1.516938,
            43.511125,
            154.0
          ],
          [
            1.517402,
            43.511216,
            154.66
          ],
          [
            1.517357,
            43.511297,
            154.02
          ],
          [
            1.51725,
            43.51154,
            152.43
          ],
          [
            1.517051,
            43.512542,
            151.46
          ],
          [
            1.516839,
            43.513263,
            151.57
          ],
          [
            1.516781,
            43.513491,
            151.69
          ],
          [
            1.516567,
            43.514109,
            152.06
          ],
          [
            1.51656,
            43.514264,
            152.19
          ],
          [
            1.516579,
            43.514332,
            152.23
          ],
          [
            1.516619,
            43.514419,
            152.3
          ],
          [
            1.516672,
            43.514495,
            152.36
          ],
          [
            1.516717,
            43.514533,
            152.37
          ],
          [
            1.516899,
            43.514656,
            152.38
          ],
          [
            1.517049,
            43.51473,
            152.32
          ],
          [
            1.517195,
            43.514782,
            152.22
          ],
          [
            1.517369,
            43.514814,
            152.1
          ],
          [
            1.51748,
            43.514821,
            152.04
          ],
          [
            1.517605,
            43.514811,
            151.93
          ],
          [
            1.517871,
            43.514769,
            151.5
          ],
          [
            1.518465,
            43.514742,
            150.46
          ],
          [
            1.518911,
            43.514775,
            150.26
          ],
          [
            1.519163,
            43.514816,
            150.19
          ],
          [
            1.519295,
            43.514888,
            150.17
          ],
          [
            1.519639,
            43.515139,
            150.18
          ],
          [
            1.519697,
            43.515122,
            149.78
          ],
          [
            1.519697,
            43.515122,
            149.78
          ],
          [
            1.519917,
            43.515061,
            148.27
          ],
          [
            1.520881,
            43.514496,
            149.76
          ],
          [
            1.521394,
            43.51402,
            149.15
          ],
          [
            1.521568,
            43.513875,
            148.71
          ],
          [
            1.521698,
            43.513868,
            148.14
          ],
          [
            1.521689,
            43.513839,
            148.18
          ],
          [
            1.521695,
            43.513781,
            148.47
          ],
          [
            1.521788,
            43.513581,
            148.91
          ],
          [
            1.521866,
            43.513359,
            149.0
          ],
          [
            1.521941,
            43.513246,
            149.03
          ],
          [
            1.522011,
            43.513172,
            149.0
          ],
          [
            1.522108,
            43.513096,
            149.0
          ],
          [
            1.522196,
            43.513042,
            149.0
          ],
          [
            1.522272,
            43.513022,
            149.0
          ],
          [
            1.522241,
            43.512865,
            149.0
          ],
          [
            1.522475,
            43.512729,
            148.44
          ],
          [
            1.522751,
            43.512639,
            148.07
          ],
          [
            1.522794,
            43.51262,
            148.04
          ],
          [
            1.522867,
            43.512569,
            148.0
          ],
          [
            1.523347,
            43.512441,
            148.0
          ],
          [
            1.523409,
            43.512403,
            148.0
          ],
          [
            1.523635,
            43.512469,
            148.0
          ],
          [
            1.52445,
            43.512641,
            148.0
          ],
          [
            1.524793,
            43.512721,
            148.02
          ],
          [
            1.525013,
            43.512786,
            148.24
          ],
          [
            1.525249,
            43.51287,
            148.63
          ]
        ]
      }
    },
    {
      "type": "Feature",
      "properties": {
        "source": "Castanet-Tolosan.gpx",
        "type": "route"
      },
      "geometry": {
        "type": "LineString",
        "coordinates": [
          [
            1.516742,
            43.515259
          ],
          [
            1.515831,
            43.514677
          ],
          [
            1.515757,
            43.514203
          ],
          [
            1.516067,
            43.514216
          ],
          [
            1.516938,
            43.511125
          ],
          [
            1.517402,
            43.511216
          ],
          [
            1.519639,
            43.515139
          ],
          [
            1.519697,
            43.515122
          ],
          [
            1.519697,
            43.515122
          ],
          [
            1.521698,
            43.513868
          ],
          [
            1.522272,
            43.513022
          ],
          [
            1.522241,
            43.512865
          ],
          [
            1.523409,
            43.512403
          ],
          [
            1.525249,
            43.51287
          ]
        ]
      }
    }
  ]
}