{
  "type": "FeatureCollection",
  "features": [
    {
      "type": "Feature",
      "properties": {
        "name": "GraphHopper Track",
        "source": "Collines_de_lAutan.gpx",
        "type": "track"
      },
      "geometry": {
        "type": "LineString",
        "coordinates": [
          [
            1.522316,
            43.496997,
            156.0
          ],
          [
            1.522316,
            43.496997,
            156.0
          ],
          [
            1.522915,
            43.497336,
            156.0
          ],
          [
            1.523252,
            43.497051,
            156.0
          ],
          [
            1.524403,
            43.496189,
            157.0
          ],
          [
            1.523993,
            43.496031,
            157.26
          ],
          [
            1.524347,
            43.495525,
            157.12
          ],
          [
            1.52434,
            43.49549,
            157.11
          ],
          [
            1.524118,
            43.495322,
            157.18
          ],
          [
            1.523969,
            43.495259,
            157.58
          ],
          [
            1.523941,
            43.495234,
            157.74
          ],
          [
            1.523941,
            43.495144,
            157.98
          ],
          [
            1.523909,
            43.495073,
            158.2
          ],
          [
            1.523929,
            43.495008,
            158.3
          ],
          [
            1.524979,
            43.493983,
            158.72
          ],
          [
            1.525003,
            43.493948,
            158.77
          ],
          [
            1.524975,
            43.493866,
            158.98
          ],
          [
            1.525598,
            43.493694,
            158.11
          ],
          [
            1.525575,
            43.493645,
            158.24
          ],
          [
            1.525839,
            43.493612,
            158.03
          ],
          [
            1.526055,
            43.493597,
            158.01
          ],
          [
            1.52655,
            43.493578,
            158.0
          ],
          [
            1.526849,
            43.493576,
            157.25
          ],
          [
            1.527006,
            43.493589,
            157.16
          ],
          [
            1.527163,
            43.493634,
            157.1
          ],
          [
            1.527703,
            43.493811,
            157.0
          ],
          [
            1.528281,
            43.494013,
            156.97
          ],
          [
            1.528695,
            43.494147,
            156.62
          ],
          [
            1.52886,
            43.494185,
            156.53
          ],
          [
            1.52905,
            43.494213,
            156.35
          ],
          [
            1.529219,
            43.494222,
            156.09
          ],
          [
            1.529428,
            43.494213,
            156.0
          ],
          [
            1.529644,
            43.494185,
            156.0
          ],
          [
            1.529775,
            43.494157,
            156.0
          ],
          [
            1.530289,
            43.493994,
            156.0
          ],
          [
            1.530562,
            43.493929,
            156.0
          ],
          [
            1.531351,
            43.493781,
            156.0
          ],
          [
            1.531441,
            43.493785,
            155.95
          ],
          [
            1.531549,
            43.493802,
            155.81
          ],
          [
            1.531695,
            43.493854,
            155.65
          ],
          [
            1.531837,
            43.493921,
            155.6
          ],
          [
            1.532523,
            43.494306,
            155.36
          ],
          [
            1.532649,
            43.494403,
            155.03
          ],
          [
            1.532963,
            43.49471,
            154.86
          ],
          [
            1.53331,
            43.494934,
            154.73
          ],
          [
            1.533457,
            43.495016,
            154.68
          ],
          [
            1.533772,
            43.495151,
            154.73
          ],
          [
            1.534675,
            43.495514,
            155.02
          ],
          [
            1.535231,
            43.495757,
            155.23
          ],
          [
            1.535277,
            43.495819,
            155.43
          ],
          [
            1.535733,
            43.496019,
            154.75
          ],
          [
            1.535226,
            43.496523,
            153.76
          ],
          [
            1.534862,
            43.496789,
            153.62
          ],
          [
            1.534306,
            43.497133,
            153.56
          ],
          [
            1.53333,
            43.497641,
            153.19
          ],
          [
            1.533169,
            43.497739,
            153.14
          ],
          [
            1.532755,
            43.498023,
            152.94
          ],
          [
            1.532226,
            43.498449,
            152.84
          ],
          [
            1.531837,
            43.498842,
            152.92
          ],
          [
            1.53073,
            43.500046,
            153.15
          ],
          [
            1.530302,
            43.500414,
            152.88
          ],
          [
            1.530009,
            43.500647,
            152.78
          ],
          [
            1.530058,
            43.500679,
            152.45
          ],
          [
            1.530037,
            43.500711,
            152.35
          ],
          [
            1.530041,
            43.500749,
            152.22
          ],
          [
            1.530053,
            43.50078,
            152.15
          ],
          [
            1.530117,
            43.500842,
            151.96
          ],
          [
            1.530722,
            43.501077,
            151.29
          ],
          [
            1.530801,
            43.501124,
            151.22
          ],
          [
            1.530881,
            43.501185,
            151.16
          ],
          [
            1.530985,
            43.501304,
            151.09
          ],
          [
            1.531119,
            43.501499,
            151.1
          ],
          [
            1.531309,
            43.501726,
            151.23
          ],
          [
            1.532494,
            43.502815,
            152.0
          ],
          [
            1.533331,
            43.503456,
            151.24
          ],
          [
            1.533648,
            43.503664,
            152.04
          ],
          [
            1.53389,
            43.50376,
            152.73
          ],
          [
            1.534085,
            43.503821,
            152.75
          ],
          [
            1.534588,
            43.504041,
            152.38
          ],
          [
            1.534839,
            43.504134,
            152.2
          ],
          [
            1.535105,
            43.504255,
            151.63
          ],
          [
            1.535685,
            43.504689,
            148.36
          ],
          [
            1.536054,
            43.504868,
            147.44
          ]
        ]
      }
    },
    {
      "type": "Feature",
      "properties": {
        "source": "Collines_de_lAutan.gpx",
        "type": "route"
      },
      "geometry": {
        "type": "LineString",
        "coordinates": [
          [
            1.522316,
            43.496997
          ],
          [
            1.522316,
            43.496997
          ],
          [
            1.522915,
            43.497336
          ],
          [
            1.524403,
            43.496189
          ],
          [
            1.523993,
            43.496031
          ],
          [
            1.523941,
            43.495234
          ],
          [
            1.524975,
            43.493866
          ],
          [
            1.525598,
            43.493694
          ],
          [
            1.525575,
            43.493645
          ],
          [
            1.535277,
            43.495819
          ],
          [
            1.535733,
            43.496019
          ],
          [
            1.530009,
            43.500647
          ],
          [
            1.530058,
            43.500679
          ],
          [
            1.536054,
            43.504868
          ]
        ]
      }
    }
  ]
}