{
  "type": "FeatureCollection",
  "features": [
    {
      "type": "Feature",
      "properties": {
        "name": "GraphHopper Track",
        "source": "Escalquens_Gare.gpx",
        "type": "track"
      },
      "geometry": {
        "type": "LineString",
        "coordinates": [
          [
            1.54494,
            43.513001,
            153.39
          ],
          [
            1.54494,
            43.513001,
            153.39
          ],
          [
            1.548952,
            43.51536,
            159.79
          ],
          [
            1.548825,
            43.515501,
            159.94
          ],
          [
            1.548226,
            43.516105,
            159.46
          ],
          [
            1.546688,
            43.517748,
            158.1
          ],
          [
            1.546487,
            43.517913,
            158.0
          ],
          [
            1.546332,
            43.517918,
            157.49
          ],
          [
            1.546148,
            43.517949,
            157.11
          ],
          [
            1.545876,
            43.517966,
            157.0
          ],
          [
            1.543808,
            43.517986,
            156.99
          ],
          [
            1.543628,
            43.518026,
            156.92
          ],
          [
            1.543544,
            43.518198,
            156.99
          ],
          [
            1.543521,
            43.518271,
            156.99
          ],
          [
            1.543502,
            43.518491,
            156.55
          ],
          [
            1.543474,
            43.518676,
            155.98
          ],
          [
            1.543435,
            43.518818,
            155.0
          ],
          [
            1.543347,
            43.518954,
            154.83
          ],
          [
            1.543308,
            43.518939,
            154.82
          ],
          [
            1.54322,
            43.518995,
            154.3
          ],
          [
            1.54311,
            43.519029,
            154.15
          ],
          [
            1.543008,
            43.519043,
            154.1
          ],
          [
            1.542833,
            43.519033,
            154.07
          ],
          [
            1.542665,
            43.519003,
            153.97
          ],
          [
            1.542028,
            43.518842,
            153.83
          ],
          [
            1.541718,
            43.518754,
            153.83
          ],
          [
            1.541426,
            43.51866,
            154.34
          ],
          [
            1.539595,
            43.518052,
            154.0
          ],
          [
            1.539443,
            43.517983,
            154.0
          ],
          [
            1.539311,
            43.517909,
            154.0
          ],
          [
            1.539295,
            43.517893,
            154.0
          ],
          [
            1.539231,
            43.517691,
            154.0
          ],
          [
            1.539241,
            43.517646,
            153.81
          ],
          [
            1.539482,
            43.517326,
            154.0
          ],
          [
            1.539458,
            43.517314,
            154.0
          ],
          [
            1.539706,
            43.517024,
            154.0
          ],
          [
            1.538258,
            43.516549,
            152.56
          ],
          [
            1.538453,
            43.516362,
            153.73
          ]
        ]
      }
    },
    {
      "type": "Feature",
      "properties": {
        "source": "Escalquens_Gare.gpx",
        "type": "route"
      },
      "geometry": {
        "type": "LineString",
        "coordinates": [
          [
            1.54494,
            43.513001
          ],
          [
            1.54494,
            43.513001
          ],
          [
            1.548952,
            43.51536
          ],
          [
            1.546487,
            43.517913
          ],
          [
            1.545876,
            43.517966
          ],
          [
            1.543628,
            43.518026
          ],
          [
            1.543435,
            43.518818
          ],
          [
            1.543347,
            43.518954
          ],
          [
            1.543308,
            43.518939
          ],
          [
            1.539311,
            43.517909
          ],
          [
            1.539482,
            43.517326
          ],
          [
            1.539458,
            43.517314
          ],
          [
            1.539706,
            43.517024
          ],
          [
            1.538453,
            43.516362
          ]
        ]
      }
    }
  ]
}