{
  "type": "FeatureCollection",
  "features": [
    {
      "type": "Feature",
      "properties": {
        "name": "GraphHopper Track",
        "source": "Sentier_de_Montbrun.gpx",
        "type": "track"
      },
      "geometry": {
        "type": "LineString",
        "coordinates": [
          [
            1.635095,
            43.456641,
            185.41
          ],
          [
            1.634659,
            43.455984,
            186.66
          ],
          [
            1.634659,
            43.455984,
            186.66
          ],
          [
            1.635182,
            43.456772,
            185.17
          ],
          [
            1.635383,
            43.457035,
            184.82
          ],
          [
            1.635598,
            43.457204,
            184.75
          ],
          [
            1.635826,
            43.457311,
            184.68
          ],
          [
            1.636118,
            43.457407,
            185.11
          ],
          [
            1.636421,
            43.457446,
            185.8
          ],
          [
            1.636818,
            43.457422,
            186.77
          ],
          [
            1.637467,
            43.457315,
            189.28
          ],
          [
            1.637926,
            43.457195,
            191.36
          ],
          [
            1.639101,
            43.456866,
            196.95
          ],
          [
            1.639592,
            43.456696,
            199.28
          ],
          [
            1.640019,
            43.456538,
            201.0
          ],
          [
            1.640137,
            43.456669,
            200.87
          ],
          [
            1.640285,
            43.456856,
            200.6
          ],
          [
            1.640509,
            43.457181,
            199.23
          ],
          [
            1.640914,
            43.457811,
            196.47
          ],
          [
            1.640997,
            43.457923,
            195.92
          ],
          [
            1.641214,
            43.458168,
            194.63
          ],
          [
            1.641328,
            43.458317,
            193.85
          ],
          [
            1.641435,
            43.458474,
            192.98
          ],
          [
            1.64162,
            43.45878,
            191.04
          ]
        ]
      }
    },
    {
      "type": "Feature",
      "properties": {
        "source": "Sentier_de_Montbrun.gpx",
        "type": "route"
      },
      "geometry": {
        "type": "LineString",
        "coordinates": [
          [
            1.635095,
            43.456641
          ],
          [
            1.634659,
            43.455984
          ],
          [
            1.634659,
            43.455984
          ],
          [
            1.640019,
            43.456538
          ],
          [
            1.64162,
            43.45878
          ]
        ]
      }
    }
  ]
}