{
  "type": "FeatureCollection",
  "features": [
    {
      "type": "Feature",
      "properties": {
        "name": "GraphHopper Track",
        "source": "Sentier_Aveyron.gpx",
        "type": "track"
      },
      "geometry": {
        "type": "LineString",
        "coordinates": [
          [
            1.967568,
            44.145486,
            153.41
          ],
          [
            1.967863,
            44.145462,
            153.98
          ],
          [
            1.968202,
            44.145409,
            154.71
          ],
          [
            1.968801,
            44.145361,
            155.58
          ],
          [
            1.96919,
            44.145334,
            155.11
          ],
          [
            1.969482,
            44.145336,
            155.14
          ],
          [
            1.96983,
            44.145366,
            155.15
          ],
          [
            1.970797,
            44.145528,
            155.65
          ],
          [
            1.970714,
            44.145697,
            156.93
          ],
          [
            1.970608,
            44.14582,
            157.13
          ],
          [
            1.970631,
            44.145858,
            157.48
          ],
          [
            1.970634,
            44.145879,
            157.83
          ],
          [
            1.970622,
            44.145901,
            158.11
          ],
          [
            1.970543,
            44.145963,
            158.33
          ],
          [
            1.970465,
            44.145994,
            158.43
          ],
          [
            1.97036,
            44.146016,
            158.73
          ],
          [
            1.970069,
            44.146025,
            162.61
          ],
          [
            1.970009,
            44.146044,
            163.58
          ],
          [
            1.969991,
            44.146063,
            164.05
          ],
          [
            1.969973,
            44.146132,
            165.43
          ],
          [
            1.969964,
            44.146296,
            168.01
          ],
          [
            1.969942,
            44.146379,
            169.53
          ],
          [
            1.969808,
            44.146498,
            173.36
          ],
          [
            1.969782,
            44.146547,
            174.49
          ],
          [
            1.969777,
            44.146705,
            177.61
          ],
          [
            1.969798,
            44.146865,
            180.68
          ],
          [
            1.969863,
            44.147083,
            183.27
          ],
          [
            1.97002,
            44.147416,
            187.61
          ],
          [
            1.970092,
            44.147507,
            188.88
          ],
          [
            1.97016,
            44.147564,
            189.82
          ],
          [
            1.970284,
            44.147704,
            191.83
          ],
          [
            1.970328,
            44.147788,
            193.04
          ],
          [
            1.970377,
            44.147948,
            194.83
          ],
          [
            1.970494,
            44.148607,
            199.56
          ],
          [
            1.970513,
            44.148846,
            201.2
          ],
          [
            1.970496,
            44.148934,
            201.82
          ],
          [
            1.970398,
            44.149063,
            202.91
          ],
          [
            1.970362,
            44.149044,
            202.98
          ],
          [
            1.97028,
            44.149021,
            203.18
          ],
          [
            1.970174,
            44.149014,
            203.32
          ],
          [
            1.968489,
            44.148987,
            204.3
          ],
          [
            1.968489,
            44.148987,
            204.3
          ],
          [
            1.969364,
            44.148998,
            204.37
          ],
          [
            1.969284,
            44.14761,
            194.11
          ],
          [
            1.969267,
            44.147461,
            192.91
          ],
          [
            1.969188,
            44.147231,
            191.04
          ],
          [
            1.969073,
            44.147002,
            189.2
          ],
          [
            1.969033,
            44.146972,
            188.89
          ],
          [
            1.9691,
            44.146929,
            188.24
          ],
          [
            1.969202,
            44.14689,
            187.63
          ],
          [
            1.969298,
            44.146878,
            186.78
          ],
          [
            1.969681,
            44.146877,
            182.71
          ],
          [
            1.969798,
            44.146865,
            180.68
          ],
          [
            1.969777,
            44.146705,
            177.61
          ],
          [
            1.969782,
            44.146547,
            174.49
          ],
          [
            1.969808,
            44.146498,
            173.36
          ],
          [
            1.969942,
            44.146379,
            169.53
          ],
          [
            1.969964,
            44.146296,
            168.01
          ],
          [
            1.969973,
            44.146132,
            165.43
          ],
          [
            1.969991,
            44.146063,
            164.05
          ],
          [
            1.970009,
            44.146044,
            163.58
          ],
          [
            1.970069,
            44.146025,
            162.61
          ],
          [
            1.97036,
            44.146016,
            158.73
          ],
          [
            1.970465,
            44.145994,
            158.43
          ],
          [
            1.970543,
            44.145963,
            158.33
          ],
          [
            1.970622,
            44.145901,
            158.11
          ],
          [
            1.970634,
            44.145879,
            157.83
          ],
          [
            1.970631,
            44.145858,
            157.48
          ],
          [
            1.970608,
            44.14582,
            157.13
          ],
          [
            1.970714,
            44.145697,
            156.93
          ],
          [
            1.970797,
            44.145528,
            155.65
          ],
          [
            1.970903,
            44.145238,
            149.9
          ],
          [
            1.971107,
            44.144643,
            155.64
          ],
          [
            1.971123,
            44.144545,
            156.0
          ],
          [
            1.971166,
            44.144407,
            156.0
          ],
          [
            1.971268,
            44.144197,
            153.52
          ],
          [
            1.971465,
            44.144013,
            152.97
          ],
          [
            1.971494,
            44.144031,
            153.07
          ],
          [
            1.971509,
            44.144054,
            153.19
          ],
          [
            1.971496,
            44.144118,
            153.73
          ],
          [
            1.971368,
            44.144245,
            155.32
          ],
          [
            1.971314,
            44.144359,
            157.1
          ],
          [
            1.971313,
            44.144401,
            157.72
          ],
          [
            1.971335,
            44.144418,
            158.05
          ]
        ]
      }
    },
    {
      "type": "Feature",
      "properties": {
        "source": "Sentier_Aveyron.gpx",
        "type": "route"
      },
      "geometry": {
        "type": "LineString",
        "coordinates": [
          [
            1.967568,
            44.145486
          ],
          [
            1.970797,
            44.145528
          ],
          [
            1.970608,
            44.14582
          ],
          [
            1.970398,
            44.149063
          ],
          [
            1.968489,
            44.148987
          ],
          [
            1.968489,
            44.148987
          ],
          [
            1.969364,
            44.148998
          ],
          [
            1.969033,
            44.146972
          ],
          [
            1.969798,
            44.146865
          ],
          [
            1.970608,
            44.14582
          ],
          [
            1.971465,
            44.144013
          ],
          [
            1.971335,
            44.144418
          ]
        ]
      }
    }
  ]
}