{
  "type": "FeatureCollection",
  "features": [
    {
      "type": "Feature",
      "properties": {
        "name": "GraphHopper Track",
        "source": "Gorges_St-Jaume.gpx",
        "type": "track"
      },
      "geometry": {
        "type": "LineString",
        "coordinates": [
          [
            2.365366,
            42.812239,
            366.97
          ],
          [
            2.365682,
            42.812151,
            366.35
          ],
          [
            2.365949,
            42.812101,
            366.32
          ],
          [
            2.366586,
            42.812069,
            362.63
          ],
          [
            2.36873,
            42.812005,
            353.1
          ],
          [
            2.372104,
            42.811896,
            347.48
          ],
          [
            2.372137,
            42.812015,
            346.97
          ],
          [
            2.372159,
            42.812485,
            343.15
          ],
          [
            2.372184,
            42.812542,
            342.93
          ],
          [
            2.372227,
            42.812597,
            342.72
          ],
          [
            2.372322,
            42.812622,
            342.45
          ],
          [
            2.372811,
            42.812636,
            341.56
          ],
          [
            2.373157,
            42.812693,
            342.08
          ],
          [
            2.373736,
            42.812717,
            345.45
          ],
          [
            2.3741,
            42.812906,
            347.1
          ],
          [
            2.374242,
            42.812994,
            347.72
          ],
          [
            2.374344,
            42.813037,
            348.16
          ],
          [
            2.374442,
            42.813068,
            349.01
          ],
          [
            2.374517,
            42.813069,
            348.83
          ],
          [
            2.374545,
            42.813114,
            348.95
          ],
          [
            2.374592,
            42.813138,
            348.89
          ],
          [
            2.37464,
            42.813144,
            348.86
          ],
          [
            2.37473,
            42.813362,
            349.21
          ],
          [
            2.37486,
            42.813626,
            347.63
          ],
          [
            2.374933,
            42.813738,
            346.5
          ],
          [
            2.374833,
            42.813781,
            347.51
          ],
          [
            2.374821,
            42.813807,
            347.77
          ],
          [
            2.374775,
            42.813858,
            347.86
          ],
          [
            2.374721,
            42.813901,
            347.03
          ],
          [
            2.374633,
            42.813937,
            345.8
          ],
          [
            2.374484,
            42.813949,
            344.03
          ],
          [
            2.374382,
            42.814008,
            342.73
          ],
          [
            2.374314,
            42.814206,
            340.37
          ],
          [
            2.37395,
            42.814203,
            339.56
          ],
          [
            2.373576,
            42.814106,
            336.03
          ],
          [
            2.373503,
            42.81411,
            337.01
          ],
          [
            2.373428,
            42.814142,
            337.57
          ],
          [
            2.373376,
            42.814218,
            337.48
          ],
          [
            2.373335,
            42.814397,
            337.94
          ],
          [
            2.373333,
            42.814522,
            338.92
          ],
          [
            2.373304,
            42.814593,
            340.87
          ],
          [
            2.373209,
            42.814693,
            343.29
          ],
          [
            2.372634,
            42.815149,
            346.1
          ],
          [
            2.372329,
            42.815345,
            346.14
          ],
          [
            2.372009,
            42.815535,
            346.24
          ],
          [
            2.371868,
            42.815636,
            346.33
          ],
          [
            2.37183,
            42.815614,
            346.56
          ],
          [
            2.371511,
            42.81555,
            347.31
          ],
          [
            2.371229,
            42.815413,
            348.23
          ],
          [
            2.371021,
            42.815336,
            348.72
          ],
          [
            2.370875,
            42.815308,
            348.94
          ],
          [
            2.370722,
            42.815295,
            349.23
          ],
          [
            2.370604,
            42.815306,
            349.43
          ],
          [
            2.370449,
            42.815347,
            349.68
          ],
          [
            2.370303,
            42.815424,
            349.94
          ],
          [
            2.369977,
            42.815686,
            350.65
          ],
          [
            2.369439,
            42.815913,
            351.44
          ],
          [
            2.369366,
            42.81592,
            351.56
          ],
          [
            2.369005,
            42.815841,
            352.57
          ],
          [
            2.368418,
            42.815788,
            355.25
          ],
          [
            2.368206,
            42.815796,
            355.69
          ],
          [
            2.368032,
            42.815811,
            356.15
          ],
          [
            2.367699,
            42.815783,
            356.84
          ],
          [
            2.367584,
            42.815783,
            357.02
          ],
          [
            2.367494,
            42.815801,
            357.13
          ],
          [
            2.366716,
            42.816091,
            358.4
          ],
          [
            2.365914,
            42.816366,
            360.32
          ],
          [
            2.364698,
            42.816733,
            362.64
          ],
          [
            2.363368,
            42.816868,
            363.52
          ],
          [
            2.362757,
            42.816906,
            364.03
          ],
          [
            2.362611,
            42.816904,
            364.17
          ],
          [
            2.362459,
            42.816873,
            364.28
          ],
          [
            2.362084,
            42.816766,
            364.38
          ],
          [
            2.361695,
            42.816618,
            364.36
          ],
          [
            2.360985,
            42.816399,
            364.2
          ],
          [
            2.360985,
            42.816399,
            364.2
          ],
          [
            2.361695,
            42.816618,
            364.36
          ],
          [
            2.362084,
            42.816766,
            364.38
          ],
          [
            2.362459,
            42.816873,
            364.28
          ],
          [
            2.362611,
            42.816904,
            364.17
          ],
          [
            2.362757,
            42.816906,
            364.03
          ],
          [
            2.363368,
            42.816868,
            363.52
          ],
          [
            2.364698,
            42.816733,
            362.64
          ],
          [
            2.365914,
            42.816366,
            360.32
          ],
          [
            2.366716,
            42.816091,
            358.4
          ],
          [
            2.367494,
            42.815801,
            357.13
          ],
          [
            2.367584,
            42.815783,
            357.02
          ],
          [
            2.367699,
            42.815783,
            356.84
          ],
          [
            2.368032,
            42.815811,
            356.15
          ],
          [
            2.368206,
            42.815796,
            355.69
          ],
          [
            2.368418,
            42.815788,
            355.25
          ],
          [
            2.369005,
            42.815841,
            352.57
          ],
          [
            2.369366,
            42.81592,
            351.56
          ],
          [
            2.369439,
            42.815913,
            351.44
          ],
          [
            2.369977,
            42.815686,
            350.65
          ],
          [
            2.370303,
            42.815424,
            349.94
          ],
          [
            2.370449,
            42.815347,
            349.68
          ],
          [
            2.370604,
            42.815306,
            349.43
          ],
          [
            2.370722,
            42.815295,
            349.23
          ],
          [
            2.370875,
            42.815308,
            348.94
          ],
          [
            2.371021,
            42.815336,
            348.72
          ],
          [
            2.371229,
            42.815413,
            348.23
          ],
          [
            2.371511,
            42.81555,
            347.31
          ],
          [
            2.37183,
            42.815614,
            346.56
          ],
          [
            2.371868,
            42.815636,
            346.33
          ],
          [
            2.372009,
            42.815535,
            346.24
          ],
          [
            2.372329,
            42.815345,
            346.14
          ],
          [
            2.372634,
            42.815149,
            346.1
          ],
          [
            2.373209,
            42.814693,
            343.29
          ],
          [
            2.373304,
            42.814593,
            340.87
          ],
          [
            2.373333,
            42.814522,
            338.92
          ],
          [
            2.373335,
            42.814397,
            337.94
          ],
          [
            2.373376,
            42.814218,
            337.48
          ],
          [
            2.373428,
            42.814142,
            337.57
          ],
          [
            2.373503,
            42.81411,
            337.01
          ],
          [
            2.373576,
            42.814106,
            336.03
          ],
          [
            2.37395,
            42.814203,
            339.56
          ],
          [
            2.374314,
            42.814206,
            340.37
          ],
          [
            2.374382,
            42.814008,
            342.73
          ],
          [
            2.374484,
            42.813949,
            344.03
          ],
          [
            2.374633,
            42.813937,
            345.8
          ],
          [
            2.374721,
            42.813901,
            347.03
          ],
          [
            2.374775,
            42.813858,
            347.86
          ],
          [
            2.374821,
            42.813807,
            347.77
          ],
          [
            2.374833,
            42.813781,
            347.51
          ],
          [
            2.374933,
            42.813738,
            346.5
          ],
          [
            2.37486,
            42.813626,
            347.63
          ],
          [
            2.37473,
            42.813362,
            349.21
          ],
          [
            2.37464,
            42.813144,
            348.86
          ],
          [
            2.374592,
            42.813138,
            348.89
          ],
          [
            2.374545,
            42.813114,
            348.95
          ],
          [
            2.374517,
            42.813069,
            348.83
          ],
          [
            2.374442,
            42.813068,
            349.01
          ],
          [
            2.374344,
            42.813037,
            348.16
          ],
          [
            2.374242,
            42.812994,
            347.72
          ],
          [
            2.3741,
            42.812906,
            347.1
          ],
          [
            2.373736,
            42.812717,
            345.45
          ],
          [
            2.373157,
            42.812693,
            342.08
          ],
          [
            2.372811,
            42.812636,
            341.56
          ],
          [
            2.372322,
            42.812622,
            342.45
          ],
          [
            2.372227,
            42.812597,
            342.72
          ],
          [
            2.372184,
            42.812542,
            342.93
          ],
          [
            2.372159,
            42.812485,
            343.15
          ],
          [
            2.372137,
            42.812015,
            346.97
          ],
          [
            2.372104,
            42.811896,
            347.48
          ],
          [
            2.36873,
            42.812005,
            353.1
          ],
          [
            2.366586,
            42.812069,
            362.63
          ],
          [
            2.365949,
            42.812101,
            366.32
          ],
          [
            2.365682,
            42.812151,
            366.35
          ],
          [
            2.365366,
            42.812239,
            366.97
          ]
        ]
      }
    },
    {
      "type": "Feature",
      "properties": {
        "source": "Gorges_St-Jaume.gpx",
        "type": "route"
      },
      "geometry": {
        "type": "LineString",
        "coordinates": [
          [
            2.365366,
            42.812239
          ],
          [
            2.372104,
            42.811896
          ],
          [
            2.374517,
            42.813069
          ],
          [
            2.37464,
            42.813144
          ],
          [
            2.374933,
            42.813738
          ],
          [
            2.374633,
            42.813937
          ],
          [
            2.374314,
            42.814206
          ],
          [
            2.371868,
            42.815636
          ],
          [
            2.371229,
            42.815413
          ],
          [
            2.360985,
            42.816399
          ],
          [
            2.360985,
            42.816399
          ],
          [
            2.371868,
            42.815636
          ],
          [
            2.374314,
            42.814206
          ],
          [
            2.374633,
            42.813937
          ],
          [
            2.374775,
            42.813858
          ],
          [
            2.374933,
            42.813738
          ],
          [
            2.37464,
            42.813144
          ],
          [
            2.374517,
            42.813069
          ],
          [
            2.372104,
            42.811896
          ],
          [
            2.365366,
            42.812239
          ]
        ]
      }
    }
  ]
}