{
  "type": "FeatureCollection",
  "features": [
    {
      "type": "Feature",
      "properties": {
        "name": "GraphHopper Track",
        "source": "Boucle_de_Parisot.gpx",
        "type": "track"
      },
      "geometry": {
        "type": "LineString",
        "coordinates": [
          [
            1.840053,
            43.821721,
            187.37
          ],
          [
            1.838196,
            43.822761,
            185.0
          ],
          [
            1.837487,
            43.823239,
            184.81
          ],
          [
            1.837172,
            43.823491,
            184.47
          ],
          [
            1.836827,
            43.823807,
            183.69
          ],
          [
            1.836008,
            43.824751,
            181.0
          ],
          [
            1.834243,
            43.826827,
            179.28
          ],
          [
            1.83388,
            43.827298,
            178.16
          ],
          [
            1.83376,
            43.827489,
            177.57
          ],
          [
            1.83307,
            43.828982,
            173.47
          ],
          [
            1.832129,
            43.831109,
            160.04
          ],
          [
            1.831755,
            43.831915,
            153.42
          ],
          [
            1.831523,
            43.832294,
            150.19
          ],
          [
            1.831294,
            43.832588,
            147.8
          ],
          [
            1.830358,
            43.833743,
            147.89
          ],
          [
            1.830276,
            43.833907,
            147.79
          ],
          [
            1.830248,
            43.834036,
            147.86
          ],
          [
            1.830242,
            43.834175,
            148.07
          ],
          [
            1.83031,
            43.834495,
            149.13
          ],
          [
            1.830434,
            43.834725,
            149.8
          ],
          [
            1.830647,
            43.834921,
            150.33
          ],
          [
            1.830915,
            43.835104,
            150.75
          ],
          [
            1.831156,
            43.835336,
            150.98
          ],
          [
            1.831363,
            43.835687,
            150.97
          ],
          [
            1.831433,
            43.83614,
            150.69
          ],
          [
            1.831234,
            43.839776,
            150.35
          ],
          [
            1.831258,
            43.840016,
            151.0
          ],
          [
            1.829739,
            43.839135,
            148.09
          ],
          [
            1.829121,
            43.838894,
            147.89
          ],
          [
            1.828896,
            43.838822,
            147.73
          ],
          [
            1.828735,
            43.838814,
            147.56
          ],
          [
            1.82866,
            43.838748,
            147.26
          ],
          [
            1.828017,
            43.838659,
            147.76
          ],
          [
            1.826499,
            43.838253,
            148.0
          ],
          [
            1.824111,
            43.837595,
            147.15
          ],
          [
            1.824026,
            43.837541,
            147.11
          ],
          [
            1.82395,
            43.837448,
            147.08
          ],
          [
            1.823977,
            43.837351,
            147.06
          ],
          [
            1.824278,
            43.836872,
            147.25
          ],
          [
            1.825529,
            43.835514,
            147.6
          ],
          [
            1.825529,
            43.835514,
            147.6
          ],
          [
            1.824278,
            43.836872,
            147.25
          ],
          [
            1.823977,
            43.837351,
            147.06
          ],
          [
            1.82395,
            43.837448,
            147.08
          ],
          [
            1.824026,
            43.837541,
            147.11
          ],
          [
            1.824111,
            43.837595,
            147.15
          ],
          [
            1.826499,
            43.838253,
            148.0
          ],
          [
            1.828017,
            43.838659,
            147.76
          ],
          [
            1.82866,
            43.838748,
            147.26
          ],
          [
            1.828735,
            43.838814,
            147.56
          ],
          [
            1.828896,
            43.838822,
            147.73
          ],
          [
            1.829121,
            43.838894,
            147.89
          ],
          [
            1.829739,
            43.839135,
            148.09
          ],
          [
            1.831258,
            43.840016,
            151.0
          ],
          [
            1.831234,
            43.839776,
            150.35
          ],
          [
            1.831433,
            43.83614,
            150.69
          ],
          [
            1.831363,
            43.835687,
            150.97
          ],
          [
            1.831156,
            43.835336,
            150.98
          ],
          [
            1.830915,
            43.835104,
            150.75
          ],
          [
            1.830647,
            43.834921,
            150.33
          ],
          [
            1.830434,
            43.834725,
            149.8
          ],
          [
            1.83031,
            43.834495,
            149.13
          ],
          [
            1.830242,
            43.834175,
            148.07
          ],
          [
            1.830248,
            43.834036,
            147.86
          ],
          [
            1.830276,
            43.833907,
            147.79
          ],
          [
            1.830358,
            43.833743,
            147.89
          ],
          [
            1.831294,
            43.832588,
            147.8
          ],
          [
            1.831523,
            43.832294,
            150.19
          ],
          [
            1.831755,
            43.831915,
            153.42
          ],
          [
            1.832129,
            43.831109,
            160.04
          ],
          [
            1.83307,
            43.828982,
            173.47
          ],
          [
            1.83376,
            43.827489,
            177.57
          ],
          [
            1.83388,
            43.827298,
            178.16
          ],
          [
            1.834243,
            43.826827,
            179.28
          ],
          [
            1.836008,
            43.824751,
            181.0
          ],
          [
            1.836827,
            43.823807,
            183.69
          ],
          [
            1.837172,
            43.823491,
            184.47
          ],
          [
            1.837487,
            43.823239,
            184.81
          ],
          [
            1.838196,
            43.822761,
            185.0
          ],
          [
            1.840053,
            43.821721,
            187.37
          ]
        ]
      }
    },
    {
      "type": "Feature",
      "properties": {
        "source": "Boucle_de_Parisot.gpx",
        "type": "route"
      },
      "geometry": {
        "type": "LineString",
        "coordinates": [
          [
            1.840053,
            43.821721
          ],
          [
            1.831258,
            43.840016
          ],
          [
            1.828735,
            43.838814
          ],
          [
            1.825529,
            43.835514
          ],
          [
            1.825529,
            43.835514
          ],
          [
            1.828735,
            43.838814
          ],
          [
            1.831258,
            43.840016
          ],
          [
            1.840053,
            43.821721
          ]
        ]
      }
    }
  ]
}