{
  "type": "FeatureCollection",
  "features": [
    {
      "type": "Feature",
      "properties": {
        "name": "GraphHopper Track",
        "source": "Coteaux__Vallons.gpx",
        "type": "track"
      },
      "geometry": {
        "type": "LineString",
        "coordinates": [
          [
            1.595091,
            44.053815,
            151.77
          ],
          [
            1.59476,
            44.053715,
            152.18
          ],
          [
            1.594641,
            44.053669,
            152.34
          ],
          [
            1.594563,
            44.053586,
            152.51
          ],
          [
            1.594604,
            44.053363,
            152.92
          ],
          [
            1.59492,
            44.053077,
            153.42
          ],
          [
            1.595883,
            44.052297,
            154.54
          ],
          [
            1.596134,
            44.052148,
            154.95
          ],
          [
            1.59625,
            44.052102,
            155.0
          ],
          [
            1.596437,
            44.052095,
            155.0
          ],
          [
            1.59695,
            44.051955,
            155.2
          ],
          [
            1.597114,
            44.051972,
            155.16
          ],
          [
            1.597287,
            44.05198,
            155.12
          ],
          [
            1.597417,
            44.051955,
            155.09
          ],
          [
            1.598426,
            44.05164,
            154.37
          ],
          [
            1.599041,
            44.052229,
            153.2
          ],
          [
            1.599398,
            44.05262,
            153.08
          ],
          [
            1.599466,
            44.052716,
            153.06
          ],
          [
            1.599612,
            44.052925,
            152.73
          ],
          [
            1.60029,
            44.053947,
            150.44
          ],
          [
            1.600455,
            44.054215,
            149.89
          ],
          [
            1.600565,
            44.054422,
            149.27
          ],
          [
            1.600827,
            44.054482,
            150.0
          ],
          [
            1.601087,
            44.054495,
            150.0
          ],
          [
            1.601141,
            44.054696,
            150.0
          ],
          [
            1.601133,
            44.054744,
            150.0
          ],
          [
            1.601369,
            44.054763,
            149.4
          ],
          [
            1.601476,
            44.054808,
            148.93
          ],
          [
            1.601651,
            44.054956,
            147.89
          ],
          [
            1.601764,
            44.05501,
            147.27
          ],
          [
            1.601809,
            44.055188,
            147.01
          ],
          [
            1.601835,
            44.055223,
            146.57
          ],
          [
            1.602431,
            44.055307,
            136.76
          ],
          [
            1.602958,
            44.055296,
            132.58
          ],
          [
            1.603014,
            44.055319,
            132.07
          ],
          [
            1.603042,
            44.055379,
            131.21
          ],
          [
            1.603023,
            44.055624,
            129.41
          ],
          [
            1.603064,
            44.055849,
            129.38
          ],
          [
            1.603112,
            44.055915,
            128.92
          ],
          [
            1.603179,
            44.055948,
            128.11
          ],
          [
            1.605161,
            44.05555,
            121.7
          ],
          [
            1.606327,
            44.055307,
            123.56
          ],
          [
            1.606634,
            44.055211,
            126.87
          ],
          [
            1.606807,
            44.055062,
            129.52
          ],
          [
            1.608095,
            44.05479,
            142.22
          ],
          [
            1.609408,
            44.054433,
            146.03
          ],
          [
            1.609701,
            44.054318,
            146.46
          ],
          [
            1.610105,
            44.054124,
            147.09
          ],
          [
            1.610653,
            44.053804,
            147.69
          ],
          [
            1.61127,
            44.053519,
            148.24
          ],
          [
            1.611997,
            44.053132,
            149.4
          ],
          [
            1.612039,
            44.053076,
            149.58
          ],
          [
            1.611931,
            44.052855,
            150.66
          ],
          [
            1.611842,
            44.052763,
            150.85
          ],
          [
            1.612048,
            44.052856,
            150.94
          ],
          [
            1.612251,
            44.052914,
            150.25
          ],
          [
            1.61237,
            44.052909,
            150.03
          ],
          [
            1.612846,
            44.052765,
            149.76
          ],
          [
            1.614291,
            44.052214,
            148.11
          ],
          [
            1.614633,
            44.052064,
            148.01
          ],
          [
            1.614921,
            44.051923,
            148.49
          ],
          [
            1.615684,
            44.051507,
            151.01
          ],
          [
            1.616965,
            44.050793,
            151.85
          ],
          [
            1.61746,
            44.050502,
            151.99
          ],
          [
            1.618757,
            44.049658,
            153.16
          ],
          [
            1.6191,
            44.049424,
            153.59
          ],
          [
            1.619385,
            44.049189,
            154.02
          ],
          [
            1.620552,
            44.048127,
            155.29
          ],
          [
            1.620984,
            44.048026,
            155.96
          ],
          [
            1.621123,
            44.048007,
            156.0
          ],
          [
            1.621123,
            44.04797,
            156.0
          ],
          [
            1.621067,
            44.047907,
            156.0
          ],
          [
            1.620833,
            44.047758,
            156.0
          ],
          [
            1.620795,
            44.04772,
            156.0
          ],
          [
            1.620725,
            44.047713,
            156.0
          ],
          [
            1.620533,
            44.047612,
            156.0
          ],
          [
            1.620176,
            44.047464,
            156.0
          ],
          [
            1.619342,
            44.047149,
            156.0
          ],
          [
            1.617625,
            44.046518,
            156.0
          ],
          [
            1.615989,
            44.045963,
            156.0
          ],
          [
            1.615171,
            44.045741,
            156.0
          ],
          [
            1.614919,
            44.0457,
            156.0
          ],
          [
            1.614919,
            44.0457,
            156.0
          ],
          [
            1.614705,
            44.045715,
            156.0
          ],
          [
            1.614263,
            44.045774,
            156.0
          ],
          [
            1.614042,
            44.045757,
            156.0
          ],
          [
            1.613877,
            44.045702,
            156.0
          ],
          [
            1.613238,
            44.045423,
            156.07
          ],
          [
            1.613051,
            44.045323,
            156.19
          ],
          [
            1.612906,
            44.045211,
            156.27
          ],
          [
            1.612763,
            44.045082,
            156.38
          ],
          [
            1.612567,
            44.044949,
            156.73
          ],
          [
            1.611686,
            44.044437,
            156.14
          ],
          [
            1.611716,
            44.044315,
            154.78
          ],
          [
            1.612298,
            44.044162,
            154.23
          ],
          [
            1.612575,
            44.043989,
            152.7
          ],
          [
            1.612742,
            44.043777,
            151.21
          ],
          [
            1.612779,
            44.043633,
            149.95
          ],
          [
            1.61277,
            44.043586,
            149.46
          ],
          [
            1.612477,
            44.043668,
            146.58
          ],
          [
            1.612291,
            44.043631,
            143.92
          ],
          [
            1.611498,
            44.043566,
            137.47
          ],
          [
            1.610812,
            44.043732,
            134.49
          ],
          [
            1.61116,
            44.043514,
            134.48
          ],
          [
            1.611558,
            44.043404,
            134.37
          ],
          [
            1.611628,
            44.043264,
            134.48
          ],
          [
            1.612295,
            44.043064,
            134.35
          ],
          [
            1.612948,
            44.042518,
            133.08
          ],
          [
            1.61318,
            44.042492,
            132.32
          ],
          [
            1.613249,
            44.042402,
            131.87
          ],
          [
            1.612191,
            44.040976,
            129.0
          ],
          [
            1.612015,
            44.040758,
            129.6
          ],
          [
            1.611008,
            44.041248,
            129.64
          ],
          [
            1.610708,
            44.041348,
            129.63
          ],
          [
            1.61052,
            44.041468,
            129.65
          ],
          [
            1.609554,
            44.041838,
            129.82
          ],
          [
            1.608621,
            44.042231,
            129.93
          ],
          [
            1.608143,
            44.042355,
            130.51
          ],
          [
            1.607264,
            44.042725,
            132.97
          ],
          [
            1.606979,
            44.04281,
            133.86
          ],
          [
            1.606813,
            44.042875,
            134.4
          ],
          [
            1.606472,
            44.043069,
            135.09
          ],
          [
            1.605805,
            44.044016,
            134.24
          ],
          [
            1.605482,
            44.044303,
            134.23
          ],
          [
            1.605253,
            44.044833,
            134.73
          ],
          [
            1.604621,
            44.04538,
            135.94
          ],
          [
            1.604212,
            44.045602,
            136.3
          ],
          [
            1.604098,
            44.045786,
            136.31
          ],
          [
            1.604145,
            44.046244,
            136.25
          ],
          [
            1.603689,
            44.046749,
            136.47
          ],
          [
            1.603434,
            44.047013,
            136.85
          ],
          [
            1.603246,
            44.047387,
            136.97
          ],
          [
            1.603087,
            44.047501,
            136.96
          ],
          [
            1.602931,
            44.047949,
            136.99
          ],
          [
            1.602555,
            44.048101,
            136.82
          ],
          [
            1.602367,
            44.048701,
            136.82
          ],
          [
            1.60217,
            44.048979,
            136.41
          ],
          [
            1.601898,
            44.050294,
            135.98
          ],
          [
            1.601682,
            44.050308,
            138.5
          ],
          [
            1.601573,
            44.050305,
            139.63
          ],
          [
            1.601413,
            44.050266,
            141.15
          ],
          [
            1.601321,
            44.050166,
            142.61
          ],
          [
            1.600872,
            44.049621,
            149.91
          ],
          [
            1.600791,
            44.049552,
            150.77
          ],
          [
            1.600678,
            44.049525,
            151.52
          ],
          [
            1.600172,
            44.049569,
            154.74
          ],
          [
            1.599818,
            44.049577,
            155.74
          ],
          [
            1.599655,
            44.049566,
            156.0
          ],
          [
            1.599597,
            44.049804,
            156.0
          ],
          [
            1.599519,
            44.050011,
            155.94
          ],
          [
            1.599272,
            44.050485,
            155.6
          ],
          [
            1.599198,
            44.050649,
            155.44
          ],
          [
            1.599146,
            44.050798,
            155.27
          ],
          [
            1.599099,
            44.051076,
            154.91
          ],
          [
            1.599041,
            44.052229,
            153.2
          ],
          [
            1.598426,
            44.05164,
            154.37
          ],
          [
            1.597417,
            44.051955,
            155.09
          ],
          [
            1.597287,
            44.05198,
            155.12
          ],
          [
            1.597114,
            44.051972,
            155.16
          ],
          [
            1.59695,
            44.051955,
            155.2
          ],
          [
            1.596437,
            44.052095,
            155.0
          ],
          [
            1.59625,
            44.052102,
            155.0
          ],
          [
            1.596134,
            44.052148,
            154.95
          ],
          [
            1.595883,
            44.052297,
            154.54
          ],
          [
            1.59492,
            44.053077,
            153.42
          ],
          [
            1.594604,
            44.053363,
            152.92
          ],
          [
            1.594563,
            44.053586,
            152.51
          ],
          [
            1.594641,
            44.053669,
            152.34
          ],
          [
            1.59476,
            44.053715,
            152.18
          ],
          [
            1.595091,
            44.053815,
            151.77
          ]
        ]
      }
    },
    {
      "type": "Feature",
      "properties": {
        "source": "Coteaux__Vallons.gpx",
        "type": "route"
      },
      "geometry": {
        "type": "LineString",
        "coordinates": [
          [
            1.595091,
            44.053815
          ],
          [
            1.598426,
            44.05164
          ],
          [
            1.599466,
            44.052716
          ],
          [
            1.600565,
            44.054422
          ],
          [
            1.601133,
            44.054744
          ],
          [
            1.601764,
            44.05501
          ],
          [
            1.601809,
            44.055188
          ],
          [
            1.601835,
            44.055223
          ],
          [
            1.603179,
            44.055948
          ],
          [
            1.611842,
            44.052763
          ],
          [
            1.621123,
            44.048007
          ],
          [
            1.620795,
            44.04772
          ],
          [
            1.614919,
            44.0457
          ],
          [
            1.614919,
            44.0457
          ],
          [
            1.610812,
            44.043732
          ],
          [
            1.612015,
            44.040758
          ],
          [
            1.601898,
            44.050294
          ],
          [
            1.599655,
            44.049566
          ],
          [
            1.599041,
            44.052229
          ],
          [
            1.598426,
            44.05164
          ],
          [
            1.595091,
            44.053815
          ]
        ]
      }
    }
  ]
}