{
  "type": "FeatureCollection",
  "features": [
    {
      "type": "Feature",
      "properties": {
        "name": "GraphHopper Track",
        "source": "Coteaux_Bas-Quercy.gpx",
        "type": "track"
      },
      "geometry": {
        "type": "LineString",
        "coordinates": [
          [
            1.618691,
            44.07488,
            113.83
          ],
          [
            1.618654,
            44.074674,
            112.31
          ],
          [
            1.618553,
            44.074539,
            106.97
          ],
          [
            1.618321,
            44.074644,
            108.01
          ],
          [
            1.618176,
            44.074687,
            106.86
          ],
          [
            1.617856,
            44.074746,
            104.8
          ],
          [
            1.617738,
            44.074755,
            104.29
          ],
          [
            1.617517,
            44.074747,
            103.35
          ],
          [
            1.617456,
            44.074705,
            102.54
          ],
          [
            1.617386,
            44.074678,
            101.86
          ],
          [
            1.617413,
            44.074615,
            100.8
          ],
          [
            1.617408,
            44.074543,
            99.96
          ],
          [
            1.617107,
            44.073782,
            97.93
          ],
          [
            1.616733,
            44.072888,
            102.36
          ],
          [
            1.616564,
            44.07253,
            104.89
          ],
          [
            1.616522,
            44.072471,
            105.03
          ],
          [
            1.616445,
            44.072424,
            105.19
          ],
          [
            1.616348,
            44.072389,
            105.34
          ],
          [
            1.616194,
            44.072375,
            105.61
          ],
          [
            1.61565,
            44.072485,
            106.49
          ],
          [
            1.6153,
            44.072565,
            107.32
          ],
          [
            1.61501,
            44.072594,
            108.5
          ],
          [
            1.614983,
            44.072595,
            108.6
          ],
          [
            1.614875,
            44.072481,
            109.33
          ],
          [
            1.614803,
            44.07238,
            110.06
          ],
          [
            1.614763,
            44.072276,
            110.9
          ],
          [
            1.614735,
            44.072227,
            111.3
          ],
          [
            1.614749,
            44.072049,
            112.14
          ],
          [
            1.614775,
            44.071907,
            112.89
          ],
          [
            1.610382,
            44.073657,
            102.77
          ],
          [
            1.610168,
            44.0737,
            101.86
          ],
          [
            1.609787,
            44.073686,
            99.05
          ],
          [
            1.608697,
            44.073614,
            103.07
          ],
          [
            1.608622,
            44.073276,
            104.47
          ],
          [
            1.608587,
            44.07318,
            104.96
          ],
          [
            1.608528,
            44.073079,
            105.53
          ],
          [
            1.607844,
            44.072089,
            110.19
          ],
          [
            1.607709,
            44.071911,
            111.08
          ],
          [
            1.607552,
            44.071747,
            112.17
          ],
          [
            1.607424,
            44.071626,
            113.16
          ],
          [
            1.606936,
            44.071226,
            116.92
          ],
          [
            1.606818,
            44.071099,
            117.94
          ],
          [
            1.606629,
            44.070843,
            119.53
          ],
          [
            1.606404,
            44.070588,
            120.52
          ],
          [
            1.606326,
            44.070486,
            120.72
          ],
          [
            1.606261,
            44.070376,
            120.86
          ],
          [
            1.606148,
            44.070102,
            121.04
          ],
          [
            1.606034,
            44.069757,
            121.28
          ],
          [
            1.605919,
            44.069502,
            121.49
          ],
          [
            1.60578,
            44.069256,
            121.73
          ],
          [
            1.60538,
            44.068611,
            122.28
          ],
          [
            1.605309,
            44.068468,
            122.3
          ],
          [
            1.605271,
            44.068307,
            122.11
          ],
          [
            1.605308,
            44.067783,
            122.18
          ],
          [
            1.605192,
            44.067164,
            122.81
          ],
          [
            1.605054,
            44.066876,
            123.53
          ],
          [
            1.604639,
            44.06641,
            124.4
          ],
          [
            1.604311,
            44.065982,
            124.19
          ],
          [
            1.603924,
            44.06533,
            124.38
          ],
          [
            1.603924,
            44.06533,
            124.38
          ],
          [
            1.604311,
            44.065982,
            124.19
          ],
          [
            1.604639,
            44.06641,
            124.4
          ],
          [
            1.605054,
            44.066876,
            123.53
          ],
          [
            1.605192,
            44.067164,
            122.81
          ],
          [
            1.605308,
            44.067783,
            122.18
          ],
          [
            1.605271,
            44.068307,
            122.11
          ],
          [
            1.605309,
            44.068468,
            122.3
          ],
          [
            1.60538,
            44.068611,
            122.28
          ],
          [
            1.60578,
            44.069256,
            121.73
          ],
          [
            1.605919,
            44.069502,
            121.49
          ],
          [
            1.606034,
            44.069757,
            121.28
          ],
          [
            1.606148,
            44.070102,
            121.04
          ],
          [
            1.606261,
            44.070376,
            120.86
          ],
          [
            1.606326,
            44.070486,
            120.72
          ],
          [
            1.606404,
            44.070588,
            120.52
          ],
          [
            1.606629,
            44.070843,
            119.53
          ],
          [
            1.606818,
            44.071099,
            117.94
          ],
          [
            1.606936,
            44.071226,
            116.92
          ],
          [
            1.607424,
            44.071626,
            113.16
          ],
          [
            1.607552,
            44.071747,
            112.17
          ],
          [
            1.607709,
            44.071911,
            111.08
          ],
          [
            1.607844,
            44.072089,
            110.19
          ],
          [
            1.608528,
            44.073079,
            105.53
          ],
          [
            1.608587,
            44.07318,
            104.96
          ],
          [
            1.608622,
            44.073276,
            104.47
          ],
          [
            1.608697,
            44.073614,
            103.07
          ],
          [
            1.609787,
            44.073686,
            99.05
          ],
          [
            1.610168,
            44.0737,
            101.86
          ],
          [
            1.610382,
            44.073657,
            102.77
          ],
          [
            1.614775,
            44.071907,
            112.89
          ],
          [
            1.614749,
            44.072049,
            112.14
          ],
          [
            1.614735,
            44.072227,
            111.3
          ],
          [
            1.614763,
            44.072276,
            110.9
          ],
          [
            1.614803,
            44.07238,
            110.06
          ],
          [
            1.614875,
            44.072481,
            109.33
          ],
          [
            1.614983,
            44.072595,
            108.6
          ],
          [
            1.6153,
            44.072565,
            107.32
          ],
          [
            1.61565,
            44.072485,
            106.49
          ],
          [
            1.616194,
            44.072375,
            105.61
          ],
          [
            1.616348,
            44.072389,
            105.34
          ],
          [
            1.616445,
            44.072424,
            105.19
          ],
          [
            1.616522,
            44.072471,
            105.03
          ],
          [
            1.616564,
            44.07253,
            104.89
          ],
          [
            1.616733,
            44.072888,
            102.36
          ],
          [
            1.617107,
            44.073782,
            97.93
          ],
          [
            1.617408,
            44.074543,
            99.96
          ],
          [
            1.617413,
            44.074615,
            100.8
          ],
          [
            1.617386,
            44.074678,
            101.86
          ],
          [
            1.617456,
            44.074705,
            102.54
          ],
          [
            1.617517,
            44.074747,
            103.35
          ],
          [
            1.617738,
            44.074755,
            104.29
          ],
          [
            1.617856,
            44.074746,
            104.8
          ],
          [
            1.618176,
            44.074687,
            106.86
          ],
          [
            1.618321,
            44.074644,
            108.01
          ],
          [
            1.618553,
            44.074539,
            106.97
          ],
          [
            1.618654,
            44.074674,
            112.31
          ],
          [
            1.618691,
            44.07488,
            113.83
          ]
        ]
      }
    },
    {
      "type": "Feature",
      "properties": {
        "source": "Coteaux_Bas-Quercy.gpx",
        "type": "route"
      },
      "geometry": {
        "type": "LineString",
        "coordinates": [
          [
            1.618691,
            44.07488
          ],
          [
            1.618553,
            44.074539
          ],
          [
            1.617386,
            44.074678
          ],
          [
            1.6153,
            44.072565
          ],
          [
            1.61501,
            44.072594
          ],
          [
            1.614775,
            44.071907
          ],
          [
            1.608697,
            44.073614
          ],
          [
            1.603924,
            44.06533
          ],
          [
            1.603924,
            44.06533
          ],
          [
            1.605271,
            44.068307
          ],
          [
            1.608697,
            44.073614
          ],
          [
            1.614775,
            44.071907
          ],
          [
            1.614735,
            44.072227
          ],
          [
            1.614983,
            44.072595
          ],
          [
            1.617386,
            44.074678
          ],
          [
            1.617517,
            44.074747
          ],
          [
            1.618553,
            44.074539
          ],
          [
            1.618691,
            44.07488
          ]
        ]
      }
    }
  ]
}