{
  "type": "FeatureCollection",
  "features": [
    {
      "type": "Feature",
      "properties": {
        "name": "GraphHopper Track",
        "source": "Chât._Puilaurens.gpx",
        "type": "track"
      },
      "geometry": {
        "type": "LineString",
        "coordinates": [
          [
            2.301494,
            42.812439,
            464.05
          ],
          [
            2.301605,
            42.812433,
            464.01
          ],
          [
            2.301977,
            42.812472,
            463.59
          ],
          [
            2.302561,
            42.812489,
            462.95
          ],
          [
            2.303024,
            42.812579,
            463.5
          ],
          [
            2.303482,
            42.81265,
            465.26
          ],
          [
            2.304079,
            42.812677,
            464.44
          ],
          [
            2.304138,
            42.812318,
            459.83
          ],
          [
            2.304213,
            42.812154,
            457.05
          ],
          [
            2.304249,
            42.811992,
            454.15
          ],
          [
            2.304253,
            42.811929,
            452.54
          ],
          [
            2.304231,
            42.811808,
            450.45
          ],
          [
            2.304854,
            42.811697,
            451.7
          ],
          [
            2.304968,
            42.811666,
            451.11
          ],
          [
            2.305051,
            42.811622,
            450.55
          ],
          [
            2.305098,
            42.811567,
            450.14
          ],
          [
            2.305105,
            42.811496,
            450.03
          ],
          [
            2.305069,
            42.811435,
            449.8
          ],
          [
            2.305009,
            42.811401,
            449.47
          ],
          [
            2.304896,
            42.811396,
            448.7
          ],
          [
            2.304531,
            42.811427,
            445.64
          ],
          [
            2.304377,
            42.811406,
            443.78
          ],
          [
            2.303999,
            42.811491,
            444.31
          ],
          [
            2.303646,
            42.811557,
            444.74
          ],
          [
            2.303465,
            42.811559,
            444.88
          ],
          [
            2.303284,
            42.811535,
            445.16
          ],
          [
            2.302729,
            42.811417,
            445.0
          ],
          [
            2.302587,
            42.81134,
            444.56
          ],
          [
            2.302786,
            42.81121,
            442.04
          ],
          [
            2.302978,
            42.81105,
            435.92
          ],
          [
            2.303444,
            42.810761,
            441.87
          ],
          [
            2.303625,
            42.810679,
            441.73
          ],
          [
            2.304413,
            42.810364,
            440.57
          ],
          [
            2.304415,
            42.810268,
            442.54
          ],
          [
            2.304597,
            42.810017,
            446.62
          ],
          [
            2.304681,
            42.80996,
            447.6
          ],
          [
            2.304691,
            42.809846,
            449.89
          ],
          [
            2.304665,
            42.80979,
            451.03
          ],
          [
            2.304463,
            42.809575,
            457.68
          ],
          [
            2.304362,
            42.809485,
            460.92
          ],
          [
            2.304224,
            42.809274,
            466.31
          ],
          [
            2.304189,
            42.809251,
            467.08
          ],
          [
            2.304138,
            42.809241,
            467.94
          ],
          [
            2.304063,
            42.809257,
            469.2
          ],
          [
            2.303775,
            42.809442,
            474.93
          ],
          [
            2.30319,
            42.809631,
            481.45
          ],
          [
            2.302949,
            42.80968,
            483.42
          ],
          [
            2.302949,
            42.80968,
            483.42
          ],
          [
            2.30319,
            42.809631,
            481.45
          ],
          [
            2.303775,
            42.809442,
            474.93
          ],
          [
            2.304063,
            42.809257,
            469.2
          ],
          [
            2.304138,
            42.809241,
            467.94
          ],
          [
            2.304189,
            42.809251,
            467.08
          ],
          [
            2.304224,
            42.809274,
            466.31
          ],
          [
            2.304362,
            42.809485,
            460.92
          ],
          [
            2.304463,
            42.809575,
            457.68
          ],
          [
            2.304665,
            42.80979,
            451.03
          ],
          [
            2.304691,
            42.809846,
            449.89
          ],
          [
            2.304681,
            42.80996,
            447.6
          ],
          [
            2.304597,
            42.810017,
            446.62
          ],
          [
            2.304415,
            42.810268,
            442.54
          ],
          [
            2.304413,
            42.810364,
            440.57
          ],
          [
            2.305187,
            42.810072,
            438.57
          ],
          [
            2.30531,
            42.810036,
            438.01
          ],
          [
            2.305633,
            42.809972,
            436.21
          ],
          [
            2.305619,
            42.809937,
            436.6
          ],
          [
            2.305595,
            42.809742,
            438.13
          ],
          [
            2.305576,
            42.809365,
            437.98
          ],
          [
            2.305581,
            42.809308,
            437.63
          ],
          [
            2.305656,
            42.809175,
            434.8
          ],
          [
            2.305571,
            42.809061,
            435.5
          ],
          [
            2.305491,
            42.808913,
            435.85
          ],
          [
            2.305448,
            42.808786,
            436.34
          ],
          [
            2.305424,
            42.808661,
            437.11
          ],
          [
            2.305422,
            42.808549,
            437.69
          ],
          [
            2.305361,
            42.808422,
            438.25
          ],
          [
            2.305082,
            42.808129,
            439.59
          ],
          [
            2.304761,
            42.807812,
            440.65
          ],
          [
            2.30449,
            42.807604,
            440.77
          ],
          [
            2.304098,
            42.807351,
            440.98
          ],
          [
            2.303854,
            42.807247,
            441.36
          ],
          [
            2.303621,
            42.807131,
            441.89
          ],
          [
            2.303519,
            42.807023,
            442.24
          ],
          [
            2.303457,
            42.806885,
            442.75
          ],
          [
            2.303411,
            42.806388,
            445.42
          ],
          [
            2.303417,
            42.806188,
            446.4
          ],
          [
            2.303454,
            42.806076,
            446.9
          ],
          [
            2.303687,
            42.805776,
            448.11
          ],
          [
            2.304021,
            42.805383,
            449.16
          ],
          [
            2.304093,
            42.80528,
            449.07
          ],
          [
            2.304186,
            42.805055,
            449.23
          ],
          [
            2.303977,
            42.805211,
            455.05
          ],
          [
            2.303374,
            42.805595,
            467.84
          ],
          [
            2.303017,
            42.805845,
            475.03
          ],
          [
            2.302583,
            42.805967,
            481.13
          ],
          [
            2.302239,
            42.806026,
            485.5
          ],
          [
            2.30159,
            42.806111,
            493.86
          ],
          [
            2.300914,
            42.806112,
            503.84
          ],
          [
            2.300697,
            42.806091,
            507.14
          ],
          [
            2.300402,
            42.806004,
            511.9
          ],
          [
            2.300131,
            42.805987,
            515.97
          ],
          [
            2.299509,
            42.80589,
            525.91
          ],
          [
            2.299195,
            42.805805,
            531.68
          ],
          [
            2.298881,
            42.805703,
            538.51
          ],
          [
            2.298374,
            42.805613,
            550.01
          ],
          [
            2.297765,
            42.805365,
            564.23
          ],
          [
            2.297403,
            42.805229,
            571.19
          ],
          [
            2.296566,
            42.804829,
            584.94
          ],
          [
            2.296362,
            42.804597,
            590.04
          ],
          [
            2.296127,
            42.804278,
            596.37
          ],
          [
            2.295885,
            42.803993,
            601.79
          ],
          [
            2.295721,
            42.803955,
            602.38
          ],
          [
            2.295705,
            42.803909,
            602.25
          ],
          [
            2.295754,
            42.803864,
            602.19
          ],
          [
            2.295982,
            42.803864,
            604.6
          ],
          [
            2.296199,
            42.803895,
            608.58
          ],
          [
            2.296438,
            42.80391,
            612.57
          ],
          [
            2.296591,
            42.803874,
            615.03
          ],
          [
            2.29716,
            42.803649,
            625.44
          ],
          [
            2.297509,
            42.803615,
            631.07
          ],
          [
            2.298007,
            42.803588,
            640.85
          ],
          [
            2.298399,
            42.803592,
            649.28
          ],
          [
            2.298549,
            42.803638,
            653.34
          ],
          [
            2.298626,
            42.803648,
            655.35
          ],
          [
            2.298685,
            42.803638,
            656.93
          ],
          [
            2.298718,
            42.80362,
            657.99
          ],
          [
            2.298778,
            42.803626,
            659.5
          ],
          [
            2.298841,
            42.803593,
            661.46
          ],
          [
            2.298885,
            42.803601,
            662.68
          ],
          [
            2.298848,
            42.803642,
            664.48
          ],
          [
            2.298841,
            42.803669,
            665.5
          ],
          [
            2.298933,
            42.803677,
            668.09
          ],
          [
            2.298986,
            42.803653,
            669.81
          ],
          [
            2.299022,
            42.803652,
            670.84
          ],
          [
            2.298982,
            42.803702,
            673.06
          ],
          [
            2.298985,
            42.803724,
            673.77
          ],
          [
            2.299006,
            42.803739,
            674.41
          ],
          [
            2.299104,
            42.803705,
            677.17
          ],
          [
            2.299064,
            42.803792,
            681.18
          ],
          [
            2.299148,
            42.803741,
            684.58
          ],
          [
            2.299184,
            42.803739,
            685.42
          ],
          [
            2.299183,
            42.803784,
            686.84
          ],
          [
            2.299144,
            42.803831,
            688.43
          ],
          [
            2.299181,
            42.803857,
            690.33
          ],
          [
            2.299281,
            42.803892,
            693.06
          ],
          [
            2.29933,
            42.803887,
            693.41
          ],
          [
            2.29938,
            42.80393,
            693.05
          ],
          [
            2.299283,
            42.803975,
            692.67
          ],
          [
            2.299273,
            42.804009,
            692.7
          ],
          [
            2.299136,
            42.804076,
            695.95
          ]
        ]
      }
    },
    {
      "type": "Feature",
      "properties": {
        "source": "Chât._Puilaurens.gpx",
        "type": "route"
      },
      "geometry": {
        "type": "LineString",
        "coordinates": [
          [
            2.301494,
            42.812439
          ],
          [
            2.304079,
            42.812677
          ],
          [
            2.302729,
            42.811417
          ],
          [
            2.302587,
            42.81134
          ],
          [
            2.304413,
            42.810364
          ],
          [
            2.304681,
            42.80996
          ],
          [
            2.302949,
            42.80968
          ],
          [
            2.302949,
            42.80968
          ],
          [
            2.304413,
            42.810364
          ],
          [
            2.305633,
            42.809972
          ],
          [
            2.305656,
            42.809175
          ],
          [
            2.304186,
            42.805055
          ],
          [
            2.295754,
            42.803864
          ],
          [
            2.29933,
            42.803887
          ],
          [
            2.299136,
            42.804076
          ]
        ]
      }
    }
  ]
}