{
  "type": "FeatureCollection",
  "features": [
    {
      "type": "Feature",
      "properties": {
        "name": "GraphHopper Track",
        "source": "Brusque.gpx",
        "type": "track"
      },
      "geometry": {
        "type": "LineString",
        "coordinates": [
          [
            2.949317,
            43.768474,
            445.95
          ],
          [
            2.949493,
            43.767818,
            446.46
          ],
          [
            2.949503,
            43.767646,
            446.48
          ],
          [
            2.949434,
            43.767335,
            448.91
          ],
          [
            2.949508,
            43.767183,
            449.71
          ],
          [
            2.949669,
            43.767229,
            447.08
          ],
          [
            2.949971,
            43.767278,
            446.54
          ],
          [
            2.949915,
            43.767516,
            446.81
          ],
          [
            2.949745,
            43.768085,
            445.29
          ],
          [
            2.949717,
            43.768232,
            445.63
          ],
          [
            2.949741,
            43.768262,
            446.04
          ],
          [
            2.949822,
            43.768234,
            446.75
          ],
          [
            2.950155,
            43.768191,
            448.89
          ],
          [
            2.950388,
            43.76823,
            449.98
          ],
          [
            2.950013,
            43.769286,
            449.0
          ],
          [
            2.950092,
            43.769301,
            449.0
          ],
          [
            2.950014,
            43.769428,
            449.0
          ],
          [
            2.949868,
            43.769846,
            448.17
          ],
          [
            2.949934,
            43.769859,
            448.07
          ],
          [
            2.949886,
            43.769989,
            448.0
          ],
          [
            2.949834,
            43.770031,
            448.0
          ],
          [
            2.949829,
            43.770047,
            448.0
          ],
          [
            2.949839,
            43.770074,
            448.0
          ],
          [
            2.949831,
            43.770093,
            448.0
          ],
          [
            2.950061,
            43.770144,
            449.28
          ],
          [
            2.950029,
            43.770226,
            450.0
          ],
          [
            2.950044,
            43.770255,
            450.25
          ],
          [
            2.949988,
            43.770363,
            451.01
          ],
          [
            2.950045,
            43.770491,
            451.8
          ],
          [
            2.950045,
            43.770491,
            451.8
          ],
          [
            2.949988,
            43.770363,
            451.01
          ],
          [
            2.950044,
            43.770255,
            450.25
          ],
          [
            2.950029,
            43.770226,
            450.0
          ],
          [
            2.950061,
            43.770144,
            449.28
          ],
          [
            2.949831,
            43.770093,
            448.0
          ],
          [
            2.949839,
            43.770074,
            448.0
          ],
          [
            2.949829,
            43.770047,
            448.0
          ],
          [
            2.949834,
            43.770031,
            448.0
          ],
          [
            2.949886,
            43.769989,
            448.0
          ],
          [
            2.949934,
            43.769859,
            448.07
          ],
          [
            2.949868,
            43.769846,
            448.17
          ],
          [
            2.950014,
            43.769428,
            449.0
          ],
          [
            2.950092,
            43.769301,
            449.0
          ],
          [
            2.950013,
            43.769286,
            449.0
          ],
          [
            2.950388,
            43.76823,
            449.98
          ],
          [
            2.950155,
            43.768191,
            448.89
          ],
          [
            2.949822,
            43.768234,
            446.75
          ],
          [
            2.949741,
            43.768262,
            446.04
          ],
          [
            2.949717,
            43.768232,
            445.63
          ],
          [
            2.949745,
            43.768085,
            445.29
          ],
          [
            2.949915,
            43.767516,
            446.81
          ],
          [
            2.949971,
            43.767278,
            446.54
          ],
          [
            2.949669,
            43.767229,
            447.08
          ],
          [
            2.949508,
            43.767183,
            449.71
          ],
          [
            2.949434,
            43.767335,
            448.91
          ],
          [
            2.949503,
            43.767646,
            446.48
          ],
          [
            2.949493,
            43.767818,
            446.46
          ],
          [
            2.949317,
            43.768474,
            445.95
          ]
        ]
      }
    },
    {
      "type": "Feature",
      "properties": {
        "source": "Brusque.gpx",
        "type": "route"
      },
      "geometry": {
        "type": "LineString",
        "coordinates": [
          [
            2.949317,
            43.768474
          ],
          [
            2.949508,
            43.767183
          ],
          [
            2.949971,
            43.767278
          ],
          [
            2.949741,
            43.768262
          ],
          [
            2.950388,
            43.76823
          ],
          [
            2.950013,
            43.769286
          ],
          [
            2.950092,
            43.769301
          ],
          [
            2.949831,
            43.770093
          ],
          [
            2.950044,
            43.770255
          ],
          [
            2.950045,
            43.770491
          ],
          [
            2.950045,
            43.770491
          ],
          [
            2.949831,
            43.770093
          ],
          [
            2.950092,
            43.769301
          ],
          [
            2.950013,
            43.769286
          ],
          [
            2.950388,
            43.76823
          ],
          [
            2.949741,
            43.768262
          ],
          [
            2.949971,
            43.767278
          ],
          [
            2.949508,
            43.767183
          ],
          [
            2.949434,
            43.767335
          ],
          [
            2.949317,
            43.768474
          ]
        ]
      }
    }
  ]
}