{
  "type": "FeatureCollection",
  "features": [
    {
      "type": "Feature",
      "properties": {
        "name": "GraphHopper Track",
        "source": "Gissac.gpx",
        "type": "track"
      },
      "geometry": {
        "type": "LineString",
        "coordinates": [
          [
            2.916227,
            43.836248,
            412.02
          ],
          [
            2.915317,
            43.835871,
            410.27
          ],
          [
            2.914528,
            43.835575,
            409.25
          ],
          [
            2.913174,
            43.835032,
            407.43
          ],
          [
            2.912458,
            43.83479,
            406.5
          ],
          [
            2.911578,
            43.834422,
            404.52
          ],
          [
            2.911124,
            43.834349,
            403.58
          ],
          [
            2.910272,
            43.834349,
            402.16
          ],
          [
            2.909696,
            43.834365,
            401.06
          ],
          [
            2.909218,
            43.834328,
            400.18
          ],
          [
            2.908653,
            43.834246,
            399.36
          ],
          [
            2.908166,
            43.834134,
            399.19
          ],
          [
            2.907333,
            43.83385,
            399.0
          ],
          [
            2.906429,
            43.833411,
            397.96
          ],
          [
            2.905671,
            43.83299,
            396.8
          ],
          [
            2.904997,
            43.83269,
            397.69
          ],
          [
            2.902502,
            43.831913,
            395.66
          ],
          [
            2.900815,
            43.831353,
            393.95
          ],
          [
            2.900643,
            43.831224,
            393.57
          ],
          [
            2.900451,
            43.831008,
            391.86
          ],
          [
            2.900233,
            43.830457,
            393.7
          ],
          [
            2.900049,
            43.830285,
            394.25
          ],
          [
            2.89877,
            43.829748,
            396.63
          ],
          [
            2.898308,
            43.829462,
            397.26
          ],
          [
            2.897435,
            43.82869,
            398.21
          ],
          [
            2.89648,
            43.827864,
            398.41
          ],
          [
            2.896125,
            43.827679,
            398.7
          ],
          [
            2.895775,
            43.827591,
            399.06
          ],
          [
            2.895279,
            43.827519,
            399.46
          ],
          [
            2.895121,
            43.827478,
            399.67
          ],
          [
            2.894933,
            43.827379,
            399.71
          ],
          [
            2.89484,
            43.827322,
            399.8
          ],
          [
            2.894327,
            43.826891,
            399.87
          ],
          [
            2.893063,
            43.825795,
            400.36
          ],
          [
            2.892616,
            43.825421,
            400.67
          ],
          [
            2.892335,
            43.825232,
            400.72
          ],
          [
            2.889823,
            43.823978,
            403.83
          ],
          [
            2.889409,
            43.823821,
            404.42
          ],
          [
            2.889188,
            43.823752,
            404.69
          ],
          [
            2.88899,
            43.823731,
            405.01
          ],
          [
            2.888567,
            43.823777,
            404.07
          ],
          [
            2.888307,
            43.82384,
            404.73
          ],
          [
            2.887177,
            43.824215,
            405.26
          ],
          [
            2.887043,
            43.824251,
            405.36
          ],
          [
            2.886897,
            43.82427,
            405.36
          ],
          [
            2.886699,
            43.824269,
            405.0
          ],
          [
            2.886491,
            43.824253,
            404.84
          ],
          [
            2.882369,
            43.823277,
            401.97
          ],
          [
            2.882088,
            43.823258,
            400.62
          ],
          [
            2.881876,
            43.823269,
            399.35
          ],
          [
            2.881703,
            43.823316,
            398.66
          ],
          [
            2.881501,
            43.823342,
            397.47
          ],
          [
            2.880973,
            43.823355,
            393.29
          ],
          [
            2.880839,
            43.823289,
            390.76
          ],
          [
            2.880765,
            43.823218,
            389.39
          ],
          [
            2.880565,
            43.822849,
            384.88
          ],
          [
            2.880469,
            43.82241,
            381.55
          ],
          [
            2.880435,
            43.822341,
            381.13
          ],
          [
            2.880317,
            43.822245,
            379.46
          ],
          [
            2.88027,
            43.822186,
            379.41
          ],
          [
            2.880226,
            43.822006,
            379.5
          ],
          [
            2.88017,
            43.821895,
            379.8
          ],
          [
            2.880077,
            43.821909,
            377.02
          ],
          [
            2.879439,
            43.821957,
            378.76
          ],
          [
            2.879362,
            43.821956,
            379.34
          ],
          [
            2.87941,
            43.822116,
            379.0
          ],
          [
            2.87951,
            43.82253,
            378.43
          ],
          [
            2.879576,
            43.822676,
            378.27
          ],
          [
            2.879577,
            43.822806,
            378.56
          ],
          [
            2.879578,
            43.822888,
            378.97
          ],
          [
            2.879523,
            43.823065,
            379.66
          ],
          [
            2.879381,
            43.823252,
            380.15
          ],
          [
            2.879311,
            43.823391,
            380.67
          ],
          [
            2.878739,
            43.824702,
            382.0
          ],
          [
            2.878465,
            43.825145,
            381.95
          ],
          [
            2.878277,
            43.825399,
            381.89
          ],
          [
            2.877802,
            43.825908,
            381.89
          ],
          [
            2.877451,
            43.826166,
            381.65
          ],
          [
            2.877389,
            43.826242,
            381.61
          ],
          [
            2.877332,
            43.826268,
            381.66
          ],
          [
            2.877298,
            43.826264,
            381.85
          ],
          [
            2.87715,
            43.826479,
            381.1
          ],
          [
            2.876532,
            43.82724,
            380.01
          ],
          [
            2.875893,
            43.828055,
            379.07
          ],
          [
            2.875087,
            43.829058,
            379.97
          ],
          [
            2.874804,
            43.82932,
            380.33
          ],
          [
            2.873964,
            43.829922,
            385.64
          ],
          [
            2.873543,
            43.830255,
            389.67
          ],
          [
            2.873263,
            43.830532,
            390.17
          ],
          [
            2.873224,
            43.83056,
            390.0
          ],
          [
            2.873246,
            43.83057,
            390.0
          ],
          [
            2.873283,
            43.830628,
            390.0
          ],
          [
            2.873276,
            43.830673,
            390.0
          ],
          [
            2.873251,
            43.830704,
            390.0
          ],
          [
            2.873203,
            43.83073,
            390.0
          ],
          [
            2.873161,
            43.830734,
            390.0
          ],
          [
            2.873181,
            43.830778,
            389.93
          ],
          [
            2.873204,
            43.830892,
            389.3
          ],
          [
            2.873186,
            43.831749,
            384.96
          ],
          [
            2.872916,
            43.831778,
            384.31
          ],
          [
            2.872912,
            43.83228,
            383.22
          ],
          [
            2.872912,
            43.83228,
            383.22
          ],
          [
            2.872916,
            43.831778,
            384.31
          ],
          [
            2.873186,
            43.831749,
            384.96
          ],
          [
            2.873204,
            43.830892,
            389.3
          ],
          [
            2.873181,
            43.830778,
            389.93
          ],
          [
            2.873161,
            43.830734,
            390.0
          ],
          [
            2.873203,
            43.83073,
            390.0
          ],
          [
            2.873251,
            43.830704,
            390.0
          ],
          [
            2.873276,
            43.830673,
            390.0
          ],
          [
            2.873283,
            43.830628,
            390.0
          ],
          [
            2.873246,
            43.83057,
            390.0
          ],
          [
            2.873224,
            43.83056,
            390.0
          ],
          [
            2.873263,
            43.830532,
            390.17
          ],
          [
            2.873543,
            43.830255,
            389.67
          ],
          [
            2.873964,
            43.829922,
            385.64
          ],
          [
            2.874804,
            43.82932,
            380.33
          ],
          [
            2.875087,
            43.829058,
            379.97
          ],
          [
            2.875893,
            43.828055,
            379.07
          ],
          [
            2.876532,
            43.82724,
            380.01
          ],
          [
            2.87715,
            43.826479,
            381.1
          ],
          [
            2.877298,
            43.826264,
            381.85
          ],
          [
            2.877332,
            43.826268,
            381.66
          ],
          [
            2.877389,
            43.826242,
            381.61
          ],
          [
            2.877451,
            43.826166,
            381.65
          ],
          [
            2.877802,
            43.825908,
            381.89
          ],
          [
            2.878277,
            43.825399,
            381.89
          ],
          [
            2.878465,
            43.825145,
            381.95
          ],
          [
            2.878739,
            43.824702,
            382.0
          ],
          [
            2.879311,
            43.823391,
            380.67
          ],
          [
            2.879381,
            43.823252,
            380.15
          ],
          [
            2.879523,
            43.823065,
            379.66
          ],
          [
            2.879578,
            43.822888,
            378.97
          ],
          [
            2.879576,
            43.822676,
            378.27
          ],
          [
            2.87951,
            43.82253,
            378.43
          ],
          [
            2.87941,
            43.822116,
            379.0
          ],
          [
            2.879362,
            43.821956,
            379.34
          ],
          [
            2.879439,
            43.821957,
            378.76
          ],
          [
            2.880077,
            43.821909,
            377.02
          ],
          [
            2.88017,
            43.821895,
            379.8
          ],
          [
            2.880226,
            43.822006,
            379.5
          ],
          [
            2.88027,
            43.822186,
            379.41
          ],
          [
            2.880317,
            43.822245,
            379.46
          ],
          [
            2.880435,
            43.822341,
            381.13
          ],
          [
            2.880545,
            43.822254,
            384.77
          ],
          [
            2.880562,
            43.82216,
            387.07
          ],
          [
            2.880641,
            43.822127,
            389.42
          ],
          [
            2.880678,
            43.822185,
            389.57
          ],
          [
            2.880759,
            43.822919,
            393.3
          ],
          [
            2.880784,
            43.823012,
            393.93
          ],
          [
            2.880844,
            43.823098,
            394.85
          ],
          [
            2.880974,
            43.823195,
            396.68
          ],
          [
            2.881089,
            43.82324,
            397.37
          ],
          [
            2.881229,
            43.823262,
            398.03
          ],
          [
            2.881876,
            43.823269,
            399.35
          ],
          [
            2.882088,
            43.823258,
            400.62
          ],
          [
            2.882369,
            43.823277,
            401.97
          ],
          [
            2.886491,
            43.824253,
            404.84
          ],
          [
            2.886699,
            43.824269,
            405.0
          ],
          [
            2.886897,
            43.82427,
            405.36
          ],
          [
            2.887043,
            43.824251,
            405.36
          ],
          [
            2.887177,
            43.824215,
            405.26
          ],
          [
            2.888307,
            43.82384,
            404.73
          ],
          [
            2.888567,
            43.823777,
            404.07
          ],
          [
            2.88899,
            43.823731,
            405.01
          ],
          [
            2.889188,
            43.823752,
            404.69
          ],
          [
            2.889409,
            43.823821,
            404.42
          ],
          [
            2.889823,
            43.823978,
            403.83
          ],
          [
            2.892335,
            43.825232,
            400.72
          ],
          [
            2.892616,
            43.825421,
            400.67
          ],
          [
            2.893063,
            43.825795,
            400.36
          ],
          [
            2.894327,
            43.826891,
            399.87
          ],
          [
            2.89484,
            43.827322,
            399.8
          ],
          [
            2.894933,
            43.827379,
            399.71
          ],
          [
            2.895121,
            43.827478,
            399.67
          ],
          [
            2.895279,
            43.827519,
            399.46
          ],
          [
            2.895775,
            43.827591,
            399.06
          ],
          [
            2.896125,
            43.827679,
            398.7
          ],
          [
            2.89648,
            43.827864,
            398.41
          ],
          [
            2.897435,
            43.82869,
            398.21
          ],
          [
            2.898308,
            43.829462,
            397.26
          ],
          [
            2.89877,
            43.829748,
            396.63
          ],
          [
            2.900049,
            43.830285,
            394.25
          ],
          [
            2.900233,
            43.830457,
            393.7
          ],
          [
            2.900451,
            43.831008,
            391.86
          ],
          [
            2.900643,
            43.831224,
            393.57
          ],
          [
            2.900815,
            43.831353,
            393.95
          ],
          [
            2.902502,
            43.831913,
            395.66
          ],
          [
            2.904997,
            43.83269,
            397.69
          ],
          [
            2.905671,
            43.83299,
            396.8
          ],
          [
            2.906429,
            43.833411,
            397.96
          ],
          [
            2.907333,
            43.83385,
            399.0
          ],
          [
            2.908166,
            43.834134,
            399.19
          ],
          [
            2.908653,
            43.834246,
            399.36
          ],
          [
            2.909218,
            43.834328,
            400.18
          ],
          [
            2.909696,
            43.834365,
            401.06
          ],
          [
            2.910272,
            43.834349,
            402.16
          ],
          [
            2.911124,
            43.834349,
            403.58
          ],
          [
            2.911578,
            43.834422,
            404.52
          ],
          [
            2.912458,
            43.83479,
            406.5
          ],
          [
            2.913174,
            43.835032,
            407.43
          ],
          [
            2.914528,
            43.835575,
            409.25
          ],
          [
            2.915317,
            43.835871,
            410.27
          ],
          [
            2.916227,
            43.836248,
            412.02
          ]
        ]
      }
    },
    {
      "type": "Feature",
      "properties": {
        "source": "Gissac.gpx",
        "type": "route"
      },
      "geometry": {
        "type": "LineString",
        "coordinates": [
          [
            2.916227,
            43.836248
          ],
          [
            2.881876,
            43.823269
          ],
          [
            2.880973,
            43.823355
          ],
          [
            2.88017,
            43.821895
          ],
          [
            2.879362,
            43.821956
          ],
          [
            2.879577,
            43.822806
          ],
          [
            2.877298,
            43.826264
          ],
          [
            2.873224,
            43.83056
          ],
          [
            2.873186,
            43.831749
          ],
          [
            2.872916,
            43.831778
          ],
          [
            2.872912,
            43.83228
          ],
          [
            2.872912,
            43.83228
          ],
          [
            2.872916,
            43.831778
          ],
          [
            2.873186,
            43.831749
          ],
          [
            2.873161,
            43.830734
          ],
          [
            2.877298,
            43.826264
          ],
          [
            2.879362,
            43.821956
          ],
          [
            2.88017,
            43.821895
          ],
          [
            2.880435,
            43.822341
          ],
          [
            2.880641,
            43.822127
          ],
          [
            2.900815,
            43.831353
          ],
          [
            2.916227,
            43.836248
          ]
        ]
      }
    }
  ]
}