{
  "type": "FeatureCollection",
  "features": [
    {
      "type": "Feature",
      "properties": {
        "name": "GraphHopper Track",
        "source": "Grèzes_Circuit.gpx",
        "type": "track"
      },
      "geometry": {
        "type": "LineString",
        "coordinates": [
          [
            2.28664,
            43.21876,
            117.51
          ],
          [
            2.286952,
            43.216406,
            121.76
          ],
          [
            2.287147,
            43.216405,
            121.3
          ],
          [
            2.287385,
            43.216446,
            121.02
          ],
          [
            2.287502,
            43.216451,
            121.0
          ],
          [
            2.287637,
            43.216405,
            120.82
          ],
          [
            2.288008,
            43.21612,
            120.34
          ],
          [
            2.288664,
            43.215558,
            122.31
          ],
          [
            2.288997,
            43.215154,
            125.52
          ],
          [
            2.289141,
            43.215023,
            126.71
          ],
          [
            2.289388,
            43.214893,
            128.77
          ],
          [
            2.290266,
            43.214539,
            134.32
          ],
          [
            2.290575,
            43.214285,
            136.16
          ],
          [
            2.290821,
            43.21406,
            137.0
          ],
          [
            2.291081,
            43.213865,
            137.0
          ],
          [
            2.291304,
            43.213801,
            136.42
          ],
          [
            2.291899,
            43.213708,
            136.0
          ],
          [
            2.292468,
            43.213682,
            135.79
          ],
          [
            2.294183,
            43.21365,
            134.88
          ],
          [
            2.297433,
            43.213683,
            133.0
          ],
          [
            2.29855,
            43.213733,
            132.35
          ],
          [
            2.298883,
            43.213733,
            132.14
          ],
          [
            2.301817,
            43.213509,
            130.0
          ],
          [
            2.301597,
            43.212788,
            129.56
          ],
          [
            2.301557,
            43.212037,
            128.39
          ],
          [
            2.301616,
            43.211266,
            128.0
          ],
          [
            2.302672,
            43.210932,
            126.0
          ],
          [
            2.302982,
            43.210798,
            125.46
          ],
          [
            2.303009,
            43.210758,
            125.31
          ],
          [
            2.303052,
            43.210726,
            125.14
          ],
          [
            2.303139,
            43.210703,
            125.0
          ],
          [
            2.303185,
            43.210704,
            125.0
          ],
          [
            2.303258,
            43.210726,
            125.0
          ],
          [
            2.303458,
            43.210699,
            124.97
          ],
          [
            2.303999,
            43.210548,
            124.72
          ],
          [
            2.304855,
            43.210277,
            123.77
          ],
          [
            2.30643,
            43.209809,
            122.05
          ],
          [
            2.30727,
            43.209525,
            122.0
          ],
          [
            2.308577,
            43.209012,
            121.0
          ],
          [
            2.309326,
            43.208761,
            120.25
          ],
          [
            2.309718,
            43.20863,
            120.11
          ],
          [
            2.309919,
            43.208547,
            120.01
          ],
          [
            2.30995,
            43.208506,
            120.07
          ],
          [
            2.31,
            43.208468,
            120.05
          ],
          [
            2.310062,
            43.208441,
            120.03
          ],
          [
            2.310131,
            43.208428,
            120.0
          ],
          [
            2.310204,
            43.208428,
            120.0
          ],
          [
            2.310611,
            43.208279,
            119.63
          ],
          [
            2.311698,
            43.207986,
            117.01
          ],
          [
            2.311933,
            43.207979,
            117.22
          ],
          [
            2.312445,
            43.2079,
            117.6
          ],
          [
            2.312702,
            43.207865,
            117.28
          ],
          [
            2.312823,
            43.207835,
            117.01
          ],
          [
            2.314192,
            43.207645,
            117.0
          ],
          [
            2.314431,
            43.207597,
            117.25
          ],
          [
            2.314533,
            43.207551,
            117.65
          ],
          [
            2.314598,
            43.207521,
            117.48
          ],
          [
            2.314656,
            43.207385,
            117.0
          ],
          [
            2.314677,
            43.207257,
            117.22
          ],
          [
            2.314735,
            43.206083,
            118.03
          ],
          [
            2.317898,
            43.206111,
            115.0
          ],
          [
            2.317709,
            43.204309,
            116.83
          ],
          [
            2.317733,
            43.204191,
            116.81
          ],
          [
            2.317843,
            43.20408,
            116.74
          ],
          [
            2.317998,
            43.204047,
            116.7
          ],
          [
            2.318727,
            43.204171,
            116.0
          ],
          [
            2.318749,
            43.203988,
            116.18
          ],
          [
            2.318723,
            43.203401,
            117.19
          ],
          [
            2.318702,
            43.202473,
            120.7
          ],
          [
            2.318785,
            43.202353,
            121.44
          ],
          [
            2.318973,
            43.202151,
            122.54
          ],
          [
            2.318992,
            43.202055,
            122.86
          ],
          [
            2.318995,
            43.201973,
            123.05
          ],
          [
            2.318957,
            43.201814,
            123.51
          ],
          [
            2.318904,
            43.201734,
            123.71
          ],
          [
            2.318474,
            43.201365,
            124.44
          ],
          [
            2.318341,
            43.2011,
            124.54
          ],
          [
            2.318195,
            43.200199,
            124.87
          ],
          [
            2.318032,
            43.199351,
            124.91
          ],
          [
            2.318032,
            43.199351,
            124.91
          ],
          [
            2.318195,
            43.200199,
            124.87
          ],
          [
            2.318341,
            43.2011,
            124.54
          ],
          [
            2.318474,
            43.201365,
            124.44
          ],
          [
            2.318904,
            43.201734,
            123.71
          ],
          [
            2.318957,
            43.201814,
            123.51
          ],
          [
            2.318995,
            43.201973,
            123.05
          ],
          [
            2.318992,
            43.202055,
            122.86
          ],
          [
            2.318973,
            43.202151,
            122.54
          ],
          [
            2.318785,
            43.202353,
            121.44
          ],
          [
            2.318702,
            43.202473,
            120.7
          ],
          [
            2.318723,
            43.203401,
            117.19
          ],
          [
            2.318749,
            43.203988,
            116.18
          ],
          [
            2.318727,
            43.204171,
            116.0
          ],
          [
            2.317998,
            43.204047,
            116.7
          ],
          [
            2.317843,
            43.20408,
            116.74
          ],
          [
            2.317733,
            43.204191,
            116.81
          ],
          [
            2.317709,
            43.204309,
            116.83
          ],
          [
            2.317898,
            43.206111,
            115.0
          ],
          [
            2.314735,
            43.206083,
            118.03
          ],
          [
            2.314699,
            43.206913,
            118.0
          ],
          [
            2.314677,
            43.207257,
            117.22
          ],
          [
            2.314656,
            43.207385,
            117.0
          ],
          [
            2.314598,
            43.207521,
            117.48
          ],
          [
            2.314431,
            43.207597,
            117.25
          ],
          [
            2.314192,
            43.207645,
            117.0
          ],
          [
            2.312823,
            43.207835,
            117.01
          ],
          [
            2.312702,
            43.207865,
            117.28
          ],
          [
            2.311933,
            43.207979,
            117.22
          ],
          [
            2.311698,
            43.207986,
            117.01
          ],
          [
            2.310971,
            43.208184,
            117.99
          ],
          [
            2.310611,
            43.208279,
            119.63
          ],
          [
            2.310204,
            43.208428,
            120.0
          ],
          [
            2.310131,
            43.208428,
            120.0
          ],
          [
            2.310062,
            43.208441,
            120.03
          ],
          [
            2.31,
            43.208468,
            120.05
          ],
          [
            2.30995,
            43.208506,
            120.07
          ],
          [
            2.309919,
            43.208547,
            120.01
          ],
          [
            2.309718,
            43.20863,
            120.11
          ],
          [
            2.308577,
            43.209012,
            121.0
          ],
          [
            2.30727,
            43.209525,
            122.0
          ],
          [
            2.306943,
            43.20964,
            122.0
          ],
          [
            2.30643,
            43.209809,
            122.05
          ],
          [
            2.304855,
            43.210277,
            123.77
          ],
          [
            2.303999,
            43.210548,
            124.72
          ],
          [
            2.303458,
            43.210699,
            124.97
          ],
          [
            2.303258,
            43.210726,
            125.0
          ],
          [
            2.303185,
            43.210704,
            125.0
          ],
          [
            2.303139,
            43.210703,
            125.0
          ],
          [
            2.303052,
            43.210726,
            125.14
          ],
          [
            2.303009,
            43.210758,
            125.31
          ],
          [
            2.302982,
            43.210798,
            125.46
          ],
          [
            2.302672,
            43.210932,
            126.0
          ],
          [
            2.301616,
            43.211266,
            128.0
          ],
          [
            2.301557,
            43.212037,
            128.39
          ],
          [
            2.301597,
            43.212788,
            129.56
          ],
          [
            2.301817,
            43.213509,
            130.0
          ],
          [
            2.298883,
            43.213733,
            132.14
          ],
          [
            2.29855,
            43.213733,
            132.35
          ],
          [
            2.297433,
            43.213683,
            133.0
          ],
          [
            2.296955,
            43.213678,
            133.0
          ],
          [
            2.296847,
            43.214902,
            129.89
          ],
          [
            2.29681,
            43.214972,
            129.47
          ],
          [
            2.296674,
            43.215427,
            128.98
          ],
          [
            2.296645,
            43.215488,
            129.03
          ]
        ]
      }
    },
    {
      "type": "Feature",
      "properties": {
        "source": "Grèzes_Circuit.gpx",
        "type": "route"
      },
      "geometry": {
        "type": "LineString",
        "coordinates": [
          [
            2.28664,
            43.21876
          ],
          [
            2.286952,
            43.216406
          ],
          [
            2.287502,
            43.216451
          ],
          [
            2.291081,
            43.213865
          ],
          [
            2.291899,
            43.213708
          ],
          [
            2.301817,
            43.213509
          ],
          [
            2.301616,
            43.211266
          ],
          [
            2.302672,
            43.210932
          ],
          [
            2.302982,
            43.210798
          ],
          [
            2.309326,
            43.208761
          ],
          [
            2.309919,
            43.208547
          ],
          [
            2.310611,
            43.208279
          ],
          [
            2.311698,
            43.207986
          ],
          [
            2.312445,
            43.2079
          ],
          [
            2.314192,
            43.207645
          ],
          [
            2.314533,
            43.207551
          ],
          [
            2.314735,
            43.206083
          ],
          [
            2.317898,
            43.206111
          ],
          [
            2.318727,
            43.204171
          ],
          [
            2.318032,
            43.199351
          ],
          [
            2.318032,
            43.199351
          ],
          [
            2.318727,
            43.204171
          ],
          [
            2.317898,
            43.206111
          ],
          [
            2.314735,
            43.206083
          ],
          [
            2.314656,
            43.207385
          ],
          [
            2.314598,
            43.207521
          ],
          [
            2.312823,
            43.207835
          ],
          [
            2.312702,
            43.207865
          ],
          [
            2.310971,
            43.208184
          ],
          [
            2.310204,
            43.208428
          ],
          [
            2.303458,
            43.210699
          ],
          [
            2.303258,
            43.210726
          ],
          [
            2.301616,
            43.211266
          ],
          [
            2.301817,
            43.213509
          ],
          [
            2.296955,
            43.213678
          ],
          [
            2.296645,
            43.215488
          ]
        ]
      }
    }
  ]
}