{
  "type": "FeatureCollection",
  "features": [
    {
      "type": "Feature",
      "properties": {
        "name": "GraphHopper Track",
        "source": "Roc_Pennautier.gpx",
        "type": "track"
      },
      "geometry": {
        "type": "LineString",
        "coordinates": [
          [
            2.30522,
            43.245664,
            122.56
          ],
          [
            2.30605,
            43.245517,
            118.8
          ],
          [
            2.307004,
            43.245285,
            115.49
          ],
          [
            2.307704,
            43.245183,
            114.04
          ],
          [
            2.308632,
            43.245076,
            113.0
          ],
          [
            2.309023,
            43.244999,
            113.0
          ],
          [
            2.30952,
            43.244954,
            112.75
          ],
          [
            2.310166,
            43.244942,
            112.0
          ],
          [
            2.310593,
            43.244948,
            112.0
          ],
          [
            2.311307,
            43.245023,
            112.0
          ],
          [
            2.311839,
            43.245013,
            111.77
          ],
          [
            2.314406,
            43.24491,
            105.15
          ],
          [
            2.315,
            43.244769,
            103.11
          ],
          [
            2.315097,
            43.244689,
            102.93
          ],
          [
            2.315202,
            43.244708,
            102.37
          ],
          [
            2.315296,
            43.24469,
            102.0
          ],
          [
            2.315269,
            43.244817,
            102.0
          ],
          [
            2.315054,
            43.245367,
            102.08
          ],
          [
            2.314698,
            43.245735,
            102.42
          ],
          [
            2.314329,
            43.246012,
            102.79
          ],
          [
            2.313819,
            43.246303,
            103.23
          ],
          [
            2.312488,
            43.246979,
            104.43
          ],
          [
            2.309242,
            43.248042,
            105.6
          ],
          [
            2.308953,
            43.248097,
            105.19
          ],
          [
            2.307936,
            43.248112,
            105.0
          ],
          [
            2.306919,
            43.248097,
            103.86
          ],
          [
            2.306019,
            43.248192,
            102.74
          ],
          [
            2.304479,
            43.248221,
            103.76
          ],
          [
            2.303648,
            43.248221,
            105.53
          ],
          [
            2.303332,
            43.248196,
            106.9
          ],
          [
            2.303309,
            43.24829,
            105.29
          ],
          [
            2.303213,
            43.248346,
            105.08
          ],
          [
            2.302684,
            43.248467,
            104.5
          ],
          [
            2.302609,
            43.24852,
            104.27
          ],
          [
            2.302599,
            43.248596,
            104.08
          ],
          [
            2.302958,
            43.249476,
            102.89
          ],
          [
            2.302963,
            43.249559,
            102.88
          ],
          [
            2.30291,
            43.249636,
            102.89
          ],
          [
            2.302583,
            43.24977,
            102.97
          ],
          [
            2.302349,
            43.249905,
            102.99
          ],
          [
            2.302175,
            43.250064,
            102.99
          ],
          [
            2.302092,
            43.250179,
            102.99
          ],
          [
            2.302059,
            43.250316,
            102.99
          ],
          [
            2.302065,
            43.250542,
            102.99
          ],
          [
            2.302116,
            43.250999,
            103.0
          ],
          [
            2.302094,
            43.251111,
            103.0
          ],
          [
            2.301936,
            43.251244,
            103.0
          ],
          [
            2.301236,
            43.251681,
            103.09
          ],
          [
            2.301099,
            43.251812,
            103.14
          ],
          [
            2.301008,
            43.251953,
            103.17
          ],
          [
            2.300933,
            43.252125,
            103.19
          ],
          [
            2.300877,
            43.2525,
            103.31
          ],
          [
            2.300812,
            43.252687,
            103.21
          ],
          [
            2.300737,
            43.252808,
            103.56
          ],
          [
            2.30074,
            43.2529,
            103.06
          ],
          [
            2.301322,
            43.253154,
            103.08
          ],
          [
            2.301351,
            43.253205,
            103.27
          ],
          [
            2.301322,
            43.253256,
            103.44
          ],
          [
            2.300995,
            43.253402,
            103.3
          ],
          [
            2.300946,
            43.25348,
            103.64
          ],
          [
            2.300984,
            43.253574,
            104.15
          ],
          [
            2.301392,
            43.254201,
            108.74
          ],
          [
            2.301515,
            43.254236,
            109.57
          ],
          [
            2.301743,
            43.254201,
            111.18
          ],
          [
            2.301981,
            43.254202,
            112.16
          ],
          [
            2.301489,
            43.254374,
            111.42
          ],
          [
            2.301122,
            43.254536,
            111.45
          ],
          [
            2.300423,
            43.254965,
            112.04
          ],
          [
            2.299519,
            43.255609,
            113.03
          ],
          [
            2.298613,
            43.256351,
            113.01
          ],
          [
            2.298317,
            43.256628,
            112.4
          ],
          [
            2.298289,
            43.256664,
            112.3
          ],
          [
            2.298289,
            43.256664,
            112.3
          ],
          [
            2.298317,
            43.256628,
            112.4
          ],
          [
            2.298613,
            43.256351,
            113.01
          ],
          [
            2.299519,
            43.255609,
            113.03
          ],
          [
            2.300423,
            43.254965,
            112.04
          ],
          [
            2.301122,
            43.254536,
            111.45
          ],
          [
            2.301489,
            43.254374,
            111.42
          ],
          [
            2.301981,
            43.254202,
            112.16
          ],
          [
            2.301743,
            43.254201,
            111.18
          ],
          [
            2.301515,
            43.254236,
            109.57
          ],
          [
            2.301392,
            43.254201,
            108.74
          ],
          [
            2.300984,
            43.253574,
            104.15
          ],
          [
            2.300946,
            43.25348,
            103.64
          ],
          [
            2.300995,
            43.253402,
            103.3
          ],
          [
            2.301322,
            43.253256,
            103.44
          ],
          [
            2.301351,
            43.253205,
            103.27
          ],
          [
            2.301322,
            43.253154,
            103.08
          ],
          [
            2.30074,
            43.2529,
            103.06
          ],
          [
            2.300737,
            43.252808,
            103.56
          ],
          [
            2.300812,
            43.252687,
            103.21
          ],
          [
            2.300877,
            43.2525,
            103.31
          ],
          [
            2.300933,
            43.252125,
            103.19
          ],
          [
            2.301008,
            43.251953,
            103.17
          ],
          [
            2.301099,
            43.251812,
            103.14
          ],
          [
            2.301236,
            43.251681,
            103.09
          ],
          [
            2.301936,
            43.251244,
            103.0
          ],
          [
            2.302094,
            43.251111,
            103.0
          ],
          [
            2.302116,
            43.250999,
            103.0
          ],
          [
            2.302065,
            43.250542,
            102.99
          ],
          [
            2.302059,
            43.250316,
            102.99
          ],
          [
            2.302092,
            43.250179,
            102.99
          ],
          [
            2.302175,
            43.250064,
            102.99
          ],
          [
            2.302349,
            43.249905,
            102.99
          ],
          [
            2.302583,
            43.24977,
            102.97
          ],
          [
            2.30291,
            43.249636,
            102.89
          ],
          [
            2.302963,
            43.249559,
            102.88
          ],
          [
            2.302958,
            43.249476,
            102.89
          ],
          [
            2.302599,
            43.248596,
            104.08
          ],
          [
            2.302609,
            43.24852,
            104.27
          ],
          [
            2.302684,
            43.248467,
            104.5
          ],
          [
            2.303213,
            43.248346,
            105.08
          ],
          [
            2.303309,
            43.24829,
            105.29
          ],
          [
            2.303332,
            43.248196,
            106.9
          ],
          [
            2.303648,
            43.248221,
            105.53
          ],
          [
            2.304479,
            43.248221,
            103.76
          ],
          [
            2.306019,
            43.248192,
            102.74
          ],
          [
            2.306919,
            43.248097,
            103.86
          ],
          [
            2.307936,
            43.248112,
            105.0
          ],
          [
            2.308953,
            43.248097,
            105.19
          ],
          [
            2.309242,
            43.248042,
            105.6
          ],
          [
            2.312488,
            43.246979,
            104.43
          ],
          [
            2.313819,
            43.246303,
            103.23
          ],
          [
            2.314329,
            43.246012,
            102.79
          ],
          [
            2.314698,
            43.245735,
            102.42
          ],
          [
            2.315054,
            43.245367,
            102.08
          ],
          [
            2.315269,
            43.244817,
            102.0
          ],
          [
            2.315296,
            43.24469,
            102.0
          ],
          [
            2.315202,
            43.244708,
            102.37
          ],
          [
            2.315097,
            43.244689,
            102.93
          ],
          [
            2.315,
            43.244769,
            103.11
          ],
          [
            2.314406,
            43.24491,
            105.15
          ],
          [
            2.311839,
            43.245013,
            111.77
          ],
          [
            2.311307,
            43.245023,
            112.0
          ],
          [
            2.310593,
            43.244948,
            112.0
          ],
          [
            2.310166,
            43.244942,
            112.0
          ],
          [
            2.30952,
            43.244954,
            112.75
          ],
          [
            2.309023,
            43.244999,
            113.0
          ],
          [
            2.308632,
            43.245076,
            113.0
          ],
          [
            2.307704,
            43.245183,
            114.04
          ],
          [
            2.307004,
            43.245285,
            115.49
          ],
          [
            2.30605,
            43.245517,
            118.8
          ],
          [
            2.30522,
            43.245664,
            122.56
          ]
        ]
      }
    },
    {
      "type": "Feature",
      "properties": {
        "source": "Roc_Pennautier.gpx",
        "type": "route"
      },
      "geometry": {
        "type": "LineString",
        "coordinates": [
          [
            2.30522,
            43.245664
          ],
          [
            2.311307,
            43.245023
          ],
          [
            2.315097,
            43.244689
          ],
          [
            2.315296,
            43.24469
          ],
          [
            2.303332,
            43.248196
          ],
          [
            2.301351,
            43.253205
          ],
          [
            2.301981,
            43.254202
          ],
          [
            2.298289,
            43.256664
          ],
          [
            2.298289,
            43.256664
          ],
          [
            2.301981,
            43.254202
          ],
          [
            2.301351,
            43.253205
          ],
          [
            2.303332,
            43.248196
          ],
          [
            2.315296,
            43.24469
          ],
          [
            2.315097,
            43.244689
          ],
          [
            2.30522,
            43.245664
          ]
        ]
      }
    }
  ]
}