{
  "type": "FeatureCollection",
  "features": [
    {
      "type": "Feature",
      "properties": {
        "name": "GraphHopper Track",
        "source": "Sentiers_familles.gpx",
        "type": "track"
      },
      "geometry": {
        "type": "LineString",
        "coordinates": [
          [
            0.591492,
            43.493397,
            187.69
          ],
          [
            0.592247,
            43.493367,
            185.33
          ],
          [
            0.592298,
            43.493459,
            185.15
          ],
          [
            0.592351,
            43.493467,
            185.14
          ],
          [
            0.592785,
            43.493374,
            185.89
          ],
          [
            0.593295,
            43.494689,
            182.0
          ],
          [
            0.593543,
            43.494652,
            181.16
          ],
          [
            0.593543,
            43.494652,
            181.16
          ],
          [
            0.593295,
            43.494689,
            182.0
          ],
          [
            0.592785,
            43.493374,
            185.89
          ],
          [
            0.592351,
            43.493467,
            185.14
          ],
          [
            0.592298,
            43.493459,
            185.15
          ],
          [
            0.592247,
            43.493367,
            185.33
          ],
          [
            0.591492,
            43.493397,
            187.69
          ]
        ]
      }
    },
    {
      "type": "Feature",
      "properties": {
        "source": "Sentiers_familles.gpx",
        "type": "route"
      },
      "geometry": {
        "type": "LineString",
        "coordinates": [
          [
            0.591492,
            43.493397
          ],
          [
            0.592247,
            43.493367
          ],
          [
            0.592785,
            43.493374
          ],
          [
            0.593295,
            43.494689
          ],
          [
            0.593543,
            43.494652
          ],
          [
            0.593543,
            43.494652
          ],
          [
            0.593295,
            43.494689
          ],
          [
            0.592785,
            43.493374
          ],
          [
            0.592247,
            43.493367
          ],
          [
            0.591492,
            43.493397
          ]
        ]
      }
    }
  ]
}