{
  "type": "FeatureCollection",
  "features": [
    {
      "type": "Feature",
      "properties": {
        "name": "GraphHopper Track",
        "source": "Cadénède__Cavaliés.gpx",
        "type": "track"
      },
      "geometry": {
        "type": "LineString",
        "coordinates": [
          [
            3.065488,
            44.075507,
            603.87
          ],
          [
            3.065545,
            44.075558,
            604.56
          ],
          [
            3.06557,
            44.075691,
            605.96
          ],
          [
            3.065628,
            44.075836,
            607.48
          ],
          [
            3.06568,
            44.075908,
            608.33
          ],
          [
            3.065694,
            44.076114,
            610.29
          ],
          [
            3.065623,
            44.07629,
            613.06
          ],
          [
            3.065498,
            44.076527,
            617.1
          ],
          [
            3.065459,
            44.076634,
            618.76
          ],
          [
            3.065511,
            44.076658,
            620.68
          ],
          [
            3.065591,
            44.076676,
            623.0
          ],
          [
            3.065609,
            44.076701,
            624.1
          ],
          [
            3.065634,
            44.076712,
            624.87
          ],
          [
            3.06569,
            44.076768,
            627.47
          ],
          [
            3.065725,
            44.076787,
            628.7
          ],
          [
            3.065784,
            44.076778,
            630.4
          ],
          [
            3.06586,
            44.076797,
            632.71
          ],
          [
            3.065904,
            44.0768,
            633.95
          ],
          [
            3.065971,
            44.076834,
            636.25
          ],
          [
            3.066098,
            44.07682,
            639.91
          ],
          [
            3.066187,
            44.076837,
            642.58
          ],
          [
            3.06633,
            44.076823,
            646.58
          ],
          [
            3.066588,
            44.07664,
            650.58
          ],
          [
            3.066695,
            44.076537,
            652.03
          ],
          [
            3.066822,
            44.07637,
            654.13
          ],
          [
            3.066885,
            44.07632,
            654.79
          ],
          [
            3.066937,
            44.076258,
            655.49
          ],
          [
            3.066924,
            44.076177,
            656.28
          ],
          [
            3.066924,
            44.075942,
            658.24
          ],
          [
            3.066946,
            44.075842,
            659.05
          ],
          [
            3.066942,
            44.075727,
            660.03
          ],
          [
            3.066956,
            44.075509,
            661.61
          ],
          [
            3.067049,
            44.075171,
            664.13
          ],
          [
            3.067094,
            44.075079,
            664.98
          ],
          [
            3.067161,
            44.074805,
            668.11
          ],
          [
            3.067278,
            44.074601,
            671.56
          ],
          [
            3.067405,
            44.074474,
            674.49
          ],
          [
            3.067502,
            44.07442,
            676.22
          ],
          [
            3.067646,
            44.074403,
            678.33
          ],
          [
            3.067827,
            44.074448,
            681.06
          ],
          [
            3.068079,
            44.074614,
            686.06
          ],
          [
            3.068136,
            44.074682,
            687.77
          ],
          [
            3.068318,
            44.074783,
            691.21
          ],
          [
            3.068471,
            44.074798,
            693.5
          ],
          [
            3.068528,
            44.074817,
            694.39
          ],
          [
            3.068646,
            44.074812,
            695.9
          ],
          [
            3.06882,
            44.07478,
            697.62
          ],
          [
            3.068961,
            44.074703,
            700.11
          ],
          [
            3.068987,
            44.074708,
            700.52
          ],
          [
            3.069002,
            44.074731,
            701.05
          ],
          [
            3.068986,
            44.074771,
            701.76
          ],
          [
            3.068928,
            44.074832,
            701.8
          ],
          [
            3.068912,
            44.074881,
            702.11
          ],
          [
            3.068917,
            44.074904,
            702.87
          ],
          [
            3.068949,
            44.074896,
            703.1
          ],
          [
            3.068987,
            44.074847,
            703.37
          ],
          [
            3.069081,
            44.074801,
            704.64
          ],
          [
            3.069177,
            44.07479,
            706.25
          ],
          [
            3.069272,
            44.074746,
            706.9
          ],
          [
            3.069288,
            44.0747,
            707.21
          ],
          [
            3.069273,
            44.074637,
            707.57
          ],
          [
            3.069236,
            44.074582,
            707.75
          ],
          [
            3.069173,
            44.074537,
            707.94
          ],
          [
            3.069086,
            44.074504,
            708.26
          ],
          [
            3.068972,
            44.074485,
            708.55
          ],
          [
            3.068894,
            44.074447,
            708.65
          ],
          [
            3.068581,
            44.074248,
            709.58
          ],
          [
            3.068443,
            44.074135,
            709.83
          ],
          [
            3.068274,
            44.073967,
            709.86
          ],
          [
            3.067932,
            44.073707,
            709.73
          ],
          [
            3.067836,
            44.073661,
            709.59
          ],
          [
            3.067692,
            44.073605,
            709.28
          ],
          [
            3.067503,
            44.073483,
            709.08
          ],
          [
            3.067406,
            44.073384,
            709.27
          ],
          [
            3.067328,
            44.073329,
            709.59
          ],
          [
            3.067172,
            44.073279,
            710.26
          ],
          [
            3.067002,
            44.073274,
            710.88
          ],
          [
            3.066369,
            44.073138,
            714.0
          ],
          [
            3.066159,
            44.073134,
            715.16
          ],
          [
            3.065879,
            44.073154,
            716.72
          ],
          [
            3.065626,
            44.073137,
            718.25
          ],
          [
            3.065605,
            44.073105,
            718.59
          ],
          [
            3.065629,
            44.07302,
            718.9
          ],
          [
            3.06574,
            44.07287,
            719.1
          ],
          [
            3.065959,
            44.072503,
            719.08
          ],
          [
            3.066044,
            44.072275,
            719.03
          ],
          [
            3.066256,
            44.071568,
            719.22
          ],
          [
            3.066274,
            44.071194,
            719.69
          ],
          [
            3.066205,
            44.0707,
            720.27
          ],
          [
            3.06623,
            44.070648,
            719.79
          ],
          [
            3.066272,
            44.070544,
            719.1
          ],
          [
            3.066351,
            44.070425,
            717.96
          ],
          [
            3.066471,
            44.070366,
            716.66
          ],
          [
            3.066613,
            44.070354,
            715.56
          ],
          [
            3.06704,
            44.070389,
            712.75
          ],
          [
            3.068113,
            44.07044,
            708.9
          ],
          [
            3.068427,
            44.070462,
            708.4
          ],
          [
            3.068818,
            44.070516,
            708.11
          ],
          [
            3.069138,
            44.070599,
            708.26
          ],
          [
            3.069519,
            44.070731,
            708.7
          ],
          [
            3.069653,
            44.070766,
            708.95
          ],
          [
            3.070284,
            44.070881,
            710.84
          ],
          [
            3.070566,
            44.070953,
            711.94
          ],
          [
            3.07079,
            44.071046,
            713.49
          ],
          [
            3.07097,
            44.071241,
            714.93
          ],
          [
            3.071056,
            44.071272,
            715.33
          ],
          [
            3.07118,
            44.071277,
            715.99
          ],
          [
            3.071375,
            44.071246,
            716.55
          ],
          [
            3.072232,
            44.070994,
            715.92
          ],
          [
            3.073434,
            44.070773,
            714.08
          ],
          [
            3.073657,
            44.070722,
            713.8
          ],
          [
            3.073869,
            44.070663,
            713.54
          ],
          [
            3.074434,
            44.070467,
            713.42
          ],
          [
            3.07468,
            44.070388,
            714.1
          ],
          [
            3.075003,
            44.070209,
            715.5
          ],
          [
            3.075171,
            44.070011,
            717.23
          ],
          [
            3.075278,
            44.069759,
            719.0
          ],
          [
            3.075342,
            44.06935,
            722.65
          ],
          [
            3.074769,
            44.069091,
            721.76
          ],
          [
            3.074511,
            44.068959,
            720.88
          ],
          [
            3.074257,
            44.068811,
            720.14
          ],
          [
            3.073215,
            44.068256,
            718.04
          ],
          [
            3.073081,
            44.06816,
            717.86
          ],
          [
            3.072318,
            44.067451,
            716.19
          ],
          [
            3.072012,
            44.067039,
            715.3
          ],
          [
            3.0716,
            44.066381,
            713.93
          ],
          [
            3.071437,
            44.066217,
            713.46
          ],
          [
            3.071277,
            44.066128,
            713.11
          ],
          [
            3.071072,
            44.066066,
            712.71
          ],
          [
            3.069676,
            44.065845,
            711.42
          ],
          [
            3.06938,
            44.065772,
            711.58
          ],
          [
            3.069005,
            44.065627,
            711.58
          ],
          [
            3.06881,
            44.065534,
            711.51
          ],
          [
            3.06863,
            44.065413,
            711.62
          ],
          [
            3.068244,
            44.065052,
            709.91
          ],
          [
            3.068976,
            44.064872,
            715.05
          ],
          [
            3.069091,
            44.064865,
            716.03
          ],
          [
            3.069506,
            44.064782,
            719.48
          ],
          [
            3.069695,
            44.064765,
            721.05
          ],
          [
            3.069964,
            44.06478,
            723.31
          ],
          [
            3.070116,
            44.064812,
            724.62
          ],
          [
            3.070505,
            44.064823,
            727.8
          ],
          [
            3.07106,
            44.064774,
            731.92
          ],
          [
            3.071333,
            44.064786,
            733.8
          ],
          [
            3.071373,
            44.06472,
            734.28
          ],
          [
            3.071387,
            44.064624,
            734.8
          ],
          [
            3.071454,
            44.064398,
            735.29
          ],
          [
            3.071502,
            44.064275,
            735.28
          ],
          [
            3.071631,
            44.064047,
            735.02
          ],
          [
            3.071706,
            44.063885,
            734.78
          ],
          [
            3.071854,
            44.063481,
            733.72
          ],
          [
            3.07199,
            44.063155,
            732.61
          ],
          [
            3.072004,
            44.063062,
            732.32
          ],
          [
            3.071929,
            44.062428,
            730.59
          ],
          [
            3.071929,
            44.062056,
            729.66
          ],
          [
            3.071958,
            44.06186,
            729.2
          ],
          [
            3.072041,
            44.061727,
            728.83
          ],
          [
            3.072197,
            44.061553,
            728.26
          ],
          [
            3.072409,
            44.06138,
            727.62
          ],
          [
            3.072623,
            44.061233,
            727.07
          ],
          [
            3.072878,
            44.061095,
            726.56
          ],
          [
            3.073125,
            44.060992,
            726.14
          ],
          [
            3.073487,
            44.060894,
            725.59
          ],
          [
            3.073659,
            44.060805,
            725.38
          ],
          [
            3.07397,
            44.060601,
            724.98
          ],
          [
            3.074683,
            44.060085,
            724.31
          ],
          [
            3.074858,
            44.059975,
            724.3
          ],
          [
            3.075284,
            44.059632,
            724.51
          ],
          [
            3.075641,
            44.059383,
            724.98
          ],
          [
            3.075815,
            44.059244,
            725.23
          ],
          [
            3.07615,
            44.05888,
            725.4
          ],
          [
            3.07633,
            44.058652,
            725.34
          ],
          [
            3.076569,
            44.058473,
            725.07
          ],
          [
            3.076746,
            44.058232,
            724.6
          ],
          [
            3.076834,
            44.058174,
            724.43
          ],
          [
            3.076995,
            44.058095,
            724.18
          ],
          [
            3.077175,
            44.057964,
            723.98
          ],
          [
            3.077653,
            44.057498,
            723.18
          ],
          [
            3.077803,
            44.057294,
            722.88
          ],
          [
            3.077915,
            44.057066,
            722.16
          ],
          [
            3.077926,
            44.056991,
            721.6
          ],
          [
            3.077918,
            44.056837,
            719.35
          ],
          [
            3.077918,
            44.056837,
            719.35
          ],
          [
            3.077926,
            44.056991,
            721.6
          ],
          [
            3.077915,
            44.057066,
            722.16
          ],
          [
            3.077803,
            44.057294,
            722.88
          ],
          [
            3.077653,
            44.057498,
            723.18
          ],
          [
            3.077175,
            44.057964,
            723.98
          ],
          [
            3.076995,
            44.058095,
            724.18
          ],
          [
            3.076834,
            44.058174,
            724.43
          ],
          [
            3.076746,
            44.058232,
            724.6
          ],
          [
            3.076569,
            44.058473,
            725.07
          ],
          [
            3.07633,
            44.058652,
            725.34
          ],
          [
            3.07615,
            44.05888,
            725.4
          ],
          [
            3.075815,
            44.059244,
            725.23
          ],
          [
            3.075641,
            44.059383,
            724.98
          ],
          [
            3.075284,
            44.059632,
            724.51
          ],
          [
            3.074858,
            44.059975,
            724.3
          ],
          [
            3.074683,
            44.060085,
            724.31
          ],
          [
            3.07397,
            44.060601,
            724.98
          ],
          [
            3.073659,
            44.060805,
            725.38
          ],
          [
            3.073487,
            44.060894,
            725.59
          ],
          [
            3.073125,
            44.060992,
            726.14
          ],
          [
            3.072878,
            44.061095,
            726.56
          ],
          [
            3.072623,
            44.061233,
            727.07
          ],
          [
            3.072409,
            44.06138,
            727.62
          ],
          [
            3.072197,
            44.061553,
            728.26
          ],
          [
            3.072041,
            44.061727,
            728.83
          ],
          [
            3.071958,
            44.06186,
            729.2
          ],
          [
            3.071929,
            44.062056,
            729.66
          ],
          [
            3.071929,
            44.062428,
            730.59
          ],
          [
            3.072004,
            44.063062,
            732.32
          ],
          [
            3.07199,
            44.063155,
            732.61
          ],
          [
            3.071854,
            44.063481,
            733.72
          ],
          [
            3.071706,
            44.063885,
            734.78
          ],
          [
            3.071631,
            44.064047,
            735.02
          ],
          [
            3.071502,
            44.064275,
            735.28
          ],
          [
            3.071454,
            44.064398,
            735.29
          ],
          [
            3.071387,
            44.064624,
            734.8
          ],
          [
            3.071373,
            44.06472,
            734.28
          ],
          [
            3.071333,
            44.064786,
            733.8
          ],
          [
            3.07106,
            44.064774,
            731.92
          ],
          [
            3.070505,
            44.064823,
            727.8
          ],
          [
            3.070116,
            44.064812,
            724.62
          ],
          [
            3.069964,
            44.06478,
            723.31
          ],
          [
            3.069695,
            44.064765,
            721.05
          ],
          [
            3.069506,
            44.064782,
            719.48
          ],
          [
            3.069091,
            44.064865,
            716.03
          ],
          [
            3.068976,
            44.064872,
            715.05
          ],
          [
            3.068244,
            44.065052,
            709.91
          ],
          [
            3.06863,
            44.065413,
            711.62
          ],
          [
            3.06881,
            44.065534,
            711.51
          ],
          [
            3.069005,
            44.065627,
            711.58
          ],
          [
            3.06938,
            44.065772,
            711.58
          ],
          [
            3.069676,
            44.065845,
            711.42
          ],
          [
            3.071072,
            44.066066,
            712.71
          ],
          [
            3.071277,
            44.066128,
            713.11
          ],
          [
            3.071437,
            44.066217,
            713.46
          ],
          [
            3.0716,
            44.066381,
            713.93
          ],
          [
            3.072012,
            44.067039,
            715.3
          ],
          [
            3.072318,
            44.067451,
            716.19
          ],
          [
            3.073081,
            44.06816,
            717.86
          ],
          [
            3.073215,
            44.068256,
            718.04
          ],
          [
            3.074257,
            44.068811,
            720.14
          ],
          [
            3.074511,
            44.068959,
            720.88
          ],
          [
            3.074769,
            44.069091,
            721.76
          ],
          [
            3.075342,
            44.06935,
            722.65
          ],
          [
            3.07711,
            44.070201,
            723.62
          ],
          [
            3.077447,
            44.070376,
            725.3
          ],
          [
            3.079627,
            44.071448,
            731.58
          ],
          [
            3.080036,
            44.071626,
            733.47
          ],
          [
            3.080471,
            44.071774,
            735.6
          ],
          [
            3.08095,
            44.071905,
            737.1
          ],
          [
            3.082252,
            44.072299,
            736.31
          ],
          [
            3.082623,
            44.072426,
            735.38
          ],
          [
            3.083055,
            44.072527,
            734.59
          ],
          [
            3.083509,
            44.072593,
            734.35
          ],
          [
            3.083844,
            44.072603,
            734.4
          ],
          [
            3.084193,
            44.072574,
            734.3
          ],
          [
            3.08459,
            44.072494,
            734.02
          ],
          [
            3.08516,
            44.072351,
            733.07
          ],
          [
            3.089118,
            44.071164,
            726.1
          ],
          [
            3.089393,
            44.07109,
            725.48
          ],
          [
            3.089549,
            44.071064,
            725.32
          ],
          [
            3.089693,
            44.071051,
            725.29
          ],
          [
            3.089923,
            44.071063,
            725.36
          ],
          [
            3.09096,
            44.071265,
            726.58
          ],
          [
            3.091234,
            44.071325,
            727.56
          ],
          [
            3.091439,
            44.071391,
            728.77
          ],
          [
            3.093427,
            44.072097,
            739.97
          ],
          [
            3.095205,
            44.072715,
            744.62
          ],
          [
            3.095851,
            44.073005,
            745.21
          ],
          [
            3.096064,
            44.073091,
            745.46
          ],
          [
            3.096298,
            44.073151,
            745.68
          ],
          [
            3.09664,
            44.073193,
            746.0
          ],
          [
            3.096863,
            44.073237,
            746.24
          ],
          [
            3.097166,
            44.073319,
            746.55
          ],
          [
            3.097618,
            44.073502,
            746.61
          ],
          [
            3.098327,
            44.073805,
            745.62
          ],
          [
            3.098763,
            44.073966,
            743.66
          ],
          [
            3.099019,
            44.074028,
            742.77
          ],
          [
            3.099778,
            44.074076,
            741.09
          ],
          [
            3.099974,
            44.074064,
            741.0
          ],
          [
            3.100341,
            44.073738,
            740.25
          ],
          [
            3.100705,
            44.073354,
            740.22
          ],
          [
            3.101071,
            44.072943,
            740.88
          ],
          [
            3.101398,
            44.072922,
            741.88
          ],
          [
            3.101896,
            44.072922,
            743.34
          ],
          [
            3.102196,
            44.07295,
            744.14
          ],
          [
            3.102917,
            44.073338,
            745.68
          ],
          [
            3.103136,
            44.073419,
            745.86
          ],
          [
            3.103403,
            44.073451,
            746.0
          ],
          [
            3.103942,
            44.073451,
            746.15
          ],
          [
            3.104207,
            44.073468,
            746.17
          ],
          [
            3.104632,
            44.073546,
            746.11
          ],
          [
            3.105536,
            44.073676,
            746.34
          ],
          [
            3.105814,
            44.073755,
            746.57
          ],
          [
            3.106136,
            44.073879,
            746.99
          ],
          [
            3.106449,
            44.074134,
            747.79
          ],
          [
            3.107512,
            44.075254,
            753.03
          ],
          [
            3.107835,
            44.075473,
            754.22
          ],
          [
            3.108359,
            44.075745,
            755.37
          ],
          [
            3.109008,
            44.076046,
            755.77
          ],
          [
            3.110791,
            44.076763,
            752.72
          ],
          [
            3.111882,
            44.077175,
            752.86
          ],
          [
            3.112254,
            44.077261,
            753.33
          ],
          [
            3.112659,
            44.077286,
            753.71
          ],
          [
            3.112819,
            44.077314,
            753.83
          ],
          [
            3.112939,
            44.077374,
            753.93
          ],
          [
            3.11317,
            44.07757,
            754.19
          ],
          [
            3.113761,
            44.078187,
            754.5
          ],
          [
            3.113868,
            44.078269,
            754.48
          ],
          [
            3.11395,
            44.078287,
            754.57
          ],
          [
            3.11398,
            44.078402,
            754.3
          ],
          [
            3.114147,
            44.07858,
            754.19
          ],
          [
            3.114393,
            44.078865,
            754.11
          ],
          [
            3.114699,
            44.079069,
            754.0
          ],
          [
            3.114761,
            44.0791,
            754.0
          ],
          [
            3.115037,
            44.079206,
            754.0
          ],
          [
            3.115321,
            44.079287,
            753.75
          ],
          [
            3.115642,
            44.07933,
            753.0
          ],
          [
            3.116355,
            44.079509,
            752.32
          ],
          [
            3.120166,
            44.080022,
            749.59
          ],
          [
            3.121409,
            44.080231,
            749.0
          ],
          [
            3.121445,
            44.080097,
            749.47
          ],
          [
            3.122397,
            44.080218,
            747.24
          ],
          [
            3.122566,
            44.079955,
            746.69
          ],
          [
            3.122764,
            44.079686,
            746.87
          ],
          [
            3.123909,
            44.078384,
            747.04
          ],
          [
            3.123953,
            44.078306,
            747.05
          ],
          [
            3.123967,
            44.078223,
            747.06
          ],
          [
            3.123936,
            44.077727,
            747.15
          ],
          [
            3.124017,
            44.07762,
            747.42
          ],
          [
            3.124345,
            44.077336,
            747.7
          ],
          [
            3.124767,
            44.077005,
            748.05
          ],
          [
            3.125181,
            44.076754,
            748.49
          ],
          [
            3.125551,
            44.076546,
            749.45
          ],
          [
            3.125679,
            44.076508,
            749.47
          ],
          [
            3.125857,
            44.07651,
            748.8
          ],
          [
            3.126033,
            44.076557,
            748.26
          ],
          [
            3.126699,
            44.076869,
            748.31
          ],
          [
            3.127193,
            44.077084,
            748.8
          ],
          [
            3.127433,
            44.077123,
            748.95
          ],
          [
            3.127662,
            44.077108,
            749.17
          ],
          [
            3.127863,
            44.077066,
            749.48
          ],
          [
            3.128053,
            44.076968,
            749.97
          ],
          [
            3.128204,
            44.076806,
            750.68
          ],
          [
            3.128449,
            44.07638,
            751.9
          ],
          [
            3.128549,
            44.076277,
            752.47
          ],
          [
            3.128737,
            44.076193,
            753.15
          ],
          [
            3.128946,
            44.076142,
            753.14
          ],
          [
            3.12926,
            44.076157,
            752.0
          ],
          [
            3.129743,
            44.076273,
            753.36
          ],
          [
            3.129923,
            44.076291,
            753.96
          ],
          [
            3.130099,
            44.076264,
            754.63
          ],
          [
            3.130125,
            44.076327,
            754.12
          ],
          [
            3.13038,
            44.076282,
            754.26
          ],
          [
            3.130695,
            44.076215,
            754.11
          ],
          [
            3.131428,
            44.076093,
            754.17
          ],
          [
            3.131803,
            44.076012,
            754.4
          ],
          [
            3.132132,
            44.07593,
            754.63
          ],
          [
            3.132382,
            44.075852,
            754.76
          ],
          [
            3.132758,
            44.075766,
            754.85
          ],
          [
            3.133208,
            44.075639,
            754.68
          ],
          [
            3.133462,
            44.075531,
            754.42
          ],
          [
            3.133863,
            44.075386,
            753.82
          ],
          [
            3.134581,
            44.075101,
            752.42
          ],
          [
            3.135047,
            44.074831,
            750.71
          ],
          [
            3.135464,
            44.074664,
            749.11
          ],
          [
            3.135494,
            44.074639,
            748.93
          ],
          [
            3.135506,
            44.074445,
            747.78
          ],
          [
            3.135563,
            44.074247,
            746.54
          ],
          [
            3.135756,
            44.074084,
            745.24
          ],
          [
            3.135924,
            44.073996,
            744.49
          ],
          [
            3.136159,
            44.073843,
            743.56
          ],
          [
            3.136328,
            44.073758,
            742.88
          ],
          [
            3.136705,
            44.073506,
            742.22
          ],
          [
            3.136808,
            44.073448,
            742.73
          ],
          [
            3.136898,
            44.073439,
            743.14
          ],
          [
            3.136962,
            44.073449,
            743.51
          ],
          [
            3.137283,
            44.073835,
            744.43
          ],
          [
            3.137374,
            44.073898,
            744.77
          ],
          [
            3.137467,
            44.07392,
            745.08
          ],
          [
            3.137589,
            44.073914,
            745.48
          ],
          [
            3.138004,
            44.073785,
            746.94
          ],
          [
            3.13873,
            44.0734,
            749.97
          ],
          [
            3.139051,
            44.073265,
            751.0
          ],
          [
            3.139247,
            44.07324,
            751.46
          ],
          [
            3.139647,
            44.073093,
            752.41
          ],
          [
            3.139917,
            44.072889,
            753.33
          ],
          [
            3.140252,
            44.072602,
            754.98
          ],
          [
            3.140857,
            44.072151,
            759.58
          ],
          [
            3.141296,
            44.071917,
            762.93
          ],
          [
            3.142264,
            44.071215,
            769.37
          ],
          [
            3.143004,
            44.070835,
            771.57
          ],
          [
            3.143839,
            44.070268,
            776.64
          ],
          [
            3.143968,
            44.070157,
            778.01
          ],
          [
            3.144126,
            44.070234,
            777.99
          ],
          [
            3.144288,
            44.07024,
            777.85
          ],
          [
            3.144464,
            44.070209,
            777.73
          ],
          [
            3.144884,
            44.070045,
            777.73
          ],
          [
            3.145312,
            44.069818,
            777.71
          ],
          [
            3.145842,
            44.06948,
            777.47
          ],
          [
            3.146078,
            44.069357,
            777.19
          ],
          [
            3.146376,
            44.069237,
            776.81
          ],
          [
            3.146755,
            44.06917,
            776.28
          ],
          [
            3.150176,
            44.068927,
            773.0
          ],
          [
            3.151181,
            44.06887,
            775.8
          ],
          [
            3.151473,
            44.068842,
            777.11
          ],
          [
            3.151689,
            44.068802,
            778.07
          ],
          [
            3.151935,
            44.06874,
            779.05
          ],
          [
            3.153411,
            44.068235,
            785.0
          ],
          [
            3.153594,
            44.068179,
            785.18
          ],
          [
            3.154342,
            44.067925,
            788.06
          ],
          [
            3.154543,
            44.06789,
            788.83
          ],
          [
            3.154751,
            44.067885,
            789.59
          ],
          [
            3.155002,
            44.067937,
            790.47
          ],
          [
            3.155214,
            44.068024,
            791.21
          ],
          [
            3.155421,
            44.06817,
            791.98
          ],
          [
            3.156453,
            44.069074,
            794.5
          ],
          [
            3.156758,
            44.069278,
            795.13
          ],
          [
            3.157052,
            44.069396,
            795.64
          ],
          [
            3.157402,
            44.069462,
            796.26
          ],
          [
            3.158441,
            44.06959,
            795.89
          ],
          [
            3.16489,
            44.070498,
            804.94
          ],
          [
            3.169167,
            44.071111,
            795.0
          ],
          [
            3.169189,
            44.071182,
            795.05
          ],
          [
            3.169275,
            44.071252,
            795.37
          ],
          [
            3.16934,
            44.071298,
            795.67
          ],
          [
            3.169414,
            44.071312,
            796.0
          ],
          [
            3.169467,
            44.071371,
            796.0
          ],
          [
            3.169592,
            44.071458,
            796.0
          ],
          [
            3.16969,
            44.071573,
            795.87
          ],
          [
            3.169793,
            44.071639,
            795.56
          ],
          [
            3.169996,
            44.071702,
            794.79
          ],
          [
            3.170467,
            44.071806,
            793.35
          ],
          [
            3.170528,
            44.071839,
            793.15
          ],
          [
            3.170638,
            44.071928,
            792.72
          ],
          [
            3.17094,
            44.072104,
            791.89
          ],
          [
            3.171166,
            44.072251,
            791.41
          ],
          [
            3.171374,
            44.072422,
            791.27
          ],
          [
            3.17173,
            44.07264,
            791.46
          ],
          [
            3.172002,
            44.072833,
            791.63
          ],
          [
            3.17222,
            44.073055,
            792.25
          ],
          [
            3.172144,
            44.073086,
            792.0
          ],
          [
            3.172139,
            44.073287,
            791.55
          ],
          [
            3.17216,
            44.073363,
            791.4
          ]
        ]
      }
    },
    {
      "type": "Feature",
      "properties": {
        "source": "Cadénède__Cavaliés.gpx",
        "type": "route"
      },
      "geometry": {
        "type": "LineString",
        "coordinates": [
          [
            3.065488,
            44.075507
          ],
          [
            3.065459,
            44.076634
          ],
          [
            3.06633,
            44.076823
          ],
          [
            3.068917,
            44.074904
          ],
          [
            3.067503,
            44.073483
          ],
          [
            3.065626,
            44.073137
          ],
          [
            3.06623,
            44.070648
          ],
          [
            3.074434,
            44.070467
          ],
          [
            3.075342,
            44.06935
          ],
          [
            3.068244,
            44.065052
          ],
          [
            3.071333,
            44.064786
          ],
          [
            3.077918,
            44.056837
          ],
          [
            3.077918,
            44.056837
          ],
          [
            3.071333,
            44.064786
          ],
          [
            3.068244,
            44.065052
          ],
          [
            3.099019,
            44.074028
          ],
          [
            3.099974,
            44.074064
          ],
          [
            3.101071,
            44.072943
          ],
          [
            3.11395,
            44.078287
          ],
          [
            3.114761,
            44.0791
          ],
          [
            3.121409,
            44.080231
          ],
          [
            3.121445,
            44.080097
          ],
          [
            3.122397,
            44.080218
          ],
          [
            3.123936,
            44.077727
          ],
          [
            3.130099,
            44.076264
          ],
          [
            3.130125,
            44.076327
          ],
          [
            3.136962,
            44.073449
          ],
          [
            3.143004,
            44.070835
          ],
          [
            3.143968,
            44.070157
          ],
          [
            3.169167,
            44.071111
          ],
          [
            3.169414,
            44.071312
          ],
          [
            3.17222,
            44.073055
          ],
          [
            3.172144,
            44.073086
          ],
          [
            3.17216,
            44.073363
          ]
        ]
      }
    }
  ]
}