{
  "type": "FeatureCollection",
  "features": [
    {
      "type": "Feature",
      "properties": {
        "name": "GraphHopper Track",
        "source": "Chaos_Roquesaltes.gpx",
        "type": "track"
      },
      "geometry": {
        "type": "LineString",
        "coordinates": [
          [
            3.207965,
            44.100865,
            674.6
          ],
          [
            3.208178,
            44.100829,
            672.87
          ],
          [
            3.208512,
            44.100758,
            671.68
          ],
          [
            3.208727,
            44.100761,
            670.92
          ],
          [
            3.209028,
            44.100799,
            670.07
          ],
          [
            3.209564,
            44.100914,
            669.61
          ],
          [
            3.209824,
            44.101023,
            669.82
          ],
          [
            3.210095,
            44.101204,
            670.15
          ],
          [
            3.210553,
            44.101571,
            672.6
          ],
          [
            3.210952,
            44.101807,
            675.89
          ],
          [
            3.211443,
            44.102116,
            680.13
          ],
          [
            3.211594,
            44.102174,
            681.26
          ],
          [
            3.212172,
            44.102321,
            685.68
          ],
          [
            3.212464,
            44.102365,
            687.71
          ],
          [
            3.212955,
            44.102251,
            687.87
          ],
          [
            3.213154,
            44.102229,
            687.8
          ],
          [
            3.213256,
            44.102231,
            687.56
          ],
          [
            3.213316,
            44.102158,
            686.94
          ],
          [
            3.213373,
            44.102116,
            686.44
          ],
          [
            3.213662,
            44.10207,
            685.23
          ],
          [
            3.213812,
            44.102019,
            684.85
          ],
          [
            3.213922,
            44.102033,
            684.87
          ],
          [
            3.214008,
            44.102069,
            684.81
          ],
          [
            3.214145,
            44.102152,
            684.75
          ],
          [
            3.214268,
            44.10223,
            684.7
          ],
          [
            3.214308,
            44.102325,
            684.87
          ],
          [
            3.214503,
            44.102193,
            684.27
          ],
          [
            3.214947,
            44.101854,
            684.71
          ],
          [
            3.215248,
            44.101605,
            684.99
          ],
          [
            3.215338,
            44.101559,
            685.09
          ],
          [
            3.215425,
            44.101527,
            685.17
          ],
          [
            3.215616,
            44.101489,
            685.31
          ],
          [
            3.215904,
            44.101461,
            685.47
          ],
          [
            3.216115,
            44.101426,
            685.59
          ],
          [
            3.216296,
            44.101383,
            685.69
          ],
          [
            3.216486,
            44.101309,
            685.82
          ],
          [
            3.216681,
            44.101211,
            685.99
          ],
          [
            3.217142,
            44.100958,
            686.0
          ],
          [
            3.217202,
            44.100913,
            686.0
          ],
          [
            3.217299,
            44.100804,
            686.17
          ],
          [
            3.217444,
            44.10071,
            686.49
          ],
          [
            3.217633,
            44.100611,
            686.64
          ],
          [
            3.218361,
            44.100264,
            687.21
          ],
          [
            3.219226,
            44.099883,
            688.32
          ],
          [
            3.219262,
            44.099966,
            688.0
          ],
          [
            3.219245,
            44.100041,
            687.96
          ],
          [
            3.219206,
            44.100481,
            687.2
          ],
          [
            3.219209,
            44.101047,
            686.52
          ],
          [
            3.219181,
            44.101424,
            686.25
          ],
          [
            3.218965,
            44.102386,
            685.75
          ],
          [
            3.218848,
            44.103212,
            684.4
          ],
          [
            3.218802,
            44.104249,
            683.4
          ],
          [
            3.218778,
            44.104565,
            683.07
          ],
          [
            3.218736,
            44.104925,
            682.92
          ],
          [
            3.219158,
            44.10491,
            682.98
          ],
          [
            3.219463,
            44.10492,
            682.93
          ],
          [
            3.219777,
            44.10497,
            682.84
          ],
          [
            3.219957,
            44.10501,
            682.78
          ],
          [
            3.220351,
            44.105153,
            682.57
          ],
          [
            3.22074,
            44.105203,
            682.42
          ],
          [
            3.220881,
            44.105231,
            682.43
          ],
          [
            3.220881,
            44.105231,
            682.43
          ],
          [
            3.22074,
            44.105203,
            682.42
          ],
          [
            3.220351,
            44.105153,
            682.57
          ],
          [
            3.219957,
            44.10501,
            682.78
          ],
          [
            3.219777,
            44.10497,
            682.84
          ],
          [
            3.219463,
            44.10492,
            682.93
          ],
          [
            3.219158,
            44.10491,
            682.98
          ],
          [
            3.218736,
            44.104925,
            682.92
          ],
          [
            3.218778,
            44.104565,
            683.07
          ],
          [
            3.218802,
            44.104249,
            683.4
          ],
          [
            3.218848,
            44.103212,
            684.4
          ],
          [
            3.218965,
            44.102386,
            685.75
          ],
          [
            3.219181,
            44.101424,
            686.25
          ],
          [
            3.219209,
            44.101047,
            686.52
          ],
          [
            3.219206,
            44.100481,
            687.2
          ],
          [
            3.219245,
            44.100041,
            687.96
          ],
          [
            3.219262,
            44.099966,
            688.0
          ],
          [
            3.219226,
            44.099883,
            688.32
          ],
          [
            3.218361,
            44.100264,
            687.21
          ],
          [
            3.217633,
            44.100611,
            686.64
          ],
          [
            3.217444,
            44.10071,
            686.49
          ],
          [
            3.217299,
            44.100804,
            686.17
          ],
          [
            3.217202,
            44.100913,
            686.0
          ],
          [
            3.217142,
            44.100958,
            686.0
          ],
          [
            3.216681,
            44.101211,
            685.99
          ],
          [
            3.216486,
            44.101309,
            685.82
          ],
          [
            3.216296,
            44.101383,
            685.69
          ],
          [
            3.216115,
            44.101426,
            685.59
          ],
          [
            3.215904,
            44.101461,
            685.47
          ],
          [
            3.215616,
            44.101489,
            685.31
          ],
          [
            3.215425,
            44.101527,
            685.17
          ],
          [
            3.215338,
            44.101559,
            685.09
          ],
          [
            3.215248,
            44.101605,
            684.99
          ],
          [
            3.214947,
            44.101854,
            684.71
          ],
          [
            3.214503,
            44.102193,
            684.27
          ],
          [
            3.214308,
            44.102325,
            684.87
          ],
          [
            3.214268,
            44.10223,
            684.7
          ],
          [
            3.214145,
            44.102152,
            684.75
          ],
          [
            3.214008,
            44.102069,
            684.81
          ],
          [
            3.213922,
            44.102033,
            684.87
          ],
          [
            3.213812,
            44.102019,
            684.85
          ],
          [
            3.213662,
            44.10207,
            685.23
          ],
          [
            3.213373,
            44.102116,
            686.44
          ],
          [
            3.213316,
            44.102158,
            686.94
          ],
          [
            3.213256,
            44.102231,
            687.56
          ],
          [
            3.213154,
            44.102229,
            687.8
          ],
          [
            3.212955,
            44.102251,
            687.87
          ],
          [
            3.212464,
            44.102365,
            687.71
          ],
          [
            3.212172,
            44.102321,
            685.68
          ],
          [
            3.211594,
            44.102174,
            681.26
          ],
          [
            3.211443,
            44.102116,
            680.13
          ],
          [
            3.210952,
            44.101807,
            675.89
          ],
          [
            3.210553,
            44.101571,
            672.6
          ],
          [
            3.210095,
            44.101204,
            670.15
          ],
          [
            3.209824,
            44.101023,
            669.82
          ],
          [
            3.209564,
            44.100914,
            669.61
          ],
          [
            3.209028,
            44.100799,
            670.07
          ],
          [
            3.208727,
            44.100761,
            670.92
          ],
          [
            3.208512,
            44.100758,
            671.68
          ],
          [
            3.208178,
            44.100829,
            672.87
          ],
          [
            3.207965,
            44.100865,
            674.6
          ]
        ]
      }
    },
    {
      "type": "Feature",
      "properties": {
        "source": "Chaos_Roquesaltes.gpx",
        "type": "route"
      },
      "geometry": {
        "type": "LineString",
        "coordinates": [
          [
            3.207965,
            44.100865
          ],
          [
            3.213256,
            44.102231
          ],
          [
            3.213812,
            44.102019
          ],
          [
            3.214308,
            44.102325
          ],
          [
            3.219226,
            44.099883
          ],
          [
            3.219262,
            44.099966
          ],
          [
            3.218736,
            44.104925
          ],
          [
            3.220881,
            44.105231
          ],
          [
            3.220881,
            44.105231
          ],
          [
            3.218736,
            44.104925
          ],
          [
            3.219262,
            44.099966
          ],
          [
            3.219226,
            44.099883
          ],
          [
            3.217202,
            44.100913
          ],
          [
            3.214308,
            44.102325
          ],
          [
            3.213812,
            44.102019
          ],
          [
            3.213256,
            44.102231
          ],
          [
            3.207965,
            44.100865
          ]
        ]
      }
    }
  ]
}