{
  "type": "FeatureCollection",
  "features": [
    {
      "type": "Feature",
      "properties": {
        "name": "GraphHopper Track",
        "source": "Plateau_de_la_Piège.gpx",
        "type": "track"
      },
      "geometry": {
        "type": "LineString",
        "coordinates": [
          [
            1.934828,
            43.226818,
            359.9
          ],
          [
            1.934984,
            43.226993,
            359.61
          ],
          [
            1.935033,
            43.227085,
            359.74
          ],
          [
            1.935083,
            43.227214,
            360.01
          ],
          [
            1.935093,
            43.227336,
            360.38
          ],
          [
            1.935018,
            43.228159,
            364.49
          ],
          [
            1.934972,
            43.228225,
            364.03
          ],
          [
            1.935074,
            43.228288,
            365.15
          ],
          [
            1.935147,
            43.228357,
            365.31
          ],
          [
            1.935415,
            43.228765,
            363.64
          ],
          [
            1.935517,
            43.228841,
            363.32
          ],
          [
            1.935524,
            43.228889,
            362.98
          ],
          [
            1.935672,
            43.229085,
            361.65
          ],
          [
            1.935721,
            43.229118,
            361.18
          ],
          [
            1.935658,
            43.229277,
            360.5
          ],
          [
            1.935713,
            43.229527,
            357.7
          ],
          [
            1.935808,
            43.229781,
            354.25
          ],
          [
            1.935877,
            43.229919,
            352.47
          ],
          [
            1.935865,
            43.230082,
            350.32
          ],
          [
            1.935735,
            43.230256,
            347.64
          ],
          [
            1.935403,
            43.230432,
            343.82
          ],
          [
            1.935299,
            43.230477,
            342.49
          ],
          [
            1.935312,
            43.230523,
            341.92
          ],
          [
            1.935451,
            43.230638,
            340.26
          ],
          [
            1.935638,
            43.230691,
            338.96
          ],
          [
            1.936028,
            43.230678,
            337.16
          ],
          [
            1.936277,
            43.230658,
            335.92
          ],
          [
            1.936468,
            43.230678,
            335.0
          ],
          [
            1.937188,
            43.230988,
            331.3
          ],
          [
            1.937258,
            43.231057,
            331.0
          ],
          [
            1.937236,
            43.231493,
            324.7
          ],
          [
            1.937254,
            43.2316,
            323.19
          ],
          [
            1.937305,
            43.231711,
            321.64
          ],
          [
            1.9374,
            43.231822,
            319.91
          ],
          [
            1.938308,
            43.232623,
            311.3
          ],
          [
            1.938398,
            43.232739,
            310.96
          ],
          [
            1.938457,
            43.232855,
            310.76
          ],
          [
            1.938609,
            43.23335,
            312.0
          ],
          [
            1.938574,
            43.233395,
            311.88
          ],
          [
            1.938534,
            43.233487,
            311.6
          ],
          [
            1.938452,
            43.233896,
            312.23
          ],
          [
            1.938413,
            43.233991,
            312.35
          ],
          [
            1.93834,
            43.234079,
            312.58
          ],
          [
            1.938257,
            43.234153,
            312.85
          ],
          [
            1.938134,
            43.234202,
            313.22
          ],
          [
            1.937885,
            43.234273,
            313.04
          ],
          [
            1.937963,
            43.234334,
            314.34
          ],
          [
            1.93926,
            43.234778,
            328.33
          ],
          [
            1.93933,
            43.234835,
            329.48
          ],
          [
            1.939358,
            43.234896,
            330.46
          ],
          [
            1.939371,
            43.235313,
            336.85
          ],
          [
            1.939407,
            43.235389,
            338.29
          ],
          [
            1.939511,
            43.235459,
            340.18
          ],
          [
            1.939772,
            43.235568,
            343.69
          ],
          [
            1.939823,
            43.235608,
            344.41
          ],
          [
            1.939936,
            43.235708,
            345.89
          ],
          [
            1.940053,
            43.235867,
            347.74
          ],
          [
            1.940745,
            43.236439,
            352.33
          ],
          [
            1.941166,
            43.236729,
            352.64
          ],
          [
            1.942056,
            43.237271,
            349.46
          ],
          [
            1.942776,
            43.237922,
            348.97
          ],
          [
            1.943405,
            43.238456,
            353.11
          ],
          [
            1.943465,
            43.238594,
            351.03
          ],
          [
            1.943385,
            43.238745,
            350.49
          ],
          [
            1.943313,
            43.238977,
            350.46
          ],
          [
            1.94334,
            43.239221,
            349.95
          ],
          [
            1.943287,
            43.239609,
            349.73
          ],
          [
            1.943048,
            43.240096,
            348.99
          ],
          [
            1.9427,
            43.240857,
            347.24
          ],
          [
            1.942573,
            43.241205,
            346.81
          ],
          [
            1.942626,
            43.241406,
            346.7
          ],
          [
            1.942711,
            43.241536,
            347.11
          ],
          [
            1.942739,
            43.241671,
            348.32
          ],
          [
            1.942662,
            43.241733,
            349.83
          ],
          [
            1.942755,
            43.242359,
            351.67
          ],
          [
            1.943273,
            43.244444,
            347.42
          ],
          [
            1.943734,
            43.245588,
            348.08
          ],
          [
            1.943833,
            43.245786,
            348.0
          ],
          [
            1.944101,
            43.246159,
            350.96
          ],
          [
            1.943941,
            43.246187,
            351.3
          ],
          [
            1.943601,
            43.246215,
            351.7
          ],
          [
            1.943412,
            43.246255,
            351.76
          ],
          [
            1.943312,
            43.24631,
            351.67
          ],
          [
            1.943285,
            43.246374,
            351.2
          ],
          [
            1.943123,
            43.246442,
            350.77
          ],
          [
            1.94298,
            43.246534,
            350.2
          ],
          [
            1.942357,
            43.246974,
            346.78
          ],
          [
            1.942122,
            43.247283,
            345.09
          ],
          [
            1.941948,
            43.247561,
            343.85
          ],
          [
            1.941626,
            43.247955,
            342.85
          ],
          [
            1.941377,
            43.248139,
            342.3
          ],
          [
            1.939242,
            43.249188,
            339.28
          ],
          [
            1.938611,
            43.249338,
            339.45
          ],
          [
            1.938381,
            43.249367,
            339.69
          ],
          [
            1.937752,
            43.249342,
            340.63
          ],
          [
            1.937386,
            43.249339,
            341.17
          ],
          [
            1.937114,
            43.249361,
            341.49
          ],
          [
            1.936935,
            43.249391,
            341.66
          ],
          [
            1.93615,
            43.249558,
            341.7
          ],
          [
            1.935536,
            43.249651,
            340.83
          ],
          [
            1.934987,
            43.249951,
            340.63
          ],
          [
            1.934516,
            43.25017,
            339.17
          ],
          [
            1.93379,
            43.250374,
            336.29
          ],
          [
            1.933244,
            43.250481,
            333.68
          ],
          [
            1.933067,
            43.250483,
            332.1
          ],
          [
            1.931015,
            43.251747,
            332.85
          ],
          [
            1.930786,
            43.251901,
            332.91
          ],
          [
            1.930674,
            43.25199,
            333.16
          ],
          [
            1.930562,
            43.252119,
            333.77
          ],
          [
            1.930376,
            43.252413,
            333.58
          ],
          [
            1.930298,
            43.252594,
            333.08
          ],
          [
            1.930272,
            43.252722,
            332.73
          ],
          [
            1.930283,
            43.252955,
            331.76
          ],
          [
            1.93049,
            43.253425,
            328.82
          ],
          [
            1.930664,
            43.253881,
            325.48
          ],
          [
            1.929995,
            43.253969,
            325.86
          ],
          [
            1.929683,
            43.253998,
            326.15
          ],
          [
            1.929302,
            43.253992,
            326.59
          ],
          [
            1.928914,
            43.253907,
            327.06
          ],
          [
            1.928486,
            43.253771,
            327.73
          ],
          [
            1.92755,
            43.253409,
            328.35
          ],
          [
            1.92722,
            43.253362,
            328.19
          ],
          [
            1.926985,
            43.253379,
            328.0
          ],
          [
            1.926797,
            43.253407,
            327.8
          ],
          [
            1.923755,
            43.254046,
            319.33
          ],
          [
            1.923495,
            43.254085,
            318.42
          ],
          [
            1.923371,
            43.254089,
            318.04
          ],
          [
            1.923177,
            43.254051,
            317.36
          ],
          [
            1.923094,
            43.254021,
            316.97
          ],
          [
            1.922972,
            43.253925,
            316.12
          ],
          [
            1.922826,
            43.253662,
            314.94
          ],
          [
            1.922513,
            43.253007,
            312.55
          ],
          [
            1.922513,
            43.253007,
            312.55
          ],
          [
            1.922826,
            43.253662,
            314.94
          ],
          [
            1.922972,
            43.253925,
            316.12
          ],
          [
            1.923696,
            43.25549,
            304.49
          ],
          [
            1.924611,
            43.257431,
            319.27
          ],
          [
            1.92463,
            43.257531,
            319.22
          ],
          [
            1.924734,
            43.257673,
            318.86
          ],
          [
            1.924806,
            43.25789,
            319.31
          ],
          [
            1.924811,
            43.258032,
            319.72
          ],
          [
            1.924798,
            43.258148,
            320.5
          ],
          [
            1.924841,
            43.258195,
            321.07
          ],
          [
            1.924696,
            43.258269,
            320.92
          ],
          [
            1.924456,
            43.258739,
            322.73
          ],
          [
            1.924364,
            43.258829,
            322.99
          ],
          [
            1.924262,
            43.258853,
            323.05
          ],
          [
            1.92422,
            43.258904,
            323.35
          ],
          [
            1.924128,
            43.259183,
            325.55
          ],
          [
            1.924052,
            43.259359,
            326.03
          ],
          [
            1.924001,
            43.259586,
            326.36
          ],
          [
            1.923959,
            43.259668,
            326.53
          ],
          [
            1.923876,
            43.259753,
            326.63
          ],
          [
            1.923579,
            43.259969,
            326.68
          ],
          [
            1.923487,
            43.260058,
            326.59
          ],
          [
            1.923404,
            43.260191,
            326.4
          ],
          [
            1.923331,
            43.26037,
            326.44
          ],
          [
            1.923374,
            43.260388,
            324.72
          ],
          [
            1.923431,
            43.260377,
            322.69
          ],
          [
            1.923507,
            43.2604,
            319.92
          ],
          [
            1.923754,
            43.260427,
            312.15
          ],
          [
            1.923753,
            43.260476,
            312.1
          ],
          [
            1.923777,
            43.260538,
            312.13
          ],
          [
            1.924082,
            43.260909,
            312.65
          ],
          [
            1.924207,
            43.260998,
            312.77
          ],
          [
            1.924363,
            43.261073,
            312.97
          ],
          [
            1.924769,
            43.261302,
            313.58
          ],
          [
            1.924976,
            43.261455,
            313.97
          ],
          [
            1.925156,
            43.261675,
            314.87
          ],
          [
            1.925189,
            43.261762,
            315.0
          ],
          [
            1.925264,
            43.261859,
            314.95
          ],
          [
            1.926138,
            43.263234,
            313.94
          ],
          [
            1.9262,
            43.263304,
            313.69
          ],
          [
            1.926274,
            43.26335,
            313.47
          ],
          [
            1.92633,
            43.263375,
            313.32
          ],
          [
            1.9264,
            43.263382,
            313.16
          ],
          [
            1.926472,
            43.263373,
            312.99
          ],
          [
            1.926878,
            43.263245,
            311.67
          ],
          [
            1.927237,
            43.263122,
            310.49
          ],
          [
            1.927608,
            43.263042,
            309.44
          ],
          [
            1.927779,
            43.263017,
            308.9
          ],
          [
            1.927919,
            43.263012,
            308.45
          ],
          [
            1.928078,
            43.263024,
            307.93
          ],
          [
            1.928256,
            43.263069,
            307.35
          ],
          [
            1.928391,
            43.263135,
            306.98
          ],
          [
            1.9286,
            43.263285,
            306.59
          ],
          [
            1.928889,
            43.263532,
            306.43
          ],
          [
            1.928984,
            43.26364,
            306.53
          ],
          [
            1.929026,
            43.263722,
            306.63
          ],
          [
            1.929035,
            43.263779,
            306.69
          ],
          [
            1.929015,
            43.263828,
            306.75
          ],
          [
            1.928935,
            43.263901,
            306.84
          ],
          [
            1.928748,
            43.264028,
            306.92
          ],
          [
            1.928669,
            43.264109,
            306.94
          ],
          [
            1.928604,
            43.264234,
            306.95
          ],
          [
            1.928618,
            43.264396,
            306.92
          ],
          [
            1.928737,
            43.264589,
            307.05
          ],
          [
            1.929574,
            43.265253,
            310.11
          ],
          [
            1.929766,
            43.265374,
            310.98
          ],
          [
            1.929992,
            43.265656,
            312.18
          ],
          [
            1.930353,
            43.265954,
            312.58
          ],
          [
            1.930564,
            43.26604,
            312.63
          ],
          [
            1.930986,
            43.266155,
            312.5
          ],
          [
            1.931054,
            43.266165,
            312.23
          ],
          [
            1.931642,
            43.266261,
            307.72
          ],
          [
            1.931815,
            43.266298,
            306.74
          ],
          [
            1.931899,
            43.266345,
            306.14
          ],
          [
            1.931969,
            43.266403,
            305.53
          ],
          [
            1.932009,
            43.266481,
            304.88
          ],
          [
            1.932058,
            43.266786,
            302.99
          ],
          [
            1.932137,
            43.266965,
            301.8
          ],
          [
            1.932205,
            43.267024,
            301.19
          ],
          [
            1.932308,
            43.26705,
            300.49
          ],
          [
            1.93247,
            43.267028,
            299.41
          ],
          [
            1.932685,
            43.266969,
            298.0
          ],
          [
            1.932884,
            43.266951,
            296.88
          ],
          [
            1.933173,
            43.266979,
            295.29
          ],
          [
            1.933229,
            43.266999,
            294.95
          ],
          [
            1.933443,
            43.267047,
            293.27
          ],
          [
            1.934049,
            43.267301,
            290.45
          ],
          [
            1.934077,
            43.267366,
            291.68
          ],
          [
            1.934128,
            43.267413,
            292.66
          ],
          [
            1.934755,
            43.26773,
            301.83
          ],
          [
            1.934842,
            43.267793,
            303.24
          ],
          [
            1.934869,
            43.26786,
            304.32
          ],
          [
            1.934851,
            43.267912,
            305.13
          ],
          [
            1.93466,
            43.268035,
            307.68
          ],
          [
            1.934304,
            43.268291,
            311.84
          ],
          [
            1.934227,
            43.268396,
            313.0
          ],
          [
            1.934097,
            43.268879,
            314.28
          ],
          [
            1.934028,
            43.269151,
            313.82
          ],
          [
            1.934089,
            43.269343,
            312.55
          ],
          [
            1.934366,
            43.269653,
            309.18
          ],
          [
            1.934423,
            43.269954,
            310.41
          ],
          [
            1.934396,
            43.269999,
            309.72
          ],
          [
            1.934152,
            43.27019,
            306.01
          ],
          [
            1.933873,
            43.270555,
            299.98
          ],
          [
            1.933916,
            43.270748,
            295.36
          ],
          [
            1.933873,
            43.270769,
            295.21
          ],
          [
            1.933379,
            43.27137,
            299.07
          ],
          [
            1.932843,
            43.271585,
            302.21
          ],
          [
            1.932499,
            43.271928,
            305.25
          ],
          [
            1.932371,
            43.272142,
            306.45
          ],
          [
            1.932371,
            43.272194,
            306.62
          ],
          [
            1.932698,
            43.272737,
            305.27
          ],
          [
            1.932875,
            43.272847,
            304.45
          ],
          [
            1.933129,
            43.272964,
            303.34
          ],
          [
            1.933171,
            43.273025,
            302.98
          ],
          [
            1.933169,
            43.27311,
            302.55
          ],
          [
            1.933119,
            43.273177,
            302.17
          ],
          [
            1.933022,
            43.273239,
            301.72
          ],
          [
            1.932599,
            43.273365,
            302.03
          ],
          [
            1.932273,
            43.273536,
            304.66
          ],
          [
            1.932065,
            43.273678,
            307.06
          ],
          [
            1.931788,
            43.273789,
            310.01
          ],
          [
            1.931232,
            43.274099,
            318.16
          ],
          [
            1.93097,
            43.274193,
            322.31
          ],
          [
            1.930692,
            43.274251,
            322.31
          ],
          [
            1.930131,
            43.274241,
            320.37
          ],
          [
            1.929856,
            43.274277,
            318.87
          ],
          [
            1.929396,
            43.2743,
            315.36
          ],
          [
            1.92925,
            43.274331,
            314.49
          ],
          [
            1.929165,
            43.274362,
            313.93
          ],
          [
            1.929007,
            43.274494,
            311.48
          ],
          [
            1.928734,
            43.274647,
            308.04
          ],
          [
            1.928702,
            43.274747,
            305.49
          ],
          [
            1.928716,
            43.274819,
            302.38
          ],
          [
            1.928834,
            43.274973,
            295.43
          ],
          [
            1.928998,
            43.275142,
            290.09
          ],
          [
            1.929132,
            43.275261,
            288.56
          ],
          [
            1.9293,
            43.275385,
            286.75
          ],
          [
            1.929595,
            43.275572,
            286.79
          ],
          [
            1.930058,
            43.275847,
            289.81
          ],
          [
            1.930105,
            43.275891,
            290.21
          ],
          [
            1.93011,
            43.276153,
            291.03
          ],
          [
            1.930061,
            43.276233,
            290.74
          ],
          [
            1.930022,
            43.276275,
            290.4
          ],
          [
            1.929845,
            43.27643,
            287.82
          ],
          [
            1.929824,
            43.276469,
            287.04
          ],
          [
            1.929813,
            43.276542,
            285.5
          ],
          [
            1.929825,
            43.276578,
            284.68
          ],
          [
            1.929973,
            43.276748,
            279.79
          ],
          [
            1.930012,
            43.276836,
            277.39
          ],
          [
            1.930043,
            43.276879,
            276.18
          ],
          [
            1.930147,
            43.276964,
            273.0
          ],
          [
            1.930265,
            43.277127,
            266.69
          ],
          [
            1.930407,
            43.277193,
            262.62
          ],
          [
            1.930443,
            43.277217,
            261.49
          ],
          [
            1.93046,
            43.27724,
            260.73
          ],
          [
            1.930457,
            43.277271,
            259.82
          ],
          [
            1.930422,
            43.277346,
            257.87
          ],
          [
            1.930427,
            43.277394,
            256.69
          ],
          [
            1.930276,
            43.277428,
            256.18
          ],
          [
            1.929664,
            43.277648,
            252.42
          ],
          [
            1.929489,
            43.27768,
            251.87
          ],
          [
            1.929318,
            43.277692,
            251.52
          ],
          [
            1.928976,
            43.277698,
            251.11
          ],
          [
            1.928817,
            43.277713,
            251.09
          ],
          [
            1.928401,
            43.27779,
            251.03
          ],
          [
            1.928258,
            43.277852,
            250.87
          ],
          [
            1.928091,
            43.277947,
            250.49
          ],
          [
            1.927953,
            43.278081,
            249.84
          ],
          [
            1.927643,
            43.278434,
            246.47
          ],
          [
            1.927566,
            43.278505,
            245.47
          ],
          [
            1.927325,
            43.278597,
            242.85
          ],
          [
            1.927272,
            43.278636,
            242.15
          ],
          [
            1.927256,
            43.278701,
            241.27
          ],
          [
            1.927288,
            43.278805,
            239.97
          ],
          [
            1.927303,
            43.278952,
            238.6
          ],
          [
            1.927313,
            43.27898,
            238.55
          ],
          [
            1.927305,
            43.279181,
            238.95
          ],
          [
            1.92728,
            43.279273,
            239.05
          ],
          [
            1.927015,
            43.279564,
            238.83
          ],
          [
            1.926746,
            43.279926,
            237.12
          ],
          [
            1.926653,
            43.280024,
            236.24
          ],
          [
            1.926319,
            43.280279,
            234.66
          ],
          [
            1.926208,
            43.280386,
            234.12
          ],
          [
            1.925719,
            43.280994,
            232.12
          ],
          [
            1.925546,
            43.281155,
            230.84
          ],
          [
            1.925452,
            43.281223,
            229.85
          ],
          [
            1.925345,
            43.281237,
            229.26
          ],
          [
            1.925226,
            43.281215,
            228.49
          ],
          [
            1.925039,
            43.281131,
            227.24
          ],
          [
            1.924961,
            43.28112,
            227.06
          ],
          [
            1.924889,
            43.281139,
            227.0
          ],
          [
            1.924734,
            43.281383,
            226.59
          ],
          [
            1.924664,
            43.281547,
            225.99
          ],
          [
            1.924535,
            43.281911,
            224.48
          ],
          [
            1.924487,
            43.282145,
            223.45
          ],
          [
            1.924421,
            43.282306,
            222.6
          ],
          [
            1.924081,
            43.282866,
            219.54
          ],
          [
            1.924005,
            43.283056,
            218.56
          ],
          [
            1.923944,
            43.283377,
            216.98
          ],
          [
            1.923939,
            43.283584,
            216.04
          ],
          [
            1.923797,
            43.283614,
            216.07
          ],
          [
            1.923335,
            43.284171,
            213.52
          ],
          [
            1.922739,
            43.28466,
            211.12
          ],
          [
            1.922453,
            43.285029,
            209.72
          ],
          [
            1.922439,
            43.285104,
            209.29
          ],
          [
            1.922561,
            43.285273,
            210.86
          ],
          [
            1.922455,
            43.285307,
            209.76
          ],
          [
            1.922246,
            43.285579,
            207.7
          ],
          [
            1.922029,
            43.28578,
            206.77
          ],
          [
            1.921853,
            43.286146,
            204.96
          ],
          [
            1.921821,
            43.286262,
            204.56
          ],
          [
            1.921814,
            43.286369,
            204.55
          ],
          [
            1.921927,
            43.286841,
            204.17
          ],
          [
            1.922017,
            43.286973,
            203.7
          ],
          [
            1.922245,
            43.287276,
            200.9
          ],
          [
            1.922305,
            43.287397,
            199.95
          ],
          [
            1.922303,
            43.287442,
            199.72
          ],
          [
            1.922262,
            43.287496,
            199.44
          ],
          [
            1.922232,
            43.287521,
            199.3
          ]
        ]
      }
    },
    {
      "type": "Feature",
      "properties": {
        "source": "Plateau_de_la_Piège.gpx",
        "type": "route"
      },
      "geometry": {
        "type": "LineString",
        "coordinates": [
          [
            1.934828,
            43.226818
          ],
          [
            1.934972,
            43.228225
          ],
          [
            1.935517,
            43.228841
          ],
          [
            1.935721,
            43.229118
          ],
          [
            1.935299,
            43.230477
          ],
          [
            1.937258,
            43.231057
          ],
          [
            1.938609,
            43.23335
          ],
          [
            1.937885,
            43.234273
          ],
          [
            1.939823,
            43.235608
          ],
          [
            1.940053,
            43.235867
          ],
          [
            1.943465,
            43.238594
          ],
          [
            1.942662,
            43.241733
          ],
          [
            1.944101,
            43.246159
          ],
          [
            1.943285,
            43.246374
          ],
          [
            1.934987,
            43.249951
          ],
          [
            1.933067,
            43.250483
          ],
          [
            1.930664,
            43.253881
          ],
          [
            1.922513,
            43.253007
          ],
          [
            1.922513,
            43.253007
          ],
          [
            1.922972,
            43.253925
          ],
          [
            1.92463,
            43.257531
          ],
          [
            1.924841,
            43.258195
          ],
          [
            1.924262,
            43.258853
          ],
          [
            1.923754,
            43.260427
          ],
          [
            1.925189,
            43.261762
          ],
          [
            1.931054,
            43.266165
          ],
          [
            1.934049,
            43.267301
          ],
          [
            1.934097,
            43.268879
          ],
          [
            1.934366,
            43.269653
          ],
          [
            1.933916,
            43.270748
          ],
          [
            1.931232,
            43.274099
          ],
          [
            1.928734,
            43.274647
          ],
          [
            1.930427,
            43.277394
          ],
          [
            1.925719,
            43.280994
          ],
          [
            1.923939,
            43.283584
          ],
          [
            1.922439,
            43.285104
          ],
          [
            1.922561,
            43.285273
          ],
          [
            1.921821,
            43.286262
          ],
          [
            1.922232,
            43.287521
          ]
        ]
      }
    }
  ]
}