{
  "type": "FeatureCollection",
  "features": [
    {
      "type": "Feature",
      "properties": {
        "name": "GraphHopper Track",
        "source": "Albas_Village.gpx",
        "type": "track"
      },
      "geometry": {
        "type": "LineString",
        "coordinates": [
          [
            1.235796,
            44.469554,
            127.36
          ],
          [
            1.235875,
            44.46936,
            125.59
          ],
          [
            1.236005,
            44.469355,
            121.56
          ],
          [
            1.236061,
            44.469168,
            121.44
          ],
          [
            1.236143,
            44.469022,
            121.03
          ],
          [
            1.236544,
            44.468433,
            120.43
          ],
          [
            1.236625,
            44.468462,
            120.03
          ],
          [
            1.236665,
            44.468522,
            119.55
          ],
          [
            1.236509,
            44.468976,
            115.62
          ],
          [
            1.236271,
            44.469506,
            108.41
          ],
          [
            1.236265,
            44.469578,
            107.31
          ],
          [
            1.236349,
            44.469811,
            102.74
          ],
          [
            1.236371,
            44.469924,
            99.01
          ],
          [
            1.236349,
            44.470025,
            97.74
          ],
          [
            1.235952,
            44.470561,
            98.0
          ],
          [
            1.235472,
            44.471168,
            96.11
          ],
          [
            1.23542,
            44.471302,
            94.44
          ],
          [
            1.236888,
            44.471945,
            96.55
          ],
          [
            1.237061,
            44.471781,
            96.3
          ],
          [
            1.237925,
            44.470564,
            95.85
          ],
          [
            1.238042,
            44.470506,
            96.15
          ],
          [
            1.238241,
            44.470556,
            96.69
          ],
          [
            1.238374,
            44.470625,
            97.24
          ],
          [
            1.238374,
            44.470625,
            97.24
          ],
          [
            1.238241,
            44.470556,
            96.69
          ],
          [
            1.238042,
            44.470506,
            96.15
          ],
          [
            1.237925,
            44.470564,
            95.85
          ],
          [
            1.237061,
            44.471781,
            96.3
          ],
          [
            1.236888,
            44.471945,
            96.55
          ],
          [
            1.23542,
            44.471302,
            94.44
          ],
          [
            1.235472,
            44.471168,
            96.11
          ],
          [
            1.235952,
            44.470561,
            98.0
          ],
          [
            1.236349,
            44.470025,
            97.74
          ],
          [
            1.236371,
            44.469924,
            99.01
          ],
          [
            1.236349,
            44.469811,
            102.74
          ],
          [
            1.236265,
            44.469578,
            107.31
          ],
          [
            1.236271,
            44.469506,
            108.41
          ],
          [
            1.236509,
            44.468976,
            115.62
          ],
          [
            1.236665,
            44.468522,
            119.55
          ],
          [
            1.236625,
            44.468462,
            120.03
          ],
          [
            1.236544,
            44.468433,
            120.43
          ],
          [
            1.236143,
            44.469022,
            121.03
          ],
          [
            1.236061,
            44.469168,
            121.44
          ],
          [
            1.236005,
            44.469355,
            121.56
          ],
          [
            1.235875,
            44.46936,
            125.59
          ],
          [
            1.235796,
            44.469554,
            127.36
          ]
        ]
      }
    },
    {
      "type": "Feature",
      "properties": {
        "source": "Albas_Village.gpx",
        "type": "route"
      },
      "geometry": {
        "type": "LineString",
        "coordinates": [
          [
            1.235796,
            44.469554
          ],
          [
            1.236005,
            44.469355
          ],
          [
            1.236544,
            44.468433
          ],
          [
            1.236665,
            44.468522
          ],
          [
            1.23542,
            44.471302
          ],
          [
            1.236888,
            44.471945
          ],
          [
            1.238374,
            44.470625
          ],
          [
            1.238374,
            44.470625
          ],
          [
            1.236888,
            44.471945
          ],
          [
            1.23542,
            44.471302
          ],
          [
            1.236665,
            44.468522
          ],
          [
            1.236544,
            44.468433
          ],
          [
            1.236005,
            44.469355
          ],
          [
            1.235796,
            44.469554
          ]
        ]
      }
    }
  ]
}