{
  "type": "FeatureCollection",
  "features": [
    {
      "type": "Feature",
      "properties": {
        "name": "GraphHopper Track",
        "source": "Massif_de_la_Clape.gpx",
        "type": "track"
      },
      "geometry": {
        "type": "LineString",
        "coordinates": [
          [
            3.185665,
            43.211461,
            19.38
          ],
          [
            3.186403,
            43.211231,
            19.52
          ],
          [
            3.18668,
            43.211137,
            19.0
          ],
          [
            3.186819,
            43.211062,
            18.76
          ],
          [
            3.186942,
            43.210985,
            18.51
          ],
          [
            3.187231,
            43.210915,
            17.67
          ],
          [
            3.187352,
            43.210898,
            16.97
          ],
          [
            3.187547,
            43.210839,
            15.84
          ],
          [
            3.187436,
            43.211045,
            14.52
          ],
          [
            3.187302,
            43.211655,
            12.34
          ],
          [
            3.187216,
            43.211886,
            11.99
          ],
          [
            3.187199,
            43.212057,
            11.86
          ],
          [
            3.187264,
            43.212292,
            11.86
          ],
          [
            3.187435,
            43.212788,
            12.3
          ],
          [
            3.187441,
            43.212964,
            12.6
          ],
          [
            3.187328,
            43.213113,
            13.01
          ],
          [
            3.187167,
            43.213214,
            13.52
          ],
          [
            3.186963,
            43.213293,
            14.18
          ],
          [
            3.18639,
            43.213442,
            16.3
          ],
          [
            3.186303,
            43.213547,
            16.76
          ],
          [
            3.186336,
            43.214012,
            17.34
          ],
          [
            3.186421,
            43.214215,
            17.21
          ],
          [
            3.186384,
            43.214661,
            15.41
          ],
          [
            3.186488,
            43.21476,
            15.2
          ],
          [
            3.186716,
            43.214682,
            14.36
          ],
          [
            3.187343,
            43.21454,
            12.7
          ],
          [
            3.187891,
            43.214428,
            11.24
          ],
          [
            3.188164,
            43.214384,
            10.5
          ],
          [
            3.188164,
            43.214384,
            10.5
          ],
          [
            3.188395,
            43.214347,
            9.87
          ],
          [
            3.189,
            43.214299,
            8.38
          ],
          [
            3.189716,
            43.214273,
            6.66
          ],
          [
            3.190374,
            43.214283,
            5.33
          ],
          [
            3.191023,
            43.214273,
            4.11
          ],
          [
            3.191717,
            43.214247,
            3.27
          ],
          [
            3.192702,
            43.214238,
            2.42
          ],
          [
            3.193016,
            43.214222,
            2.2
          ],
          [
            3.193325,
            43.214225,
            1.94
          ],
          [
            3.193785,
            43.21417,
            1.63
          ],
          [
            3.194131,
            43.214137,
            1.07
          ],
          [
            3.194492,
            43.213537,
            1.02
          ],
          [
            3.19458,
            43.213239,
            1.01
          ],
          [
            3.194712,
            43.212096,
            1.01
          ],
          [
            3.194704,
            43.211738,
            1.06
          ],
          [
            3.194684,
            43.211544,
            1.15
          ]
        ]
      }
    },
    {
      "type": "Feature",
      "properties": {
        "source": "Massif_de_la_Clape.gpx",
        "type": "route"
      },
      "geometry": {
        "type": "LineString",
        "coordinates": [
          [
            3.185665,
            43.211461
          ],
          [
            3.187547,
            43.210839
          ],
          [
            3.186488,
            43.21476
          ],
          [
            3.188164,
            43.214384
          ],
          [
            3.188164,
            43.214384
          ],
          [
            3.194131,
            43.214137
          ],
          [
            3.194684,
            43.211544
          ]
        ]
      }
    }
  ]
}