{
  "type": "FeatureCollection",
  "features": [
    {
      "type": "Feature",
      "properties": {
        "name": "GraphHopper Track",
        "source": "Boucle_du_Pech.gpx",
        "type": "track"
      },
      "geometry": {
        "type": "LineString",
        "coordinates": [
          [
            2.092503,
            43.058468,
            299.83
          ],
          [
            2.092616,
            43.058474,
            299.94
          ],
          [
            2.093636,
            43.058618,
            302.77
          ],
          [
            2.093759,
            43.058583,
            303.21
          ],
          [
            2.093852,
            43.058485,
            303.9
          ],
          [
            2.094007,
            43.058374,
            305.08
          ],
          [
            2.093979,
            43.058476,
            304.64
          ],
          [
            2.093979,
            43.058592,
            304.7
          ],
          [
            2.094071,
            43.058715,
            304.6
          ],
          [
            2.094348,
            43.058923,
            304.23
          ],
          [
            2.093459,
            43.059695,
            301.44
          ],
          [
            2.091354,
            43.061582,
            296.46
          ],
          [
            2.090834,
            43.062115,
            292.86
          ],
          [
            2.090775,
            43.062269,
            292.02
          ],
          [
            2.090725,
            43.062887,
            289.38
          ],
          [
            2.090733,
            43.063592,
            288.13
          ],
          [
            2.090834,
            43.064015,
            288.24
          ],
          [
            2.090943,
            43.06418,
            288.49
          ],
          [
            2.09169,
            43.064934,
            291.21
          ],
          [
            2.092369,
            43.065565,
            295.18
          ],
          [
            2.093031,
            43.066055,
            299.41
          ],
          [
            2.093199,
            43.066207,
            300.71
          ],
          [
            2.093503,
            43.066511,
            299.59
          ],
          [
            2.09356,
            43.066612,
            299.0
          ],
          [
            2.093571,
            43.066672,
            298.7
          ],
          [
            2.093537,
            43.066739,
            298.35
          ],
          [
            2.093432,
            43.066798,
            297.9
          ],
          [
            2.092721,
            43.067023,
            295.04
          ],
          [
            2.092436,
            43.067127,
            293.87
          ],
          [
            2.092318,
            43.067255,
            293.02
          ],
          [
            2.092125,
            43.067494,
            291.28
          ],
          [
            2.091975,
            43.067611,
            290.13
          ],
          [
            2.09174,
            43.06777,
            288.47
          ],
          [
            2.091555,
            43.068076,
            285.47
          ],
          [
            2.091515,
            43.06828,
            283.68
          ],
          [
            2.09611,
            43.066375,
            276.52
          ],
          [
            2.097096,
            43.065887,
            272.39
          ],
          [
            2.09774,
            43.065488,
            270.92
          ],
          [
            2.098188,
            43.065221,
            269.77
          ],
          [
            2.098188,
            43.065221,
            269.77
          ],
          [
            2.09774,
            43.065488,
            270.92
          ],
          [
            2.097096,
            43.065887,
            272.39
          ],
          [
            2.09611,
            43.066375,
            276.52
          ],
          [
            2.091515,
            43.06828,
            283.68
          ],
          [
            2.091555,
            43.068076,
            285.47
          ],
          [
            2.09174,
            43.06777,
            288.47
          ],
          [
            2.091975,
            43.067611,
            290.13
          ],
          [
            2.092125,
            43.067494,
            291.28
          ],
          [
            2.092318,
            43.067255,
            293.02
          ],
          [
            2.092436,
            43.067127,
            293.87
          ],
          [
            2.092721,
            43.067023,
            295.04
          ],
          [
            2.093432,
            43.066798,
            297.9
          ],
          [
            2.093537,
            43.066739,
            298.35
          ],
          [
            2.093571,
            43.066672,
            298.7
          ],
          [
            2.09356,
            43.066612,
            299.0
          ],
          [
            2.093503,
            43.066511,
            299.59
          ],
          [
            2.093199,
            43.066207,
            300.71
          ],
          [
            2.093031,
            43.066055,
            299.41
          ],
          [
            2.092369,
            43.065565,
            295.18
          ],
          [
            2.09169,
            43.064934,
            291.21
          ],
          [
            2.090943,
            43.06418,
            288.49
          ],
          [
            2.090834,
            43.064015,
            288.24
          ],
          [
            2.090733,
            43.063592,
            288.13
          ],
          [
            2.090725,
            43.062887,
            289.38
          ],
          [
            2.090775,
            43.062269,
            292.02
          ],
          [
            2.090834,
            43.062115,
            292.86
          ],
          [
            2.091354,
            43.061582,
            296.46
          ],
          [
            2.093459,
            43.059695,
            301.44
          ],
          [
            2.094348,
            43.058923,
            304.23
          ],
          [
            2.094071,
            43.058715,
            304.6
          ],
          [
            2.093979,
            43.058592,
            304.7
          ],
          [
            2.093979,
            43.058476,
            304.64
          ],
          [
            2.094007,
            43.058374,
            305.08
          ],
          [
            2.093852,
            43.058485,
            303.9
          ],
          [
            2.093759,
            43.058583,
            303.21
          ],
          [
            2.093636,
            43.058618,
            302.77
          ],
          [
            2.092616,
            43.058474,
            299.94
          ],
          [
            2.092503,
            43.058468,
            299.83
          ]
        ]
      }
    },
    {
      "type": "Feature",
      "properties": {
        "source": "Boucle_du_Pech.gpx",
        "type": "route"
      },
      "geometry": {
        "type": "LineString",
        "coordinates": [
          [
            2.092503,
            43.058468
          ],
          [
            2.094007,
            43.058374
          ],
          [
            2.094348,
            43.058923
          ],
          [
            2.091515,
            43.06828
          ],
          [
            2.098188,
            43.065221
          ],
          [
            2.098188,
            43.065221
          ],
          [
            2.091515,
            43.06828
          ],
          [
            2.094348,
            43.058923
          ],
          [
            2.094007,
            43.058374
          ],
          [
            2.092503,
            43.058468
          ]
        ]
      }
    }
  ]
}