{
  "type": "FeatureCollection",
  "features": [
    {
      "type": "Feature",
      "properties": {
        "name": "GraphHopper Track",
        "source": "Villelongue__Ajac.gpx",
        "type": "track"
      },
      "geometry": {
        "type": "LineString",
        "coordinates": [
          [
            2.095422,
            43.055469,
            312.78
          ],
          [
            2.095385,
            43.055371,
            314.12
          ],
          [
            2.095138,
            43.055439,
            313.06
          ],
          [
            2.095096,
            43.055523,
            312.45
          ],
          [
            2.095054,
            43.055744,
            311.74
          ],
          [
            2.095319,
            43.056036,
            313.29
          ],
          [
            2.095646,
            43.056419,
            313.28
          ],
          [
            2.095726,
            43.056461,
            312.93
          ],
          [
            2.095942,
            43.056511,
            310.65
          ],
          [
            2.095969,
            43.056542,
            310.27
          ],
          [
            2.096141,
            43.056607,
            308.76
          ],
          [
            2.096274,
            43.056701,
            306.43
          ],
          [
            2.096327,
            43.056758,
            305.31
          ],
          [
            2.096356,
            43.056863,
            303.69
          ],
          [
            2.096355,
            43.057298,
            297.09
          ],
          [
            2.09694,
            43.05753,
            293.04
          ],
          [
            2.097095,
            43.057547,
            292.07
          ],
          [
            2.098184,
            43.057547,
            285.96
          ],
          [
            2.098682,
            43.0576,
            283.66
          ],
          [
            2.099073,
            43.057585,
            282.0
          ],
          [
            2.09926,
            43.057526,
            281.2
          ],
          [
            2.09952,
            43.057482,
            280.24
          ],
          [
            2.10003,
            43.05743,
            278.44
          ],
          [
            2.100516,
            43.057416,
            276.59
          ],
          [
            2.100687,
            43.057443,
            275.89
          ],
          [
            2.101991,
            43.057721,
            270.36
          ],
          [
            2.102251,
            43.057849,
            269.23
          ],
          [
            2.102404,
            43.05791,
            268.66
          ],
          [
            2.10256,
            43.057922,
            268.16
          ],
          [
            2.10274,
            43.057922,
            267.59
          ],
          [
            2.10375,
            43.057975,
            264.61
          ],
          [
            2.104144,
            43.05805,
            263.43
          ],
          [
            2.104402,
            43.058119,
            262.69
          ],
          [
            2.104805,
            43.058334,
            261.39
          ],
          [
            2.105162,
            43.058488,
            260.46
          ],
          [
            2.105269,
            43.058499,
            260.23
          ],
          [
            2.105386,
            43.058492,
            259.98
          ],
          [
            2.105947,
            43.058419,
            258.9
          ],
          [
            2.106282,
            43.058335,
            258.08
          ],
          [
            2.106315,
            43.058304,
            258.18
          ],
          [
            2.106622,
            43.058463,
            258.11
          ],
          [
            2.106977,
            43.058767,
            258.59
          ],
          [
            2.107223,
            43.05896,
            259.22
          ],
          [
            2.107553,
            43.059147,
            260.87
          ],
          [
            2.108017,
            43.059283,
            264.55
          ],
          [
            2.108126,
            43.05936,
            265.7
          ],
          [
            2.108109,
            43.05945,
            266.63
          ],
          [
            2.108024,
            43.059585,
            268.08
          ],
          [
            2.107993,
            43.059679,
            268.98
          ],
          [
            2.108054,
            43.059736,
            269.8
          ],
          [
            2.108457,
            43.059804,
            272.89
          ],
          [
            2.108855,
            43.059836,
            272.96
          ],
          [
            2.1089,
            43.059851,
            273.08
          ],
          [
            2.108968,
            43.060084,
            272.3
          ],
          [
            2.109092,
            43.060183,
            270.78
          ],
          [
            2.109393,
            43.060272,
            268.47
          ],
          [
            2.1104,
            43.060526,
            261.19
          ],
          [
            2.110468,
            43.060667,
            259.91
          ],
          [
            2.110472,
            43.061222,
            256.01
          ],
          [
            2.110395,
            43.061227,
            256.0
          ],
          [
            2.11042,
            43.061529,
            256.0
          ],
          [
            2.11048,
            43.061529,
            256.0
          ],
          [
            2.110521,
            43.061801,
            255.7
          ],
          [
            2.110539,
            43.061827,
            255.58
          ],
          [
            2.110585,
            43.061841,
            255.4
          ],
          [
            2.110634,
            43.061843,
            255.22
          ],
          [
            2.110672,
            43.061864,
            255.14
          ],
          [
            2.110806,
            43.06219,
            253.29
          ],
          [
            2.110595,
            43.062252,
            254.47
          ],
          [
            2.110581,
            43.062289,
            254.02
          ],
          [
            2.110605,
            43.062411,
            254.31
          ],
          [
            2.11067,
            43.062395,
            253.96
          ],
          [
            2.110831,
            43.062375,
            254.11
          ],
          [
            2.111146,
            43.062534,
            255.89
          ],
          [
            2.111188,
            43.062574,
            256.05
          ],
          [
            2.111225,
            43.062654,
            256.39
          ],
          [
            2.111592,
            43.062713,
            256.86
          ],
          [
            2.111573,
            43.062751,
            257.01
          ],
          [
            2.111571,
            43.062992,
            258.36
          ],
          [
            2.111822,
            43.063222,
            258.9
          ],
          [
            2.112098,
            43.063254,
            258.19
          ],
          [
            2.112591,
            43.063187,
            255.93
          ],
          [
            2.112615,
            43.063319,
            256.85
          ],
          [
            2.112874,
            43.063377,
            256.79
          ],
          [
            2.112943,
            43.063386,
            256.74
          ],
          [
            2.114133,
            43.063442,
            255.0
          ],
          [
            2.115448,
            43.063643,
            253.29
          ],
          [
            2.116659,
            43.063847,
            250.86
          ],
          [
            2.117222,
            43.063998,
            250.2
          ],
          [
            2.117769,
            43.064165,
            250.01
          ],
          [
            2.118471,
            43.064265,
            250.12
          ],
          [
            2.119646,
            43.064497,
            252.0
          ],
          [
            2.119845,
            43.064565,
            252.47
          ],
          [
            2.119922,
            43.064617,
            253.02
          ],
          [
            2.119963,
            43.064682,
            253.45
          ],
          [
            2.120207,
            43.065275,
            255.34
          ],
          [
            2.120439,
            43.065706,
            258.75
          ],
          [
            2.120487,
            43.065763,
            259.28
          ],
          [
            2.120584,
            43.065783,
            259.95
          ],
          [
            2.120749,
            43.065744,
            260.97
          ],
          [
            2.121027,
            43.065705,
            262.82
          ],
          [
            2.121153,
            43.065733,
            263.86
          ],
          [
            2.121262,
            43.065767,
            265.22
          ],
          [
            2.121252,
            43.065792,
            265.17
          ],
          [
            2.121282,
            43.065894,
            265.8
          ],
          [
            2.121352,
            43.066296,
            268.69
          ],
          [
            2.121468,
            43.066586,
            270.69
          ],
          [
            2.121538,
            43.066715,
            271.58
          ],
          [
            2.121644,
            43.066803,
            272.33
          ],
          [
            2.12183,
            43.066897,
            273.91
          ],
          [
            2.122742,
            43.067418,
            281.34
          ],
          [
            2.122811,
            43.067449,
            281.92
          ],
          [
            2.122874,
            43.067503,
            282.64
          ],
          [
            2.122898,
            43.067593,
            283.64
          ],
          [
            2.122921,
            43.067922,
            287.78
          ],
          [
            2.123016,
            43.068665,
            300.77
          ],
          [
            2.122982,
            43.068759,
            302.65
          ],
          [
            2.122905,
            43.068844,
            304.49
          ],
          [
            2.12259,
            43.069013,
            308.61
          ],
          [
            2.122504,
            43.069068,
            309.53
          ],
          [
            2.122474,
            43.069124,
            310.1
          ],
          [
            2.122496,
            43.069165,
            310.48
          ],
          [
            2.122597,
            43.069178,
            311.04
          ],
          [
            2.122663,
            43.069218,
            311.43
          ],
          [
            2.122671,
            43.069276,
            311.74
          ],
          [
            2.122645,
            43.069361,
            312.09
          ],
          [
            2.122446,
            43.069767,
            312.15
          ],
          [
            2.122284,
            43.070065,
            312.4
          ],
          [
            2.122019,
            43.07029,
            313.57
          ],
          [
            2.121691,
            43.070628,
            316.24
          ],
          [
            2.121487,
            43.070819,
            317.93
          ],
          [
            2.121415,
            43.070929,
            318.21
          ],
          [
            2.121228,
            43.071028,
            319.32
          ],
          [
            2.121144,
            43.071134,
            321.47
          ],
          [
            2.120856,
            43.072065,
            339.84
          ],
          [
            2.120794,
            43.072193,
            340.68
          ],
          [
            2.120739,
            43.072225,
            339.52
          ],
          [
            2.120652,
            43.072424,
            336.97
          ],
          [
            2.120671,
            43.072876,
            331.1
          ],
          [
            2.120596,
            43.073176,
            327.32
          ],
          [
            2.12045,
            43.074007,
            317.64
          ],
          [
            2.120435,
            43.074157,
            316.02
          ],
          [
            2.120455,
            43.074262,
            314.92
          ],
          [
            2.120515,
            43.074409,
            313.34
          ],
          [
            2.120543,
            43.074532,
            312.09
          ],
          [
            2.120609,
            43.075193,
            305.66
          ],
          [
            2.120582,
            43.075564,
            302.38
          ],
          [
            2.120516,
            43.076073,
            297.91
          ],
          [
            2.120398,
            43.076459,
            293.24
          ],
          [
            2.12027,
            43.076769,
            290.2
          ],
          [
            2.120077,
            43.077188,
            286.65
          ],
          [
            2.119981,
            43.077213,
            286.56
          ],
          [
            2.119985,
            43.077266,
            285.87
          ],
          [
            2.119949,
            43.077366,
            284.96
          ],
          [
            2.119748,
            43.077619,
            284.99
          ],
          [
            2.119594,
            43.077753,
            285.33
          ],
          [
            2.119556,
            43.07785,
            285.01
          ],
          [
            2.119555,
            43.077948,
            283.66
          ],
          [
            2.119512,
            43.078031,
            282.69
          ],
          [
            2.119316,
            43.078296,
            280.01
          ],
          [
            2.119196,
            43.078345,
            279.45
          ],
          [
            2.119171,
            43.078432,
            278.2
          ],
          [
            2.119157,
            43.078553,
            275.43
          ],
          [
            2.118908,
            43.078683,
            274.05
          ],
          [
            2.118864,
            43.078686,
            274.53
          ],
          [
            2.118634,
            43.078851,
            270.3
          ],
          [
            2.118358,
            43.079171,
            261.99
          ],
          [
            2.118234,
            43.079382,
            256.87
          ],
          [
            2.118026,
            43.079503,
            254.36
          ],
          [
            2.118116,
            43.079575,
            253.18
          ],
          [
            2.118168,
            43.079671,
            252.56
          ],
          [
            2.118179,
            43.079796,
            252.79
          ],
          [
            2.118215,
            43.079823,
            253.03
          ],
          [
            2.118149,
            43.079899,
            253.68
          ],
          [
            2.11798,
            43.080309,
            255.97
          ],
          [
            2.117978,
            43.080474,
            255.45
          ],
          [
            2.117782,
            43.080613,
            254.72
          ],
          [
            2.117651,
            43.080734,
            254.88
          ],
          [
            2.117602,
            43.080938,
            255.94
          ],
          [
            2.117396,
            43.081056,
            256.94
          ],
          [
            2.117359,
            43.081152,
            257.66
          ],
          [
            2.117727,
            43.081551,
            262.7
          ],
          [
            2.117759,
            43.081763,
            265.15
          ],
          [
            2.117732,
            43.081924,
            266.93
          ],
          [
            2.117406,
            43.082461,
            272.91
          ],
          [
            2.117321,
            43.082825,
            276.27
          ],
          [
            2.117321,
            43.083106,
            279.51
          ],
          [
            2.117651,
            43.08349,
            279.77
          ],
          [
            2.118336,
            43.084232,
            279.92
          ],
          [
            2.118626,
            43.084457,
            281.33
          ],
          [
            2.119185,
            43.084707,
            284.49
          ],
          [
            2.119317,
            43.084781,
            284.79
          ],
          [
            2.119352,
            43.084856,
            283.9
          ],
          [
            2.119945,
            43.085678,
            268.11
          ],
          [
            2.120303,
            43.086009,
            265.14
          ],
          [
            2.120573,
            43.086284,
            265.52
          ],
          [
            2.120953,
            43.086517,
            266.45
          ],
          [
            2.121269,
            43.086684,
            267.74
          ],
          [
            2.121472,
            43.0869,
            269.19
          ],
          [
            2.121629,
            43.087267,
            271.79
          ],
          [
            2.121777,
            43.08766,
            274.99
          ],
          [
            2.122112,
            43.088436,
            281.11
          ],
          [
            2.122466,
            43.088843,
            282.75
          ],
          [
            2.122737,
            43.089311,
            282.86
          ],
          [
            2.122905,
            43.089562,
            282.22
          ],
          [
            2.123842,
            43.090233,
            278.08
          ],
          [
            2.12456,
            43.090644,
            275.32
          ],
          [
            2.124946,
            43.090806,
            273.41
          ],
          [
            2.125889,
            43.090964,
            268.13
          ],
          [
            2.126669,
            43.091211,
            264.76
          ],
          [
            2.127847,
            43.091606,
            266.24
          ],
          [
            2.127973,
            43.092191,
            266.44
          ],
          [
            2.128079,
            43.093372,
            262.47
          ],
          [
            2.128201,
            43.093833,
            257.5
          ],
          [
            2.12843,
            43.094569,
            249.2
          ],
          [
            2.128562,
            43.094908,
            247.0
          ],
          [
            2.128659,
            43.095121,
            246.74
          ],
          [
            2.129112,
            43.095957,
            242.88
          ],
          [
            2.129161,
            43.096128,
            242.05
          ],
          [
            2.129153,
            43.096364,
            240.93
          ],
          [
            2.129129,
            43.096503,
            240.32
          ],
          [
            2.129134,
            43.096823,
            239.0
          ],
          [
            2.128974,
            43.097649,
            235.13
          ],
          [
            2.128903,
            43.097777,
            234.17
          ],
          [
            2.128713,
            43.098032,
            231.84
          ],
          [
            2.128656,
            43.098127,
            231.03
          ],
          [
            2.128645,
            43.098252,
            230.1
          ],
          [
            2.128725,
            43.098523,
            228.19
          ],
          [
            2.128732,
            43.098619,
            227.67
          ],
          [
            2.128599,
            43.099026,
            226.57
          ],
          [
            2.128509,
            43.099417,
            227.63
          ],
          [
            2.128423,
            43.099705,
            229.32
          ],
          [
            2.128246,
            43.100096,
            233.16
          ],
          [
            2.128178,
            43.100321,
            235.84
          ],
          [
            2.128121,
            43.100552,
            238.73
          ],
          [
            2.128067,
            43.100892,
            243.01
          ],
          [
            2.127961,
            43.101294,
            247.14
          ],
          [
            2.127909,
            43.101648,
            248.83
          ],
          [
            2.127841,
            43.10185,
            249.07
          ],
          [
            2.127844,
            43.101962,
            249.0
          ],
          [
            2.127877,
            43.102184,
            248.45
          ],
          [
            2.127955,
            43.102407,
            247.27
          ],
          [
            2.128042,
            43.102554,
            246.34
          ],
          [
            2.128121,
            43.102657,
            245.64
          ],
          [
            2.128118,
            43.102714,
            245.31
          ],
          [
            2.128105,
            43.102752,
            245.07
          ],
          [
            2.127659,
            43.10295,
            242.79
          ],
          [
            2.12663,
            43.10351,
            238.25
          ],
          [
            2.126519,
            43.103599,
            237.74
          ],
          [
            2.126212,
            43.103947,
            235.88
          ],
          [
            2.126019,
            43.104275,
            233.97
          ],
          [
            2.125931,
            43.104602,
            231.94
          ],
          [
            2.126,
            43.10473,
            231.44
          ],
          [
            2.126058,
            43.104796,
            231.19
          ],
          [
            2.126095,
            43.104908,
            231.0
          ],
          [
            2.126222,
            43.10607,
            237.99
          ],
          [
            2.126259,
            43.106316,
            240.39
          ],
          [
            2.126296,
            43.106435,
            242.05
          ],
          [
            2.126349,
            43.106539,
            243.95
          ],
          [
            2.126439,
            43.106645,
            246.21
          ],
          [
            2.126622,
            43.106648,
            246.53
          ],
          [
            2.126866,
            43.106613,
            245.96
          ],
          [
            2.127369,
            43.106461,
            243.61
          ],
          [
            2.127513,
            43.10641,
            242.69
          ],
          [
            2.127622,
            43.106422,
            242.09
          ],
          [
            2.127689,
            43.106438,
            242.02
          ],
          [
            2.12778,
            43.106479,
            242.53
          ],
          [
            2.127975,
            43.106681,
            246.9
          ],
          [
            2.128052,
            43.10672,
            248.07
          ],
          [
            2.128451,
            43.106862,
            252.62
          ],
          [
            2.128532,
            43.106881,
            253.54
          ],
          [
            2.128634,
            43.10689,
            254.46
          ],
          [
            2.128827,
            43.106924,
            255.7
          ],
          [
            2.128963,
            43.106963,
            256.27
          ],
          [
            2.129031,
            43.107003,
            256.76
          ],
          [
            2.130193,
            43.106863,
            255.61
          ],
          [
            2.131215,
            43.106812,
            252.76
          ],
          [
            2.131335,
            43.106794,
            252.3
          ],
          [
            2.131627,
            43.106726,
            251.02
          ],
          [
            2.131764,
            43.106666,
            250.27
          ],
          [
            2.131884,
            43.106589,
            249.49
          ],
          [
            2.132032,
            43.106552,
            248.77
          ],
          [
            2.132195,
            43.106557,
            248.11
          ],
          [
            2.132334,
            43.106587,
            247.55
          ],
          [
            2.132435,
            43.106639,
            246.95
          ],
          [
            2.132515,
            43.106707,
            246.39
          ],
          [
            2.132617,
            43.106699,
            246.11
          ],
          [
            2.13283,
            43.106667,
            245.89
          ],
          [
            2.132914,
            43.10663,
            245.67
          ],
          [
            2.132952,
            43.106651,
            245.44
          ],
          [
            2.133202,
            43.106641,
            245.24
          ],
          [
            2.135656,
            43.106432,
            241.97
          ],
          [
            2.135656,
            43.106432,
            241.97
          ],
          [
            2.133202,
            43.106641,
            245.24
          ],
          [
            2.132952,
            43.106651,
            245.44
          ],
          [
            2.132914,
            43.10663,
            245.67
          ],
          [
            2.13283,
            43.106667,
            245.89
          ],
          [
            2.132617,
            43.106699,
            246.11
          ],
          [
            2.132515,
            43.106707,
            246.39
          ],
          [
            2.132435,
            43.106639,
            246.95
          ],
          [
            2.132334,
            43.106587,
            247.55
          ],
          [
            2.132195,
            43.106557,
            248.11
          ],
          [
            2.132032,
            43.106552,
            248.77
          ],
          [
            2.131884,
            43.106589,
            249.49
          ],
          [
            2.131764,
            43.106666,
            250.27
          ],
          [
            2.131627,
            43.106726,
            251.02
          ],
          [
            2.131335,
            43.106794,
            252.3
          ],
          [
            2.131215,
            43.106812,
            252.76
          ],
          [
            2.130193,
            43.106863,
            255.61
          ],
          [
            2.129031,
            43.107003,
            256.76
          ],
          [
            2.128963,
            43.106963,
            256.27
          ],
          [
            2.128827,
            43.106924,
            255.7
          ],
          [
            2.128634,
            43.10689,
            254.46
          ],
          [
            2.128532,
            43.106881,
            253.54
          ],
          [
            2.128451,
            43.106862,
            252.62
          ],
          [
            2.128052,
            43.10672,
            248.07
          ],
          [
            2.127975,
            43.106681,
            246.9
          ],
          [
            2.12778,
            43.106479,
            242.53
          ],
          [
            2.127689,
            43.106438,
            242.02
          ],
          [
            2.127622,
            43.106422,
            242.09
          ],
          [
            2.127513,
            43.10641,
            242.69
          ],
          [
            2.127369,
            43.106461,
            243.61
          ],
          [
            2.126866,
            43.106613,
            245.96
          ],
          [
            2.126622,
            43.106648,
            246.53
          ],
          [
            2.126439,
            43.106645,
            246.21
          ],
          [
            2.126349,
            43.106539,
            243.95
          ],
          [
            2.126296,
            43.106435,
            242.05
          ],
          [
            2.126259,
            43.106316,
            240.39
          ],
          [
            2.126222,
            43.10607,
            237.99
          ],
          [
            2.126095,
            43.104908,
            231.0
          ],
          [
            2.126058,
            43.104796,
            231.19
          ],
          [
            2.126,
            43.10473,
            231.44
          ],
          [
            2.125931,
            43.104602,
            231.94
          ],
          [
            2.126019,
            43.104275,
            233.97
          ],
          [
            2.126212,
            43.103947,
            235.88
          ],
          [
            2.126519,
            43.103599,
            237.74
          ],
          [
            2.12663,
            43.10351,
            238.25
          ],
          [
            2.127659,
            43.10295,
            242.79
          ],
          [
            2.128105,
            43.102752,
            245.07
          ],
          [
            2.128118,
            43.102714,
            245.31
          ],
          [
            2.128121,
            43.102657,
            245.64
          ],
          [
            2.128042,
            43.102554,
            246.34
          ],
          [
            2.127955,
            43.102407,
            247.27
          ],
          [
            2.127877,
            43.102184,
            248.45
          ],
          [
            2.127844,
            43.101962,
            249.0
          ],
          [
            2.127841,
            43.10185,
            249.07
          ],
          [
            2.127909,
            43.101648,
            248.83
          ],
          [
            2.127961,
            43.101294,
            247.14
          ],
          [
            2.128067,
            43.100892,
            243.01
          ],
          [
            2.128121,
            43.100552,
            238.73
          ],
          [
            2.128178,
            43.100321,
            235.84
          ],
          [
            2.128246,
            43.100096,
            233.16
          ],
          [
            2.128423,
            43.099705,
            229.32
          ],
          [
            2.128509,
            43.099417,
            227.63
          ],
          [
            2.128599,
            43.099026,
            226.57
          ],
          [
            2.128732,
            43.098619,
            227.67
          ],
          [
            2.128725,
            43.098523,
            228.19
          ],
          [
            2.128645,
            43.098252,
            230.1
          ],
          [
            2.128656,
            43.098127,
            231.03
          ],
          [
            2.128713,
            43.098032,
            231.84
          ],
          [
            2.128903,
            43.097777,
            234.17
          ],
          [
            2.128974,
            43.097649,
            235.13
          ],
          [
            2.129134,
            43.096823,
            239.0
          ],
          [
            2.129129,
            43.096503,
            240.32
          ],
          [
            2.129153,
            43.096364,
            240.93
          ],
          [
            2.129161,
            43.096128,
            242.05
          ],
          [
            2.129112,
            43.095957,
            242.88
          ],
          [
            2.128659,
            43.095121,
            246.74
          ],
          [
            2.128562,
            43.094908,
            247.0
          ],
          [
            2.12843,
            43.094569,
            249.2
          ],
          [
            2.128201,
            43.093833,
            257.5
          ],
          [
            2.128079,
            43.093372,
            262.47
          ],
          [
            2.127973,
            43.092191,
            266.44
          ],
          [
            2.127847,
            43.091606,
            266.24
          ],
          [
            2.12749,
            43.090435,
            260.32
          ],
          [
            2.127483,
            43.090131,
            259.79
          ],
          [
            2.127461,
            43.089925,
            259.3
          ],
          [
            2.127026,
            43.088464,
            261.82
          ],
          [
            2.126843,
            43.087801,
            266.14
          ],
          [
            2.126727,
            43.087651,
            267.35
          ],
          [
            2.126414,
            43.087533,
            269.13
          ],
          [
            2.125738,
            43.087371,
            272.81
          ],
          [
            2.124898,
            43.087018,
            278.37
          ],
          [
            2.125325,
            43.086856,
            280.09
          ],
          [
            2.126039,
            43.086506,
            283.69
          ],
          [
            2.127073,
            43.086261,
            287.34
          ],
          [
            2.127662,
            43.086087,
            287.74
          ],
          [
            2.128171,
            43.085995,
            286.81
          ],
          [
            2.128845,
            43.085816,
            284.76
          ],
          [
            2.128952,
            43.085771,
            284.27
          ],
          [
            2.129061,
            43.085735,
            283.95
          ],
          [
            2.129681,
            43.084998,
            281.89
          ],
          [
            2.129846,
            43.084949,
            281.43
          ],
          [
            2.130422,
            43.084824,
            279.32
          ],
          [
            2.130995,
            43.084603,
            275.57
          ],
          [
            2.131282,
            43.084387,
            272.51
          ],
          [
            2.131729,
            43.083914,
            266.8
          ],
          [
            2.132348,
            43.083171,
            262.56
          ],
          [
            2.132502,
            43.082938,
            262.29
          ],
          [
            2.132525,
            43.082616,
            262.18
          ],
          [
            2.132612,
            43.082329,
            262.6
          ],
          [
            2.132686,
            43.082131,
            262.92
          ],
          [
            2.132811,
            43.081981,
            261.74
          ],
          [
            2.133246,
            43.081666,
            256.76
          ],
          [
            2.133618,
            43.081416,
            253.06
          ],
          [
            2.13415,
            43.081142,
            248.18
          ],
          [
            2.134672,
            43.080918,
            243.47
          ],
          [
            2.135142,
            43.080671,
            238.9
          ],
          [
            2.135517,
            43.080531,
            236.05
          ],
          [
            2.136883,
            43.080259,
            233.07
          ],
          [
            2.138069,
            43.079988,
            232.78
          ],
          [
            2.13911,
            43.079587,
            233.54
          ],
          [
            2.139963,
            43.07929,
            233.03
          ],
          [
            2.140628,
            43.079013,
            231.15
          ],
          [
            2.140916,
            43.078942,
            230.11
          ],
          [
            2.141517,
            43.078863,
            228.66
          ],
          [
            2.141613,
            43.078856,
            229.12
          ],
          [
            2.142174,
            43.078725,
            231.38
          ],
          [
            2.142786,
            43.078591,
            231.42
          ],
          [
            2.14311,
            43.078537,
            230.14
          ],
          [
            2.143334,
            43.078438,
            228.71
          ],
          [
            2.143436,
            43.078341,
            227.64
          ],
          [
            2.14342,
            43.078149,
            225.74
          ],
          [
            2.143279,
            43.077615,
            221.01
          ],
          [
            2.143288,
            43.077536,
            220.56
          ],
          [
            2.143337,
            43.077484,
            220.27
          ],
          [
            2.143544,
            43.077397,
            219.64
          ],
          [
            2.143814,
            43.077265,
            219.01
          ],
          [
            2.143995,
            43.077151,
            218.89
          ],
          [
            2.144208,
            43.076954,
            218.57
          ],
          [
            2.144284,
            43.076854,
            218.27
          ],
          [
            2.144334,
            43.076748,
            217.59
          ],
          [
            2.144314,
            43.076663,
            217.48
          ],
          [
            2.144195,
            43.076443,
            219.97
          ],
          [
            2.144211,
            43.076008,
            222.62
          ],
          [
            2.144353,
            43.075517,
            224.54
          ],
          [
            2.144568,
            43.075012,
            226.38
          ],
          [
            2.144895,
            43.07469,
            225.46
          ],
          [
            2.144953,
            43.074555,
            226.04
          ],
          [
            2.145011,
            43.073507,
            231.26
          ],
          [
            2.145177,
            43.073257,
            232.28
          ],
          [
            2.145418,
            43.072992,
            232.9
          ],
          [
            2.145731,
            43.072624,
            232.96
          ],
          [
            2.145922,
            43.072153,
            232.9
          ],
          [
            2.146353,
            43.071415,
            234.88
          ],
          [
            2.146962,
            43.070343,
            244.54
          ],
          [
            2.147024,
            43.070229,
            244.67
          ],
          [
            2.147127,
            43.070084,
            244.31
          ],
          [
            2.147234,
            43.069973,
            243.81
          ],
          [
            2.147347,
            43.069916,
            243.09
          ],
          [
            2.14712,
            43.069789,
            245.38
          ],
          [
            2.14661,
            43.069483,
            249.84
          ],
          [
            2.14643,
            43.069292,
            251.52
          ],
          [
            2.14597,
            43.068456,
            256.14
          ],
          [
            2.145831,
            43.068291,
            257.31
          ],
          [
            2.145735,
            43.068232,
            257.85
          ],
          [
            2.145535,
            43.068111,
            257.31
          ],
          [
            2.145368,
            43.06783,
            253.59
          ],
          [
            2.145195,
            43.067657,
            251.76
          ],
          [
            2.14505,
            43.067351,
            248.33
          ],
          [
            2.144958,
            43.067059,
            244.93
          ],
          [
            2.144785,
            43.066886,
            242.19
          ],
          [
            2.144725,
            43.066647,
            238.87
          ],
          [
            2.144543,
            43.066516,
            235.83
          ],
          [
            2.144319,
            43.066428,
            232.63
          ],
          [
            2.144067,
            43.066269,
            230.11
          ],
          [
            2.143602,
            43.065799,
            228.01
          ],
          [
            2.143643,
            43.065725,
            227.65
          ],
          [
            2.145075,
            43.064894,
            220.48
          ],
          [
            2.145392,
            43.064743,
            219.4
          ],
          [
            2.145606,
            43.064608,
            218.73
          ],
          [
            2.146121,
            43.064152,
            217.44
          ],
          [
            2.147089,
            43.063068,
            214.09
          ],
          [
            2.147042,
            43.063049,
            214.08
          ],
          [
            2.146311,
            43.062973,
            214.35
          ],
          [
            2.145593,
            43.062858,
            215.42
          ],
          [
            2.145205,
            43.062759,
            216.07
          ],
          [
            2.144701,
            43.06246,
            217.22
          ],
          [
            2.143797,
            43.06196,
            218.76
          ],
          [
            2.143709,
            43.061776,
            218.21
          ],
          [
            2.143614,
            43.061426,
            217.92
          ],
          [
            2.143441,
            43.061242,
            218.58
          ],
          [
            2.141944,
            43.060326,
            218.82
          ],
          [
            2.141719,
            43.060154,
            219.35
          ],
          [
            2.141487,
            43.059884,
            219.36
          ],
          [
            2.14121,
            43.059603,
            220.01
          ],
          [
            2.141065,
            43.059373,
            220.35
          ],
          [
            2.140913,
            43.058636,
            221.14
          ],
          [
            2.140857,
            43.058152,
            221.28
          ],
          [
            2.140778,
            43.05804,
            221.31
          ],
          [
            2.140378,
            43.057876,
            221.4
          ],
          [
            2.140269,
            43.057804,
            221.46
          ],
          [
            2.139978,
            43.057342,
            221.82
          ],
          [
            2.139849,
            43.057197,
            222.0
          ],
          [
            2.139565,
            43.057098,
            222.36
          ],
          [
            2.139298,
            43.057085,
            222.68
          ],
          [
            2.139054,
            43.057105,
            222.83
          ],
          [
            2.138815,
            43.057179,
            223.51
          ],
          [
            2.138756,
            43.057156,
            223.52
          ],
          [
            2.138769,
            43.05711,
            223.24
          ],
          [
            2.13896,
            43.057023,
            222.8
          ],
          [
            2.139197,
            43.056936,
            222.53
          ],
          [
            2.139225,
            43.056871,
            223.32
          ],
          [
            2.139112,
            43.056601,
            225.4
          ],
          [
            2.138908,
            43.056295,
            226.84
          ],
          [
            2.138051,
            43.055416,
            232.52
          ],
          [
            2.137722,
            43.055135,
            234.62
          ],
          [
            2.137611,
            43.055001,
            235.35
          ],
          [
            2.137611,
            43.054883,
            235.82
          ],
          [
            2.138256,
            43.053152,
            236.22
          ],
          [
            2.138241,
            43.053012,
            234.89
          ],
          [
            2.138254,
            43.052445,
            236.11
          ],
          [
            2.138244,
            43.052046,
            237.49
          ],
          [
            2.138117,
            43.051597,
            239.64
          ],
          [
            2.138104,
            43.051375,
            241.15
          ],
          [
            2.138296,
            43.050607,
            249.91
          ],
          [
            2.138212,
            43.049894,
            262.39
          ],
          [
            2.138156,
            43.049786,
            264.22
          ],
          [
            2.138103,
            43.049656,
            266.56
          ],
          [
            2.138081,
            43.049307,
            273.53
          ],
          [
            2.138049,
            43.049091,
            277.02
          ],
          [
            2.137984,
            43.048905,
            280.01
          ],
          [
            2.137945,
            43.048713,
            282.92
          ],
          [
            2.137941,
            43.048475,
            286.22
          ],
          [
            2.138047,
            43.048459,
            285.97
          ],
          [
            2.138282,
            43.048313,
            285.74
          ]
        ]
      }
    },
    {
      "type": "Feature",
      "properties": {
        "source": "Villelongue__Ajac.gpx",
        "type": "route"
      },
      "geometry": {
        "type": "LineString",
        "coordinates": [
          [
            2.095422,
            43.055469
          ],
          [
            2.095385,
            43.055371
          ],
          [
            2.095138,
            43.055439
          ],
          [
            2.095054,
            43.055744
          ],
          [
            2.095942,
            43.056511
          ],
          [
            2.096355,
            43.057298
          ],
          [
            2.106315,
            43.058304
          ],
          [
            2.1089,
            43.059851
          ],
          [
            2.110472,
            43.061222
          ],
          [
            2.110395,
            43.061227
          ],
          [
            2.11042,
            43.061529
          ],
          [
            2.11048,
            43.061529
          ],
          [
            2.110806,
            43.06219
          ],
          [
            2.110595,
            43.062252
          ],
          [
            2.110605,
            43.062411
          ],
          [
            2.110831,
            43.062375
          ],
          [
            2.111225,
            43.062654
          ],
          [
            2.111592,
            43.062713
          ],
          [
            2.111571,
            43.062992
          ],
          [
            2.112591,
            43.063187
          ],
          [
            2.112615,
            43.063319
          ],
          [
            2.117222,
            43.063998
          ],
          [
            2.121262,
            43.065767
          ],
          [
            2.120516,
            43.076073
          ],
          [
            2.120077,
            43.077188
          ],
          [
            2.119981,
            43.077213
          ],
          [
            2.118864,
            43.078686
          ],
          [
            2.118026,
            43.079503
          ],
          [
            2.118179,
            43.079796
          ],
          [
            2.118215,
            43.079823
          ],
          [
            2.11798,
            43.080309
          ],
          [
            2.117321,
            43.083106
          ],
          [
            2.119352,
            43.084856
          ],
          [
            2.127847,
            43.091606
          ],
          [
            2.126095,
            43.104908
          ],
          [
            2.126439,
            43.106645
          ],
          [
            2.129031,
            43.107003
          ],
          [
            2.132515,
            43.106707
          ],
          [
            2.132914,
            43.10663
          ],
          [
            2.135656,
            43.106432
          ],
          [
            2.135656,
            43.106432
          ],
          [
            2.132914,
            43.10663
          ],
          [
            2.132515,
            43.106707
          ],
          [
            2.129031,
            43.107003
          ],
          [
            2.12778,
            43.106479
          ],
          [
            2.126439,
            43.106645
          ],
          [
            2.126095,
            43.104908
          ],
          [
            2.126,
            43.10473
          ],
          [
            2.125931,
            43.104602
          ],
          [
            2.124898,
            43.087018
          ],
          [
            2.129061,
            43.085735
          ],
          [
            2.132811,
            43.081981
          ],
          [
            2.146962,
            43.070343
          ],
          [
            2.147347,
            43.069916
          ],
          [
            2.145735,
            43.068232
          ],
          [
            2.147089,
            43.063068
          ],
          [
            2.138769,
            43.05711
          ],
          [
            2.137941,
            43.048475
          ],
          [
            2.138282,
            43.048313
          ]
        ]
      }
    }
  ]
}