{
  "type": "FeatureCollection",
  "features": [
    {
      "type": "Feature",
      "properties": {
        "name": "GraphHopper Track",
        "source": "Villages__moulins.gpx",
        "type": "track"
      },
      "geometry": {
        "type": "LineString",
        "coordinates": [
          [
            2.269746,
            43.597036,
            199.54
          ],
          [
            2.271417,
            43.596373,
            202.41
          ],
          [
            2.273969,
            43.595385,
            215.42
          ],
          [
            2.274171,
            43.595324,
            216.62
          ],
          [
            2.274318,
            43.595297,
            217.43
          ],
          [
            2.27595,
            43.595078,
            225.37
          ],
          [
            2.27595,
            43.59503,
            225.03
          ],
          [
            2.275977,
            43.594988,
            225.02
          ],
          [
            2.276216,
            43.594781,
            225.43
          ],
          [
            2.276404,
            43.594662,
            225.4
          ],
          [
            2.276514,
            43.594616,
            225.57
          ],
          [
            2.276611,
            43.594594,
            225.67
          ],
          [
            2.276724,
            43.594583,
            225.76
          ],
          [
            2.276858,
            43.594588,
            225.79
          ],
          [
            2.277112,
            43.59463,
            225.96
          ],
          [
            2.277195,
            43.59463,
            226.19
          ],
          [
            2.277295,
            43.594616,
            226.51
          ],
          [
            2.277354,
            43.594599,
            226.58
          ],
          [
            2.27753,
            43.594534,
            226.36
          ],
          [
            2.277639,
            43.594469,
            226.3
          ],
          [
            2.27792,
            43.594265,
            226.43
          ],
          [
            2.278079,
            43.59417,
            226.7
          ],
          [
            2.27863,
            43.593939,
            227.27
          ],
          [
            2.278732,
            43.593886,
            227.28
          ],
          [
            2.278812,
            43.593824,
            227.25
          ],
          [
            2.279018,
            43.593603,
            227.15
          ],
          [
            2.279067,
            43.593534,
            227.06
          ],
          [
            2.279073,
            43.593497,
            227.0
          ],
          [
            2.278918,
            43.592518,
            222.61
          ],
          [
            2.278903,
            43.592475,
            222.61
          ],
          [
            2.278847,
            43.5924,
            222.57
          ],
          [
            2.278756,
            43.59232,
            222.42
          ],
          [
            2.278108,
            43.591842,
            222.07
          ],
          [
            2.277781,
            43.591583,
            221.43
          ],
          [
            2.277659,
            43.591445,
            220.81
          ],
          [
            2.277507,
            43.591203,
            219.35
          ],
          [
            2.277433,
            43.591103,
            218.51
          ],
          [
            2.277312,
            43.590967,
            217.08
          ],
          [
            2.277223,
            43.590888,
            216.03
          ],
          [
            2.276806,
            43.590593,
            210.91
          ],
          [
            2.276411,
            43.590357,
            205.37
          ],
          [
            2.275512,
            43.589752,
            195.42
          ],
          [
            2.275435,
            43.589674,
            194.39
          ],
          [
            2.275383,
            43.589576,
            193.29
          ],
          [
            2.275384,
            43.589503,
            192.53
          ],
          [
            2.2754,
            43.589443,
            191.89
          ],
          [
            2.275512,
            43.589105,
            188.48
          ],
          [
            2.275546,
            43.589058,
            188.01
          ],
          [
            2.275618,
            43.588993,
            187.3
          ],
          [
            2.275828,
            43.588829,
            185.63
          ],
          [
            2.275887,
            43.588768,
            185.14
          ],
          [
            2.275904,
            43.588739,
            184.95
          ],
          [
            2.275917,
            43.588661,
            184.45
          ],
          [
            2.275914,
            43.5886,
            184.06
          ],
          [
            2.275896,
            43.5885,
            183.56
          ],
          [
            2.275875,
            43.588446,
            183.23
          ],
          [
            2.275867,
            43.588357,
            182.56
          ],
          [
            2.275875,
            43.588319,
            182.39
          ],
          [
            2.275906,
            43.588265,
            182.8
          ],
          [
            2.27597,
            43.588231,
            183.15
          ],
          [
            2.276146,
            43.588165,
            184.85
          ],
          [
            2.276186,
            43.588118,
            185.81
          ],
          [
            2.2762,
            43.588049,
            185.89
          ],
          [
            2.276184,
            43.587987,
            185.73
          ],
          [
            2.275984,
            43.587825,
            185.05
          ],
          [
            2.275747,
            43.587681,
            184.83
          ],
          [
            2.27572,
            43.587483,
            184.85
          ],
          [
            2.276026,
            43.587156,
            185.05
          ],
          [
            2.276546,
            43.586876,
            185.61
          ],
          [
            2.277083,
            43.586484,
            185.95
          ],
          [
            2.277328,
            43.586075,
            186.13
          ],
          [
            2.277328,
            43.586075,
            186.13
          ],
          [
            2.277083,
            43.586484,
            185.95
          ],
          [
            2.276546,
            43.586876,
            185.61
          ],
          [
            2.276026,
            43.587156,
            185.05
          ],
          [
            2.27572,
            43.587483,
            184.85
          ],
          [
            2.275747,
            43.587681,
            184.83
          ],
          [
            2.275984,
            43.587825,
            185.05
          ],
          [
            2.276184,
            43.587987,
            185.73
          ],
          [
            2.2762,
            43.588049,
            185.89
          ],
          [
            2.276186,
            43.588118,
            185.81
          ],
          [
            2.276002,
            43.588109,
            185.11
          ],
          [
            2.275771,
            43.58813,
            183.46
          ],
          [
            2.274494,
            43.588378,
            183.45
          ],
          [
            2.274183,
            43.588454,
            184.07
          ],
          [
            2.274087,
            43.588466,
            184.25
          ],
          [
            2.273993,
            43.588469,
            184.42
          ],
          [
            2.273214,
            43.588445,
            185.0
          ],
          [
            2.273036,
            43.588451,
            185.0
          ],
          [
            2.27292,
            43.588433,
            185.0
          ],
          [
            2.272865,
            43.588415,
            185.0
          ],
          [
            2.272189,
            43.588114,
            185.58
          ],
          [
            2.272027,
            43.58805,
            185.77
          ],
          [
            2.271861,
            43.587996,
            186.11
          ],
          [
            2.271478,
            43.5879,
            187.38
          ],
          [
            2.271407,
            43.587903,
            187.66
          ],
          [
            2.271391,
            43.587958,
            187.31
          ],
          [
            2.271346,
            43.587968,
            187.18
          ],
          [
            2.271265,
            43.588044,
            187.02
          ],
          [
            2.271221,
            43.588071,
            187.03
          ],
          [
            2.271003,
            43.588094,
            186.93
          ],
          [
            2.270825,
            43.588162,
            186.4
          ],
          [
            2.270739,
            43.588213,
            186.35
          ],
          [
            2.270678,
            43.58827,
            186.35
          ],
          [
            2.270566,
            43.588428,
            186.27
          ],
          [
            2.270328,
            43.588673,
            186.17
          ],
          [
            2.269972,
            43.589077,
            186.06
          ],
          [
            2.26976,
            43.589362,
            186.02
          ],
          [
            2.269644,
            43.589486,
            186.01
          ],
          [
            2.269433,
            43.589671,
            186.0
          ],
          [
            2.269181,
            43.589939,
            186.0
          ],
          [
            2.268602,
            43.590513,
            185.99
          ],
          [
            2.267486,
            43.591752,
            185.45
          ],
          [
            2.266944,
            43.592372,
            184.98
          ],
          [
            2.266939,
            43.592418,
            184.94
          ],
          [
            2.266963,
            43.592479,
            184.64
          ],
          [
            2.267001,
            43.59253,
            184.37
          ],
          [
            2.267057,
            43.592557,
            184.1
          ],
          [
            2.267054,
            43.592589,
            184.02
          ],
          [
            2.267015,
            43.592678,
            184.0
          ],
          [
            2.266698,
            43.592816,
            184.0
          ],
          [
            2.266158,
            43.593391,
            182.29
          ],
          [
            2.266062,
            43.593477,
            182.15
          ],
          [
            2.266003,
            43.593548,
            182.07
          ],
          [
            2.265967,
            43.593612,
            182.01
          ],
          [
            2.265963,
            43.593641,
            182.0
          ],
          [
            2.26588,
            43.593684,
            182.01
          ],
          [
            2.265814,
            43.593764,
            181.95
          ],
          [
            2.265207,
            43.594397,
            181.36
          ],
          [
            2.264548,
            43.594989,
            181.09
          ],
          [
            2.264458,
            43.595062,
            180.77
          ],
          [
            2.264297,
            43.595144,
            178.2
          ],
          [
            2.26407,
            43.595318,
            180.86
          ],
          [
            2.264002,
            43.595397,
            181.54
          ],
          [
            2.263802,
            43.595543,
            181.0
          ],
          [
            2.2636,
            43.595563,
            180.86
          ],
          [
            2.26341,
            43.595686,
            180.29
          ],
          [
            2.263201,
            43.5958,
            179.86
          ],
          [
            2.260536,
            43.597195,
            177.98
          ],
          [
            2.256295,
            43.599456,
            176.96
          ],
          [
            2.255815,
            43.598962,
            176.02
          ],
          [
            2.255779,
            43.598916,
            176.0
          ],
          [
            2.255724,
            43.598934,
            176.0
          ],
          [
            2.25308,
            43.600292,
            175.0
          ],
          [
            2.252885,
            43.600081,
            175.0
          ],
          [
            2.251896,
            43.600515,
            174.58
          ],
          [
            2.251393,
            43.600988,
            173.95
          ],
          [
            2.250689,
            43.601521,
            173.75
          ],
          [
            2.250676,
            43.601535,
            173.77
          ],
          [
            2.250678,
            43.601568,
            173.8
          ],
          [
            2.250861,
            43.601809,
            174.97
          ],
          [
            2.250389,
            43.601993,
            174.49
          ],
          [
            2.250546,
            43.602203,
            175.0
          ],
          [
            2.250498,
            43.602223,
            175.0
          ],
          [
            2.250479,
            43.602247,
            175.0
          ],
          [
            2.250483,
            43.602275,
            175.0
          ],
          [
            2.250526,
            43.602337,
            175.0
          ],
          [
            2.250506,
            43.602394,
            175.0
          ],
          [
            2.250535,
            43.60244,
            175.0
          ],
          [
            2.250621,
            43.602516,
            175.0
          ],
          [
            2.249492,
            43.603181,
            175.0
          ],
          [
            2.247837,
            43.604177,
            175.0
          ],
          [
            2.247549,
            43.604359,
            175.0
          ],
          [
            2.247487,
            43.604406,
            175.0
          ],
          [
            2.247353,
            43.604479,
            175.0
          ],
          [
            2.246301,
            43.605111,
            174.94
          ],
          [
            2.246189,
            43.605153,
            174.5
          ],
          [
            2.245327,
            43.605589,
            173.0
          ],
          [
            2.245204,
            43.605698,
            173.0
          ],
          [
            2.244633,
            43.605975,
            173.0
          ],
          [
            2.24428,
            43.606133,
            172.94
          ],
          [
            2.243943,
            43.606269,
            172.54
          ],
          [
            2.243694,
            43.606344,
            171.96
          ],
          [
            2.243394,
            43.606418,
            171.19
          ],
          [
            2.243133,
            43.606501,
            170.82
          ],
          [
            2.24257,
            43.606453,
            171.42
          ],
          [
            2.242454,
            43.606759,
            172.28
          ],
          [
            2.242397,
            43.606777,
            172.58
          ],
          [
            2.241837,
            43.606795,
            174.83
          ],
          [
            2.241746,
            43.606812,
            174.96
          ],
          [
            2.241453,
            43.606944,
            175.0
          ],
          [
            2.240997,
            43.607044,
            175.94
          ],
          [
            2.240588,
            43.607104,
            175.54
          ],
          [
            2.240562,
            43.607056,
            175.7
          ],
          [
            2.240476,
            43.607073,
            175.49
          ],
          [
            2.240365,
            43.607112,
            175.72
          ],
          [
            2.239992,
            43.607342,
            176.0
          ],
          [
            2.23993,
            43.607363,
            176.08
          ],
          [
            2.239527,
            43.607427,
            176.92
          ],
          [
            2.239203,
            43.607612,
            176.02
          ],
          [
            2.239181,
            43.60763,
            176.0
          ],
          [
            2.23917,
            43.607654,
            176.0
          ],
          [
            2.239345,
            43.608112,
            174.46
          ],
          [
            2.238912,
            43.608206,
            175.61
          ],
          [
            2.238748,
            43.608251,
            175.75
          ],
          [
            2.238783,
            43.608354,
            175.62
          ],
          [
            2.238809,
            43.608418,
            175.46
          ],
          [
            2.238326,
            43.60854,
            176.27
          ],
          [
            2.238098,
            43.608574,
            176.9
          ],
          [
            2.237697,
            43.608621,
            177.0
          ],
          [
            2.237703,
            43.608663,
            177.0
          ],
          [
            2.237691,
            43.608684,
            177.0
          ],
          [
            2.237658,
            43.608708,
            177.0
          ],
          [
            2.237634,
            43.608738,
            177.0
          ],
          [
            2.237643,
            43.608794,
            177.0
          ],
          [
            2.237625,
            43.608812,
            177.0
          ],
          [
            2.237582,
            43.608817,
            177.0
          ],
          [
            2.237563,
            43.608831,
            177.0
          ],
          [
            2.237291,
            43.60886,
            177.0
          ],
          [
            2.237323,
            43.608983,
            177.53
          ],
          [
            2.237347,
            43.609032,
            177.9
          ],
          [
            2.23688,
            43.609186,
            177.98
          ],
          [
            2.236831,
            43.609253,
            177.99
          ],
          [
            2.236826,
            43.609297,
            178.0
          ],
          [
            2.236829,
            43.60934,
            178.0
          ],
          [
            2.23685,
            43.60939,
            178.0
          ],
          [
            2.236889,
            43.60943,
            178.0
          ],
          [
            2.236289,
            43.609673,
            180.07
          ],
          [
            2.23579,
            43.610027,
            181.0
          ],
          [
            2.235448,
            43.610259,
            181.64
          ],
          [
            2.23542,
            43.610287,
            181.75
          ],
          [
            2.23542,
            43.610325,
            181.89
          ],
          [
            2.23553,
            43.610421,
            182.06
          ],
          [
            2.235572,
            43.610438,
            182.16
          ],
          [
            2.235729,
            43.610573,
            183.0
          ],
          [
            2.235715,
            43.610592,
            183.0
          ],
          [
            2.235718,
            43.610614,
            182.98
          ],
          [
            2.236155,
            43.611046,
            182.0
          ],
          [
            2.235962,
            43.61131,
            182.23
          ],
          [
            2.235321,
            43.611815,
            183.28
          ],
          [
            2.235217,
            43.611933,
            183.82
          ],
          [
            2.234102,
            43.61284,
            185.25
          ],
          [
            2.23382,
            43.613031,
            186.0
          ],
          [
            2.232747,
            43.613928,
            188.0
          ],
          [
            2.231046,
            43.615291,
            192.0
          ],
          [
            2.230111,
            43.616047,
            194.1
          ],
          [
            2.229829,
            43.616285,
            195.0
          ],
          [
            2.228594,
            43.61727,
            197.79
          ],
          [
            2.227711,
            43.617987,
            200.83
          ],
          [
            2.227349,
            43.617953,
            200.51
          ],
          [
            2.226743,
            43.61781,
            199.61
          ],
          [
            2.225949,
            43.617755,
            198.61
          ],
          [
            2.225177,
            43.617685,
            197.25
          ],
          [
            2.224211,
            43.617779,
            195.75
          ],
          [
            2.223672,
            43.61789,
            195.33
          ]
        ]
      }
    },
    {
      "type": "Feature",
      "properties": {
        "source": "Villages__moulins.gpx",
        "type": "route"
      },
      "geometry": {
        "type": "LineString",
        "coordinates": [
          [
            2.269746,
            43.597036
          ],
          [
            2.27595,
            43.595078
          ],
          [
            2.277328,
            43.586075
          ],
          [
            2.277328,
            43.586075
          ],
          [
            2.276186,
            43.588118
          ],
          [
            2.271478,
            43.5879
          ],
          [
            2.271407,
            43.587903
          ],
          [
            2.265963,
            43.593641
          ],
          [
            2.263802,
            43.595543
          ],
          [
            2.2636,
            43.595563
          ],
          [
            2.256295,
            43.599456
          ],
          [
            2.255779,
            43.598916
          ],
          [
            2.25308,
            43.600292
          ],
          [
            2.252885,
            43.600081
          ],
          [
            2.250861,
            43.601809
          ],
          [
            2.250389,
            43.601993
          ],
          [
            2.250546,
            43.602203
          ],
          [
            2.250526,
            43.602337
          ],
          [
            2.250621,
            43.602516
          ],
          [
            2.245327,
            43.605589
          ],
          [
            2.243133,
            43.606501
          ],
          [
            2.24257,
            43.606453
          ],
          [
            2.242454,
            43.606759
          ],
          [
            2.240588,
            43.607104
          ],
          [
            2.240562,
            43.607056
          ],
          [
            2.23917,
            43.607654
          ],
          [
            2.239345,
            43.608112
          ],
          [
            2.238783,
            43.608354
          ],
          [
            2.238809,
            43.608418
          ],
          [
            2.237697,
            43.608621
          ],
          [
            2.237563,
            43.608831
          ],
          [
            2.237291,
            43.60886
          ],
          [
            2.237347,
            43.609032
          ],
          [
            2.236889,
            43.60943
          ],
          [
            2.235729,
            43.610573
          ],
          [
            2.236155,
            43.611046
          ],
          [
            2.235321,
            43.611815
          ],
          [
            2.227711,
            43.617987
          ],
          [
            2.223672,
            43.61789
          ]
        ]
      }
    }
  ]
}