{
  "type": "FeatureCollection",
  "features": [
    {
      "type": "Feature",
      "properties": {
        "name": "GraphHopper Track",
        "source": "Campagnac-Saturn..gpx",
        "type": "track"
      },
      "geometry": {
        "type": "LineString",
        "coordinates": [
          [
            3.087592,
            44.41753,
            707.39
          ],
          [
            3.087635,
            44.417463,
            707.69
          ],
          [
            3.087683,
            44.417303,
            708.07
          ],
          [
            3.087626,
            44.417311,
            708.41
          ],
          [
            3.087352,
            44.417301,
            710.0
          ],
          [
            3.08721,
            44.417309,
            711.22
          ],
          [
            3.086625,
            44.41743,
            715.0
          ],
          [
            3.08666,
            44.41758,
            715.0
          ],
          [
            3.086663,
            44.417677,
            715.0
          ],
          [
            3.086643,
            44.417962,
            716.09
          ],
          [
            3.086622,
            44.418016,
            716.37
          ],
          [
            3.086135,
            44.417939,
            716.68
          ],
          [
            3.086056,
            44.417941,
            716.65
          ],
          [
            3.085971,
            44.417983,
            716.67
          ],
          [
            3.08591,
            44.418026,
            716.62
          ],
          [
            3.085881,
            44.418058,
            716.45
          ],
          [
            3.085754,
            44.418049,
            715.73
          ],
          [
            3.085685,
            44.41803,
            715.33
          ],
          [
            3.085635,
            44.418001,
            715.02
          ],
          [
            3.085398,
            44.41799,
            713.02
          ],
          [
            3.085278,
            44.417992,
            712.88
          ],
          [
            3.08504,
            44.418046,
            712.76
          ],
          [
            3.084914,
            44.418108,
            714.18
          ],
          [
            3.084765,
            44.418023,
            714.69
          ],
          [
            3.08454,
            44.417951,
            715.6
          ],
          [
            3.084474,
            44.417907,
            715.91
          ],
          [
            3.084444,
            44.417877,
            715.9
          ],
          [
            3.084417,
            44.417818,
            715.68
          ],
          [
            3.084386,
            44.417851,
            716.22
          ],
          [
            3.083937,
            44.417879,
            718.61
          ],
          [
            3.083771,
            44.417886,
            719.17
          ],
          [
            3.083505,
            44.417855,
            719.77
          ],
          [
            3.083314,
            44.417868,
            720.27
          ],
          [
            3.082472,
            44.417972,
            721.35
          ],
          [
            3.08235,
            44.41798,
            720.99
          ],
          [
            3.082285,
            44.41789,
            720.55
          ],
          [
            3.082234,
            44.417856,
            720.23
          ],
          [
            3.082184,
            44.417841,
            719.99
          ],
          [
            3.082121,
            44.417896,
            720.02
          ],
          [
            3.081957,
            44.417967,
            719.5
          ],
          [
            3.081647,
            44.418074,
            719.4
          ],
          [
            3.081503,
            44.418087,
            719.96
          ],
          [
            3.081026,
            44.418099,
            721.58
          ],
          [
            3.080872,
            44.418089,
            722.09
          ],
          [
            3.080513,
            44.418106,
            723.39
          ],
          [
            3.080281,
            44.418141,
            724.02
          ],
          [
            3.079935,
            44.418176,
            724.98
          ],
          [
            3.079684,
            44.418214,
            724.87
          ],
          [
            3.079435,
            44.418241,
            723.97
          ],
          [
            3.079357,
            44.41826,
            723.6
          ],
          [
            3.079248,
            44.418265,
            722.91
          ],
          [
            3.079132,
            44.418286,
            722.47
          ],
          [
            3.078785,
            44.418372,
            722.52
          ],
          [
            3.07864,
            44.418401,
            722.91
          ],
          [
            3.078069,
            44.418397,
            724.19
          ],
          [
            3.077906,
            44.418411,
            724.72
          ],
          [
            3.077738,
            44.418416,
            724.84
          ],
          [
            3.077557,
            44.418419,
            724.01
          ],
          [
            3.077341,
            44.418462,
            722.97
          ],
          [
            3.076497,
            44.41874,
            715.96
          ],
          [
            3.07625,
            44.418875,
            713.05
          ],
          [
            3.076093,
            44.418996,
            710.85
          ],
          [
            3.075928,
            44.419156,
            708.15
          ],
          [
            3.075841,
            44.419262,
            706.49
          ],
          [
            3.07578,
            44.419436,
            704.01
          ],
          [
            3.07576,
            44.419665,
            701.58
          ],
          [
            3.07578,
            44.42007,
            698.29
          ],
          [
            3.075756,
            44.420139,
            697.94
          ],
          [
            3.075658,
            44.420229,
            697.83
          ],
          [
            3.075404,
            44.420344,
            698.36
          ],
          [
            3.075315,
            44.420362,
            698.17
          ],
          [
            3.07521,
            44.420362,
            697.83
          ],
          [
            3.075002,
            44.420317,
            696.79
          ],
          [
            3.074723,
            44.420239,
            695.49
          ],
          [
            3.07436,
            44.420262,
            693.11
          ],
          [
            3.074136,
            44.4203,
            691.26
          ],
          [
            3.073971,
            44.42034,
            689.84
          ],
          [
            3.073588,
            44.42046,
            686.63
          ],
          [
            3.073047,
            44.420749,
            682.19
          ],
          [
            3.072936,
            44.420824,
            681.78
          ],
          [
            3.072834,
            44.420916,
            682.11
          ],
          [
            3.072562,
            44.421113,
            679.27
          ],
          [
            3.072418,
            44.421199,
            677.45
          ],
          [
            3.072278,
            44.421246,
            675.49
          ],
          [
            3.071837,
            44.421999,
            677.07
          ],
          [
            3.0716,
            44.4223,
            677.53
          ],
          [
            3.071289,
            44.42258,
            677.47
          ],
          [
            3.070985,
            44.422794,
            676.67
          ],
          [
            3.070712,
            44.422947,
            675.78
          ],
          [
            3.070318,
            44.423124,
            674.66
          ],
          [
            3.069721,
            44.423305,
            672.84
          ],
          [
            3.069096,
            44.4234,
            671.06
          ],
          [
            3.06855,
            44.423433,
            669.41
          ],
          [
            3.067931,
            44.423382,
            667.69
          ],
          [
            3.066891,
            44.423278,
            664.5
          ],
          [
            3.066198,
            44.423251,
            662.08
          ],
          [
            3.065351,
            44.42328,
            659.1
          ],
          [
            3.061788,
            44.423508,
            656.52
          ],
          [
            3.060927,
            44.423478,
            657.42
          ],
          [
            3.0602,
            44.423367,
            657.94
          ],
          [
            3.059733,
            44.423233,
            657.85
          ],
          [
            3.059083,
            44.422983,
            656.3
          ],
          [
            3.058118,
            44.422559,
            653.86
          ],
          [
            3.057787,
            44.422455,
            653.35
          ],
          [
            3.057482,
            44.422405,
            652.96
          ],
          [
            3.057045,
            44.422414,
            652.46
          ],
          [
            3.056605,
            44.422493,
            651.92
          ],
          [
            3.055563,
            44.422777,
            650.86
          ],
          [
            3.055118,
            44.422866,
            650.66
          ],
          [
            3.054392,
            44.422983,
            650.19
          ],
          [
            3.052418,
            44.423206,
            648.77
          ],
          [
            3.052171,
            44.423259,
            648.77
          ],
          [
            3.05203,
            44.423318,
            648.85
          ],
          [
            3.051914,
            44.423398,
            649.11
          ],
          [
            3.051764,
            44.423559,
            649.91
          ],
          [
            3.051664,
            44.423853,
            650.0
          ],
          [
            3.052777,
            44.424248,
            650.85
          ],
          [
            3.053,
            44.424348,
            651.21
          ],
          [
            3.053223,
            44.424474,
            651.72
          ],
          [
            3.053576,
            44.424717,
            652.78
          ],
          [
            3.053793,
            44.424978,
            654.02
          ],
          [
            3.053948,
            44.425222,
            655.28
          ],
          [
            3.054086,
            44.425635,
            657.26
          ],
          [
            3.054086,
            44.425635,
            657.26
          ],
          [
            3.053948,
            44.425222,
            655.28
          ],
          [
            3.053793,
            44.424978,
            654.02
          ],
          [
            3.053576,
            44.424717,
            652.78
          ],
          [
            3.053223,
            44.424474,
            651.72
          ],
          [
            3.053,
            44.424348,
            651.21
          ],
          [
            3.052777,
            44.424248,
            650.85
          ],
          [
            3.051664,
            44.423853,
            650.0
          ],
          [
            3.051764,
            44.423559,
            649.91
          ],
          [
            3.051792,
            44.423522,
            649.74
          ],
          [
            3.051511,
            44.423411,
            648.77
          ],
          [
            3.051035,
            44.423254,
            648.36
          ],
          [
            3.050976,
            44.423214,
            648.22
          ],
          [
            3.050921,
            44.423145,
            648.04
          ],
          [
            3.050656,
            44.42268,
            647.44
          ],
          [
            3.050292,
            44.422111,
            648.84
          ],
          [
            3.050157,
            44.422,
            649.42
          ],
          [
            3.050008,
            44.421941,
            649.94
          ],
          [
            3.04968,
            44.421905,
            651.21
          ],
          [
            3.049274,
            44.421827,
            653.56
          ],
          [
            3.048844,
            44.421726,
            656.1
          ],
          [
            3.048474,
            44.421583,
            658.55
          ],
          [
            3.047851,
            44.421314,
            662.92
          ],
          [
            3.047656,
            44.421185,
            664.12
          ],
          [
            3.047336,
            44.420868,
            666.46
          ],
          [
            3.046624,
            44.420228,
            672.16
          ],
          [
            3.046366,
            44.420046,
            674.04
          ],
          [
            3.046159,
            44.41993,
            675.35
          ],
          [
            3.045918,
            44.419823,
            676.63
          ],
          [
            3.045534,
            44.419698,
            676.89
          ],
          [
            3.044792,
            44.419109,
            671.64
          ],
          [
            3.044463,
            44.418885,
            668.82
          ],
          [
            3.04402,
            44.418699,
            664.97
          ],
          [
            3.043884,
            44.418617,
            663.95
          ],
          [
            3.043757,
            44.418512,
            662.8
          ],
          [
            3.043724,
            44.418447,
            662.19
          ],
          [
            3.043723,
            44.418398,
            661.7
          ],
          [
            3.043642,
            44.41837,
            661.2
          ],
          [
            3.043095,
            44.41794,
            660.49
          ],
          [
            3.042868,
            44.417723,
            660.67
          ],
          [
            3.042655,
            44.417422,
            661.15
          ],
          [
            3.042425,
            44.417246,
            661.71
          ],
          [
            3.041892,
            44.417039,
            662.65
          ],
          [
            3.041762,
            44.41698,
            663.06
          ],
          [
            3.041694,
            44.416926,
            663.46
          ],
          [
            3.041582,
            44.416881,
            664.13
          ],
          [
            3.041372,
            44.416772,
            665.65
          ],
          [
            3.041237,
            44.416736,
            666.75
          ],
          [
            3.04083,
            44.41655,
            666.94
          ],
          [
            3.040657,
            44.416487,
            666.63
          ],
          [
            3.040602,
            44.416435,
            666.28
          ],
          [
            3.040584,
            44.41639,
            665.93
          ],
          [
            3.040527,
            44.416349,
            665.66
          ],
          [
            3.040308,
            44.41602,
            665.58
          ],
          [
            3.040252,
            44.415976,
            665.59
          ],
          [
            3.040179,
            44.415938,
            665.61
          ],
          [
            3.039849,
            44.415879,
            665.99
          ],
          [
            3.039711,
            44.415835,
            666.0
          ],
          [
            3.037113,
            44.414744,
            688.54
          ],
          [
            3.036968,
            44.414691,
            689.89
          ],
          [
            3.036811,
            44.41466,
            690.9
          ],
          [
            3.036633,
            44.414675,
            690.81
          ],
          [
            3.036439,
            44.414741,
            690.01
          ],
          [
            3.036187,
            44.414878,
            687.72
          ],
          [
            3.036105,
            44.414896,
            687.21
          ],
          [
            3.035791,
            44.414881,
            685.35
          ],
          [
            3.035556,
            44.414847,
            683.28
          ],
          [
            3.035345,
            44.414827,
            682.04
          ],
          [
            3.03521,
            44.414823,
            681.18
          ],
          [
            3.035005,
            44.414851,
            679.88
          ],
          [
            3.034776,
            44.414903,
            678.43
          ],
          [
            3.034456,
            44.415017,
            676.29
          ],
          [
            3.034229,
            44.415117,
            674.49
          ],
          [
            3.034039,
            44.415249,
            672.28
          ],
          [
            3.033892,
            44.415383,
            670.76
          ],
          [
            3.03366,
            44.4155,
            668.91
          ],
          [
            3.033186,
            44.415756,
            664.74
          ],
          [
            3.033026,
            44.415853,
            663.57
          ],
          [
            3.032916,
            44.415933,
            662.81
          ],
          [
            3.032478,
            44.416446,
            658.76
          ],
          [
            3.03239,
            44.416531,
            657.9
          ],
          [
            3.03226,
            44.416574,
            656.71
          ],
          [
            3.032163,
            44.416626,
            655.96
          ],
          [
            3.031789,
            44.41684,
            652.73
          ],
          [
            3.031069,
            44.417276,
            645.91
          ],
          [
            3.029908,
            44.417102,
            641.39
          ],
          [
            3.028573,
            44.417075,
            642.29
          ],
          [
            3.027757,
            44.417006,
            645.84
          ],
          [
            3.026633,
            44.416787,
            652.01
          ],
          [
            3.026403,
            44.4168,
            653.29
          ],
          [
            3.02525,
            44.417164,
            661.92
          ],
          [
            3.024338,
            44.41728,
            670.73
          ],
          [
            3.024194,
            44.417219,
            672.52
          ],
          [
            3.02404,
            44.417109,
            675.53
          ],
          [
            3.024184,
            44.416883,
            677.67
          ],
          [
            3.024271,
            44.416354,
            682.83
          ],
          [
            3.0243,
            44.415854,
            687.98
          ],
          [
            3.024415,
            44.415449,
            692.68
          ],
          [
            3.024943,
            44.414112,
            707.34
          ],
          [
            3.02501,
            44.413974,
            709.2
          ],
          [
            3.024905,
            44.413522,
            715.45
          ],
          [
            3.025548,
            44.41335,
            722.68
          ],
          [
            3.026172,
            44.413289,
            726.95
          ],
          [
            3.026102,
            44.412473,
            741.77
          ]
        ]
      }
    },
    {
      "type": "Feature",
      "properties": {
        "source": "Campagnac-Saturn..gpx",
        "type": "route"
      },
      "geometry": {
        "type": "LineString",
        "coordinates": [
          [
            3.087592,
            44.41753
          ],
          [
            3.087683,
            44.417303
          ],
          [
            3.086625,
            44.41743
          ],
          [
            3.086622,
            44.418016
          ],
          [
            3.085881,
            44.418058
          ],
          [
            3.085635,
            44.418001
          ],
          [
            3.084914,
            44.418108
          ],
          [
            3.084417,
            44.417818
          ],
          [
            3.08235,
            44.41798
          ],
          [
            3.082184,
            44.417841
          ],
          [
            3.079357,
            44.41826
          ],
          [
            3.077738,
            44.418416
          ],
          [
            3.072834,
            44.420916
          ],
          [
            3.072278,
            44.421246
          ],
          [
            3.051764,
            44.423559
          ],
          [
            3.051664,
            44.423853
          ],
          [
            3.054086,
            44.425635
          ],
          [
            3.054086,
            44.425635
          ],
          [
            3.051664,
            44.423853
          ],
          [
            3.051792,
            44.423522
          ],
          [
            3.041694,
            44.416926
          ],
          [
            3.041372,
            44.416772
          ],
          [
            3.040584,
            44.41639
          ],
          [
            3.03239,
            44.416531
          ],
          [
            3.031069,
            44.417276
          ],
          [
            3.02404,
            44.417109
          ],
          [
            3.026102,
            44.412473
          ]
        ]
      }
    }
  ]
}