{
  "type": "FeatureCollection",
  "features": [
    {
      "type": "Feature",
      "properties": {
        "name": "GraphHopper Track",
        "source": "Prades__Eus.gpx",
        "type": "track"
      },
      "geometry": {
        "type": "LineString",
        "coordinates": [
          [
            2.423509,
            42.618488,
            347.14
          ],
          [
            2.423594,
            42.618522,
            347.0
          ],
          [
            2.423856,
            42.618726,
            346.37
          ],
          [
            2.423691,
            42.618902,
            345.92
          ],
          [
            2.423526,
            42.619036,
            345.2
          ],
          [
            2.423505,
            42.619112,
            345.07
          ],
          [
            2.423576,
            42.619296,
            344.78
          ],
          [
            2.423879,
            42.619725,
            344.0
          ],
          [
            2.424213,
            42.620174,
            343.05
          ],
          [
            2.424255,
            42.620265,
            343.0
          ],
          [
            2.424255,
            42.62036,
            342.76
          ],
          [
            2.42417,
            42.62066,
            341.59
          ],
          [
            2.424162,
            42.620762,
            341.27
          ],
          [
            2.424206,
            42.620984,
            340.56
          ],
          [
            2.424355,
            42.62142,
            339.54
          ],
          [
            2.424643,
            42.621879,
            337.71
          ],
          [
            2.424864,
            42.622181,
            337.58
          ],
          [
            2.425227,
            42.622632,
            336.85
          ],
          [
            2.425546,
            42.622974,
            336.36
          ],
          [
            2.425837,
            42.62324,
            335.81
          ],
          [
            2.426192,
            42.623537,
            335.0
          ],
          [
            2.42638,
            42.623647,
            335.0
          ],
          [
            2.426613,
            42.62376,
            334.91
          ],
          [
            2.42675,
            42.623816,
            334.98
          ],
          [
            2.4269,
            42.62386,
            335.01
          ],
          [
            2.426966,
            42.623927,
            335.31
          ],
          [
            2.427014,
            42.623995,
            335.76
          ],
          [
            2.427004,
            42.624058,
            335.34
          ],
          [
            2.427017,
            42.624123,
            334.95
          ],
          [
            2.427053,
            42.624183,
            334.6
          ],
          [
            2.427109,
            42.624234,
            334.42
          ],
          [
            2.427181,
            42.624272,
            334.41
          ],
          [
            2.427263,
            42.624295,
            334.65
          ],
          [
            2.427351,
            42.624301,
            334.88
          ],
          [
            2.427438,
            42.624291,
            335.38
          ],
          [
            2.427591,
            42.624355,
            335.04
          ],
          [
            2.427663,
            42.624399,
            334.7
          ],
          [
            2.4277,
            42.624449,
            334.33
          ],
          [
            2.427761,
            42.624497,
            334.13
          ],
          [
            2.427935,
            42.624545,
            334.15
          ],
          [
            2.428101,
            42.624578,
            333.97
          ],
          [
            2.429315,
            42.624736,
            332.91
          ],
          [
            2.429746,
            42.624856,
            332.0
          ],
          [
            2.430061,
            42.624984,
            332.0
          ],
          [
            2.430075,
            42.625015,
            331.93
          ],
          [
            2.43013,
            42.625056,
            331.65
          ],
          [
            2.430207,
            42.625066,
            331.52
          ],
          [
            2.430273,
            42.625046,
            331.68
          ],
          [
            2.43058,
            42.625146,
            331.0
          ],
          [
            2.430826,
            42.62525,
            330.2
          ],
          [
            2.431257,
            42.625467,
            329.43
          ],
          [
            2.432009,
            42.625823,
            328.13
          ],
          [
            2.433121,
            42.626312,
            327.0
          ],
          [
            2.434038,
            42.624961,
            327.53
          ],
          [
            2.434066,
            42.624937,
            327.52
          ],
          [
            2.434105,
            42.624932,
            327.5
          ],
          [
            2.43416,
            42.624944,
            327.47
          ],
          [
            2.434315,
            42.625018,
            327.37
          ],
          [
            2.434362,
            42.625022,
            327.33
          ],
          [
            2.434397,
            42.625014,
            327.3
          ],
          [
            2.434492,
            42.624932,
            327.13
          ],
          [
            2.434617,
            42.624765,
            326.89
          ],
          [
            2.434782,
            42.624567,
            326.57
          ],
          [
            2.43514,
            42.62471,
            326.02
          ],
          [
            2.435885,
            42.625127,
            324.87
          ],
          [
            2.435885,
            42.625127,
            324.87
          ],
          [
            2.436414,
            42.625369,
            324.03
          ],
          [
            2.436888,
            42.625617,
            323.28
          ],
          [
            2.436968,
            42.625676,
            323.14
          ],
          [
            2.437035,
            42.625754,
            322.99
          ],
          [
            2.437122,
            42.625925,
            322.72
          ],
          [
            2.437198,
            42.626022,
            322.59
          ],
          [
            2.437315,
            42.626121,
            322.48
          ],
          [
            2.437677,
            42.626277,
            322.41
          ],
          [
            2.437761,
            42.626322,
            322.42
          ],
          [
            2.437679,
            42.626395,
            322.44
          ],
          [
            2.437389,
            42.626578,
            322.44
          ],
          [
            2.437317,
            42.626606,
            322.45
          ],
          [
            2.437112,
            42.626632,
            322.47
          ],
          [
            2.437061,
            42.626673,
            322.47
          ],
          [
            2.436761,
            42.627707,
            321.65
          ],
          [
            2.437201,
            42.627845,
            321.0
          ],
          [
            2.438696,
            42.628353,
            319.69
          ],
          [
            2.439986,
            42.628808,
            318.06
          ],
          [
            2.440151,
            42.628897,
            318.0
          ],
          [
            2.440337,
            42.629025,
            317.37
          ],
          [
            2.440712,
            42.629306,
            316.89
          ],
          [
            2.441339,
            42.629844,
            315.78
          ],
          [
            2.44151,
            42.630007,
            315.39
          ],
          [
            2.441598,
            42.630108,
            315.06
          ],
          [
            2.441636,
            42.630165,
            315.0
          ],
          [
            2.441695,
            42.630356,
            315.0
          ],
          [
            2.441689,
            42.630508,
            314.81
          ],
          [
            2.441699,
            42.630651,
            314.33
          ],
          [
            2.441724,
            42.630722,
            313.95
          ],
          [
            2.441773,
            42.630792,
            313.77
          ],
          [
            2.441896,
            42.630916,
            313.48
          ],
          [
            2.442574,
            42.631451,
            312.75
          ],
          [
            2.443634,
            42.632183,
            310.23
          ],
          [
            2.444286,
            42.632698,
            308.36
          ],
          [
            2.444348,
            42.632759,
            308.16
          ],
          [
            2.444508,
            42.633032,
            306.44
          ],
          [
            2.444632,
            42.633165,
            306.03
          ],
          [
            2.444896,
            42.633539,
            305.57
          ],
          [
            2.445165,
            42.633782,
            304.63
          ],
          [
            2.445267,
            42.633899,
            304.27
          ],
          [
            2.445296,
            42.633963,
            304.28
          ],
          [
            2.445365,
            42.634189,
            304.35
          ],
          [
            2.445414,
            42.634288,
            304.37
          ],
          [
            2.445467,
            42.634355,
            304.45
          ],
          [
            2.445614,
            42.634504,
            304.53
          ],
          [
            2.446678,
            42.635246,
            304.46
          ],
          [
            2.446793,
            42.635302,
            304.1
          ],
          [
            2.446941,
            42.635343,
            303.77
          ],
          [
            2.447653,
            42.635469,
            301.4
          ],
          [
            2.447929,
            42.635551,
            299.33
          ],
          [
            2.448087,
            42.635623,
            298.91
          ],
          [
            2.448213,
            42.635717,
            297.99
          ],
          [
            2.448375,
            42.635899,
            296.45
          ],
          [
            2.44846,
            42.636048,
            295.12
          ],
          [
            2.44856,
            42.636659,
            289.91
          ],
          [
            2.448801,
            42.638407,
            291.56
          ],
          [
            2.448815,
            42.638458,
            294.19
          ],
          [
            2.449148,
            42.638517,
            295.62
          ],
          [
            2.449406,
            42.638582,
            295.89
          ],
          [
            2.449684,
            42.638684,
            295.42
          ],
          [
            2.449992,
            42.638848,
            295.01
          ],
          [
            2.450201,
            42.638988,
            295.12
          ],
          [
            2.451212,
            42.639703,
            297.0
          ],
          [
            2.451787,
            42.640176,
            298.59
          ],
          [
            2.452013,
            42.64034,
            299.28
          ],
          [
            2.452156,
            42.64042,
            298.93
          ],
          [
            2.452262,
            42.640459,
            298.25
          ],
          [
            2.452468,
            42.640482,
            297.27
          ],
          [
            2.452585,
            42.640464,
            299.27
          ],
          [
            2.452762,
            42.64035,
            301.33
          ],
          [
            2.452927,
            42.640277,
            302.44
          ],
          [
            2.453091,
            42.64023,
            303.59
          ],
          [
            2.453324,
            42.640228,
            304.8
          ],
          [
            2.453477,
            42.640275,
            305.69
          ],
          [
            2.45404,
            42.64053,
            309.4
          ],
          [
            2.454197,
            42.640625,
            310.34
          ],
          [
            2.454417,
            42.640776,
            310.51
          ],
          [
            2.454743,
            42.640956,
            311.11
          ],
          [
            2.454764,
            42.641008,
            311.72
          ],
          [
            2.454902,
            42.64111,
            312.52
          ],
          [
            2.455072,
            42.641208,
            313.56
          ],
          [
            2.456005,
            42.641578,
            318.58
          ],
          [
            2.456494,
            42.64175,
            321.19
          ],
          [
            2.456611,
            42.641826,
            321.9
          ],
          [
            2.456662,
            42.641925,
            322.56
          ],
          [
            2.456682,
            42.642038,
            323.3
          ],
          [
            2.456651,
            42.642134,
            323.95
          ],
          [
            2.456592,
            42.642237,
            324.87
          ],
          [
            2.456497,
            42.642342,
            325.78
          ],
          [
            2.456194,
            42.642613,
            328.47
          ],
          [
            2.456138,
            42.642598,
            329.66
          ],
          [
            2.45603,
            42.642623,
            332.07
          ],
          [
            2.455911,
            42.64263,
            334.94
          ],
          [
            2.455876,
            42.642685,
            335.24
          ],
          [
            2.45581,
            42.642762,
            336.04
          ],
          [
            2.455649,
            42.643097,
            337.71
          ],
          [
            2.455641,
            42.643193,
            338.04
          ],
          [
            2.455651,
            42.643337,
            338.0
          ],
          [
            2.455628,
            42.643373,
            338.49
          ],
          [
            2.455747,
            42.643519,
            337.11
          ],
          [
            2.455803,
            42.643579,
            337.31
          ],
          [
            2.455865,
            42.643614,
            336.97
          ],
          [
            2.455963,
            42.643655,
            336.98
          ],
          [
            2.456071,
            42.643665,
            337.05
          ],
          [
            2.456266,
            42.643614,
            337.16
          ],
          [
            2.456495,
            42.643535,
            337.63
          ],
          [
            2.45665,
            42.643508,
            339.27
          ],
          [
            2.456712,
            42.643517,
            340.15
          ],
          [
            2.456729,
            42.643546,
            341.16
          ],
          [
            2.457012,
            42.643503,
            343.65
          ],
          [
            2.457115,
            42.64353,
            346.65
          ],
          [
            2.457349,
            42.643513,
            349.93
          ],
          [
            2.457275,
            42.643582,
            352.11
          ],
          [
            2.457106,
            42.643712,
            355.66
          ],
          [
            2.457097,
            42.643793,
            358.06
          ]
        ]
      }
    },
    {
      "type": "Feature",
      "properties": {
        "source": "Prades__Eus.gpx",
        "type": "route"
      },
      "geometry": {
        "type": "LineString",
        "coordinates": [
          [
            2.423509,
            42.618488
          ],
          [
            2.423594,
            42.618522
          ],
          [
            2.423856,
            42.618726
          ],
          [
            2.423879,
            42.619725
          ],
          [
            2.4269,
            42.62386
          ],
          [
            2.427014,
            42.623995
          ],
          [
            2.427761,
            42.624497
          ],
          [
            2.429746,
            42.624856
          ],
          [
            2.430061,
            42.624984
          ],
          [
            2.433121,
            42.626312
          ],
          [
            2.434782,
            42.624567
          ],
          [
            2.435885,
            42.625127
          ],
          [
            2.435885,
            42.625127
          ],
          [
            2.436761,
            42.627707
          ],
          [
            2.448815,
            42.638458
          ],
          [
            2.454743,
            42.640956
          ],
          [
            2.456194,
            42.642613
          ],
          [
            2.455911,
            42.64263
          ],
          [
            2.455628,
            42.643373
          ],
          [
            2.455747,
            42.643519
          ],
          [
            2.456729,
            42.643546
          ],
          [
            2.457012,
            42.643503
          ],
          [
            2.457349,
            42.643513
          ],
          [
            2.457097,
            42.643793
          ]
        ]
      }
    }
  ]
}