{
  "type": "FeatureCollection",
  "features": [
    {
      "type": "Feature",
      "properties": {
        "name": "GraphHopper Track",
        "source": "Étang_de_Canet.gpx",
        "type": "track"
      },
      "geometry": {
        "type": "LineString",
        "coordinates": [
          [
            2.985463,
            42.665489,
            5.0
          ],
          [
            2.985397,
            42.665604,
            5.0
          ],
          [
            2.985368,
            42.665639,
            5.0
          ],
          [
            2.985307,
            42.665672,
            5.0
          ],
          [
            2.98483,
            42.665808,
            5.0
          ],
          [
            2.984695,
            42.665869,
            5.0
          ],
          [
            2.984607,
            42.666018,
            5.0
          ],
          [
            2.984607,
            42.666068,
            5.0
          ],
          [
            2.984807,
            42.666204,
            4.35
          ],
          [
            2.986069,
            42.666681,
            5.0
          ],
          [
            2.987251,
            42.667143,
            5.08
          ],
          [
            2.987379,
            42.667175,
            5.59
          ],
          [
            2.987494,
            42.667224,
            5.68
          ],
          [
            2.987609,
            42.667296,
            6.0
          ],
          [
            2.988542,
            42.667655,
            7.0
          ],
          [
            2.989287,
            42.667979,
            8.27
          ],
          [
            2.990135,
            42.668362,
            11.01
          ],
          [
            2.990443,
            42.668436,
            11.91
          ],
          [
            2.990677,
            42.668459,
            12.36
          ],
          [
            2.991059,
            42.668517,
            12.93
          ],
          [
            2.991072,
            42.668481,
            12.65
          ],
          [
            2.991126,
            42.668495,
            12.76
          ],
          [
            2.991299,
            42.668567,
            13.18
          ],
          [
            2.99157,
            42.668247,
            11.8
          ],
          [
            2.993022,
            42.668761,
            13.0
          ],
          [
            2.993298,
            42.668763,
            13.0
          ],
          [
            2.995298,
            42.668684,
            13.0
          ],
          [
            2.996041,
            42.668636,
            12.59
          ],
          [
            2.996314,
            42.66865,
            12.02
          ],
          [
            2.996368,
            42.668642,
            12.0
          ],
          [
            2.996757,
            42.668625,
            11.68
          ],
          [
            2.996859,
            42.668627,
            11.3
          ],
          [
            2.997253,
            42.668605,
            11.0
          ],
          [
            2.998771,
            42.668544,
            10.0
          ],
          [
            2.998999,
            42.668542,
            9.71
          ],
          [
            2.999407,
            42.668583,
            8.23
          ],
          [
            2.999544,
            42.668577,
            7.9
          ],
          [
            2.99975,
            42.668601,
            7.15
          ],
          [
            2.999946,
            42.668603,
            6.58
          ],
          [
            3.000247,
            42.668581,
            5.76
          ],
          [
            3.000413,
            42.668554,
            5.3
          ],
          [
            3.000649,
            42.668546,
            4.72
          ],
          [
            3.00074,
            42.668516,
            4.51
          ],
          [
            3.000799,
            42.668461,
            4.22
          ],
          [
            3.000941,
            42.668485,
            2.79
          ],
          [
            3.000957,
            42.668386,
            2.61
          ],
          [
            3.000939,
            42.668307,
            2.42
          ],
          [
            3.000872,
            42.668181,
            2.15
          ],
          [
            3.000614,
            42.66782,
            2.21
          ],
          [
            3.000558,
            42.667766,
            2.0
          ],
          [
            3.000644,
            42.667733,
            1.7
          ],
          [
            3.00077,
            42.667662,
            1.07
          ],
          [
            3.001169,
            42.66739,
            1.75
          ],
          [
            3.001226,
            42.667343,
            1.78
          ],
          [
            3.0014,
            42.667126,
            1.88
          ],
          [
            3.001462,
            42.667017,
            1.99
          ],
          [
            3.001542,
            42.666988,
            2.0
          ],
          [
            3.001649,
            42.666907,
            2.0
          ],
          [
            3.001759,
            42.666787,
            2.0
          ],
          [
            3.001837,
            42.666739,
            2.0
          ],
          [
            3.002038,
            42.666639,
            2.0
          ],
          [
            3.002264,
            42.666538,
            2.0
          ],
          [
            3.002339,
            42.666479,
            2.0
          ],
          [
            3.002392,
            42.666457,
            2.0
          ],
          [
            3.002649,
            42.666316,
            2.0
          ],
          [
            3.00281,
            42.666427,
            2.0
          ],
          [
            3.002941,
            42.666484,
            2.0
          ],
          [
            3.003111,
            42.666641,
            2.0
          ],
          [
            3.003623,
            42.666985,
            2.0
          ],
          [
            3.003816,
            42.667139,
            2.0
          ],
          [
            3.004006,
            42.667328,
            2.0
          ],
          [
            3.004269,
            42.667462,
            2.0
          ],
          [
            3.00449,
            42.667603,
            2.0
          ],
          [
            3.004934,
            42.667861,
            2.0
          ],
          [
            3.005189,
            42.668052,
            2.0
          ],
          [
            3.005409,
            42.668197,
            2.0
          ],
          [
            3.00554,
            42.668239,
            2.0
          ],
          [
            3.006385,
            42.668355,
            1.96
          ],
          [
            3.006552,
            42.668405,
            1.95
          ],
          [
            3.00682,
            42.668506,
            1.89
          ],
          [
            3.007268,
            42.668642,
            1.81
          ],
          [
            3.007759,
            42.668951,
            1.73
          ],
          [
            3.008177,
            42.669158,
            1.6
          ],
          [
            3.008384,
            42.669291,
            1.53
          ],
          [
            3.008628,
            42.669513,
            1.4
          ],
          [
            3.008845,
            42.669764,
            1.14
          ],
          [
            3.009889,
            42.67048,
            1.87
          ],
          [
            3.01014,
            42.670827,
            1.91
          ],
          [
            3.010349,
            42.670919,
            1.91
          ],
          [
            3.010409,
            42.670965,
            1.9
          ],
          [
            3.010531,
            42.671092,
            1.87
          ],
          [
            3.010572,
            42.671192,
            1.83
          ],
          [
            3.010634,
            42.671239,
            1.82
          ],
          [
            3.010771,
            42.671297,
            1.78
          ],
          [
            3.011039,
            42.671353,
            1.62
          ],
          [
            3.011125,
            42.671403,
            1.53
          ],
          [
            3.011252,
            42.671446,
            1.44
          ],
          [
            3.011355,
            42.671513,
            1.37
          ],
          [
            3.011479,
            42.671622,
            1.3
          ],
          [
            3.011602,
            42.671754,
            1.19
          ],
          [
            3.011814,
            42.6719,
            1.06
          ],
          [
            3.012037,
            42.672087,
            0.96
          ],
          [
            3.012251,
            42.67229,
            0.92
          ],
          [
            3.012332,
            42.672347,
            0.93
          ],
          [
            3.012383,
            42.672432,
            0.95
          ],
          [
            3.012565,
            42.67255,
            0.98
          ],
          [
            3.012643,
            42.672629,
            0.99
          ],
          [
            3.012761,
            42.67273,
            0.98
          ],
          [
            3.012804,
            42.672817,
            0.98
          ],
          [
            3.012922,
            42.672911,
            0.98
          ],
          [
            3.012994,
            42.672998,
            0.98
          ],
          [
            3.013088,
            42.673073,
            0.97
          ],
          [
            3.013206,
            42.673185,
            0.93
          ],
          [
            3.01334,
            42.673284,
            0.74
          ],
          [
            3.01334,
            42.673284,
            0.74
          ],
          [
            3.013206,
            42.673185,
            0.93
          ],
          [
            3.013088,
            42.673073,
            0.97
          ],
          [
            3.012994,
            42.672998,
            0.98
          ],
          [
            3.012922,
            42.672911,
            0.98
          ],
          [
            3.012804,
            42.672817,
            0.98
          ],
          [
            3.012761,
            42.67273,
            0.98
          ],
          [
            3.012643,
            42.672629,
            0.99
          ],
          [
            3.012565,
            42.67255,
            0.98
          ],
          [
            3.012383,
            42.672432,
            0.95
          ],
          [
            3.012332,
            42.672347,
            0.93
          ],
          [
            3.012251,
            42.67229,
            0.92
          ],
          [
            3.012037,
            42.672087,
            0.96
          ],
          [
            3.011814,
            42.6719,
            1.06
          ],
          [
            3.011602,
            42.671754,
            1.19
          ],
          [
            3.011479,
            42.671622,
            1.3
          ],
          [
            3.011355,
            42.671513,
            1.37
          ],
          [
            3.011252,
            42.671446,
            1.44
          ],
          [
            3.011125,
            42.671403,
            1.53
          ],
          [
            3.011039,
            42.671353,
            1.62
          ],
          [
            3.010771,
            42.671297,
            1.78
          ],
          [
            3.010634,
            42.671239,
            1.82
          ],
          [
            3.010572,
            42.671192,
            1.83
          ],
          [
            3.010531,
            42.671092,
            1.87
          ],
          [
            3.010409,
            42.670965,
            1.9
          ],
          [
            3.010349,
            42.670919,
            1.91
          ],
          [
            3.01014,
            42.670827,
            1.91
          ],
          [
            3.009889,
            42.67048,
            1.87
          ],
          [
            3.008845,
            42.669764,
            1.14
          ],
          [
            3.008628,
            42.669513,
            1.4
          ],
          [
            3.008384,
            42.669291,
            1.53
          ],
          [
            3.008177,
            42.669158,
            1.6
          ],
          [
            3.007759,
            42.668951,
            1.73
          ],
          [
            3.007268,
            42.668642,
            1.81
          ],
          [
            3.00682,
            42.668506,
            1.89
          ],
          [
            3.006552,
            42.668405,
            1.95
          ],
          [
            3.006385,
            42.668355,
            1.96
          ],
          [
            3.00554,
            42.668239,
            2.0
          ],
          [
            3.005409,
            42.668197,
            2.0
          ],
          [
            3.005189,
            42.668052,
            2.0
          ],
          [
            3.004934,
            42.667861,
            2.0
          ],
          [
            3.00449,
            42.667603,
            2.0
          ],
          [
            3.004269,
            42.667462,
            2.0
          ],
          [
            3.004006,
            42.667328,
            2.0
          ],
          [
            3.003816,
            42.667139,
            2.0
          ],
          [
            3.003623,
            42.666985,
            2.0
          ],
          [
            3.003111,
            42.666641,
            2.0
          ],
          [
            3.002941,
            42.666484,
            2.0
          ],
          [
            3.00281,
            42.666427,
            2.0
          ],
          [
            3.002649,
            42.666316,
            2.0
          ],
          [
            3.002392,
            42.666457,
            2.0
          ],
          [
            3.002339,
            42.666479,
            2.0
          ],
          [
            3.002264,
            42.666538,
            2.0
          ],
          [
            3.002038,
            42.666639,
            2.0
          ],
          [
            3.001837,
            42.666739,
            2.0
          ],
          [
            3.001759,
            42.666787,
            2.0
          ],
          [
            3.001649,
            42.666907,
            2.0
          ],
          [
            3.001542,
            42.666988,
            2.0
          ],
          [
            3.001462,
            42.667017,
            1.99
          ],
          [
            3.0014,
            42.667126,
            1.88
          ],
          [
            3.001226,
            42.667343,
            1.78
          ],
          [
            3.001169,
            42.66739,
            1.75
          ],
          [
            3.00077,
            42.667662,
            1.07
          ],
          [
            3.000644,
            42.667733,
            1.7
          ],
          [
            3.000558,
            42.667766,
            2.0
          ],
          [
            3.000614,
            42.66782,
            2.21
          ],
          [
            3.000872,
            42.668181,
            2.15
          ],
          [
            3.000939,
            42.668307,
            2.42
          ],
          [
            3.000957,
            42.668386,
            2.61
          ],
          [
            3.000941,
            42.668485,
            2.79
          ],
          [
            3.000799,
            42.668461,
            4.22
          ],
          [
            3.00074,
            42.668516,
            4.51
          ],
          [
            3.000649,
            42.668546,
            4.72
          ],
          [
            3.000413,
            42.668554,
            5.3
          ],
          [
            3.000247,
            42.668581,
            5.76
          ],
          [
            2.999946,
            42.668603,
            6.58
          ],
          [
            2.99975,
            42.668601,
            7.15
          ],
          [
            2.999544,
            42.668577,
            7.9
          ],
          [
            2.999407,
            42.668583,
            8.23
          ],
          [
            2.999218,
            42.668563,
            9.0
          ],
          [
            2.998999,
            42.668542,
            9.71
          ],
          [
            2.998771,
            42.668544,
            10.0
          ],
          [
            2.997253,
            42.668605,
            11.0
          ],
          [
            2.996859,
            42.668627,
            11.3
          ],
          [
            2.996757,
            42.668625,
            11.68
          ],
          [
            2.996368,
            42.668642,
            12.0
          ],
          [
            2.996314,
            42.66865,
            12.02
          ],
          [
            2.996041,
            42.668636,
            12.59
          ],
          [
            2.995298,
            42.668684,
            13.0
          ],
          [
            2.995306,
            42.668783,
            13.0
          ],
          [
            2.995266,
            42.669465,
            11.8
          ],
          [
            2.995279,
            42.669802,
            8.81
          ],
          [
            2.995263,
            42.669957,
            6.93
          ],
          [
            2.995124,
            42.670216,
            4.64
          ],
          [
            2.995038,
            42.670339,
            3.66
          ],
          [
            2.994896,
            42.67047,
            3.16
          ],
          [
            2.994743,
            42.670552,
            3.0
          ],
          [
            2.994644,
            42.670569,
            3.0
          ],
          [
            2.994523,
            42.670643,
            2.39
          ],
          [
            2.994367,
            42.670779,
            1.64
          ],
          [
            2.994131,
            42.671004,
            1.32
          ],
          [
            2.993946,
            42.671288,
            1.04
          ],
          [
            2.993906,
            42.671517,
            1.0
          ],
          [
            2.993866,
            42.671681,
            1.0
          ],
          [
            2.993734,
            42.671911,
            1.0
          ],
          [
            2.99374,
            42.672063,
            1.0
          ],
          [
            2.993619,
            42.67229,
            1.0
          ],
          [
            2.993572,
            42.672406,
            1.0
          ],
          [
            2.993478,
            42.672497,
            1.03
          ],
          [
            2.99306,
            42.672742,
            1.23
          ],
          [
            2.992421,
            42.673164,
            1.44
          ],
          [
            2.992207,
            42.673288,
            1.49
          ],
          [
            2.992032,
            42.673333,
            1.51
          ],
          [
            2.991273,
            42.673384,
            1.83
          ],
          [
            2.991026,
            42.673375,
            1.9
          ],
          [
            2.989841,
            42.673231,
            2.33
          ],
          [
            2.989388,
            42.673193,
            2.41
          ],
          [
            2.989004,
            42.673211,
            2.4
          ],
          [
            2.988384,
            42.673189,
            3.0
          ],
          [
            2.98825,
            42.673171,
            3.13
          ],
          [
            2.988056,
            42.673026,
            4.0
          ],
          [
            2.988025,
            42.673048,
            4.0
          ],
          [
            2.988067,
            42.673126,
            3.73
          ],
          [
            2.988074,
            42.673161,
            3.62
          ],
          [
            2.988046,
            42.673176,
            3.56
          ],
          [
            2.987998,
            42.673178,
            3.72
          ],
          [
            2.987967,
            42.673193,
            3.67
          ],
          [
            2.987933,
            42.673251,
            2.52
          ],
          [
            2.987856,
            42.673451,
            1.4
          ],
          [
            2.987801,
            42.673705,
            3.73
          ],
          [
            2.987792,
            42.673847,
            3.84
          ],
          [
            2.987805,
            42.673922,
            3.81
          ],
          [
            2.987886,
            42.674206,
            3.95
          ],
          [
            2.987985,
            42.674413,
            4.0
          ],
          [
            2.988338,
            42.674984,
            3.77
          ],
          [
            2.988425,
            42.6751,
            3.61
          ],
          [
            2.988664,
            42.675317,
            3.37
          ],
          [
            2.99033,
            42.676524,
            2.32
          ],
          [
            2.991181,
            42.677124,
            2.0
          ],
          [
            2.991452,
            42.677327,
            2.31
          ],
          [
            2.991664,
            42.677525,
            2.33
          ],
          [
            2.991918,
            42.677802,
            2.71
          ],
          [
            2.993116,
            42.679033,
            2.14
          ],
          [
            2.993332,
            42.67929,
            2.46
          ],
          [
            2.993405,
            42.679407,
            2.21
          ],
          [
            2.993458,
            42.679519,
            2.03
          ],
          [
            2.993736,
            42.679899,
            1.51
          ],
          [
            2.993794,
            42.680005,
            1.74
          ],
          [
            2.993961,
            42.680225,
            1.51
          ],
          [
            2.994414,
            42.680859,
            1.85
          ],
          [
            2.994688,
            42.681389,
            3.0
          ],
          [
            2.99546,
            42.683015,
            4.15
          ],
          [
            2.996024,
            42.684217,
            4.0
          ],
          [
            2.996282,
            42.684799,
            3.75
          ],
          [
            2.996603,
            42.685417,
            3.0
          ],
          [
            2.996887,
            42.685475,
            3.0
          ],
          [
            2.997087,
            42.685485,
            3.0
          ],
          [
            2.997358,
            42.68552,
            3.0
          ],
          [
            2.997904,
            42.685626,
            3.0
          ],
          [
            2.999025,
            42.685778,
            2.96
          ],
          [
            2.999383,
            42.685784,
            2.8
          ],
          [
            2.999649,
            42.685736,
            2.6
          ],
          [
            2.999973,
            42.685644,
            2.28
          ],
          [
            3.000131,
            42.68553,
            2.05
          ],
          [
            3.000479,
            42.685393,
            1.5
          ],
          [
            3.000855,
            42.685116,
            1.0
          ],
          [
            3.000973,
            42.685071,
            1.1
          ],
          [
            3.001139,
            42.685063,
            1.05
          ],
          [
            3.001238,
            42.68509,
            1.04
          ],
          [
            3.001848,
            42.685404,
            1.0
          ],
          [
            3.003125,
            42.686013,
            1.06
          ],
          [
            3.003302,
            42.68611,
            1.06
          ],
          [
            3.003591,
            42.686252,
            1.06
          ],
          [
            3.00369,
            42.686273,
            1.06
          ],
          [
            3.003766,
            42.686275,
            1.06
          ],
          [
            3.003833,
            42.686289,
            1.06
          ],
          [
            3.003924,
            42.686335,
            1.06
          ],
          [
            3.004015,
            42.68636,
            1.06
          ],
          [
            3.005005,
            42.686549,
            1.0
          ],
          [
            3.005396,
            42.686614,
            1.0
          ],
          [
            3.005815,
            42.686656,
            1.0
          ],
          [
            3.00635,
            42.686662,
            1.0
          ],
          [
            3.006858,
            42.686644,
            1.0
          ],
          [
            3.007299,
            42.686612,
            1.0
          ],
          [
            3.00749,
            42.686588,
            1.44
          ],
          [
            3.00814,
            42.686609,
            1.15
          ],
          [
            3.008242,
            42.686597,
            1.1
          ],
          [
            3.008417,
            42.68654,
            1.01
          ],
          [
            3.00857,
            42.686536,
            1.0
          ],
          [
            3.008873,
            42.686511,
            1.0
          ],
          [
            3.008942,
            42.686551,
            1.14
          ],
          [
            3.009063,
            42.686664,
            1.5
          ],
          [
            3.009082,
            42.686735,
            1.38
          ],
          [
            3.009141,
            42.687022,
            1.19
          ],
          [
            3.009211,
            42.687482,
            1.19
          ],
          [
            3.009256,
            42.687576,
            1.24
          ],
          [
            3.009288,
            42.687864,
            1.43
          ],
          [
            3.009326,
            42.687996,
            1.58
          ],
          [
            3.009404,
            42.68813,
            1.75
          ],
          [
            3.009425,
            42.688225,
            1.89
          ],
          [
            3.009414,
            42.688466,
            2.26
          ],
          [
            3.009422,
            42.688556,
            2.34
          ],
          [
            3.009361,
            42.68874,
            2.74
          ],
          [
            3.009385,
            42.688799,
            2.85
          ],
          [
            3.009428,
            42.688856,
            3.09
          ],
          [
            3.009502,
            42.688892,
            3.78
          ],
          [
            3.009481,
            42.689495,
            2.76
          ],
          [
            3.00943,
            42.689597,
            2.64
          ],
          [
            3.009429,
            42.690103,
            2.39
          ],
          [
            3.009393,
            42.690187,
            2.4
          ],
          [
            3.009409,
            42.690332,
            2.42
          ],
          [
            3.009451,
            42.690403,
            2.43
          ],
          [
            3.00943,
            42.690591,
            2.49
          ],
          [
            3.009435,
            42.690736,
            2.55
          ],
          [
            3.009464,
            42.69094,
            2.68
          ],
          [
            3.009448,
            42.690992,
            2.71
          ],
          [
            3.009539,
            42.69118,
            2.58
          ],
          [
            3.009598,
            42.691212,
            2.56
          ],
          [
            3.009792,
            42.691418,
            2.86
          ],
          [
            3.009886,
            42.691452,
            2.99
          ],
          [
            3.009978,
            42.691452,
            3.25
          ],
          [
            3.010105,
            42.691428,
            4.5
          ],
          [
            3.010204,
            42.691351,
            5.16
          ],
          [
            3.010343,
            42.691313,
            5.46
          ],
          [
            3.010804,
            42.691282,
            5.92
          ],
          [
            3.011444,
            42.691137,
            6.35
          ],
          [
            3.011859,
            42.691066,
            6.0
          ],
          [
            3.012119,
            42.691002,
            7.28
          ],
          [
            3.012341,
            42.690964,
            8.79
          ],
          [
            3.012436,
            42.690978,
            10.11
          ],
          [
            3.012536,
            42.691101,
            10.84
          ],
          [
            3.012645,
            42.691293,
            11.65
          ],
          [
            3.012737,
            42.691339,
            11.99
          ],
          [
            3.012859,
            42.691347,
            13.26
          ],
          [
            3.013357,
            42.691244,
            15.0
          ],
          [
            3.019032,
            42.690155,
            12.0
          ],
          [
            3.020429,
            42.68988,
            12.0
          ],
          [
            3.020646,
            42.68982,
            12.0
          ],
          [
            3.021461,
            42.689672,
            11.0
          ],
          [
            3.021054,
            42.688561,
            11.0
          ],
          [
            3.023586,
            42.688045,
            8.36
          ],
          [
            3.023733,
            42.688436,
            7.52
          ],
          [
            3.023841,
            42.688679,
            7.64
          ],
          [
            3.023841,
            42.688783,
            8.3
          ],
          [
            3.024342,
            42.688694,
            7.75
          ],
          [
            3.024533,
            42.688692,
            8.09
          ],
          [
            3.02475,
            42.688755,
            8.56
          ],
          [
            3.024869,
            42.688826,
            9.19
          ],
          [
            3.024938,
            42.688937,
            10.0
          ],
          [
            3.024875,
            42.689023,
            10.0
          ],
          [
            3.024709,
            42.689162,
            10.04
          ],
          [
            3.024802,
            42.689317,
            9.82
          ],
          [
            3.025481,
            42.69065,
            1.73
          ],
          [
            3.025572,
            42.690875,
            1.61
          ],
          [
            3.025659,
            42.690796,
            1.39
          ],
          [
            3.02574,
            42.690645,
            1.16
          ],
          [
            3.02594,
            42.690455,
            1.11
          ],
          [
            3.026339,
            42.6901,
            1.17
          ],
          [
            3.026836,
            42.68968,
            1.49
          ],
          [
            3.027602,
            42.689054,
            1.75
          ],
          [
            3.028318,
            42.688427,
            1.69
          ],
          [
            3.028371,
            42.688364,
            1.69
          ],
          [
            3.028415,
            42.688264,
            1.69
          ],
          [
            3.028449,
            42.68782,
            1.69
          ],
          [
            3.028479,
            42.687666,
            1.7
          ],
          [
            3.028507,
            42.687256,
            1.87
          ],
          [
            3.028535,
            42.686528,
            1.85
          ],
          [
            3.028551,
            42.686367,
            1.82
          ],
          [
            3.028529,
            42.68601,
            1.77
          ],
          [
            3.028543,
            42.685875,
            1.73
          ],
          [
            3.028601,
            42.685686,
            1.74
          ],
          [
            3.028626,
            42.685539,
            1.76
          ],
          [
            3.028596,
            42.685027,
            1.52
          ],
          [
            3.028598,
            42.684815,
            1.4
          ],
          [
            3.028585,
            42.684737,
            1.35
          ],
          [
            3.028546,
            42.684629,
            1.24
          ],
          [
            3.028476,
            42.684539,
            1.14
          ],
          [
            3.028343,
            42.684435,
            1.08
          ],
          [
            3.028329,
            42.684406,
            1.07
          ],
          [
            3.02834,
            42.684366,
            1.03
          ],
          [
            3.028603,
            42.684483,
            1.47
          ],
          [
            3.02867,
            42.684494,
            1.74
          ],
          [
            3.028772,
            42.684487,
            2.0
          ],
          [
            3.028451,
            42.683513,
            1.86
          ],
          [
            3.028386,
            42.68326,
            1.79
          ],
          [
            3.028325,
            42.682986,
            1.77
          ],
          [
            3.02828,
            42.682672,
            1.84
          ],
          [
            3.028244,
            42.682317,
            1.87
          ],
          [
            3.02823,
            42.682035,
            1.93
          ],
          [
            3.028229,
            42.681694,
            1.98
          ],
          [
            3.028255,
            42.681291,
            1.92
          ],
          [
            3.028308,
            42.680894,
            1.92
          ],
          [
            3.028371,
            42.68056,
            1.93
          ],
          [
            3.02846,
            42.680243,
            2.0
          ],
          [
            3.028336,
            42.680126,
            1.88
          ],
          [
            3.02829,
            42.680066,
            1.67
          ],
          [
            3.028285,
            42.680033,
            1.65
          ],
          [
            3.028296,
            42.679901,
            1.65
          ],
          [
            3.028258,
            42.679469,
            1.54
          ],
          [
            3.028269,
            42.679321,
            1.81
          ],
          [
            3.028266,
            42.679142,
            2.15
          ],
          [
            3.028288,
            42.678899,
            2.99
          ],
          [
            3.028041,
            42.678793,
            1.96
          ],
          [
            3.027987,
            42.678733,
            1.75
          ],
          [
            3.027971,
            42.678649,
            1.54
          ]
        ]
      }
    },
    {
      "type": "Feature",
      "properties": {
        "source": "Étang_de_Canet.gpx",
        "type": "route"
      },
      "geometry": {
        "type": "LineString",
        "coordinates": [
          [
            2.985463,
            42.665489
          ],
          [
            2.984695,
            42.665869
          ],
          [
            2.984607,
            42.666018
          ],
          [
            2.987251,
            42.667143
          ],
          [
            2.991059,
            42.668517
          ],
          [
            2.991072,
            42.668481
          ],
          [
            2.991299,
            42.668567
          ],
          [
            2.99157,
            42.668247
          ],
          [
            2.995298,
            42.668684
          ],
          [
            2.999544,
            42.668577
          ],
          [
            3.000799,
            42.668461
          ],
          [
            3.000941,
            42.668485
          ],
          [
            3.000558,
            42.667766
          ],
          [
            3.002038,
            42.666639
          ],
          [
            3.002649,
            42.666316
          ],
          [
            3.01334,
            42.673284
          ],
          [
            3.01334,
            42.673284
          ],
          [
            3.002649,
            42.666316
          ],
          [
            3.000558,
            42.667766
          ],
          [
            3.000941,
            42.668485
          ],
          [
            3.000799,
            42.668461
          ],
          [
            2.999544,
            42.668577
          ],
          [
            2.999218,
            42.668563
          ],
          [
            2.995298,
            42.668684
          ],
          [
            2.995038,
            42.670339
          ],
          [
            2.994644,
            42.670569
          ],
          [
            2.993572,
            42.672406
          ],
          [
            2.988056,
            42.673026
          ],
          [
            2.987998,
            42.673178
          ],
          [
            2.996603,
            42.685417
          ],
          [
            3.000855,
            42.685116
          ],
          [
            3.008873,
            42.686511
          ],
          [
            3.009502,
            42.688892
          ],
          [
            3.021461,
            42.689672
          ],
          [
            3.021054,
            42.688561
          ],
          [
            3.023586,
            42.688045
          ],
          [
            3.023841,
            42.688783
          ],
          [
            3.024709,
            42.689162
          ],
          [
            3.025572,
            42.690875
          ],
          [
            3.02834,
            42.684366
          ],
          [
            3.028772,
            42.684487
          ],
          [
            3.02846,
            42.680243
          ],
          [
            3.028296,
            42.679901
          ],
          [
            3.028288,
            42.678899
          ],
          [
            3.027971,
            42.678649
          ]
        ]
      }
    }
  ]
}