{
  "type": "FeatureCollection",
  "features": [
    {
      "type": "Feature",
      "properties": {
        "name": "GraphHopper Track",
        "source": "Coteaux_et_Vallons.gpx",
        "type": "track"
      },
      "geometry": {
        "type": "LineString",
        "coordinates": [
          [
            -0.034531,
            43.758139,
            105.09
          ],
          [
            -0.034198,
            43.757905,
            105.68
          ],
          [
            -0.033087,
            43.758906,
            103.0
          ],
          [
            -0.032343,
            43.759547,
            101.96
          ],
          [
            -0.031669,
            43.760176,
            98.11
          ],
          [
            -0.031578,
            43.760269,
            97.98
          ],
          [
            -0.030163,
            43.761539,
            98.0
          ],
          [
            -0.030106,
            43.761607,
            98.0
          ],
          [
            -0.030073,
            43.761667,
            98.0
          ],
          [
            -0.029992,
            43.761693,
            98.0
          ],
          [
            -0.029172,
            43.76243,
            97.85
          ],
          [
            -0.029086,
            43.762374,
            98.0
          ],
          [
            -0.029011,
            43.761977,
            97.1
          ],
          [
            -0.029019,
            43.761823,
            97.0
          ],
          [
            -0.02885,
            43.761803,
            97.08
          ],
          [
            -0.028748,
            43.761814,
            97.25
          ],
          [
            -0.028453,
            43.761829,
            97.52
          ],
          [
            -0.028394,
            43.761837,
            97.58
          ],
          [
            -0.028347,
            43.761853,
            97.63
          ],
          [
            -0.028,
            43.762152,
            97.93
          ],
          [
            -0.028,
            43.762152,
            97.93
          ],
          [
            -0.028347,
            43.761853,
            97.63
          ],
          [
            -0.028394,
            43.761837,
            97.58
          ],
          [
            -0.02885,
            43.761803,
            97.08
          ],
          [
            -0.029019,
            43.761823,
            97.0
          ],
          [
            -0.029058,
            43.761652,
            96.94
          ],
          [
            -0.029046,
            43.761573,
            96.83
          ],
          [
            -0.028984,
            43.761361,
            96.63
          ],
          [
            -0.028841,
            43.760995,
            96.5
          ],
          [
            -0.028527,
            43.760342,
            96.42
          ],
          [
            -0.028531,
            43.76025,
            96.85
          ],
          [
            -0.028669,
            43.760072,
            97.45
          ],
          [
            -0.028698,
            43.759999,
            97.56
          ],
          [
            -0.02869,
            43.759878,
            97.72
          ],
          [
            -0.028557,
            43.759326,
            98.0
          ],
          [
            -0.029088,
            43.759253,
            98.0
          ],
          [
            -0.029032,
            43.759043,
            98.0
          ],
          [
            -0.029265,
            43.75901,
            98.0
          ],
          [
            -0.028673,
            43.756751,
            98.0
          ],
          [
            -0.028312,
            43.755671,
            98.1
          ],
          [
            -0.028239,
            43.755398,
            98.15
          ],
          [
            -0.028231,
            43.755297,
            98.11
          ],
          [
            -0.028257,
            43.755216,
            98.09
          ],
          [
            -0.028289,
            43.755165,
            98.12
          ],
          [
            -0.028356,
            43.755101,
            98.31
          ],
          [
            -0.028579,
            43.754976,
            98.61
          ],
          [
            -0.029103,
            43.75472,
            99.0
          ],
          [
            -0.029194,
            43.754694,
            99.02
          ],
          [
            -0.029964,
            43.75472,
            101.0
          ],
          [
            -0.02983,
            43.75418,
            101.43
          ],
          [
            -0.029821,
            43.754079,
            101.52
          ],
          [
            -0.029834,
            43.75398,
            101.8
          ],
          [
            -0.029865,
            43.753893,
            102.0
          ],
          [
            -0.029744,
            43.753862,
            101.99
          ],
          [
            -0.029711,
            43.753842,
            101.99
          ],
          [
            -0.029693,
            43.75381,
            101.99
          ],
          [
            -0.029704,
            43.753734,
            102.0
          ],
          [
            -0.029666,
            43.753686,
            102.0
          ],
          [
            -0.029634,
            43.753583,
            102.14
          ],
          [
            -0.029678,
            43.753455,
            102.24
          ],
          [
            -0.029664,
            43.753403,
            102.31
          ],
          [
            -0.029629,
            43.753353,
            102.36
          ],
          [
            -0.029584,
            43.75332,
            102.28
          ],
          [
            -0.029564,
            43.753287,
            102.32
          ],
          [
            -0.029561,
            43.753246,
            102.59
          ],
          [
            -0.029573,
            43.753209,
            102.86
          ],
          [
            -0.029605,
            43.75317,
            103.04
          ],
          [
            -0.029569,
            43.753152,
            102.97
          ],
          [
            -0.029529,
            43.753113,
            102.97
          ],
          [
            -0.029517,
            43.753071,
            102.99
          ],
          [
            -0.029522,
            43.753025,
            103.01
          ],
          [
            -0.029545,
            43.752997,
            103.04
          ],
          [
            -0.029608,
            43.752962,
            103.14
          ],
          [
            -0.029563,
            43.752913,
            103.04
          ],
          [
            -0.029499,
            43.752811,
            103.09
          ],
          [
            -0.029469,
            43.752733,
            103.19
          ],
          [
            -0.029111,
            43.751239,
            101.38
          ],
          [
            -0.028455,
            43.748739,
            114.86
          ],
          [
            -0.027952,
            43.748751,
            113.0
          ],
          [
            -0.02785,
            43.748769,
            112.56
          ],
          [
            -0.027728,
            43.748778,
            111.67
          ],
          [
            -0.027543,
            43.748767,
            110.0
          ],
          [
            -0.027449,
            43.748737,
            109.63
          ],
          [
            -0.027228,
            43.748637,
            109.2
          ],
          [
            -0.023413,
            43.74658,
            103.33
          ],
          [
            -0.022712,
            43.746223,
            103.01
          ],
          [
            -0.022506,
            43.746099,
            103.0
          ],
          [
            -0.022391,
            43.746015,
            103.07
          ],
          [
            -0.022308,
            43.745935,
            103.19
          ],
          [
            -0.022054,
            43.74554,
            103.51
          ],
          [
            -0.021988,
            43.745474,
            103.56
          ],
          [
            -0.021895,
            43.745428,
            103.5
          ],
          [
            -0.021798,
            43.745408,
            103.33
          ],
          [
            -0.0217,
            43.74541,
            103.63
          ],
          [
            -0.021761,
            43.745355,
            103.63
          ],
          [
            -0.02194,
            43.745269,
            104.09
          ],
          [
            -0.023522,
            43.744636,
            109.48
          ],
          [
            -0.023564,
            43.744587,
            109.67
          ],
          [
            -0.023587,
            43.744537,
            109.84
          ],
          [
            -0.02362,
            43.744005,
            111.67
          ],
          [
            -0.023618,
            43.743805,
            112.38
          ],
          [
            -0.023586,
            43.743613,
            113.12
          ],
          [
            -0.023086,
            43.742052,
            118.49
          ],
          [
            -0.022989,
            43.741575,
            120.71
          ],
          [
            -0.022997,
            43.741383,
            121.53
          ],
          [
            -0.023126,
            43.740891,
            123.36
          ],
          [
            -0.02337,
            43.740089,
            125.4
          ],
          [
            -0.023606,
            43.738661,
            133.54
          ],
          [
            -0.023602,
            43.738555,
            133.88
          ],
          [
            -0.023573,
            43.738401,
            133.9
          ],
          [
            -0.02401,
            43.737121,
            136.99
          ],
          [
            -0.024029,
            43.73701,
            137.34
          ],
          [
            -0.024028,
            43.736911,
            137.34
          ],
          [
            -0.024084,
            43.736774,
            137.03
          ],
          [
            -0.024078,
            43.736618,
            137.0
          ],
          [
            -0.024377,
            43.736602,
            138.0
          ],
          [
            -0.024303,
            43.734065,
            137.45
          ],
          [
            -0.024312,
            43.73388,
            138.05
          ],
          [
            -0.024359,
            43.733711,
            138.65
          ],
          [
            -0.024482,
            43.733496,
            139.34
          ],
          [
            -0.024331,
            43.733437,
            139.0
          ],
          [
            -0.024224,
            43.732949,
            139.55
          ],
          [
            -0.024199,
            43.732702,
            139.55
          ],
          [
            -0.024254,
            43.732382,
            139.21
          ],
          [
            -0.024254,
            43.732256,
            139.6
          ],
          [
            -0.02407,
            43.730855,
            135.94
          ],
          [
            -0.024029,
            43.730741,
            135.57
          ],
          [
            -0.023891,
            43.730584,
            134.96
          ],
          [
            -0.023774,
            43.730377,
            135.48
          ],
          [
            -0.02315,
            43.729018,
            135.78
          ],
          [
            -0.023078,
            43.728811,
            134.34
          ],
          [
            -0.022789,
            43.727603,
            126.38
          ],
          [
            -0.02271,
            43.727401,
            125.51
          ],
          [
            -0.022604,
            43.727203,
            124.65
          ],
          [
            -0.021983,
            43.726173,
            116.65
          ],
          [
            -0.021947,
            43.726065,
            115.53
          ],
          [
            -0.021845,
            43.725671,
            113.58
          ],
          [
            -0.02162,
            43.724853,
            120.85
          ],
          [
            -0.021578,
            43.724756,
            122.02
          ],
          [
            -0.021525,
            43.724691,
            122.92
          ],
          [
            -0.021424,
            43.724599,
            124.39
          ],
          [
            -0.018436,
            43.72282,
            139.18
          ],
          [
            -0.018291,
            43.722726,
            139.53
          ],
          [
            -0.018128,
            43.722596,
            139.95
          ],
          [
            -0.01775,
            43.722222,
            141.0
          ],
          [
            -0.016356,
            43.720997,
            142.81
          ],
          [
            -0.016195,
            43.72084,
            142.0
          ],
          [
            -0.016938,
            43.720614,
            141.66
          ],
          [
            -0.018079,
            43.720376,
            140.92
          ],
          [
            -0.020265,
            43.719727,
            140.51
          ],
          [
            -0.020575,
            43.719615,
            140.59
          ],
          [
            -0.021808,
            43.718988,
            144.39
          ],
          [
            -0.022187,
            43.718838,
            145.41
          ],
          [
            -0.022336,
            43.718764,
            145.65
          ],
          [
            -0.022453,
            43.718682,
            145.63
          ],
          [
            -0.022508,
            43.718566,
            145.83
          ],
          [
            -0.022818,
            43.717625,
            146.46
          ],
          [
            -0.023124,
            43.716782,
            148.54
          ],
          [
            -0.02319,
            43.716613,
            149.72
          ],
          [
            -0.023233,
            43.716535,
            150.08
          ],
          [
            -0.023283,
            43.71647,
            150.32
          ],
          [
            -0.023324,
            43.71644,
            150.33
          ],
          [
            -0.0223,
            43.715423,
            152.01
          ],
          [
            -0.020613,
            43.713756,
            142.48
          ],
          [
            -0.020393,
            43.713497,
            141.61
          ],
          [
            -0.020327,
            43.71336,
            141.54
          ],
          [
            -0.020284,
            43.713244,
            141.63
          ],
          [
            -0.019324,
            43.70947,
            146.0
          ],
          [
            -0.01884,
            43.707583,
            140.12
          ],
          [
            -0.018786,
            43.707451,
            140.01
          ],
          [
            -0.018682,
            43.707262,
            140.0
          ],
          [
            -0.018457,
            43.706953,
            140.0
          ],
          [
            -0.015155,
            43.702638,
            143.16
          ]
        ]
      }
    },
    {
      "type": "Feature",
      "properties": {
        "source": "Coteaux_et_Vallons.gpx",
        "type": "route"
      },
      "geometry": {
        "type": "LineString",
        "coordinates": [
          [
            -0.034531,
            43.758139
          ],
          [
            -0.034198,
            43.757905
          ],
          [
            -0.031669,
            43.760176
          ],
          [
            -0.030073,
            43.761667
          ],
          [
            -0.029172,
            43.76243
          ],
          [
            -0.029086,
            43.762374
          ],
          [
            -0.029019,
            43.761823
          ],
          [
            -0.028748,
            43.761814
          ],
          [
            -0.028,
            43.762152
          ],
          [
            -0.028,
            43.762152
          ],
          [
            -0.029019,
            43.761823
          ],
          [
            -0.028527,
            43.760342
          ],
          [
            -0.028557,
            43.759326
          ],
          [
            -0.029088,
            43.759253
          ],
          [
            -0.029032,
            43.759043
          ],
          [
            -0.029265,
            43.75901
          ],
          [
            -0.028673,
            43.756751
          ],
          [
            -0.029964,
            43.75472
          ],
          [
            -0.029865,
            43.753893
          ],
          [
            -0.029704,
            43.753734
          ],
          [
            -0.029605,
            43.75317
          ],
          [
            -0.029608,
            43.752962
          ],
          [
            -0.028455,
            43.748739
          ],
          [
            -0.0217,
            43.74541
          ],
          [
            -0.024028,
            43.736911
          ],
          [
            -0.024078,
            43.736618
          ],
          [
            -0.024377,
            43.736602
          ],
          [
            -0.024482,
            43.733496
          ],
          [
            -0.024331,
            43.733437
          ],
          [
            -0.016195,
            43.72084
          ],
          [
            -0.023324,
            43.71644
          ],
          [
            -0.015155,
            43.702638
          ]
        ]
      }
    }
  ]
}