{
  "type": "FeatureCollection",
  "features": [
    {
      "type": "Feature",
      "properties": {
        "name": "GraphHopper Track",
        "source": "Boucle_Rosières.gpx",
        "type": "track"
      },
      "geometry": {
        "type": "LineString",
        "coordinates": [
          [
            2.181671,
            44.044696,
            260.01
          ],
          [
            2.180749,
            44.043912,
            253.98
          ],
          [
            2.180651,
            44.043814,
            253.33
          ],
          [
            2.180037,
            44.043519,
            251.0
          ],
          [
            2.179372,
            44.043402,
            249.91
          ],
          [
            2.179099,
            44.043323,
            249.16
          ],
          [
            2.178873,
            44.043225,
            247.98
          ],
          [
            2.178679,
            44.043156,
            246.62
          ],
          [
            2.178531,
            44.04359,
            246.04
          ],
          [
            2.178307,
            44.044475,
            243.17
          ],
          [
            2.178061,
            44.045054,
            238.9
          ],
          [
            2.178014,
            44.045454,
            237.06
          ],
          [
            2.177997,
            44.045529,
            236.27
          ],
          [
            2.177957,
            44.045652,
            236.26
          ],
          [
            2.17782,
            44.045823,
            235.75
          ],
          [
            2.177662,
            44.045946,
            235.3
          ],
          [
            2.177274,
            44.046186,
            234.93
          ],
          [
            2.176669,
            44.046536,
            234.6
          ],
          [
            2.175644,
            44.047238,
            233.8
          ],
          [
            2.175541,
            44.047339,
            233.66
          ],
          [
            2.175068,
            44.047864,
            233.53
          ],
          [
            2.175001,
            44.047908,
            233.54
          ],
          [
            2.17475,
            44.048034,
            233.96
          ],
          [
            2.174046,
            44.048351,
            232.57
          ],
          [
            2.173785,
            44.048504,
            232.27
          ],
          [
            2.173713,
            44.048588,
            232.19
          ],
          [
            2.173666,
            44.048685,
            232.14
          ],
          [
            2.173649,
            44.048789,
            232.12
          ],
          [
            2.173737,
            44.04913,
            232.09
          ],
          [
            2.17367,
            44.04934,
            232.43
          ],
          [
            2.173603,
            44.049446,
            232.65
          ],
          [
            2.173472,
            44.049548,
            233.07
          ],
          [
            2.17289,
            44.049802,
            233.28
          ],
          [
            2.172748,
            44.049854,
            233.31
          ],
          [
            2.172576,
            44.049902,
            233.03
          ],
          [
            2.169954,
            44.050407,
            231.33
          ],
          [
            2.169432,
            44.050472,
            231.09
          ],
          [
            2.169432,
            44.050472,
            231.09
          ],
          [
            2.169954,
            44.050407,
            231.33
          ],
          [
            2.172576,
            44.049902,
            233.03
          ],
          [
            2.172748,
            44.049854,
            233.31
          ],
          [
            2.17289,
            44.049802,
            233.28
          ],
          [
            2.173472,
            44.049548,
            233.07
          ],
          [
            2.173603,
            44.049446,
            232.65
          ],
          [
            2.17367,
            44.04934,
            232.43
          ],
          [
            2.173737,
            44.04913,
            232.09
          ],
          [
            2.173649,
            44.048789,
            232.12
          ],
          [
            2.173666,
            44.048685,
            232.14
          ],
          [
            2.173713,
            44.048588,
            232.19
          ],
          [
            2.173785,
            44.048504,
            232.27
          ],
          [
            2.174046,
            44.048351,
            232.57
          ],
          [
            2.17475,
            44.048034,
            233.96
          ],
          [
            2.175001,
            44.047908,
            233.54
          ],
          [
            2.175068,
            44.047864,
            233.53
          ],
          [
            2.175541,
            44.047339,
            233.66
          ],
          [
            2.175644,
            44.047238,
            233.8
          ],
          [
            2.176669,
            44.046536,
            234.6
          ],
          [
            2.177274,
            44.046186,
            234.93
          ],
          [
            2.177662,
            44.045946,
            235.3
          ],
          [
            2.17782,
            44.045823,
            235.75
          ],
          [
            2.177957,
            44.045652,
            236.26
          ],
          [
            2.177997,
            44.045529,
            236.27
          ],
          [
            2.178014,
            44.045454,
            237.06
          ],
          [
            2.178061,
            44.045054,
            238.9
          ],
          [
            2.178307,
            44.044475,
            243.17
          ],
          [
            2.178531,
            44.04359,
            246.04
          ],
          [
            2.178679,
            44.043156,
            246.62
          ],
          [
            2.178873,
            44.043225,
            247.98
          ],
          [
            2.179099,
            44.043323,
            249.16
          ],
          [
            2.179372,
            44.043402,
            249.91
          ],
          [
            2.180037,
            44.043519,
            251.0
          ],
          [
            2.180651,
            44.043814,
            253.33
          ],
          [
            2.180749,
            44.043912,
            253.98
          ],
          [
            2.181671,
            44.044696,
            260.01
          ]
        ]
      }
    },
    {
      "type": "Feature",
      "properties": {
        "source": "Boucle_Rosières.gpx",
        "type": "route"
      },
      "geometry": {
        "type": "LineString",
        "coordinates": [
          [
            2.181671,
            44.044696
          ],
          [
            2.178679,
            44.043156
          ],
          [
            2.169432,
            44.050472
          ],
          [
            2.169432,
            44.050472
          ],
          [
            2.178679,
            44.043156
          ],
          [
            2.180651,
            44.043814
          ],
          [
            2.181671,
            44.044696
          ]
        ]
      }
    }
  ]
}