{
  "type": "FeatureCollection",
  "features": [
    {
      "type": "Feature",
      "properties": {
        "name": "GraphHopper Track",
        "source": "Tour_de_Roucarié.gpx",
        "type": "track"
      },
      "geometry": {
        "type": "LineString",
        "coordinates": [
          [
            2.128164,
            44.075966,
            314.83
          ],
          [
            2.128512,
            44.075853,
            315.47
          ],
          [
            2.129864,
            44.075557,
            316.35
          ],
          [
            2.129711,
            44.074957,
            316.97
          ],
          [
            2.129703,
            44.074837,
            316.9
          ],
          [
            2.129713,
            44.074765,
            316.87
          ],
          [
            2.129771,
            44.074676,
            316.77
          ],
          [
            2.129869,
            44.074616,
            316.63
          ],
          [
            2.130115,
            44.074547,
            316.21
          ],
          [
            2.130226,
            44.074497,
            315.93
          ],
          [
            2.130333,
            44.074439,
            315.66
          ],
          [
            2.130724,
            44.074039,
            314.55
          ],
          [
            2.131112,
            44.073496,
            313.62
          ],
          [
            2.131505,
            44.072728,
            308.86
          ],
          [
            2.131578,
            44.072642,
            308.21
          ],
          [
            2.131734,
            44.072576,
            306.48
          ],
          [
            2.131786,
            44.07242,
            306.55
          ],
          [
            2.131689,
            44.071918,
            304.98
          ],
          [
            2.131729,
            44.071727,
            304.38
          ],
          [
            2.132,
            44.070994,
            301.14
          ],
          [
            2.132118,
            44.070816,
            300.13
          ],
          [
            2.132586,
            44.070168,
            296.44
          ],
          [
            2.132671,
            44.069967,
            295.69
          ],
          [
            2.132652,
            44.069146,
            294.89
          ],
          [
            2.132584,
            44.068668,
            295.84
          ],
          [
            2.132459,
            44.068377,
            296.78
          ],
          [
            2.131986,
            44.067746,
            293.91
          ],
          [
            2.131948,
            44.067587,
            292.42
          ],
          [
            2.132054,
            44.067067,
            287.32
          ],
          [
            2.132025,
            44.066818,
            284.78
          ],
          [
            2.131938,
            44.066631,
            282.56
          ],
          [
            2.13183,
            44.066524,
            281.11
          ],
          [
            2.130048,
            44.064566,
            269.09
          ],
          [
            2.129807,
            44.064455,
            268.84
          ],
          [
            2.129518,
            44.064413,
            268.61
          ],
          [
            2.128524,
            44.064372,
            266.54
          ],
          [
            2.128409,
            44.064281,
            265.87
          ],
          [
            2.12837,
            44.064178,
            265.23
          ],
          [
            2.128495,
            44.064087,
            264.41
          ],
          [
            2.128997,
            44.063984,
            261.6
          ],
          [
            2.12973,
            44.063963,
            257.43
          ],
          [
            2.130405,
            44.063928,
            253.58
          ],
          [
            2.130897,
            44.063845,
            250.43
          ],
          [
            2.131909,
            44.063568,
            243.55
          ],
          [
            2.132237,
            44.063547,
            241.48
          ],
          [
            2.132768,
            44.063609,
            238.1
          ],
          [
            2.133124,
            44.063582,
            235.9
          ],
          [
            2.133636,
            44.063464,
            232.56
          ],
          [
            2.134214,
            44.063284,
            228.93
          ],
          [
            2.134504,
            44.063235,
            227.52
          ],
          [
            2.134976,
            44.063235,
            225.74
          ],
          [
            2.135381,
            44.063325,
            224.54
          ],
          [
            2.135699,
            44.06345,
            224.04
          ],
          [
            2.13595,
            44.063457,
            223.87
          ],
          [
            2.136136,
            44.063435,
            225.44
          ],
          [
            2.136053,
            44.063262,
            225.16
          ],
          [
            2.136003,
            44.063049,
            224.64
          ],
          [
            2.136206,
            44.062748,
            224.65
          ],
          [
            2.13657,
            44.062361,
            224.51
          ],
          [
            2.136743,
            44.062188,
            224.55
          ],
          [
            2.137071,
            44.061895,
            224.49
          ],
          [
            2.137252,
            44.061563,
            224.48
          ],
          [
            2.137416,
            44.061198,
            224.54
          ],
          [
            2.137753,
            44.060817,
            224.36
          ],
          [
            2.137417,
            44.060622,
            220.57
          ],
          [
            2.136386,
            44.060041,
            225.0
          ],
          [
            2.134709,
            44.060676,
            225.82
          ],
          [
            2.133364,
            44.061223,
            227.64
          ],
          [
            2.132873,
            44.061445,
            227.61
          ],
          [
            2.132465,
            44.061568,
            227.37
          ],
          [
            2.132153,
            44.061572,
            227.44
          ],
          [
            2.131846,
            44.061489,
            226.98
          ],
          [
            2.131432,
            44.061332,
            230.0
          ],
          [
            2.131386,
            44.061366,
            230.0
          ],
          [
            2.13132,
            44.061376,
            230.0
          ],
          [
            2.13127,
            44.061364,
            230.0
          ],
          [
            2.131153,
            44.061467,
            229.41
          ],
          [
            2.130755,
            44.061595,
            227.91
          ],
          [
            2.13016,
            44.061871,
            225.32
          ],
          [
            2.129881,
            44.06198,
            224.1
          ],
          [
            2.129732,
            44.062023,
            223.77
          ],
          [
            2.129732,
            44.062023,
            223.77
          ],
          [
            2.129881,
            44.06198,
            224.1
          ],
          [
            2.13016,
            44.061871,
            225.32
          ],
          [
            2.130755,
            44.061595,
            227.91
          ],
          [
            2.131153,
            44.061467,
            229.41
          ],
          [
            2.13127,
            44.061364,
            230.0
          ],
          [
            2.13132,
            44.061376,
            230.0
          ],
          [
            2.131386,
            44.061366,
            230.0
          ],
          [
            2.131432,
            44.061332,
            230.0
          ],
          [
            2.131846,
            44.061489,
            226.98
          ],
          [
            2.132153,
            44.061572,
            227.44
          ],
          [
            2.132465,
            44.061568,
            227.37
          ],
          [
            2.132873,
            44.061445,
            227.61
          ],
          [
            2.133364,
            44.061223,
            227.64
          ],
          [
            2.134709,
            44.060676,
            225.82
          ],
          [
            2.136386,
            44.060041,
            225.0
          ],
          [
            2.137417,
            44.060622,
            220.57
          ],
          [
            2.137753,
            44.060817,
            224.36
          ],
          [
            2.137416,
            44.061198,
            224.54
          ],
          [
            2.137252,
            44.061563,
            224.48
          ],
          [
            2.137071,
            44.061895,
            224.49
          ],
          [
            2.136743,
            44.062188,
            224.55
          ],
          [
            2.13657,
            44.062361,
            224.51
          ],
          [
            2.136206,
            44.062748,
            224.65
          ],
          [
            2.136003,
            44.063049,
            224.64
          ],
          [
            2.136053,
            44.063262,
            225.16
          ],
          [
            2.136136,
            44.063435,
            225.44
          ],
          [
            2.13595,
            44.063457,
            223.87
          ],
          [
            2.135699,
            44.06345,
            224.04
          ],
          [
            2.135381,
            44.063325,
            224.54
          ],
          [
            2.134976,
            44.063235,
            225.74
          ],
          [
            2.134504,
            44.063235,
            227.52
          ],
          [
            2.134214,
            44.063284,
            228.93
          ],
          [
            2.133636,
            44.063464,
            232.56
          ],
          [
            2.133124,
            44.063582,
            235.9
          ],
          [
            2.132768,
            44.063609,
            238.1
          ],
          [
            2.132237,
            44.063547,
            241.48
          ],
          [
            2.131909,
            44.063568,
            243.55
          ],
          [
            2.130897,
            44.063845,
            250.43
          ],
          [
            2.130405,
            44.063928,
            253.58
          ],
          [
            2.12973,
            44.063963,
            257.43
          ],
          [
            2.128997,
            44.063984,
            261.6
          ],
          [
            2.128495,
            44.064087,
            264.41
          ],
          [
            2.12837,
            44.064178,
            265.23
          ],
          [
            2.128409,
            44.064281,
            265.87
          ],
          [
            2.128524,
            44.064372,
            266.54
          ],
          [
            2.129518,
            44.064413,
            268.61
          ],
          [
            2.129807,
            44.064455,
            268.84
          ],
          [
            2.130048,
            44.064566,
            269.09
          ],
          [
            2.13183,
            44.066524,
            281.11
          ],
          [
            2.131938,
            44.066631,
            282.56
          ],
          [
            2.132025,
            44.066818,
            284.78
          ],
          [
            2.132054,
            44.067067,
            287.32
          ],
          [
            2.131948,
            44.067587,
            292.42
          ],
          [
            2.131986,
            44.067746,
            293.91
          ],
          [
            2.132459,
            44.068377,
            296.78
          ],
          [
            2.132584,
            44.068668,
            295.84
          ],
          [
            2.132652,
            44.069146,
            294.89
          ],
          [
            2.132671,
            44.069967,
            295.69
          ],
          [
            2.132586,
            44.070168,
            296.44
          ],
          [
            2.132118,
            44.070816,
            300.13
          ],
          [
            2.132,
            44.070994,
            301.14
          ],
          [
            2.131729,
            44.071727,
            304.38
          ],
          [
            2.131689,
            44.071918,
            304.98
          ],
          [
            2.131786,
            44.07242,
            306.55
          ],
          [
            2.131734,
            44.072576,
            306.48
          ],
          [
            2.131578,
            44.072642,
            308.21
          ],
          [
            2.131505,
            44.072728,
            308.86
          ],
          [
            2.131112,
            44.073496,
            313.62
          ],
          [
            2.130724,
            44.074039,
            314.55
          ],
          [
            2.130333,
            44.074439,
            315.66
          ],
          [
            2.130226,
            44.074497,
            315.93
          ],
          [
            2.130115,
            44.074547,
            316.21
          ],
          [
            2.129869,
            44.074616,
            316.63
          ],
          [
            2.129771,
            44.074676,
            316.77
          ],
          [
            2.129713,
            44.074765,
            316.87
          ],
          [
            2.129703,
            44.074837,
            316.9
          ],
          [
            2.129711,
            44.074957,
            316.97
          ],
          [
            2.129864,
            44.075557,
            316.35
          ],
          [
            2.128512,
            44.075853,
            315.47
          ],
          [
            2.128164,
            44.075966,
            314.83
          ]
        ]
      }
    },
    {
      "type": "Feature",
      "properties": {
        "source": "Tour_de_Roucarié.gpx",
        "type": "route"
      },
      "geometry": {
        "type": "LineString",
        "coordinates": [
          [
            2.128164,
            44.075966
          ],
          [
            2.129864,
            44.075557
          ],
          [
            2.131734,
            44.072576
          ],
          [
            2.136136,
            44.063435
          ],
          [
            2.137753,
            44.060817
          ],
          [
            2.136386,
            44.060041
          ],
          [
            2.131432,
            44.061332
          ],
          [
            2.129732,
            44.062023
          ],
          [
            2.129732,
            44.062023
          ],
          [
            2.13127,
            44.061364
          ],
          [
            2.136386,
            44.060041
          ],
          [
            2.137753,
            44.060817
          ],
          [
            2.136136,
            44.063435
          ],
          [
            2.131734,
            44.072576
          ],
          [
            2.129864,
            44.075557
          ],
          [
            2.128164,
            44.075966
          ]
        ]
      }
    }
  ]
}