{
  "type": "FeatureCollection",
  "features": [
    {
      "type": "Feature",
      "properties": {
        "name": "GraphHopper Track",
        "source": "Roc_de_Frausa.gpx",
        "type": "track"
      },
      "geometry": {
        "type": "LineString",
        "coordinates": [
          [
            2.664811,
            42.456376,
            646.44
          ],
          [
            2.664757,
            42.456341,
            646.81
          ],
          [
            2.664749,
            42.456319,
            646.98
          ],
          [
            2.664899,
            42.456244,
            648.09
          ],
          [
            2.664926,
            42.456216,
            648.42
          ],
          [
            2.664824,
            42.456097,
            649.72
          ],
          [
            2.66465,
            42.456007,
            651.14
          ],
          [
            2.664569,
            42.456018,
            651.53
          ],
          [
            2.664387,
            42.456062,
            652.25
          ],
          [
            2.664253,
            42.45607,
            653.77
          ],
          [
            2.664031,
            42.456016,
            656.03
          ],
          [
            2.663958,
            42.455728,
            656.14
          ],
          [
            2.663861,
            42.455513,
            656.4
          ],
          [
            2.663822,
            42.455335,
            655.96
          ],
          [
            2.663773,
            42.455193,
            656.15
          ],
          [
            2.663751,
            42.455106,
            656.37
          ],
          [
            2.663746,
            42.454936,
            656.35
          ],
          [
            2.663671,
            42.454657,
            657.02
          ],
          [
            2.663596,
            42.454546,
            658.81
          ],
          [
            2.663504,
            42.454515,
            661.39
          ],
          [
            2.663392,
            42.454482,
            664.95
          ],
          [
            2.663357,
            42.454436,
            664.78
          ],
          [
            2.66336,
            42.454353,
            663.1
          ],
          [
            2.663385,
            42.454167,
            662.64
          ],
          [
            2.66336,
            42.454016,
            665.56
          ],
          [
            2.663355,
            42.453763,
            665.98
          ],
          [
            2.663398,
            42.453668,
            666.09
          ],
          [
            2.663484,
            42.453604,
            666.42
          ],
          [
            2.663651,
            42.453554,
            666.91
          ],
          [
            2.663792,
            42.453491,
            666.77
          ],
          [
            2.663928,
            42.453395,
            665.41
          ],
          [
            2.663922,
            42.453259,
            663.19
          ],
          [
            2.663873,
            42.453136,
            660.47
          ],
          [
            2.663879,
            42.452977,
            657.36
          ],
          [
            2.663971,
            42.452827,
            654.14
          ],
          [
            2.663928,
            42.452772,
            652.82
          ],
          [
            2.663848,
            42.4527,
            650.69
          ],
          [
            2.663799,
            42.452559,
            646.64
          ],
          [
            2.663718,
            42.45249,
            643.82
          ],
          [
            2.663725,
            42.452277,
            637.9
          ],
          [
            2.663657,
            42.452095,
            634.68
          ],
          [
            2.663445,
            42.451614,
            629.9
          ],
          [
            2.66336,
            42.451473,
            628.56
          ],
          [
            2.663466,
            42.451264,
            626.92
          ],
          [
            2.663615,
            42.451165,
            625.97
          ],
          [
            2.664125,
            42.451056,
            620.48
          ],
          [
            2.664224,
            42.450977,
            617.67
          ],
          [
            2.664224,
            42.450925,
            616.15
          ],
          [
            2.664252,
            42.450773,
            611.35
          ],
          [
            2.664302,
            42.450638,
            607.13
          ],
          [
            2.664387,
            42.450523,
            602.77
          ],
          [
            2.664542,
            42.450403,
            596.64
          ],
          [
            2.664769,
            42.450272,
            596.74
          ],
          [
            2.664967,
            42.450272,
            595.77
          ],
          [
            2.665165,
            42.450262,
            596.25
          ],
          [
            2.665293,
            42.450246,
            599.4
          ],
          [
            2.665491,
            42.450157,
            602.87
          ],
          [
            2.665668,
            42.450105,
            603.68
          ],
          [
            2.66585,
            42.4501,
            604.61
          ],
          [
            2.666076,
            42.450168,
            606.74
          ],
          [
            2.666232,
            42.450251,
            609.37
          ],
          [
            2.666374,
            42.450251,
            611.01
          ],
          [
            2.666664,
            42.450215,
            612.81
          ],
          [
            2.666862,
            42.450246,
            613.07
          ],
          [
            2.667095,
            42.45023,
            613.85
          ],
          [
            2.667485,
            42.450277,
            617.74
          ],
          [
            2.667725,
            42.450257,
            620.47
          ],
          [
            2.668051,
            42.450189,
            623.43
          ],
          [
            2.668221,
            42.450168,
            624.44
          ],
          [
            2.668532,
            42.450094,
            626.66
          ],
          [
            2.668674,
            42.450042,
            628.23
          ],
          [
            2.66878,
            42.450037,
            629.41
          ],
          [
            2.668947,
            42.449986,
            631.83
          ],
          [
            2.669576,
            42.449759,
            640.29
          ],
          [
            2.66949,
            42.449668,
            641.0
          ],
          [
            2.66965,
            42.449568,
            641.42
          ],
          [
            2.669884,
            42.449559,
            641.72
          ],
          [
            2.670081,
            42.449495,
            641.53
          ],
          [
            2.670426,
            42.449422,
            639.79
          ],
          [
            2.670118,
            42.449295,
            636.04
          ],
          [
            2.670007,
            42.449204,
            634.51
          ],
          [
            2.669736,
            42.44905,
            632.94
          ],
          [
            2.669354,
            42.448704,
            631.15
          ],
          [
            2.669255,
            42.448513,
            630.45
          ],
          [
            2.669206,
            42.448249,
            628.13
          ],
          [
            2.669243,
            42.44794,
            624.25
          ],
          [
            2.669317,
            42.447822,
            622.31
          ],
          [
            2.669452,
            42.44774,
            620.47
          ],
          [
            2.66944,
            42.447567,
            618.22
          ],
          [
            2.669477,
            42.447385,
            614.83
          ],
          [
            2.669588,
            42.447176,
            609.59
          ],
          [
            2.66981,
            42.446994,
            605.03
          ],
          [
            2.67013,
            42.44694,
            599.26
          ],
          [
            2.670364,
            42.446822,
            592.97
          ],
          [
            2.670607,
            42.446799,
            586.78
          ],
          [
            2.67113,
            42.446716,
            572.42
          ],
          [
            2.671523,
            42.446523,
            560.03
          ],
          [
            2.67184,
            42.446441,
            553.23
          ],
          [
            2.671448,
            42.446275,
            546.56
          ],
          [
            2.671224,
            42.446068,
            541.22
          ],
          [
            2.671056,
            42.44571,
            532.81
          ],
          [
            2.670962,
            42.445324,
            525.79
          ],
          [
            2.671056,
            42.444993,
            519.98
          ],
          [
            2.671056,
            42.444993,
            519.98
          ],
          [
            2.670962,
            42.445324,
            525.79
          ],
          [
            2.671056,
            42.44571,
            532.81
          ],
          [
            2.671224,
            42.446068,
            541.22
          ],
          [
            2.671448,
            42.446275,
            546.56
          ],
          [
            2.67184,
            42.446441,
            553.23
          ],
          [
            2.671523,
            42.446523,
            560.03
          ],
          [
            2.67113,
            42.446716,
            572.42
          ],
          [
            2.670607,
            42.446799,
            586.78
          ],
          [
            2.670364,
            42.446822,
            592.97
          ],
          [
            2.67013,
            42.44694,
            599.26
          ],
          [
            2.66981,
            42.446994,
            605.03
          ],
          [
            2.669588,
            42.447176,
            609.59
          ],
          [
            2.669477,
            42.447385,
            614.83
          ],
          [
            2.66944,
            42.447567,
            618.22
          ],
          [
            2.669452,
            42.44774,
            620.47
          ],
          [
            2.669317,
            42.447822,
            622.31
          ],
          [
            2.669243,
            42.44794,
            624.25
          ],
          [
            2.669206,
            42.448249,
            628.13
          ],
          [
            2.669255,
            42.448513,
            630.45
          ],
          [
            2.669354,
            42.448704,
            631.15
          ],
          [
            2.669736,
            42.44905,
            632.94
          ],
          [
            2.670007,
            42.449204,
            634.51
          ],
          [
            2.670118,
            42.449295,
            636.04
          ],
          [
            2.670426,
            42.449422,
            639.79
          ],
          [
            2.670081,
            42.449495,
            641.53
          ],
          [
            2.669884,
            42.449559,
            641.72
          ],
          [
            2.66965,
            42.449568,
            641.42
          ],
          [
            2.66949,
            42.449668,
            641.0
          ],
          [
            2.669576,
            42.449759,
            640.29
          ],
          [
            2.668947,
            42.449986,
            631.83
          ],
          [
            2.66878,
            42.450037,
            629.41
          ],
          [
            2.668674,
            42.450042,
            628.23
          ],
          [
            2.668532,
            42.450094,
            626.66
          ],
          [
            2.668221,
            42.450168,
            624.44
          ],
          [
            2.668051,
            42.450189,
            623.43
          ],
          [
            2.667725,
            42.450257,
            620.47
          ],
          [
            2.667485,
            42.450277,
            617.74
          ],
          [
            2.667095,
            42.45023,
            613.85
          ],
          [
            2.666862,
            42.450246,
            613.07
          ],
          [
            2.666664,
            42.450215,
            612.81
          ],
          [
            2.666374,
            42.450251,
            611.01
          ],
          [
            2.666232,
            42.450251,
            609.37
          ],
          [
            2.666076,
            42.450168,
            606.74
          ],
          [
            2.66585,
            42.4501,
            604.61
          ],
          [
            2.665668,
            42.450105,
            603.68
          ],
          [
            2.665491,
            42.450157,
            602.87
          ],
          [
            2.665293,
            42.450246,
            599.4
          ],
          [
            2.665165,
            42.450262,
            596.25
          ],
          [
            2.664967,
            42.450272,
            595.77
          ],
          [
            2.664769,
            42.450272,
            596.74
          ],
          [
            2.664542,
            42.450403,
            596.64
          ],
          [
            2.664387,
            42.450523,
            602.77
          ],
          [
            2.664302,
            42.450638,
            607.13
          ],
          [
            2.664252,
            42.450773,
            611.35
          ],
          [
            2.664224,
            42.450925,
            616.15
          ],
          [
            2.664224,
            42.450977,
            617.67
          ],
          [
            2.664125,
            42.451056,
            620.48
          ],
          [
            2.663615,
            42.451165,
            625.97
          ],
          [
            2.663466,
            42.451264,
            626.92
          ],
          [
            2.66336,
            42.451473,
            628.56
          ],
          [
            2.663445,
            42.451614,
            629.9
          ],
          [
            2.663657,
            42.452095,
            634.68
          ],
          [
            2.663725,
            42.452277,
            637.9
          ],
          [
            2.663718,
            42.45249,
            643.82
          ],
          [
            2.663799,
            42.452559,
            646.64
          ],
          [
            2.663848,
            42.4527,
            650.69
          ],
          [
            2.663928,
            42.452772,
            652.82
          ],
          [
            2.663971,
            42.452827,
            654.14
          ],
          [
            2.663879,
            42.452977,
            657.36
          ],
          [
            2.663873,
            42.453136,
            660.47
          ],
          [
            2.663922,
            42.453259,
            663.19
          ],
          [
            2.663928,
            42.453395,
            665.41
          ],
          [
            2.663792,
            42.453491,
            666.77
          ],
          [
            2.663651,
            42.453554,
            666.91
          ],
          [
            2.663484,
            42.453604,
            666.42
          ],
          [
            2.663398,
            42.453668,
            666.09
          ],
          [
            2.663355,
            42.453763,
            665.98
          ],
          [
            2.66336,
            42.454016,
            665.56
          ],
          [
            2.663385,
            42.454167,
            662.64
          ],
          [
            2.66336,
            42.454353,
            663.1
          ],
          [
            2.663357,
            42.454436,
            664.78
          ],
          [
            2.663392,
            42.454482,
            664.95
          ],
          [
            2.663504,
            42.454515,
            661.39
          ],
          [
            2.663489,
            42.454449,
            660.18
          ],
          [
            2.663505,
            42.45434,
            657.73
          ],
          [
            2.663478,
            42.45419,
            657.15
          ],
          [
            2.66343,
            42.454071,
            657.13
          ],
          [
            2.663411,
            42.453982,
            656.94
          ],
          [
            2.663467,
            42.453897,
            656.59
          ],
          [
            2.663569,
            42.453871,
            655.8
          ],
          [
            2.663636,
            42.45381,
            655.03
          ],
          [
            2.663701,
            42.453796,
            654.56
          ],
          [
            2.663816,
            42.453733,
            653.51
          ],
          [
            2.663923,
            42.453669,
            652.36
          ],
          [
            2.663988,
            42.453592,
            651.1
          ],
          [
            2.664055,
            42.453576,
            650.24
          ],
          [
            2.664178,
            42.453628,
            648.19
          ],
          [
            2.664468,
            42.453582,
            643.54
          ],
          [
            2.664516,
            42.453602,
            642.7
          ],
          [
            2.664543,
            42.453638,
            641.79
          ],
          [
            2.664543,
            42.453744,
            638.76
          ],
          [
            2.664513,
            42.45384,
            636.01
          ],
          [
            2.664537,
            42.453873,
            634.89
          ],
          [
            2.664586,
            42.453891,
            633.69
          ],
          [
            2.664744,
            42.453885,
            630.28
          ],
          [
            2.664814,
            42.453875,
            629.18
          ],
          [
            2.664891,
            42.453842,
            628.33
          ],
          [
            2.664999,
            42.453832,
            627.12
          ],
          [
            2.665141,
            42.453802,
            625.0
          ],
          [
            2.665189,
            42.453804,
            623.77
          ],
          [
            2.665232,
            42.453826,
            622.41
          ],
          [
            2.665347,
            42.453907,
            619.5
          ],
          [
            2.665363,
            42.453927,
            618.83
          ],
          [
            2.66532,
            42.453966,
            617.22
          ],
          [
            2.665235,
            42.45399,
            614.95
          ],
          [
            2.665219,
            42.454008,
            614.25
          ],
          [
            2.665256,
            42.454029,
            613.16
          ],
          [
            2.665232,
            42.454087,
            611.4
          ],
          [
            2.665291,
            42.45416,
            608.88
          ],
          [
            2.665334,
            42.454194,
            607.54
          ],
          [
            2.665422,
            42.454237,
            605.21
          ],
          [
            2.665599,
            42.454263,
            601.16
          ],
          [
            2.665795,
            42.454222,
            596.91
          ],
          [
            2.665819,
            42.454243,
            596.14
          ],
          [
            2.665785,
            42.454439,
            590.79
          ],
          [
            2.665795,
            42.454501,
            589.27
          ],
          [
            2.665878,
            42.454594,
            586.75
          ],
          [
            2.665868,
            42.454712,
            584.43
          ],
          [
            2.665779,
            42.454906,
            581.05
          ],
          [
            2.665774,
            42.454952,
            580.34
          ],
          [
            2.665795,
            42.455039,
            579.01
          ],
          [
            2.665814,
            42.455061,
            578.62
          ],
          [
            2.666093,
            42.455064,
            575.54
          ],
          [
            2.666356,
            42.455029,
            572.83
          ],
          [
            2.666436,
            42.454966,
            571.71
          ],
          [
            2.666576,
            42.454946,
            570.39
          ],
          [
            2.666764,
            42.45494,
            568.55
          ],
          [
            2.666933,
            42.454948,
            566.82
          ],
          [
            2.667016,
            42.454932,
            565.86
          ],
          [
            2.667136,
            42.454932,
            564.37
          ],
          [
            2.667303,
            42.455023,
            561.29
          ],
          [
            2.667335,
            42.455082,
            559.93
          ],
          [
            2.667303,
            42.455217,
            556.87
          ],
          [
            2.667319,
            42.455308,
            554.75
          ],
          [
            2.667362,
            42.455381,
            552.76
          ],
          [
            2.667402,
            42.45548,
            549.94
          ],
          [
            2.667477,
            42.455573,
            546.85
          ],
          [
            2.667517,
            42.455638,
            544.76
          ],
          [
            2.667563,
            42.455684,
            543.12
          ],
          [
            2.667587,
            42.455676,
            542.56
          ],
          [
            2.667689,
            42.455452,
            535.9
          ],
          [
            2.667826,
            42.455355,
            531.92
          ],
          [
            2.667922,
            42.455144,
            525.35
          ],
          [
            2.667922,
            42.454906,
            519.67
          ],
          [
            2.667971,
            42.454772,
            517.54
          ],
          [
            2.668085,
            42.454608,
            514.1
          ],
          [
            2.668126,
            42.454605,
            512.88
          ],
          [
            2.668099,
            42.454809,
            506.26
          ],
          [
            2.668209,
            42.454853,
            502.93
          ],
          [
            2.668231,
            42.454847,
            502.34
          ],
          [
            2.668252,
            42.45476,
            499.47
          ],
          [
            2.668271,
            42.45474,
            498.59
          ],
          [
            2.668426,
            42.454878,
            492.49
          ],
          [
            2.668486,
            42.454969,
            489.74
          ],
          [
            2.668507,
            42.454971,
            489.25
          ],
          [
            2.668531,
            42.45491,
            487.32
          ],
          [
            2.668561,
            42.454875,
            486.03
          ],
          [
            2.668612,
            42.454855,
            484.72
          ],
          [
            2.668668,
            42.454944,
            481.79
          ],
          [
            2.668697,
            42.455009,
            479.81
          ],
          [
            2.668706,
            42.455069,
            478.09
          ],
          [
            2.668703,
            42.455203,
            474.3
          ],
          [
            2.668713,
            42.455235,
            473.35
          ],
          [
            2.668853,
            42.45514,
            469.01
          ],
          [
            2.668904,
            42.455205,
            466.58
          ],
          [
            2.668915,
            42.455268,
            464.52
          ],
          [
            2.668928,
            42.455282,
            463.98
          ],
          [
            2.669049,
            42.455152,
            458.8
          ],
          [
            2.669092,
            42.455207,
            456.41
          ],
          [
            2.669191,
            42.455187,
            453.42
          ],
          [
            2.669266,
            42.455203,
            451.04
          ],
          [
            2.66929,
            42.455195,
            450.22
          ],
          [
            2.669473,
            42.455072,
            442.45
          ],
          [
            2.669567,
            42.455088,
            439.44
          ],
          [
            2.669647,
            42.455069,
            436.75
          ],
          [
            2.669727,
            42.455037,
            433.79
          ],
          [
            2.669872,
            42.455005,
            428.39
          ],
          [
            2.669904,
            42.454958,
            425.76
          ],
          [
            2.669955,
            42.454918,
            423.06
          ],
          [
            2.669996,
            42.454918,
            421.63
          ],
          [
            2.670041,
            42.45493,
            419.93
          ],
          [
            2.670189,
            42.454926,
            414.88
          ],
          [
            2.670224,
            42.454916,
            413.64
          ],
          [
            2.67024,
            42.454857,
            411.1
          ],
          [
            2.670291,
            42.454857,
            409.82
          ],
          [
            2.67035,
            42.454869,
            408.69
          ],
          [
            2.670409,
            42.454916,
            406.42
          ],
          [
            2.670381,
            42.454939,
            406.66
          ],
          [
            2.670363,
            42.454977,
            406.69
          ],
          [
            2.670362,
            42.455024,
            406.77
          ],
          [
            2.670389,
            42.455391,
            407.92
          ],
          [
            2.670418,
            42.455437,
            408.05
          ],
          [
            2.670463,
            42.455469,
            408.18
          ],
          [
            2.67077,
            42.455581,
            409.11
          ],
          [
            2.670922,
            42.455645,
            409.67
          ],
          [
            2.67111,
            42.45575,
            410.44
          ],
          [
            2.671198,
            42.455819,
            410.74
          ],
          [
            2.671239,
            42.455884,
            410.99
          ],
          [
            2.671241,
            42.455944,
            411.29
          ],
          [
            2.671181,
            42.456018,
            411.69
          ],
          [
            2.671103,
            42.456075,
            412.06
          ],
          [
            2.671007,
            42.456119,
            412.51
          ],
          [
            2.670806,
            42.456176,
            413.45
          ],
          [
            2.670662,
            42.456257,
            414.08
          ],
          [
            2.670524,
            42.456277,
            414.16
          ],
          [
            2.670467,
            42.456296,
            414.24
          ],
          [
            2.670433,
            42.456328,
            414.39
          ],
          [
            2.670384,
            42.45642,
            414.88
          ],
          [
            2.670371,
            42.456489,
            415.17
          ],
          [
            2.670402,
            42.45658,
            415.45
          ],
          [
            2.670453,
            42.456628,
            415.49
          ],
          [
            2.670602,
            42.456704,
            415.76
          ],
          [
            2.670641,
            42.456755,
            415.98
          ],
          [
            2.670619,
            42.456803,
            416.12
          ],
          [
            2.6705,
            42.456895,
            416.42
          ],
          [
            2.670445,
            42.45697,
            416.7
          ],
          [
            2.67044,
            42.457044,
            416.87
          ],
          [
            2.67049,
            42.457114,
            416.97
          ],
          [
            2.670507,
            42.45717,
            417.02
          ],
          [
            2.670471,
            42.457215,
            417.06
          ],
          [
            2.67036,
            42.457264,
            417.07
          ],
          [
            2.670229,
            42.45731,
            417.4
          ],
          [
            2.669998,
            42.457349,
            417.62
          ],
          [
            2.669913,
            42.457381,
            417.6
          ],
          [
            2.669857,
            42.457428,
            417.6
          ],
          [
            2.669842,
            42.457473,
            417.66
          ],
          [
            2.669834,
            42.457544,
            417.84
          ],
          [
            2.669849,
            42.457631,
            418.04
          ],
          [
            2.66984,
            42.457689,
            418.1
          ],
          [
            2.669768,
            42.457748,
            418.11
          ],
          [
            2.669608,
            42.457819,
            417.99
          ],
          [
            2.669371,
            42.457902,
            417.87
          ],
          [
            2.669039,
            42.458,
            418.11
          ],
          [
            2.668877,
            42.458078,
            417.91
          ],
          [
            2.668765,
            42.458106,
            417.86
          ],
          [
            2.668691,
            42.458137,
            418.56
          ],
          [
            2.668657,
            42.45818,
            418.5
          ],
          [
            2.668654,
            42.458224,
            416.11
          ],
          [
            2.668672,
            42.458296,
            416.15
          ],
          [
            2.668923,
            42.458734,
            415.38
          ],
          [
            2.669002,
            42.458797,
            415.42
          ],
          [
            2.669161,
            42.458828,
            415.47
          ],
          [
            2.669227,
            42.458858,
            415.45
          ],
          [
            2.669257,
            42.458912,
            415.45
          ],
          [
            2.66926,
            42.459032,
            415.47
          ],
          [
            2.669149,
            42.4592,
            415.46
          ],
          [
            2.669097,
            42.459398,
            415.29
          ],
          [
            2.669116,
            42.459465,
            415.32
          ],
          [
            2.669162,
            42.459517,
            415.36
          ],
          [
            2.669417,
            42.459665,
            415.67
          ],
          [
            2.669501,
            42.459692,
            415.69
          ],
          [
            2.669656,
            42.459708,
            415.71
          ],
          [
            2.669751,
            42.459727,
            415.72
          ],
          [
            2.669815,
            42.459753,
            415.73
          ],
          [
            2.66987,
            42.459788,
            415.74
          ],
          [
            2.669954,
            42.459896,
            415.78
          ],
          [
            2.670039,
            42.459941,
            415.78
          ],
          [
            2.670288,
            42.460027,
            415.76
          ],
          [
            2.6704,
            42.460076,
            415.83
          ],
          [
            2.670594,
            42.460203,
            415.88
          ],
          [
            2.67064,
            42.460259,
            415.85
          ],
          [
            2.670663,
            42.460318,
            415.81
          ],
          [
            2.670672,
            42.460373,
            415.74
          ],
          [
            2.670651,
            42.460442,
            415.63
          ],
          [
            2.670531,
            42.460675,
            415.19
          ],
          [
            2.67052,
            42.460738,
            415.1
          ],
          [
            2.670533,
            42.460835,
            414.93
          ],
          [
            2.670533,
            42.460935,
            414.85
          ],
          [
            2.670508,
            42.461024,
            414.64
          ],
          [
            2.670507,
            42.46109,
            414.37
          ],
          [
            2.670584,
            42.461494,
            412.47
          ],
          [
            2.67067,
            42.461613,
            412.03
          ],
          [
            2.670702,
            42.461701,
            411.83
          ],
          [
            2.670704,
            42.461799,
            411.42
          ],
          [
            2.670723,
            42.461888,
            411.01
          ],
          [
            2.670769,
            42.461958,
            410.63
          ],
          [
            2.670858,
            42.462015,
            410.26
          ],
          [
            2.670934,
            42.462088,
            409.87
          ],
          [
            2.67095,
            42.462171,
            409.55
          ],
          [
            2.670914,
            42.46241,
            408.57
          ],
          [
            2.670805,
            42.462685,
            407.11
          ],
          [
            2.670766,
            42.462733,
            406.87
          ],
          [
            2.670712,
            42.462758,
            406.68
          ],
          [
            2.670591,
            42.462788,
            406.29
          ],
          [
            2.670519,
            42.462831,
            406.01
          ],
          [
            2.670418,
            42.462916,
            405.56
          ],
          [
            2.670301,
            42.462955,
            405.18
          ],
          [
            2.669607,
            42.463119,
            402.32
          ],
          [
            2.669258,
            42.46316,
            400.85
          ],
          [
            2.669098,
            42.463197,
            400.04
          ],
          [
            2.669047,
            42.463216,
            399.74
          ],
          [
            2.668987,
            42.463273,
            399.27
          ],
          [
            2.668837,
            42.463502,
            397.76
          ],
          [
            2.668671,
            42.463715,
            396.24
          ],
          [
            2.668619,
            42.463767,
            395.9
          ],
          [
            2.668548,
            42.463792,
            395.62
          ],
          [
            2.668413,
            42.463813,
            395.24
          ],
          [
            2.668136,
            42.463908,
            394.93
          ],
          [
            2.668075,
            42.463945,
            394.59
          ],
          [
            2.668061,
            42.464009,
            394.05
          ],
          [
            2.66807,
            42.464054,
            393.17
          ],
          [
            2.668174,
            42.464181,
            391.88
          ],
          [
            2.66821,
            42.464265,
            391.47
          ],
          [
            2.668289,
            42.46457,
            390.5
          ],
          [
            2.668274,
            42.464637,
            390.35
          ],
          [
            2.668218,
            42.464708,
            390.08
          ],
          [
            2.667833,
            42.465074,
            388.69
          ],
          [
            2.667608,
            42.465196,
            387.92
          ],
          [
            2.66748,
            42.465281,
            387.46
          ],
          [
            2.667431,
            42.465341,
            387.21
          ],
          [
            2.667394,
            42.465416,
            386.93
          ],
          [
            2.667398,
            42.465491,
            386.66
          ],
          [
            2.667432,
            42.465585,
            386.3
          ],
          [
            2.667438,
            42.465638,
            386.06
          ],
          [
            2.667325,
            42.46588,
            384.85
          ],
          [
            2.667303,
            42.466,
            384.62
          ],
          [
            2.667305,
            42.466092,
            384.39
          ],
          [
            2.667382,
            42.466469,
            382.16
          ],
          [
            2.66739,
            42.466671,
            380.33
          ],
          [
            2.667406,
            42.466716,
            380.05
          ],
          [
            2.667445,
            42.466768,
            379.81
          ],
          [
            2.667576,
            42.466889,
            379.11
          ],
          [
            2.667617,
            42.466954,
            378.68
          ],
          [
            2.667628,
            42.466994,
            378.41
          ],
          [
            2.667635,
            42.467093,
            377.76
          ],
          [
            2.667677,
            42.467243,
            377.88
          ],
          [
            2.667674,
            42.467306,
            378.11
          ],
          [
            2.667651,
            42.467352,
            378.24
          ],
          [
            2.667617,
            42.467386,
            378.24
          ],
          [
            2.667577,
            42.467407,
            377.99
          ],
          [
            2.66748,
            42.467433,
            377.69
          ],
          [
            2.667337,
            42.467446,
            377.3
          ],
          [
            2.666935,
            42.467432,
            375.05
          ],
          [
            2.666822,
            42.467442,
            374.47
          ],
          [
            2.666711,
            42.467472,
            373.84
          ],
          [
            2.666422,
            42.467579,
            372.04
          ],
          [
            2.666242,
            42.467603,
            370.89
          ],
          [
            2.666066,
            42.467607,
            370.21
          ],
          [
            2.665781,
            42.46759,
            368.32
          ],
          [
            2.66541,
            42.467553,
            366.39
          ],
          [
            2.665301,
            42.467558,
            365.57
          ],
          [
            2.665237,
            42.467572,
            365.11
          ],
          [
            2.66518,
            42.467599,
            364.69
          ],
          [
            2.665121,
            42.467643,
            364.2
          ],
          [
            2.665019,
            42.467749,
            363.2
          ],
          [
            2.664915,
            42.467825,
            362.32
          ],
          [
            2.664802,
            42.467863,
            361.58
          ],
          [
            2.664305,
            42.467952,
            358.64
          ],
          [
            2.664049,
            42.46801,
            357.03
          ],
          [
            2.663936,
            42.468015,
            356.57
          ],
          [
            2.663873,
            42.468005,
            356.66
          ],
          [
            2.663776,
            42.467972,
            356.08
          ],
          [
            2.663672,
            42.46792,
            355.6
          ],
          [
            2.663603,
            42.467871,
            355.14
          ],
          [
            2.663543,
            42.467808,
            354.73
          ],
          [
            2.663467,
            42.467656,
            354.03
          ],
          [
            2.663378,
            42.467444,
            353.21
          ],
          [
            2.663314,
            42.467359,
            353.02
          ],
          [
            2.662938,
            42.46705,
            349.86
          ],
          [
            2.6629,
            42.466993,
            349.03
          ],
          [
            2.662888,
            42.466913,
            348.26
          ],
          [
            2.662853,
            42.466856,
            347.76
          ],
          [
            2.662788,
            42.466829,
            347.3
          ],
          [
            2.662733,
            42.466835,
            346.97
          ],
          [
            2.66269,
            42.466864,
            346.6
          ],
          [
            2.662672,
            42.466923,
            346.09
          ],
          [
            2.662702,
            42.466975,
            345.62
          ],
          [
            2.662881,
            42.46713,
            343.94
          ],
          [
            2.662996,
            42.467368,
            341.4
          ],
          [
            2.66305,
            42.467527,
            340.3
          ],
          [
            2.663082,
            42.46768,
            338.89
          ],
          [
            2.663097,
            42.467844,
            337.57
          ],
          [
            2.663141,
            42.46798,
            336.33
          ],
          [
            2.662589,
            42.467709,
            325.28
          ],
          [
            2.662412,
            42.46763,
            321.98
          ],
          [
            2.662071,
            42.467515,
            316.58
          ],
          [
            2.661808,
            42.467348,
            312.19
          ],
          [
            2.66176,
            42.467293,
            311.04
          ],
          [
            2.661782,
            42.467044,
            306.54
          ],
          [
            2.661771,
            42.466953,
            304.83
          ],
          [
            2.661744,
            42.466874,
            303.27
          ],
          [
            2.661701,
            42.466842,
            302.41
          ],
          [
            2.661637,
            42.466818,
            301.38
          ],
          [
            2.661567,
            42.466838,
            300.3
          ],
          [
            2.66146,
            42.466885,
            298.39
          ],
          [
            2.661229,
            42.467063,
            292.89
          ],
          [
            2.661082,
            42.467191,
            289.3
          ],
          [
            2.660928,
            42.467283,
            286.45
          ],
          [
            2.660767,
            42.46736,
            283.99
          ],
          [
            2.660574,
            42.467364,
            281.79
          ],
          [
            2.660319,
            42.467297,
            279.05
          ],
          [
            2.65999,
            42.467114,
            275.58
          ],
          [
            2.65938,
            42.466818,
            270.5
          ],
          [
            2.659409,
            42.466706,
            269.89
          ],
          [
            2.659189,
            42.466702,
            270.02
          ],
          [
            2.659043,
            42.466712,
            271.51
          ],
          [
            2.65885,
            42.46669,
            272.15
          ],
          [
            2.658696,
            42.466656,
            271.83
          ],
          [
            2.658471,
            42.466516,
            272.04
          ],
          [
            2.658408,
            42.466417,
            271.05
          ],
          [
            2.658178,
            42.466448,
            268.19
          ],
          [
            2.658005,
            42.466426,
            266.56
          ],
          [
            2.657731,
            42.466335,
            264.36
          ],
          [
            2.657636,
            42.466279,
            263.08
          ],
          [
            2.657356,
            42.466226,
            260.23
          ],
          [
            2.657147,
            42.466257,
            258.01
          ],
          [
            2.656852,
            42.466347,
            255.35
          ],
          [
            2.656664,
            42.466372,
            253.87
          ],
          [
            2.65663,
            42.466395,
            253.69
          ],
          [
            2.65644,
            42.467567,
            245.64
          ],
          [
            2.655852,
            42.467454,
            247.0
          ],
          [
            2.652202,
            42.466679,
            252.45
          ],
          [
            2.651903,
            42.466606,
            253.0
          ],
          [
            2.649879,
            42.466166,
            254.13
          ],
          [
            2.649521,
            42.46606,
            254.73
          ],
          [
            2.647618,
            42.465185,
            256.22
          ],
          [
            2.646419,
            42.464676,
            258.03
          ],
          [
            2.646283,
            42.464605,
            258.57
          ],
          [
            2.646148,
            42.464482,
            259.37
          ],
          [
            2.645778,
            42.463988,
            261.93
          ],
          [
            2.64569,
            42.463913,
            262.37
          ],
          [
            2.645588,
            42.463866,
            262.34
          ],
          [
            2.645486,
            42.463842,
            261.51
          ],
          [
            2.645382,
            42.463832,
            260.61
          ],
          [
            2.645384,
            42.463786,
            262.31
          ],
          [
            2.645333,
            42.463706,
            261.99
          ],
          [
            2.645235,
            42.463599,
            260.35
          ],
          [
            2.645131,
            42.463339,
            258.02
          ],
          [
            2.645013,
            42.463195,
            256.65
          ],
          [
            2.644855,
            42.463079,
            255.56
          ],
          [
            2.644504,
            42.46292,
            255.02
          ],
          [
            2.644088,
            42.462936,
            254.32
          ],
          [
            2.643509,
            42.462905,
            254.32
          ],
          [
            2.643165,
            42.462905,
            254.51
          ],
          [
            2.642811,
            42.462936,
            254.82
          ],
          [
            2.642609,
            42.462904,
            254.99
          ],
          [
            2.6419,
            42.462826,
            255.95
          ],
          [
            2.641653,
            42.462754,
            256.41
          ],
          [
            2.641481,
            42.462683,
            256.71
          ],
          [
            2.641374,
            42.462604,
            256.97
          ],
          [
            2.641256,
            42.462477,
            257.34
          ],
          [
            2.641063,
            42.462176,
            258.27
          ],
          [
            2.640955,
            42.462026,
            258.83
          ],
          [
            2.640923,
            42.461907,
            259.03
          ],
          [
            2.640915,
            42.461819,
            259.29
          ],
          [
            2.640719,
            42.461686,
            259.75
          ],
          [
            2.640483,
            42.461496,
            260.14
          ],
          [
            2.640312,
            42.461433,
            260.0
          ],
          [
            2.64014,
            42.461314,
            260.22
          ],
          [
            2.639893,
            42.460926,
            261.2
          ],
          [
            2.639786,
            42.460783,
            261.93
          ],
          [
            2.6397,
            42.460704,
            262.0
          ],
          [
            2.639561,
            42.460522,
            262.17
          ],
          [
            2.639378,
            42.460348,
            262.76
          ],
          [
            2.639228,
            42.460182,
            263.16
          ],
          [
            2.639153,
            42.460039,
            263.45
          ],
          [
            2.639121,
            42.459826,
            263.95
          ],
          [
            2.63911,
            42.459335,
            265.46
          ],
          [
            2.639267,
            42.45892,
            267.81
          ],
          [
            2.63929,
            42.458776,
            268.15
          ],
          [
            2.639167,
            42.458768,
            266.51
          ],
          [
            2.638274,
            42.458647,
            265.0
          ],
          [
            2.63783,
            42.458622,
            265.98
          ],
          [
            2.637724,
            42.458606,
            266.16
          ],
          [
            2.637708,
            42.458552,
            266.25
          ],
          [
            2.637708,
            42.458503,
            266.3
          ],
          [
            2.637752,
            42.458303,
            267.01
          ],
          [
            2.637706,
            42.458248,
            267.26
          ],
          [
            2.63747,
            42.458208,
            267.96
          ],
          [
            2.637245,
            42.458059,
            268.94
          ],
          [
            2.637123,
            42.457445,
            269.92
          ],
          [
            2.636296,
            42.457517,
            271.0
          ],
          [
            2.635425,
            42.457581,
            277.85
          ],
          [
            2.634964,
            42.457635,
            281.2
          ],
          [
            2.634812,
            42.457625,
            282.0
          ],
          [
            2.634818,
            42.457569,
            281.76
          ],
          [
            2.634698,
            42.457448,
            281.6
          ],
          [
            2.634685,
            42.457363,
            281.1
          ],
          [
            2.63463,
            42.457358,
            281.26
          ],
          [
            2.634476,
            42.457392,
            282.06
          ],
          [
            2.634319,
            42.457362,
            282.92
          ],
          [
            2.634307,
            42.457343,
            282.97
          ],
          [
            2.634108,
            42.457343,
            283.19
          ],
          [
            2.634029,
            42.457323,
            283.59
          ],
          [
            2.633767,
            42.457084,
            285.27
          ],
          [
            2.633569,
            42.456693,
            287.86
          ],
          [
            2.633572,
            42.456537,
            288.33
          ],
          [
            2.633647,
            42.456395,
            288.43
          ],
          [
            2.633673,
            42.456303,
            288.63
          ],
          [
            2.633682,
            42.456178,
            288.65
          ],
          [
            2.633634,
            42.456093,
            288.94
          ],
          [
            2.633322,
            42.455727,
            289.06
          ],
          [
            2.633105,
            42.455625,
            289.14
          ],
          [
            2.632801,
            42.455549,
            289.28
          ],
          [
            2.63224,
            42.455282,
            288.73
          ],
          [
            2.632075,
            42.455111,
            288.0
          ],
          [
            2.631866,
            42.454744,
            287.72
          ],
          [
            2.631667,
            42.45454,
            287.32
          ],
          [
            2.631392,
            42.454387,
            286.99
          ],
          [
            2.631088,
            42.454171,
            286.93
          ],
          [
            2.630964,
            42.454126,
            286.8
          ],
          [
            2.63041,
            42.453876,
            282.97
          ],
          [
            2.63026,
            42.453856,
            283.04
          ],
          [
            2.63019,
            42.45382,
            282.97
          ],
          [
            2.62996,
            42.453598,
            280.28
          ],
          [
            2.629728,
            42.453346,
            279.99
          ],
          [
            2.62968,
            42.453281,
            280.86
          ],
          [
            2.630093,
            42.45307,
            279.98
          ],
          [
            2.631107,
            42.45263,
            278.39
          ],
          [
            2.632081,
            42.451954,
            283.27
          ],
          [
            2.632001,
            42.451691,
            287.27
          ],
          [
            2.631646,
            42.451446,
            293.74
          ],
          [
            2.631726,
            42.450947,
            304.05
          ],
          [
            2.632173,
            42.450617,
            313.37
          ],
          [
            2.632528,
            42.449983,
            329.47
          ],
          [
            2.6327,
            42.449653,
            338.11
          ],
          [
            2.632589,
            42.449519,
            340.73
          ],
          [
            2.632737,
            42.449348,
            352.15
          ],
          [
            2.632986,
            42.449326,
            363.63
          ],
          [
            2.633062,
            42.449164,
            373.72
          ],
          [
            2.633153,
            42.449042,
            382.18
          ],
          [
            2.633008,
            42.448816,
            395.98
          ],
          [
            2.63302,
            42.448746,
            400.58
          ],
          [
            2.633176,
            42.44868,
            410.79
          ],
          [
            2.633315,
            42.448573,
            422.33
          ],
          [
            2.633336,
            42.448427,
            432.8
          ],
          [
            2.633387,
            42.448336,
            438.12
          ],
          [
            2.633476,
            42.448254,
            443.69
          ],
          [
            2.633634,
            42.448169,
            452.34
          ],
          [
            2.633902,
            42.448084,
            465.52
          ],
          [
            2.634031,
            42.447997,
            473.26
          ],
          [
            2.634227,
            42.447712,
            490.88
          ],
          [
            2.634358,
            42.447623,
            498.88
          ],
          [
            2.634466,
            42.447593,
            504.43
          ],
          [
            2.634627,
            42.447486,
            514.73
          ],
          [
            2.634723,
            42.4474,
            520.59
          ],
          [
            2.634807,
            42.447289,
            524.27
          ],
          [
            2.634973,
            42.44712,
            529.19
          ],
          [
            2.635158,
            42.44698,
            534.74
          ],
          [
            2.635273,
            42.446776,
            545.62
          ],
          [
            2.635295,
            42.446626,
            553.48
          ],
          [
            2.635364,
            42.446546,
            558.38
          ],
          [
            2.635453,
            42.446416,
            566.44
          ],
          [
            2.635614,
            42.446293,
            576.68
          ],
          [
            2.635836,
            42.44616,
            590.49
          ],
          [
            2.636115,
            42.446016,
            607.44
          ],
          [
            2.636585,
            42.445606,
            641.47
          ],
          [
            2.636821,
            42.445448,
            654.21
          ],
          [
            2.637102,
            42.445123,
            673.48
          ],
          [
            2.637186,
            42.444993,
            680.37
          ],
          [
            2.637408,
            42.444795,
            691.68
          ],
          [
            2.637743,
            42.444557,
            708.05
          ],
          [
            2.637934,
            42.444478,
            716.36
          ],
          [
            2.638342,
            42.444377,
            732.95
          ],
          [
            2.63865,
            42.44413,
            750.47
          ],
          [
            2.63883,
            42.443942,
            758.15
          ],
          [
            2.63894,
            42.443849,
            763.01
          ],
          [
            2.63917,
            42.443615,
            776.94
          ],
          [
            2.639425,
            42.443431,
            789.21
          ],
          [
            2.639688,
            42.443265,
            801.56
          ],
          [
            2.640214,
            42.443039,
            823.31
          ],
          [
            2.640592,
            42.44278,
            840.85
          ],
          [
            2.640954,
            42.442564,
            855.98
          ],
          [
            2.641271,
            42.442172,
            871.4
          ],
          [
            2.641512,
            42.441945,
            889.36
          ],
          [
            2.6416,
            42.441945,
            892.17
          ],
          [
            2.641684,
            42.441964,
            894.94
          ],
          [
            2.641745,
            42.441992,
            897.22
          ],
          [
            2.641847,
            42.441974,
            900.47
          ],
          [
            2.642512,
            42.441705,
            925.0
          ],
          [
            2.642917,
            42.441513,
            940.37
          ],
          [
            2.643151,
            42.441434,
            948.74
          ],
          [
            2.643435,
            42.441438,
            957.53
          ],
          [
            2.643502,
            42.441426,
            959.42
          ],
          [
            2.643532,
            42.441382,
            961.11
          ],
          [
            2.643671,
            42.441285,
            965.33
          ],
          [
            2.643827,
            42.441192,
            968.81
          ],
          [
            2.644073,
            42.441076,
            972.64
          ],
          [
            2.644417,
            42.440864,
            976.07
          ],
          [
            2.644749,
            42.440531,
            977.11
          ],
          [
            2.644886,
            42.440234,
            979.93
          ],
          [
            2.645146,
            42.440028,
            984.1
          ],
          [
            2.645253,
            42.439967,
            985.7
          ],
          [
            2.645484,
            42.439904,
            988.43
          ],
          [
            2.645814,
            42.43985,
            991.77
          ],
          [
            2.64598,
            42.439761,
            993.44
          ],
          [
            2.646085,
            42.439617,
            994.99
          ],
          [
            2.646385,
            42.439419,
            998.41
          ],
          [
            2.646589,
            42.439328,
            1001.26
          ],
          [
            2.646817,
            42.438991,
            1008.82
          ],
          [
            2.646852,
            42.438718,
            1013.85
          ],
          [
            2.646793,
            42.438617,
            1015.97
          ],
          [
            2.646774,
            42.438526,
            1018.54
          ],
          [
            2.646812,
            42.438413,
            1021.3
          ],
          [
            2.646925,
            42.438209,
            1021.25
          ],
          [
            2.647026,
            42.437987,
            1020.5
          ],
          [
            2.647201,
            42.437764,
            1025.09
          ],
          [
            2.64743,
            42.437303,
            1039.93
          ],
          [
            2.648117,
            42.436694,
            1066.33
          ],
          [
            2.649057,
            42.436136,
            1104.29
          ],
          [
            2.649332,
            42.435493,
            1133.17
          ],
          [
            2.64939,
            42.434977,
            1154.07
          ],
          [
            2.649894,
            42.434216,
            1191.64
          ],
          [
            2.650467,
            42.43381,
            1220.68
          ],
          [
            2.650872,
            42.433583,
            1236.79
          ],
          [
            2.650754,
            42.43351,
            1241.11
          ],
          [
            2.650845,
            42.433462,
            1244.27
          ],
          [
            2.650851,
            42.433383,
            1246.63
          ],
          [
            2.650926,
            42.433249,
            1250.45
          ],
          [
            2.650872,
            42.433023,
            1255.57
          ],
          [
            2.650851,
            42.432615,
            1264.89
          ],
          [
            2.650792,
            42.432203,
            1271.18
          ],
          [
            2.650701,
            42.4321,
            1273.1
          ],
          [
            2.650631,
            42.431962,
            1274.24
          ],
          [
            2.650314,
            42.43191,
            1268.36
          ],
          [
            2.650253,
            42.431741,
            1263.36
          ],
          [
            2.650057,
            42.431593,
            1261.31
          ],
          [
            2.650063,
            42.431421,
            1258.62
          ],
          [
            2.650095,
            42.431343,
            1257.83
          ],
          [
            2.650057,
            42.431244,
            1256.07
          ],
          [
            2.650101,
            42.431165,
            1253.44
          ],
          [
            2.65004,
            42.431094,
            1251.73
          ],
          [
            2.650079,
            42.431037,
            1249.99
          ],
          [
            2.650032,
            42.430999,
            1248.83
          ],
          [
            2.650062,
            42.430967,
            1247.99
          ],
          [
            2.650066,
            42.430887,
            1246.25
          ],
          [
            2.650025,
            42.430831,
            1246.0
          ],
          [
            2.650126,
            42.430303,
            1246.32
          ],
          [
            2.650244,
            42.430105,
            1246.14
          ],
          [
            2.650244,
            42.429962,
            1246.34
          ],
          [
            2.650126,
            42.429847,
            1246.86
          ],
          [
            2.650126,
            42.429713,
            1247.64
          ],
          [
            2.650228,
            42.429594,
            1248.68
          ],
          [
            2.650234,
            42.429495,
            1249.55
          ],
          [
            2.65033,
            42.429388,
            1250.68
          ],
          [
            2.650443,
            42.42917,
            1252.44
          ],
          [
            2.65069,
            42.428889,
            1254.74
          ],
          [
            2.650727,
            42.428695,
            1255.94
          ],
          [
            2.650754,
            42.428386,
            1258.0
          ],
          [
            2.650867,
            42.428283,
            1258.07
          ],
          [
            2.650899,
            42.428097,
            1257.73
          ],
          [
            2.650786,
            42.427931,
            1257.4
          ],
          [
            2.65069,
            42.42786,
            1257.27
          ],
          [
            2.650615,
            42.427717,
            1257.19
          ],
          [
            2.650454,
            42.427598,
            1257.06
          ],
          [
            2.65032,
            42.427408,
            1256.0
          ],
          [
            2.650438,
            42.4269,
            1252.98
          ],
          [
            2.65047,
            42.4267,
            1252.59
          ],
          [
            2.650679,
            42.425878,
            1254.06
          ],
          [
            2.65068,
            42.425793,
            1254.25
          ],
          [
            2.650607,
            42.425643,
            1253.29
          ],
          [
            2.650565,
            42.425434,
            1250.68
          ],
          [
            2.650523,
            42.425036,
            1245.61
          ],
          [
            2.650474,
            42.424902,
            1243.66
          ],
          [
            2.650477,
            42.424862,
            1243.19
          ],
          [
            2.650504,
            42.424819,
            1242.6
          ],
          [
            2.650571,
            42.424813,
            1241.54
          ],
          [
            2.650631,
            42.42483,
            1240.59
          ],
          [
            2.650684,
            42.424865,
            1239.59
          ],
          [
            2.650726,
            42.424912,
            1238.11
          ],
          [
            2.650787,
            42.424932,
            1236.63
          ],
          [
            2.651049,
            42.424967,
            1230.76
          ],
          [
            2.651179,
            42.424976,
            1228.0
          ],
          [
            2.651233,
            42.424991,
            1226.72
          ],
          [
            2.651279,
            42.425019,
            1225.38
          ],
          [
            2.651433,
            42.425151,
            1220.15
          ],
          [
            2.651722,
            42.425272,
            1212.68
          ],
          [
            2.652071,
            42.425363,
            1204.46
          ],
          [
            2.652455,
            42.425494,
            1195.21
          ],
          [
            2.652548,
            42.425569,
            1192.92
          ],
          [
            2.652742,
            42.425559,
            1190.05
          ],
          [
            2.652838,
            42.425498,
            1188.19
          ],
          [
            2.652994,
            42.42547,
            1185.68
          ],
          [
            2.653224,
            42.425391,
            1181.68
          ],
          [
            2.653474,
            42.42528,
            1177.1
          ],
          [
            2.653871,
            42.425219,
            1171.55
          ],
          [
            2.654254,
            42.425209,
            1166.8
          ],
          [
            2.65463,
            42.425209,
            1159.39
          ],
          [
            2.655032,
            42.425183,
            1150.85
          ],
          [
            2.655359,
            42.42507,
            1143.56
          ],
          [
            2.655654,
            42.424862,
            1135.18
          ],
          [
            2.656038,
            42.424728,
            1127.28
          ],
          [
            2.656322,
            42.424769,
            1122.54
          ],
          [
            2.656521,
            42.4247,
            1119.01
          ],
          [
            2.656642,
            42.42468,
            1117.17
          ],
          [
            2.656781,
            42.424777,
            1114.54
          ],
          [
            2.656945,
            42.424773,
            1112.54
          ],
          [
            2.6571,
            42.424749,
            1111.03
          ],
          [
            2.657245,
            42.424785,
            1109.78
          ],
          [
            2.657704,
            42.424795,
            1105.55
          ],
          [
            2.657819,
            42.424819,
            1104.45
          ],
          [
            2.657921,
            42.424779,
            1103.34
          ],
          [
            2.657945,
            42.424712,
            1102.41
          ],
          [
            2.658517,
            42.424755,
            1098.34
          ],
          [
            2.658771,
            42.424803,
            1096.45
          ],
          [
            2.659098,
            42.424813,
            1094.68
          ],
          [
            2.659241,
            42.424767,
            1094.25
          ],
          [
            2.659281,
            42.424819,
            1094.13
          ],
          [
            2.659581,
            42.424846,
            1094.4
          ],
          [
            2.659919,
            42.424888,
            1095.01
          ],
          [
            2.660147,
            42.424848,
            1094.98
          ],
          [
            2.660327,
            42.424753,
            1095.0
          ],
          [
            2.660818,
            42.424664,
            1093.82
          ],
          [
            2.660933,
            42.42452,
            1092.46
          ],
          [
            2.66107,
            42.424583,
            1090.87
          ],
          [
            2.661456,
            42.424553,
            1086.22
          ],
          [
            2.661703,
            42.424575,
            1083.27
          ],
          [
            2.661907,
            42.424742,
            1079.55
          ],
          [
            2.662237,
            42.424757,
            1075.99
          ],
          [
            2.662505,
            42.424835,
            1072.36
          ],
          [
            2.66262,
            42.424935,
            1070.16
          ],
          [
            2.662744,
            42.424947,
            1068.79
          ],
          [
            2.662845,
            42.424906,
            1067.59
          ],
          [
            2.663055,
            42.424916,
            1065.3
          ],
          [
            2.663272,
            42.425009,
            1062.52
          ],
          [
            2.663556,
            42.425015,
            1057.95
          ],
          [
            2.663712,
            42.425005,
            1055.19
          ],
          [
            2.664055,
            42.425086,
            1049.43
          ],
          [
            2.664261,
            42.424927,
            1044.37
          ],
          [
            2.664754,
            42.424602,
            1024.16
          ],
          [
            2.665162,
            42.424622,
            1014.18
          ],
          [
            2.665897,
            42.424773,
            1000.57
          ],
          [
            2.666364,
            42.42461,
            992.88
          ],
          [
            2.666863,
            42.424384,
            981.96
          ],
          [
            2.667336,
            42.42419,
            970.91
          ],
          [
            2.667674,
            42.42394,
            963.97
          ],
          [
            2.667878,
            42.423735,
            960.87
          ],
          [
            2.668124,
            42.423624,
            959.13
          ],
          [
            2.668382,
            42.423548,
            958.14
          ],
          [
            2.669358,
            42.42356,
            952.47
          ],
          [
            2.670361,
            42.42356,
            939.21
          ],
          [
            2.670694,
            42.423445,
            932.74
          ],
          [
            2.671047,
            42.423138,
            921.32
          ],
          [
            2.671895,
            42.421965,
            883.06
          ],
          [
            2.672892,
            42.420852,
            830.94
          ],
          [
            2.67337,
            42.421144,
            822.99
          ],
          [
            2.674078,
            42.421251,
            819.25
          ],
          [
            2.674075,
            42.42126,
            819.19
          ]
        ]
      }
    },
    {
      "type": "Feature",
      "properties": {
        "source": "Roc_de_Frausa.gpx",
        "type": "route"
      },
      "geometry": {
        "type": "LineString",
        "coordinates": [
          [
            2.664811,
            42.456376
          ],
          [
            2.663504,
            42.454515
          ],
          [
            2.671056,
            42.444993
          ],
          [
            2.671056,
            42.444993
          ],
          [
            2.663504,
            42.454515
          ],
          [
            2.668126,
            42.454605
          ],
          [
            2.670409,
            42.454916
          ],
          [
            2.663141,
            42.46798
          ],
          [
            2.65644,
            42.467567
          ],
          [
            2.645382,
            42.463832
          ],
          [
            2.644504,
            42.46292
          ],
          [
            2.640312,
            42.461433
          ],
          [
            2.639786,
            42.460783
          ],
          [
            2.63929,
            42.458776
          ],
          [
            2.637245,
            42.458059
          ],
          [
            2.637123,
            42.457445
          ],
          [
            2.634812,
            42.457625
          ],
          [
            2.634818,
            42.457569
          ],
          [
            2.634685,
            42.457363
          ],
          [
            2.634307,
            42.457343
          ],
          [
            2.62968,
            42.453281
          ],
          [
            2.632589,
            42.449519
          ],
          [
            2.63865,
            42.44413
          ],
          [
            2.650872,
            42.433583
          ],
          [
            2.650314,
            42.43191
          ],
          [
            2.65004,
            42.431094
          ],
          [
            2.650504,
            42.424819
          ],
          [
            2.664055,
            42.425086
          ],
          [
            2.672892,
            42.420852
          ],
          [
            2.674075,
            42.42126
          ]
        ]
      }
    }
  ]
}