{
  "type": "FeatureCollection",
  "features": [
    {
      "type": "Feature",
      "properties": {
        "name": "GraphHopper Track",
        "source": "Castelnau-de-M..gpx",
        "type": "track"
      },
      "geometry": {
        "type": "LineString",
        "coordinates": [
          [
            2.835024,
            44.483092,
            640.49
          ],
          [
            2.835422,
            44.482962,
            640.44
          ],
          [
            2.836193,
            44.4826,
            642.59
          ],
          [
            2.836365,
            44.482529,
            643.23
          ],
          [
            2.836621,
            44.482486,
            643.76
          ],
          [
            2.836868,
            44.482509,
            642.83
          ],
          [
            2.837176,
            44.482499,
            640.97
          ],
          [
            2.838379,
            44.482361,
            636.98
          ],
          [
            2.838884,
            44.482343,
            635.22
          ],
          [
            2.839164,
            44.482357,
            634.12
          ],
          [
            2.839429,
            44.482281,
            632.97
          ],
          [
            2.83969,
            44.482174,
            631.8
          ],
          [
            2.840084,
            44.482061,
            630.23
          ],
          [
            2.841216,
            44.48178,
            627.96
          ],
          [
            2.841456,
            44.481703,
            627.91
          ],
          [
            2.841605,
            44.481611,
            628.13
          ],
          [
            2.84187,
            44.481479,
            628.99
          ],
          [
            2.841872,
            44.481333,
            630.01
          ],
          [
            2.842195,
            44.481083,
            632.03
          ],
          [
            2.842369,
            44.480967,
            632.27
          ],
          [
            2.842477,
            44.48084,
            632.61
          ],
          [
            2.842627,
            44.480823,
            632.78
          ],
          [
            2.842746,
            44.480757,
            632.96
          ],
          [
            2.842886,
            44.480647,
            633.14
          ],
          [
            2.843078,
            44.480519,
            633.11
          ],
          [
            2.843218,
            44.480386,
            633.02
          ],
          [
            2.84336,
            44.480343,
            633.05
          ],
          [
            2.843581,
            44.480218,
            633.44
          ],
          [
            2.843868,
            44.47999,
            634.74
          ],
          [
            2.844355,
            44.479951,
            636.46
          ],
          [
            2.844502,
            44.479978,
            637.41
          ],
          [
            2.844681,
            44.479999,
            638.88
          ],
          [
            2.844813,
            44.480033,
            639.78
          ],
          [
            2.845116,
            44.480078,
            640.44
          ],
          [
            2.84523,
            44.479931,
            640.65
          ],
          [
            2.845271,
            44.47966,
            640.83
          ],
          [
            2.845243,
            44.479391,
            640.77
          ],
          [
            2.845275,
            44.479262,
            640.66
          ],
          [
            2.845375,
            44.479128,
            640.41
          ],
          [
            2.845491,
            44.47893,
            639.97
          ],
          [
            2.845601,
            44.478776,
            639.6
          ],
          [
            2.845691,
            44.478601,
            639.15
          ],
          [
            2.84576,
            44.478369,
            638.64
          ],
          [
            2.845896,
            44.477817,
            638.23
          ],
          [
            2.846063,
            44.477655,
            638.89
          ],
          [
            2.846674,
            44.477254,
            638.16
          ],
          [
            2.846838,
            44.477058,
            637.08
          ],
          [
            2.847019,
            44.477023,
            635.56
          ],
          [
            2.847152,
            44.477006,
            633.87
          ],
          [
            2.847195,
            44.477205,
            633.69
          ],
          [
            2.847334,
            44.477398,
            632.82
          ],
          [
            2.847515,
            44.477601,
            631.92
          ],
          [
            2.847681,
            44.477827,
            631.07
          ],
          [
            2.847925,
            44.478109,
            630.0
          ],
          [
            2.848062,
            44.478291,
            629.43
          ],
          [
            2.848195,
            44.478578,
            629.26
          ],
          [
            2.848206,
            44.478649,
            628.7
          ],
          [
            2.848177,
            44.478755,
            627.27
          ],
          [
            2.84811,
            44.478889,
            626.07
          ],
          [
            2.848022,
            44.479002,
            625.18
          ],
          [
            2.847895,
            44.479231,
            623.31
          ],
          [
            2.848018,
            44.479432,
            621.67
          ],
          [
            2.84852,
            44.480023,
            617.14
          ],
          [
            2.848729,
            44.480341,
            615.08
          ],
          [
            2.848925,
            44.480823,
            612.46
          ],
          [
            2.849195,
            44.481169,
            611.0
          ],
          [
            2.849521,
            44.481432,
            609.11
          ],
          [
            2.849688,
            44.481548,
            608.16
          ],
          [
            2.849856,
            44.481631,
            607.21
          ],
          [
            2.84998,
            44.48165,
            606.61
          ],
          [
            2.850113,
            44.48164,
            605.97
          ],
          [
            2.850361,
            44.481556,
            604.72
          ],
          [
            2.850602,
            44.481496,
            603.56
          ],
          [
            2.850718,
            44.481505,
            603.02
          ],
          [
            2.850936,
            44.481558,
            601.93
          ],
          [
            2.851065,
            44.481638,
            601.15
          ],
          [
            2.851124,
            44.481727,
            600.57
          ],
          [
            2.851111,
            44.481951,
            599.46
          ],
          [
            2.851139,
            44.482057,
            599.03
          ],
          [
            2.851224,
            44.482169,
            598.6
          ],
          [
            2.851355,
            44.482246,
            598.24
          ],
          [
            2.851528,
            44.482289,
            597.9
          ],
          [
            2.851723,
            44.482296,
            597.58
          ],
          [
            2.851873,
            44.482258,
            597.37
          ],
          [
            2.852736,
            44.48186,
            596.78
          ],
          [
            2.85302,
            44.481831,
            596.45
          ],
          [
            2.853274,
            44.48186,
            596.17
          ],
          [
            2.85343,
            44.481946,
            596.06
          ],
          [
            2.853643,
            44.482012,
            595.64
          ],
          [
            2.853959,
            44.482052,
            594.0
          ],
          [
            2.854186,
            44.482022,
            594.0
          ],
          [
            2.854651,
            44.481984,
            594.81
          ],
          [
            2.855675,
            44.481848,
            598.69
          ],
          [
            2.855979,
            44.48177,
            600.19
          ],
          [
            2.856282,
            44.481619,
            602.01
          ],
          [
            2.857864,
            44.480324,
            614.43
          ],
          [
            2.858021,
            44.480212,
            615.47
          ],
          [
            2.85814,
            44.480176,
            615.76
          ],
          [
            2.858339,
            44.480163,
            616.2
          ],
          [
            2.858283,
            44.480074,
            616.26
          ],
          [
            2.857792,
            44.479836,
            617.68
          ],
          [
            2.85758,
            44.479767,
            617.5
          ],
          [
            2.857317,
            44.47964,
            617.36
          ],
          [
            2.857007,
            44.479419,
            616.62
          ],
          [
            2.856752,
            44.479178,
            615.44
          ],
          [
            2.856491,
            44.478854,
            613.84
          ],
          [
            2.856337,
            44.478554,
            612.2
          ],
          [
            2.856252,
            44.478235,
            610.17
          ],
          [
            2.856211,
            44.478009,
            608.47
          ],
          [
            2.856072,
            44.477766,
            606.31
          ],
          [
            2.855899,
            44.477652,
            604.89
          ],
          [
            2.855779,
            44.477557,
            603.84
          ],
          [
            2.85563,
            44.477516,
            602.95
          ],
          [
            2.855462,
            44.477499,
            602.04
          ],
          [
            2.854793,
            44.477389,
            598.56
          ],
          [
            2.854547,
            44.477334,
            597.36
          ],
          [
            2.854263,
            44.477244,
            596.07
          ],
          [
            2.854008,
            44.477117,
            594.45
          ],
          [
            2.853897,
            44.47685,
            592.06
          ],
          [
            2.853692,
            44.476512,
            588.78
          ],
          [
            2.853597,
            44.4761,
            584.68
          ],
          [
            2.853672,
            44.475834,
            583.1
          ],
          [
            2.853672,
            44.475834,
            583.1
          ],
          [
            2.853597,
            44.4761,
            584.68
          ],
          [
            2.853692,
            44.476512,
            588.78
          ],
          [
            2.853897,
            44.47685,
            592.06
          ],
          [
            2.854008,
            44.477117,
            594.45
          ],
          [
            2.854263,
            44.477244,
            596.07
          ],
          [
            2.854547,
            44.477334,
            597.36
          ],
          [
            2.854793,
            44.477389,
            598.56
          ],
          [
            2.855462,
            44.477499,
            602.04
          ],
          [
            2.85563,
            44.477516,
            602.95
          ],
          [
            2.855779,
            44.477557,
            603.84
          ],
          [
            2.855899,
            44.477652,
            604.89
          ],
          [
            2.856072,
            44.477766,
            606.31
          ],
          [
            2.856211,
            44.478009,
            608.47
          ],
          [
            2.856252,
            44.478235,
            610.17
          ],
          [
            2.856337,
            44.478554,
            612.2
          ],
          [
            2.856491,
            44.478854,
            613.84
          ],
          [
            2.856752,
            44.479178,
            615.44
          ],
          [
            2.857007,
            44.479419,
            616.62
          ],
          [
            2.857317,
            44.47964,
            617.36
          ],
          [
            2.85758,
            44.479767,
            617.5
          ],
          [
            2.857792,
            44.479836,
            617.68
          ],
          [
            2.858283,
            44.480074,
            616.26
          ],
          [
            2.858339,
            44.480163,
            616.2
          ],
          [
            2.85814,
            44.480176,
            615.76
          ],
          [
            2.858021,
            44.480212,
            615.47
          ],
          [
            2.857864,
            44.480324,
            614.43
          ],
          [
            2.856282,
            44.481619,
            602.01
          ],
          [
            2.855979,
            44.48177,
            600.19
          ],
          [
            2.855675,
            44.481848,
            598.69
          ],
          [
            2.854651,
            44.481984,
            594.81
          ],
          [
            2.854186,
            44.482022,
            594.0
          ],
          [
            2.853959,
            44.482052,
            594.0
          ],
          [
            2.853643,
            44.482012,
            595.64
          ],
          [
            2.85343,
            44.481946,
            596.06
          ],
          [
            2.853274,
            44.48186,
            596.17
          ],
          [
            2.85302,
            44.481831,
            596.45
          ],
          [
            2.852736,
            44.48186,
            596.78
          ],
          [
            2.851873,
            44.482258,
            597.37
          ],
          [
            2.851723,
            44.482296,
            597.58
          ],
          [
            2.851528,
            44.482289,
            597.9
          ],
          [
            2.851355,
            44.482246,
            598.24
          ],
          [
            2.851224,
            44.482169,
            598.6
          ],
          [
            2.851139,
            44.482057,
            599.03
          ],
          [
            2.851111,
            44.481951,
            599.46
          ],
          [
            2.851124,
            44.481727,
            600.57
          ],
          [
            2.851065,
            44.481638,
            601.15
          ],
          [
            2.850936,
            44.481558,
            601.93
          ],
          [
            2.850718,
            44.481505,
            603.02
          ],
          [
            2.850602,
            44.481496,
            603.56
          ],
          [
            2.850361,
            44.481556,
            604.72
          ],
          [
            2.850113,
            44.48164,
            605.97
          ],
          [
            2.84998,
            44.48165,
            606.61
          ],
          [
            2.849856,
            44.481631,
            607.21
          ],
          [
            2.849688,
            44.481548,
            608.16
          ],
          [
            2.849521,
            44.481432,
            609.11
          ],
          [
            2.849195,
            44.481169,
            611.0
          ],
          [
            2.848925,
            44.480823,
            612.46
          ],
          [
            2.848729,
            44.480341,
            615.08
          ],
          [
            2.84852,
            44.480023,
            617.14
          ],
          [
            2.848018,
            44.479432,
            621.67
          ],
          [
            2.847895,
            44.479231,
            623.31
          ],
          [
            2.848022,
            44.479002,
            625.18
          ],
          [
            2.84811,
            44.478889,
            626.07
          ],
          [
            2.848177,
            44.478755,
            627.27
          ],
          [
            2.848206,
            44.478649,
            628.7
          ],
          [
            2.848195,
            44.478578,
            629.26
          ],
          [
            2.848062,
            44.478291,
            629.43
          ],
          [
            2.847925,
            44.478109,
            630.0
          ],
          [
            2.847681,
            44.477827,
            631.07
          ],
          [
            2.847515,
            44.477601,
            631.92
          ],
          [
            2.847334,
            44.477398,
            632.82
          ],
          [
            2.847195,
            44.477205,
            633.69
          ],
          [
            2.847152,
            44.477006,
            633.87
          ],
          [
            2.847019,
            44.477023,
            635.56
          ],
          [
            2.846838,
            44.477058,
            637.08
          ],
          [
            2.846674,
            44.477254,
            638.16
          ],
          [
            2.846063,
            44.477655,
            638.89
          ],
          [
            2.845896,
            44.477817,
            638.23
          ],
          [
            2.84576,
            44.478369,
            638.64
          ],
          [
            2.845691,
            44.478601,
            639.15
          ],
          [
            2.845601,
            44.478776,
            639.6
          ],
          [
            2.845491,
            44.47893,
            639.97
          ],
          [
            2.845375,
            44.479128,
            640.41
          ],
          [
            2.845275,
            44.479262,
            640.66
          ],
          [
            2.845243,
            44.479391,
            640.77
          ],
          [
            2.845271,
            44.47966,
            640.83
          ],
          [
            2.84523,
            44.479931,
            640.65
          ],
          [
            2.845116,
            44.480078,
            640.44
          ],
          [
            2.844813,
            44.480033,
            639.78
          ],
          [
            2.844681,
            44.479999,
            638.88
          ],
          [
            2.844502,
            44.479978,
            637.41
          ],
          [
            2.844355,
            44.479951,
            636.46
          ],
          [
            2.843868,
            44.47999,
            634.74
          ],
          [
            2.843581,
            44.480218,
            633.44
          ],
          [
            2.84336,
            44.480343,
            633.05
          ],
          [
            2.843218,
            44.480386,
            633.02
          ],
          [
            2.843078,
            44.480519,
            633.11
          ],
          [
            2.842886,
            44.480647,
            633.14
          ],
          [
            2.842746,
            44.480757,
            632.96
          ],
          [
            2.842627,
            44.480823,
            632.78
          ],
          [
            2.842477,
            44.48084,
            632.61
          ],
          [
            2.842369,
            44.480967,
            632.27
          ],
          [
            2.842195,
            44.481083,
            632.03
          ],
          [
            2.841872,
            44.481333,
            630.01
          ],
          [
            2.84187,
            44.481479,
            628.99
          ],
          [
            2.841605,
            44.481611,
            628.13
          ],
          [
            2.841456,
            44.481703,
            627.91
          ],
          [
            2.841216,
            44.48178,
            627.96
          ],
          [
            2.840084,
            44.482061,
            630.23
          ],
          [
            2.83969,
            44.482174,
            631.8
          ],
          [
            2.839429,
            44.482281,
            632.97
          ],
          [
            2.839164,
            44.482357,
            634.12
          ],
          [
            2.838884,
            44.482343,
            635.22
          ],
          [
            2.838379,
            44.482361,
            636.98
          ],
          [
            2.837176,
            44.482499,
            640.97
          ],
          [
            2.836868,
            44.482509,
            642.83
          ],
          [
            2.836621,
            44.482486,
            643.76
          ],
          [
            2.836365,
            44.482529,
            643.23
          ],
          [
            2.836193,
            44.4826,
            642.59
          ],
          [
            2.835422,
            44.482962,
            640.44
          ],
          [
            2.835038,
            44.483091,
            640.47
          ],
          [
            2.834797,
            44.483115,
            640.86
          ],
          [
            2.833888,
            44.483052,
            644.01
          ],
          [
            2.833523,
            44.483138,
            645.54
          ],
          [
            2.83271,
            44.483419,
            648.19
          ],
          [
            2.831961,
            44.483659,
            648.39
          ],
          [
            2.831646,
            44.483789,
            647.92
          ],
          [
            2.831471,
            44.483995,
            647.19
          ],
          [
            2.831114,
            44.484357,
            645.3
          ],
          [
            2.830611,
            44.484723,
            643.28
          ],
          [
            2.83049,
            44.484878,
            642.46
          ],
          [
            2.830457,
            44.485012,
            641.8
          ],
          [
            2.83046,
            44.485337,
            640.3
          ],
          [
            2.830334,
            44.485576,
            639.03
          ],
          [
            2.830205,
            44.485706,
            638.15
          ],
          [
            2.830017,
            44.485794,
            637.21
          ],
          [
            2.829806,
            44.48581,
            636.26
          ],
          [
            2.829041,
            44.485629,
            632.38
          ],
          [
            2.828888,
            44.485622,
            631.48
          ],
          [
            2.828741,
            44.485639,
            630.49
          ],
          [
            2.828575,
            44.485745,
            629.47
          ],
          [
            2.82814,
            44.486297,
            629.86
          ],
          [
            2.827751,
            44.486896,
            633.09
          ],
          [
            2.827671,
            44.487134,
            634.87
          ],
          [
            2.827692,
            44.487478,
            637.56
          ],
          [
            2.827586,
            44.487796,
            640.26
          ],
          [
            2.827504,
            44.487975,
            641.89
          ],
          [
            2.827332,
            44.488186,
            644.13
          ],
          [
            2.827151,
            44.488294,
            645.69
          ],
          [
            2.826992,
            44.488373,
            646.96
          ],
          [
            2.826768,
            44.48846,
            648.6
          ],
          [
            2.826581,
            44.488484,
            649.81
          ],
          [
            2.826166,
            44.488491,
            652.49
          ],
          [
            2.82582,
            44.488484,
            654.45
          ],
          [
            2.825263,
            44.488441,
            657.78
          ],
          [
            2.825003,
            44.488449,
            659.21
          ],
          [
            2.824812,
            44.488483,
            660.69
          ],
          [
            2.824676,
            44.488519,
            661.81
          ],
          [
            2.82455,
            44.488577,
            663.0
          ],
          [
            2.823808,
            44.489059,
            670.07
          ],
          [
            2.823563,
            44.489168,
            671.73
          ],
          [
            2.823308,
            44.489223,
            673.25
          ],
          [
            2.823086,
            44.489245,
            674.26
          ],
          [
            2.822585,
            44.489271,
            675.95
          ],
          [
            2.822414,
            44.489301,
            676.62
          ],
          [
            2.822238,
            44.489362,
            676.42
          ],
          [
            2.822034,
            44.489494,
            676.28
          ],
          [
            2.821819,
            44.489982,
            677.04
          ],
          [
            2.821733,
            44.490109,
            677.46
          ],
          [
            2.821471,
            44.490395,
            679.06
          ],
          [
            2.821404,
            44.490517,
            679.95
          ],
          [
            2.821356,
            44.490781,
            682.17
          ],
          [
            2.821365,
            44.490936,
            683.63
          ],
          [
            2.821586,
            44.491446,
            689.21
          ],
          [
            2.821762,
            44.491886,
            694.16
          ],
          [
            2.821845,
            44.492132,
            695.0
          ],
          [
            2.822032,
            44.492309,
            695.57
          ],
          [
            2.82216,
            44.492458,
            696.73
          ],
          [
            2.822258,
            44.492499,
            697.5
          ],
          [
            2.822828,
            44.492532,
            696.4
          ],
          [
            2.823013,
            44.492551,
            695.73
          ],
          [
            2.823368,
            44.492649,
            693.04
          ],
          [
            2.823523,
            44.492721,
            692.12
          ],
          [
            2.823601,
            44.492782,
            691.54
          ],
          [
            2.823652,
            44.492849,
            690.92
          ],
          [
            2.823706,
            44.492968,
            689.91
          ],
          [
            2.823735,
            44.493062,
            689.02
          ],
          [
            2.823718,
            44.493334,
            687.31
          ],
          [
            2.82372,
            44.493456,
            686.11
          ],
          [
            2.82371,
            44.493515,
            685.46
          ],
          [
            2.823636,
            44.493596,
            685.38
          ],
          [
            2.823761,
            44.493648,
            682.32
          ],
          [
            2.823843,
            44.493654,
            681.29
          ],
          [
            2.824038,
            44.493448,
            676.96
          ],
          [
            2.82417,
            44.493387,
            675.08
          ],
          [
            2.824226,
            44.493155,
            671.82
          ],
          [
            2.82427,
            44.493166,
            671.38
          ],
          [
            2.824567,
            44.493584,
            665.51
          ],
          [
            2.824672,
            44.493586,
            664.46
          ],
          [
            2.824762,
            44.493526,
            663.2
          ],
          [
            2.82484,
            44.493486,
            662.23
          ],
          [
            2.825014,
            44.493313,
            658.88
          ],
          [
            2.825122,
            44.49318,
            656.2
          ],
          [
            2.82518,
            44.493063,
            653.93
          ],
          [
            2.825235,
            44.493049,
            653.18
          ],
          [
            2.825405,
            44.493064,
            650.78
          ]
        ]
      }
    },
    {
      "type": "Feature",
      "properties": {
        "source": "Castelnau-de-M..gpx",
        "type": "route"
      },
      "geometry": {
        "type": "LineString",
        "coordinates": [
          [
            2.835024,
            44.483092
          ],
          [
            2.847152,
            44.477006
          ],
          [
            2.858339,
            44.480163
          ],
          [
            2.853672,
            44.475834
          ],
          [
            2.853672,
            44.475834
          ],
          [
            2.858339,
            44.480163
          ],
          [
            2.847152,
            44.477006
          ],
          [
            2.836621,
            44.482486
          ],
          [
            2.823636,
            44.493596
          ],
          [
            2.825405,
            44.493064
          ]
        ]
      }
    }
  ]
}