{
  "type": "FeatureCollection",
  "features": [
    {
      "type": "Feature",
      "properties": {
        "name": "GraphHopper Track",
        "source": "LOenorando.gpx",
        "type": "track"
      },
      "geometry": {
        "type": "LineString",
        "coordinates": [
          [
            3.25965,
            43.334638,
            29.9
          ],
          [
            3.260555,
            43.334624,
            29.0
          ],
          [
            3.260743,
            43.334653,
            29.0
          ],
          [
            3.260548,
            43.33518,
            30.91
          ],
          [
            3.260474,
            43.335353,
            31.37
          ],
          [
            3.26034,
            43.335523,
            31.93
          ],
          [
            3.260242,
            43.335605,
            32.0
          ],
          [
            3.26033,
            43.335663,
            32.0
          ],
          [
            3.260235,
            43.33575,
            32.52
          ],
          [
            3.260206,
            43.335802,
            32.92
          ],
          [
            3.260201,
            43.335852,
            32.99
          ],
          [
            3.260162,
            43.335894,
            33.0
          ],
          [
            3.260141,
            43.336067,
            33.02
          ],
          [
            3.259853,
            43.337361,
            35.98
          ],
          [
            3.259733,
            43.338247,
            38.31
          ],
          [
            3.25968,
            43.338721,
            40.02
          ],
          [
            3.259569,
            43.339341,
            41.78
          ],
          [
            3.259423,
            43.339785,
            42.0
          ],
          [
            3.258891,
            43.340843,
            42.0
          ],
          [
            3.258752,
            43.341147,
            42.91
          ],
          [
            3.258615,
            43.341489,
            43.59
          ],
          [
            3.258521,
            43.341778,
            43.81
          ],
          [
            3.25835,
            43.342206,
            44.65
          ],
          [
            3.258155,
            43.342431,
            45.56
          ],
          [
            3.25806,
            43.342562,
            45.52
          ],
          [
            3.258094,
            43.34259,
            45.33
          ],
          [
            3.258113,
            43.342624,
            45.21
          ],
          [
            3.258115,
            43.342661,
            45.18
          ],
          [
            3.2581,
            43.342695,
            45.33
          ],
          [
            3.258071,
            43.342723,
            45.56
          ],
          [
            3.25803,
            43.342743,
            45.77
          ],
          [
            3.257983,
            43.342753,
            45.99
          ],
          [
            3.257934,
            43.34275,
            46.22
          ],
          [
            3.257676,
            43.343055,
            47.97
          ],
          [
            3.257562,
            43.343207,
            48.0
          ],
          [
            3.257551,
            43.343253,
            48.0
          ],
          [
            3.257576,
            43.343294,
            48.0
          ],
          [
            3.257948,
            43.343631,
            47.74
          ],
          [
            3.257965,
            43.343697,
            47.82
          ],
          [
            3.257948,
            43.343775,
            47.94
          ],
          [
            3.257801,
            43.343997,
            48.29
          ],
          [
            3.257554,
            43.344307,
            49.1
          ],
          [
            3.257338,
            43.344483,
            49.99
          ],
          [
            3.256983,
            43.344685,
            51.41
          ],
          [
            3.256305,
            43.345089,
            54.99
          ],
          [
            3.256142,
            43.345138,
            56.25
          ],
          [
            3.255939,
            43.345109,
            57.56
          ],
          [
            3.255706,
            43.345114,
            58.53
          ],
          [
            3.255641,
            43.34517,
            58.53
          ],
          [
            3.255598,
            43.345189,
            58.69
          ],
          [
            3.255551,
            43.345202,
            58.91
          ],
          [
            3.255481,
            43.345206,
            59.25
          ],
          [
            3.255387,
            43.345303,
            58.31
          ],
          [
            3.255215,
            43.345508,
            58.46
          ],
          [
            3.255002,
            43.34569,
            60.16
          ],
          [
            3.254659,
            43.345892,
            60.52
          ],
          [
            3.254453,
            43.345971,
            61.05
          ],
          [
            3.254334,
            43.346087,
            60.36
          ],
          [
            3.253878,
            43.346252,
            59.54
          ],
          [
            3.253407,
            43.346352,
            60.19
          ],
          [
            3.253359,
            43.346353,
            60.33
          ],
          [
            3.253195,
            43.346336,
            60.85
          ],
          [
            3.253117,
            43.346369,
            60.57
          ],
          [
            3.253019,
            43.346445,
            59.91
          ],
          [
            3.25295,
            43.346546,
            59.36
          ],
          [
            3.252927,
            43.346663,
            58.97
          ],
          [
            3.252962,
            43.347024,
            58.02
          ],
          [
            3.25298,
            43.347085,
            57.99
          ],
          [
            3.253008,
            43.347125,
            58.0
          ],
          [
            3.25308,
            43.347176,
            58.0
          ],
          [
            3.253197,
            43.347178,
            58.0
          ],
          [
            3.253311,
            43.347194,
            58.0
          ],
          [
            3.253451,
            43.347235,
            55.53
          ],
          [
            3.253538,
            43.347276,
            56.2
          ],
          [
            3.253615,
            43.347326,
            56.83
          ],
          [
            3.253695,
            43.3474,
            57.58
          ],
          [
            3.253765,
            43.347502,
            58.24
          ],
          [
            3.253802,
            43.347631,
            58.72
          ],
          [
            3.253791,
            43.347762,
            58.48
          ],
          [
            3.253768,
            43.347826,
            58.0
          ],
          [
            3.253851,
            43.347894,
            58.0
          ],
          [
            3.25392,
            43.347858,
            57.99
          ],
          [
            3.254039,
            43.34791,
            57.85
          ],
          [
            3.254297,
            43.347959,
            57.44
          ],
          [
            3.254442,
            43.347995,
            57.29
          ],
          [
            3.254757,
            43.348091,
            56.9
          ],
          [
            3.255225,
            43.34827,
            56.14
          ],
          [
            3.256132,
            43.348639,
            54.5
          ],
          [
            3.256583,
            43.348809,
            53.8
          ],
          [
            3.256766,
            43.348867,
            53.53
          ],
          [
            3.25691,
            43.348893,
            53.57
          ],
          [
            3.25697,
            43.348895,
            53.54
          ],
          [
            3.257084,
            43.348847,
            53.26
          ],
          [
            3.257244,
            43.348816,
            53.05
          ],
          [
            3.257341,
            43.348774,
            53.0
          ],
          [
            3.257391,
            43.34881,
            53.0
          ],
          [
            3.257491,
            43.348738,
            52.74
          ],
          [
            3.257619,
            43.348579,
            52.0
          ],
          [
            3.257676,
            43.348349,
            51.15
          ],
          [
            3.257728,
            43.347891,
            49.42
          ],
          [
            3.257817,
            43.347093,
            49.0
          ],
          [
            3.257901,
            43.346858,
            49.0
          ],
          [
            3.257993,
            43.346803,
            49.07
          ],
          [
            3.25816,
            43.346756,
            49.35
          ],
          [
            3.258881,
            43.346783,
            50.57
          ],
          [
            3.259692,
            43.346794,
            53.28
          ],
          [
            3.259839,
            43.34677,
            53.91
          ],
          [
            3.260026,
            43.346708,
            54.76
          ],
          [
            3.260436,
            43.346518,
            56.12
          ],
          [
            3.260736,
            43.34635,
            57.08
          ],
          [
            3.261032,
            43.346153,
            57.93
          ],
          [
            3.261334,
            43.346216,
            58.52
          ],
          [
            3.263063,
            43.346377,
            59.68
          ],
          [
            3.263328,
            43.346346,
            58.9
          ],
          [
            3.263392,
            43.346319,
            58.49
          ],
          [
            3.263354,
            43.346151,
            58.31
          ],
          [
            3.263345,
            43.345985,
            57.79
          ],
          [
            3.263396,
            43.345787,
            57.1
          ],
          [
            3.263365,
            43.34559,
            56.72
          ],
          [
            3.263505,
            43.344719,
            54.87
          ],
          [
            3.264037,
            43.344743,
            54.0
          ],
          [
            3.26408,
            43.344691,
            54.0
          ],
          [
            3.264109,
            43.344627,
            54.0
          ],
          [
            3.264452,
            43.342883,
            51.05
          ],
          [
            3.264485,
            43.342815,
            50.88
          ],
          [
            3.264562,
            43.342774,
            50.72
          ],
          [
            3.264766,
            43.342725,
            50.37
          ],
          [
            3.26512,
            43.342514,
            49.66
          ],
          [
            3.265409,
            43.342196,
            48.93
          ],
          [
            3.265524,
            43.342007,
            48.75
          ],
          [
            3.265639,
            43.341974,
            48.7
          ],
          [
            3.265639,
            43.341974,
            48.7
          ],
          [
            3.265524,
            43.342007,
            48.75
          ],
          [
            3.265409,
            43.342196,
            48.93
          ],
          [
            3.26512,
            43.342514,
            49.66
          ],
          [
            3.264766,
            43.342725,
            50.37
          ],
          [
            3.264562,
            43.342774,
            50.72
          ],
          [
            3.264485,
            43.342815,
            50.88
          ],
          [
            3.264452,
            43.342883,
            51.05
          ],
          [
            3.264109,
            43.344627,
            54.0
          ],
          [
            3.26408,
            43.344691,
            54.0
          ],
          [
            3.264037,
            43.344743,
            54.0
          ],
          [
            3.263505,
            43.344719,
            54.87
          ],
          [
            3.263365,
            43.34559,
            56.72
          ],
          [
            3.263396,
            43.345787,
            57.1
          ],
          [
            3.263345,
            43.345985,
            57.79
          ],
          [
            3.263354,
            43.346151,
            58.31
          ],
          [
            3.263392,
            43.346319,
            58.49
          ],
          [
            3.263328,
            43.346346,
            58.9
          ],
          [
            3.263063,
            43.346377,
            59.68
          ],
          [
            3.261334,
            43.346216,
            58.52
          ],
          [
            3.261032,
            43.346153,
            57.93
          ],
          [
            3.260736,
            43.34635,
            57.08
          ],
          [
            3.260436,
            43.346518,
            56.12
          ],
          [
            3.260026,
            43.346708,
            54.76
          ],
          [
            3.259839,
            43.34677,
            53.91
          ],
          [
            3.259692,
            43.346794,
            53.28
          ],
          [
            3.258881,
            43.346783,
            50.57
          ],
          [
            3.25816,
            43.346756,
            49.35
          ],
          [
            3.257993,
            43.346803,
            49.07
          ],
          [
            3.257901,
            43.346858,
            49.0
          ],
          [
            3.257817,
            43.347093,
            49.0
          ],
          [
            3.257784,
            43.347352,
            49.1
          ],
          [
            3.257676,
            43.348349,
            51.15
          ],
          [
            3.257619,
            43.348579,
            52.0
          ],
          [
            3.257491,
            43.348738,
            52.74
          ],
          [
            3.257391,
            43.34881,
            53.0
          ],
          [
            3.257341,
            43.348774,
            53.0
          ],
          [
            3.257244,
            43.348816,
            53.05
          ],
          [
            3.257084,
            43.348847,
            53.26
          ],
          [
            3.25697,
            43.348895,
            53.54
          ],
          [
            3.25691,
            43.348893,
            53.57
          ],
          [
            3.256766,
            43.348867,
            53.53
          ],
          [
            3.256583,
            43.348809,
            53.8
          ],
          [
            3.256132,
            43.348639,
            54.5
          ],
          [
            3.255225,
            43.34827,
            56.14
          ],
          [
            3.254757,
            43.348091,
            56.9
          ],
          [
            3.254442,
            43.347995,
            57.29
          ],
          [
            3.254297,
            43.347959,
            57.44
          ],
          [
            3.254039,
            43.34791,
            57.85
          ],
          [
            3.25392,
            43.347858,
            57.99
          ],
          [
            3.253851,
            43.347894,
            58.0
          ],
          [
            3.253768,
            43.347826,
            58.0
          ],
          [
            3.253791,
            43.347762,
            58.48
          ],
          [
            3.253802,
            43.347631,
            58.72
          ],
          [
            3.253765,
            43.347502,
            58.24
          ],
          [
            3.253695,
            43.3474,
            57.58
          ],
          [
            3.253615,
            43.347326,
            56.83
          ],
          [
            3.253538,
            43.347276,
            56.2
          ],
          [
            3.253451,
            43.347235,
            55.53
          ],
          [
            3.253311,
            43.347194,
            58.0
          ],
          [
            3.253197,
            43.347178,
            58.0
          ],
          [
            3.25308,
            43.347176,
            58.0
          ],
          [
            3.253008,
            43.347125,
            58.0
          ],
          [
            3.25298,
            43.347085,
            57.99
          ],
          [
            3.252962,
            43.347024,
            58.02
          ],
          [
            3.252927,
            43.346663,
            58.97
          ],
          [
            3.25295,
            43.346546,
            59.36
          ],
          [
            3.253019,
            43.346445,
            59.91
          ],
          [
            3.253117,
            43.346369,
            60.57
          ],
          [
            3.253195,
            43.346336,
            60.85
          ],
          [
            3.253359,
            43.346353,
            60.33
          ],
          [
            3.253407,
            43.346352,
            60.19
          ],
          [
            3.253878,
            43.346252,
            59.54
          ],
          [
            3.254334,
            43.346087,
            60.36
          ],
          [
            3.254453,
            43.345971,
            61.05
          ],
          [
            3.254659,
            43.345892,
            60.52
          ],
          [
            3.255002,
            43.34569,
            60.16
          ],
          [
            3.255215,
            43.345508,
            58.46
          ],
          [
            3.255387,
            43.345303,
            58.31
          ],
          [
            3.255481,
            43.345206,
            59.25
          ],
          [
            3.255551,
            43.345202,
            58.91
          ],
          [
            3.255598,
            43.345189,
            58.69
          ],
          [
            3.255641,
            43.34517,
            58.53
          ],
          [
            3.255706,
            43.345114,
            58.53
          ],
          [
            3.255939,
            43.345109,
            57.56
          ],
          [
            3.256142,
            43.345138,
            56.25
          ],
          [
            3.256305,
            43.345089,
            54.99
          ],
          [
            3.256983,
            43.344685,
            51.41
          ],
          [
            3.257338,
            43.344483,
            49.99
          ],
          [
            3.257554,
            43.344307,
            49.1
          ],
          [
            3.257801,
            43.343997,
            48.29
          ],
          [
            3.257948,
            43.343775,
            47.94
          ],
          [
            3.257965,
            43.343697,
            47.82
          ],
          [
            3.257948,
            43.343631,
            47.74
          ],
          [
            3.257576,
            43.343294,
            48.0
          ],
          [
            3.257551,
            43.343253,
            48.0
          ],
          [
            3.257562,
            43.343207,
            48.0
          ],
          [
            3.257676,
            43.343055,
            47.97
          ],
          [
            3.257934,
            43.34275,
            46.22
          ],
          [
            3.257983,
            43.342753,
            45.99
          ],
          [
            3.25803,
            43.342743,
            45.77
          ],
          [
            3.258071,
            43.342723,
            45.56
          ],
          [
            3.2581,
            43.342695,
            45.33
          ],
          [
            3.258115,
            43.342661,
            45.18
          ],
          [
            3.258113,
            43.342624,
            45.21
          ],
          [
            3.258094,
            43.34259,
            45.33
          ],
          [
            3.25806,
            43.342562,
            45.52
          ],
          [
            3.258155,
            43.342431,
            45.56
          ],
          [
            3.25835,
            43.342206,
            44.65
          ],
          [
            3.258521,
            43.341778,
            43.81
          ],
          [
            3.258615,
            43.341489,
            43.59
          ],
          [
            3.258752,
            43.341147,
            42.91
          ],
          [
            3.258891,
            43.340843,
            42.0
          ],
          [
            3.259423,
            43.339785,
            42.0
          ],
          [
            3.259458,
            43.339685,
            42.0
          ],
          [
            3.259569,
            43.339341,
            41.78
          ],
          [
            3.25968,
            43.338721,
            40.02
          ],
          [
            3.259733,
            43.338247,
            38.31
          ],
          [
            3.259853,
            43.337361,
            35.98
          ],
          [
            3.260141,
            43.336067,
            33.02
          ],
          [
            3.260162,
            43.335894,
            33.0
          ],
          [
            3.260201,
            43.335852,
            32.99
          ],
          [
            3.260206,
            43.335802,
            32.92
          ],
          [
            3.260235,
            43.33575,
            32.52
          ],
          [
            3.26033,
            43.335663,
            32.0
          ],
          [
            3.260242,
            43.335605,
            32.0
          ],
          [
            3.26034,
            43.335523,
            31.93
          ],
          [
            3.260474,
            43.335353,
            31.37
          ],
          [
            3.260548,
            43.33518,
            30.91
          ],
          [
            3.260743,
            43.334653,
            29.0
          ],
          [
            3.260555,
            43.334624,
            29.0
          ],
          [
            3.25965,
            43.334638,
            29.9
          ]
        ]
      }
    },
    {
      "type": "Feature",
      "properties": {
        "source": "LOenorando.gpx",
        "type": "route"
      },
      "geometry": {
        "type": "LineString",
        "coordinates": [
          [
            3.25965,
            43.334638
          ],
          [
            3.260743,
            43.334653
          ],
          [
            3.260242,
            43.335605
          ],
          [
            3.26033,
            43.335663
          ],
          [
            3.260206,
            43.335802
          ],
          [
            3.25806,
            43.342562
          ],
          [
            3.255939,
            43.345109
          ],
          [
            3.255706,
            43.345114
          ],
          [
            3.254453,
            43.345971
          ],
          [
            3.253195,
            43.346336
          ],
          [
            3.25308,
            43.347176
          ],
          [
            3.253851,
            43.347894
          ],
          [
            3.257391,
            43.34881
          ],
          [
            3.257728,
            43.347891
          ],
          [
            3.257901,
            43.346858
          ],
          [
            3.261032,
            43.346153
          ],
          [
            3.263063,
            43.346377
          ],
          [
            3.263392,
            43.346319
          ],
          [
            3.263505,
            43.344719
          ],
          [
            3.264037,
            43.344743
          ],
          [
            3.265639,
            43.341974
          ],
          [
            3.265639,
            43.341974
          ],
          [
            3.264037,
            43.344743
          ],
          [
            3.263505,
            43.344719
          ],
          [
            3.263392,
            43.346319
          ],
          [
            3.263328,
            43.346346
          ],
          [
            3.261032,
            43.346153
          ],
          [
            3.257901,
            43.346858
          ],
          [
            3.257784,
            43.347352
          ],
          [
            3.257619,
            43.348579
          ],
          [
            3.257391,
            43.34881
          ],
          [
            3.253851,
            43.347894
          ],
          [
            3.253768,
            43.347826
          ],
          [
            3.253195,
            43.346336
          ],
          [
            3.254453,
            43.345971
          ],
          [
            3.255481,
            43.345206
          ],
          [
            3.256142,
            43.345138
          ],
          [
            3.257934,
            43.34275
          ],
          [
            3.260141,
            43.336067
          ],
          [
            3.260162,
            43.335894
          ],
          [
            3.26033,
            43.335663
          ],
          [
            3.260242,
            43.335605
          ],
          [
            3.260743,
            43.334653
          ],
          [
            3.25965,
            43.334638
          ]
        ]
      }
    }
  ]
}