{
  "type": "FeatureCollection",
  "features": [
    {
      "type": "Feature",
      "properties": {
        "name": "GraphHopper Track",
        "source": "Circuit_Mirande.gpx",
        "type": "track"
      },
      "geometry": {
        "type": "LineString",
        "coordinates": [
          [
            0.405635,
            43.515519,
            163.49
          ],
          [
            0.405667,
            43.515396,
            163.64
          ],
          [
            0.406909,
            43.515586,
            157.43
          ],
          [
            0.407049,
            43.515065,
            159.41
          ],
          [
            0.407227,
            43.515094,
            158.36
          ],
          [
            0.407353,
            43.515093,
            157.63
          ],
          [
            0.407307,
            43.514964,
            157.82
          ],
          [
            0.407393,
            43.514958,
            156.87
          ],
          [
            0.407377,
            43.514891,
            156.77
          ],
          [
            0.40747,
            43.514863,
            155.3
          ],
          [
            0.407524,
            43.514831,
            154.78
          ],
          [
            0.407565,
            43.514789,
            154.4
          ],
          [
            0.407618,
            43.514779,
            154.1
          ],
          [
            0.407651,
            43.514752,
            153.84
          ],
          [
            0.407947,
            43.514048,
            151.18
          ],
          [
            0.40812,
            43.513686,
            151.16
          ],
          [
            0.408228,
            43.513459,
            151.0
          ],
          [
            0.409337,
            43.513663,
            149.93
          ],
          [
            0.409442,
            43.513726,
            150.51
          ],
          [
            0.409522,
            43.513583,
            150.85
          ],
          [
            0.409749,
            43.51324,
            150.81
          ],
          [
            0.409996,
            43.512931,
            150.61
          ],
          [
            0.410128,
            43.512825,
            150.52
          ],
          [
            0.410212,
            43.512773,
            150.6
          ],
          [
            0.410282,
            43.512696,
            150.72
          ],
          [
            0.410416,
            43.512608,
            150.78
          ],
          [
            0.410517,
            43.512593,
            150.97
          ],
          [
            0.410755,
            43.512469,
            151.98
          ],
          [
            0.41081,
            43.51238,
            152.21
          ],
          [
            0.410787,
            43.512308,
            152.05
          ],
          [
            0.410745,
            43.511977,
            151.93
          ],
          [
            0.410634,
            43.511768,
            151.68
          ],
          [
            0.41062,
            43.511687,
            151.71
          ],
          [
            0.410666,
            43.511595,
            151.87
          ],
          [
            0.410743,
            43.511525,
            152.0
          ],
          [
            0.41123,
            43.511327,
            152.0
          ],
          [
            0.411498,
            43.511307,
            152.73
          ],
          [
            0.411753,
            43.511315,
            152.64
          ],
          [
            0.411912,
            43.51136,
            152.47
          ],
          [
            0.412077,
            43.51144,
            152.28
          ],
          [
            0.412298,
            43.511609,
            152.09
          ],
          [
            0.412357,
            43.511711,
            151.96
          ],
          [
            0.412382,
            43.511801,
            151.84
          ],
          [
            0.412352,
            43.511981,
            151.68
          ],
          [
            0.412351,
            43.512086,
            151.68
          ],
          [
            0.412371,
            43.512231,
            151.72
          ],
          [
            0.412458,
            43.512434,
            151.79
          ],
          [
            0.412458,
            43.512434,
            151.79
          ],
          [
            0.412371,
            43.512231,
            151.72
          ],
          [
            0.412351,
            43.512086,
            151.68
          ],
          [
            0.412352,
            43.511981,
            151.68
          ],
          [
            0.412382,
            43.511801,
            151.84
          ],
          [
            0.412357,
            43.511711,
            151.96
          ],
          [
            0.412298,
            43.511609,
            152.09
          ],
          [
            0.412077,
            43.51144,
            152.28
          ],
          [
            0.411912,
            43.51136,
            152.47
          ],
          [
            0.411753,
            43.511315,
            152.64
          ],
          [
            0.411498,
            43.511307,
            152.73
          ],
          [
            0.41123,
            43.511327,
            152.0
          ],
          [
            0.410743,
            43.511525,
            152.0
          ],
          [
            0.410666,
            43.511595,
            151.87
          ],
          [
            0.41062,
            43.511687,
            151.71
          ],
          [
            0.410634,
            43.511768,
            151.68
          ],
          [
            0.410745,
            43.511977,
            151.93
          ],
          [
            0.410787,
            43.512308,
            152.05
          ],
          [
            0.41081,
            43.51238,
            152.21
          ],
          [
            0.410755,
            43.512469,
            151.98
          ],
          [
            0.410517,
            43.512593,
            150.97
          ],
          [
            0.410416,
            43.512608,
            150.78
          ],
          [
            0.410282,
            43.512696,
            150.72
          ],
          [
            0.410212,
            43.512773,
            150.6
          ],
          [
            0.410128,
            43.512825,
            150.52
          ],
          [
            0.409996,
            43.512931,
            150.61
          ],
          [
            0.409749,
            43.51324,
            150.81
          ],
          [
            0.409522,
            43.513583,
            150.85
          ],
          [
            0.409442,
            43.513726,
            150.51
          ],
          [
            0.409337,
            43.513663,
            149.93
          ],
          [
            0.408228,
            43.513459,
            151.0
          ],
          [
            0.407947,
            43.514048,
            151.18
          ],
          [
            0.407651,
            43.514752,
            153.84
          ],
          [
            0.407618,
            43.514779,
            154.1
          ],
          [
            0.407565,
            43.514789,
            154.4
          ],
          [
            0.407524,
            43.514831,
            154.78
          ],
          [
            0.40747,
            43.514863,
            155.3
          ],
          [
            0.407377,
            43.514891,
            156.77
          ],
          [
            0.407393,
            43.514958,
            156.87
          ],
          [
            0.407307,
            43.514964,
            157.82
          ],
          [
            0.407353,
            43.515093,
            157.63
          ],
          [
            0.407315,
            43.515157,
            157.7
          ],
          [
            0.407367,
            43.515837,
            155.61
          ],
          [
            0.40735,
            43.515885,
            155.67
          ],
          [
            0.407317,
            43.51593,
            155.84
          ],
          [
            0.407377,
            43.515975,
            155.51
          ],
          [
            0.407433,
            43.516106,
            155.4
          ],
          [
            0.407582,
            43.517179,
            159.6
          ],
          [
            0.407676,
            43.517707,
            159.91
          ],
          [
            0.40617,
            43.517735,
            162.7
          ],
          [
            0.406181,
            43.51824,
            162.69
          ],
          [
            0.403957,
            43.518276,
            165.38
          ],
          [
            0.403448,
            43.518297,
            165.97
          ],
          [
            0.403388,
            43.518301,
            166.0
          ],
          [
            0.403342,
            43.518323,
            166.01
          ],
          [
            0.402512,
            43.518323,
            167.0
          ],
          [
            0.40252,
            43.5185,
            166.88
          ]
        ]
      }
    },
    {
      "type": "Feature",
      "properties": {
        "source": "Circuit_Mirande.gpx",
        "type": "route"
      },
      "geometry": {
        "type": "LineString",
        "coordinates": [
          [
            0.405635,
            43.515519
          ],
          [
            0.405667,
            43.515396
          ],
          [
            0.406909,
            43.515586
          ],
          [
            0.407049,
            43.515065
          ],
          [
            0.407353,
            43.515093
          ],
          [
            0.407307,
            43.514964
          ],
          [
            0.407393,
            43.514958
          ],
          [
            0.407377,
            43.514891
          ],
          [
            0.407947,
            43.514048
          ],
          [
            0.40812,
            43.513686
          ],
          [
            0.408228,
            43.513459
          ],
          [
            0.409442,
            43.513726
          ],
          [
            0.410212,
            43.512773
          ],
          [
            0.41081,
            43.51238
          ],
          [
            0.410745,
            43.511977
          ],
          [
            0.41123,
            43.511327
          ],
          [
            0.412458,
            43.512434
          ],
          [
            0.412458,
            43.512434
          ],
          [
            0.41123,
            43.511327
          ],
          [
            0.410743,
            43.511525
          ],
          [
            0.410745,
            43.511977
          ],
          [
            0.41081,
            43.51238
          ],
          [
            0.409442,
            43.513726
          ],
          [
            0.408228,
            43.513459
          ],
          [
            0.407947,
            43.514048
          ],
          [
            0.407565,
            43.514789
          ],
          [
            0.407377,
            43.514891
          ],
          [
            0.407393,
            43.514958
          ],
          [
            0.407307,
            43.514964
          ],
          [
            0.407353,
            43.515093
          ],
          [
            0.407317,
            43.51593
          ],
          [
            0.407676,
            43.517707
          ],
          [
            0.40617,
            43.517735
          ],
          [
            0.406181,
            43.51824
          ],
          [
            0.403342,
            43.518323
          ],
          [
            0.40252,
            43.5185
          ]
        ]
      }
    }
  ]
}