{
  "type": "FeatureCollection",
  "features": [
    {
      "type": "Feature",
      "properties": {
        "name": "GraphHopper Track",
        "source": "Prom._Familles.gpx",
        "type": "track"
      },
      "geometry": {
        "type": "LineString",
        "coordinates": [
          [
            0.592788,
            43.610122,
            139.0
          ],
          [
            0.592324,
            43.609897,
            139.0
          ],
          [
            0.593146,
            43.609039,
            139.01
          ],
          [
            0.592542,
            43.608736,
            139.96
          ],
          [
            0.593007,
            43.60824,
            140.0
          ],
          [
            0.593101,
            43.608281,
            139.62
          ],
          [
            0.593149,
            43.608273,
            139.44
          ],
          [
            0.593204,
            43.60824,
            139.3
          ],
          [
            0.59324,
            43.60823,
            139.26
          ],
          [
            0.59331,
            43.608235,
            139.2
          ],
          [
            0.593678,
            43.608389,
            139.0
          ],
          [
            0.593624,
            43.608452,
            139.17
          ],
          [
            0.593624,
            43.608452,
            139.17
          ],
          [
            0.593678,
            43.608389,
            139.0
          ],
          [
            0.59331,
            43.608235,
            139.2
          ],
          [
            0.59324,
            43.60823,
            139.26
          ],
          [
            0.593204,
            43.60824,
            139.3
          ],
          [
            0.593149,
            43.608273,
            139.44
          ],
          [
            0.593101,
            43.608281,
            139.62
          ],
          [
            0.593007,
            43.60824,
            140.0
          ],
          [
            0.592947,
            43.608301,
            140.0
          ],
          [
            0.592894,
            43.608278,
            140.0
          ],
          [
            0.593572,
            43.607575,
            139.25
          ],
          [
            0.59359,
            43.607552,
            139.2
          ],
          [
            0.593582,
            43.607495,
            139.11
          ],
          [
            0.593614,
            43.607464,
            139.3
          ],
          [
            0.593092,
            43.607134,
            139.08
          ],
          [
            0.592629,
            43.606913,
            139.43
          ],
          [
            0.592609,
            43.60689,
            139.52
          ],
          [
            0.592606,
            43.606859,
            139.52
          ],
          [
            0.592764,
            43.606675,
            139.65
          ],
          [
            0.593368,
            43.606043,
            139.95
          ],
          [
            0.59338,
            43.606017,
            139.96
          ],
          [
            0.593382,
            43.605978,
            139.98
          ],
          [
            0.593308,
            43.605824,
            140.0
          ],
          [
            0.593946,
            43.605679,
            140.0
          ],
          [
            0.593922,
            43.605624,
            140.0
          ],
          [
            0.594511,
            43.605493,
            140.0
          ]
        ]
      }
    },
    {
      "type": "Feature",
      "properties": {
        "source": "Prom._Familles.gpx",
        "type": "route"
      },
      "geometry": {
        "type": "LineString",
        "coordinates": [
          [
            0.592788,
            43.610122
          ],
          [
            0.592324,
            43.609897
          ],
          [
            0.593146,
            43.609039
          ],
          [
            0.592542,
            43.608736
          ],
          [
            0.593007,
            43.60824
          ],
          [
            0.593678,
            43.608389
          ],
          [
            0.593624,
            43.608452
          ],
          [
            0.593624,
            43.608452
          ],
          [
            0.593678,
            43.608389
          ],
          [
            0.593007,
            43.60824
          ],
          [
            0.592947,
            43.608301
          ],
          [
            0.592894,
            43.608278
          ],
          [
            0.593614,
            43.607464
          ],
          [
            0.593308,
            43.605824
          ],
          [
            0.593946,
            43.605679
          ],
          [
            0.593922,
            43.605624
          ],
          [
            0.594511,
            43.605493
          ]
        ]
      }
    }
  ]
}