{
  "type": "FeatureCollection",
  "features": [
    {
      "type": "Feature",
      "properties": {
        "name": "GraphHopper Track",
        "source": "Vers_Castelnau-B..gpx",
        "type": "track"
      },
      "geometry": {
        "type": "LineString",
        "coordinates": [
          [
            0.615921,
            43.606008,
            182.23
          ],
          [
            0.616533,
            43.605742,
            189.58
          ],
          [
            0.617086,
            43.605462,
            197.25
          ],
          [
            0.61793,
            43.605182,
            207.65
          ],
          [
            0.61812,
            43.605225,
            206.66
          ],
          [
            0.618222,
            43.605212,
            206.76
          ],
          [
            0.618676,
            43.605037,
            207.66
          ],
          [
            0.618906,
            43.604971,
            208.06
          ],
          [
            0.619598,
            43.604852,
            209.4
          ],
          [
            0.619926,
            43.604829,
            209.86
          ],
          [
            0.620038,
            43.604841,
            209.99
          ],
          [
            0.620199,
            43.604887,
            210.2
          ],
          [
            0.620411,
            43.604928,
            210.52
          ],
          [
            0.620921,
            43.604984,
            210.9
          ],
          [
            0.621272,
            43.605054,
            211.0
          ],
          [
            0.621598,
            43.605107,
            211.04
          ],
          [
            0.621696,
            43.605107,
            211.08
          ],
          [
            0.623045,
            43.604928,
            211.01
          ],
          [
            0.623203,
            43.604922,
            210.95
          ],
          [
            0.623347,
            43.604948,
            210.69
          ],
          [
            0.623445,
            43.605004,
            210.14
          ],
          [
            0.623583,
            43.605164,
            209.39
          ],
          [
            0.623732,
            43.605054,
            206.35
          ],
          [
            0.623925,
            43.605006,
            202.37
          ],
          [
            0.624737,
            43.60494,
            186.09
          ],
          [
            0.625028,
            43.604883,
            180.4
          ],
          [
            0.625171,
            43.604831,
            177.55
          ],
          [
            0.625344,
            43.604144,
            173.88
          ],
          [
            0.625277,
            43.604031,
            173.49
          ],
          [
            0.625136,
            43.603906,
            173.64
          ],
          [
            0.624733,
            43.60364,
            172.33
          ],
          [
            0.62428,
            43.603364,
            171.39
          ],
          [
            0.624051,
            43.603174,
            170.86
          ],
          [
            0.623575,
            43.602835,
            169.84
          ],
          [
            0.623426,
            43.602688,
            169.36
          ],
          [
            0.623187,
            43.602251,
            167.57
          ],
          [
            0.623007,
            43.601944,
            165.94
          ],
          [
            0.622997,
            43.601884,
            165.49
          ],
          [
            0.622999,
            43.601822,
            164.93
          ],
          [
            0.623084,
            43.601676,
            162.92
          ],
          [
            0.623087,
            43.601632,
            162.51
          ],
          [
            0.623463,
            43.601681,
            161.98
          ],
          [
            0.623718,
            43.601769,
            162.07
          ],
          [
            0.623882,
            43.601873,
            162.34
          ],
          [
            0.624045,
            43.602026,
            162.62
          ],
          [
            0.624098,
            43.602055,
            162.67
          ],
          [
            0.624171,
            43.602058,
            162.74
          ],
          [
            0.624249,
            43.602037,
            162.86
          ],
          [
            0.624307,
            43.601999,
            163.0
          ],
          [
            0.624681,
            43.601634,
            164.41
          ],
          [
            0.624816,
            43.601526,
            164.99
          ],
          [
            0.625092,
            43.601224,
            165.97
          ],
          [
            0.625372,
            43.601,
            166.79
          ],
          [
            0.625489,
            43.60099,
            167.58
          ],
          [
            0.625904,
            43.600727,
            169.31
          ],
          [
            0.625955,
            43.600723,
            169.85
          ],
          [
            0.626249,
            43.60058,
            173.98
          ],
          [
            0.626289,
            43.600577,
            174.66
          ],
          [
            0.62632,
            43.600586,
            175.24
          ],
          [
            0.62709,
            43.601104,
            190.69
          ],
          [
            0.627473,
            43.60135,
            195.58
          ],
          [
            0.62753,
            43.601356,
            196.02
          ],
          [
            0.627669,
            43.601312,
            197.06
          ],
          [
            0.628262,
            43.600902,
            201.5
          ],
          [
            0.62915,
            43.600628,
            207.71
          ],
          [
            0.629982,
            43.600434,
            214.37
          ],
          [
            0.630229,
            43.600391,
            216.08
          ],
          [
            0.630491,
            43.600383,
            217.28
          ],
          [
            0.631436,
            43.60043,
            222.39
          ],
          [
            0.631677,
            43.600426,
            224.0
          ],
          [
            0.632787,
            43.600201,
            231.04
          ],
          [
            0.633163,
            43.600143,
            232.7
          ],
          [
            0.633431,
            43.60008,
            233.59
          ],
          [
            0.633614,
            43.600022,
            234.09
          ],
          [
            0.633994,
            43.599952,
            234.79
          ],
          [
            0.634435,
            43.599831,
            234.95
          ],
          [
            0.634853,
            43.599719,
            234.88
          ],
          [
            0.635041,
            43.599645,
            234.87
          ],
          [
            0.635293,
            43.599564,
            234.85
          ],
          [
            0.635437,
            43.599573,
            234.55
          ],
          [
            0.635517,
            43.599427,
            234.81
          ],
          [
            0.635627,
            43.599289,
            234.18
          ],
          [
            0.635818,
            43.599134,
            233.07
          ],
          [
            0.635949,
            43.598996,
            232.27
          ],
          [
            0.636022,
            43.598876,
            231.68
          ],
          [
            0.636244,
            43.597749,
            226.71
          ],
          [
            0.636432,
            43.597168,
            224.63
          ],
          [
            0.636445,
            43.596959,
            224.27
          ],
          [
            0.636373,
            43.596755,
            224.28
          ],
          [
            0.636033,
            43.596269,
            226.15
          ],
          [
            0.635953,
            43.596118,
            227.26
          ],
          [
            0.635829,
            43.595823,
            230.03
          ],
          [
            0.635834,
            43.595749,
            230.17
          ],
          [
            0.63592,
            43.595698,
            229.99
          ],
          [
            0.636108,
            43.595671,
            229.34
          ],
          [
            0.63665,
            43.595624,
            226.11
          ],
          [
            0.637406,
            43.595516,
            221.38
          ],
          [
            0.637717,
            43.595496,
            219.41
          ],
          [
            0.637943,
            43.595492,
            217.79
          ],
          [
            0.638163,
            43.595508,
            216.1
          ],
          [
            0.638334,
            43.595512,
            215.02
          ],
          [
            0.638463,
            43.595473,
            214.12
          ],
          [
            0.638661,
            43.595388,
            211.97
          ],
          [
            0.638737,
            43.595345,
            210.76
          ],
          [
            0.638763,
            43.595294,
            209.79
          ],
          [
            0.638841,
            43.595254,
            208.51
          ],
          [
            0.63892,
            43.595239,
            207.06
          ],
          [
            0.638832,
            43.594996,
            207.29
          ],
          [
            0.638784,
            43.594822,
            207.45
          ],
          [
            0.63873,
            43.594548,
            207.6
          ],
          [
            0.638677,
            43.593677,
            208.45
          ],
          [
            0.638598,
            43.593301,
            208.72
          ],
          [
            0.638591,
            43.593205,
            208.75
          ],
          [
            0.638623,
            43.593081,
            208.77
          ],
          [
            0.638666,
            43.593011,
            208.81
          ],
          [
            0.638903,
            43.592708,
            208.52
          ],
          [
            0.638964,
            43.592618,
            208.31
          ],
          [
            0.639034,
            43.592485,
            208.19
          ],
          [
            0.639647,
            43.592621,
            205.94
          ],
          [
            0.639905,
            43.592663,
            205.24
          ],
          [
            0.639935,
            43.592675,
            205.24
          ],
          [
            0.639955,
            43.592589,
            205.75
          ],
          [
            0.640132,
            43.592584,
            205.97
          ],
          [
            0.640766,
            43.5925,
            207.11
          ],
          [
            0.640886,
            43.592508,
            207.41
          ],
          [
            0.64116,
            43.592624,
            208.08
          ],
          [
            0.641391,
            43.592644,
            208.64
          ],
          [
            0.642603,
            43.592679,
            211.79
          ],
          [
            0.643418,
            43.592679,
            213.93
          ],
          [
            0.643628,
            43.592659,
            214.5
          ],
          [
            0.643775,
            43.592629,
            214.97
          ],
          [
            0.644438,
            43.592438,
            217.93
          ],
          [
            0.644657,
            43.592395,
            219.13
          ],
          [
            0.645092,
            43.592395,
            221.6
          ],
          [
            0.645285,
            43.59238,
            222.82
          ],
          [
            0.645484,
            43.592387,
            224.1
          ],
          [
            0.645881,
            43.592387,
            226.5
          ],
          [
            0.646331,
            43.592352,
            229.15
          ],
          [
            0.64661,
            43.59229,
            231.84
          ],
          [
            0.647688,
            43.591941,
            240.76
          ],
          [
            0.648064,
            43.59184,
            242.91
          ],
          [
            0.648879,
            43.591649,
            246.5
          ],
          [
            0.649266,
            43.591579,
            247.9
          ],
          [
            0.649818,
            43.591459,
            248.85
          ],
          [
            0.650043,
            43.591401,
            249.09
          ],
          [
            0.650172,
            43.591408,
            249.16
          ],
          [
            0.650301,
            43.591432,
            249.01
          ],
          [
            0.650413,
            43.59142,
            248.64
          ],
          [
            0.650773,
            43.591331,
            245.2
          ],
          [
            0.650843,
            43.591245,
            243.98
          ],
          [
            0.651014,
            43.59109,
            242.35
          ],
          [
            0.651079,
            43.590961,
            241.34
          ],
          [
            0.651159,
            43.590725,
            238.81
          ],
          [
            0.651234,
            43.590596,
            237.64
          ],
          [
            0.651411,
            43.59046,
            236.29
          ],
          [
            0.651631,
            43.590375,
            235.14
          ],
          [
            0.651722,
            43.590383,
            234.71
          ],
          [
            0.651803,
            43.590445,
            234.23
          ],
          [
            0.651851,
            43.590589,
            233.54
          ],
          [
            0.651846,
            43.590748,
            233.11
          ],
          [
            0.651857,
            43.590868,
            232.87
          ],
          [
            0.652076,
            43.591739,
            230.0
          ],
          [
            0.652484,
            43.592469,
            225.7
          ],
          [
            0.652613,
            43.592593,
            225.2
          ],
          [
            0.652758,
            43.592659,
            225.26
          ],
          [
            0.653015,
            43.592745,
            225.67
          ],
          [
            0.653069,
            43.592791,
            225.99
          ],
          [
            0.653133,
            43.592826,
            226.34
          ],
          [
            0.653115,
            43.592918,
            226.27
          ],
          [
            0.65308,
            43.593001,
            226.34
          ],
          [
            0.653035,
            43.593076,
            226.27
          ],
          [
            0.652977,
            43.593143,
            226.16
          ],
          [
            0.652906,
            43.593203,
            226.1
          ],
          [
            0.652698,
            43.593343,
            225.74
          ],
          [
            0.652607,
            43.593418,
            225.63
          ],
          [
            0.652488,
            43.593534,
            224.84
          ],
          [
            0.652434,
            43.593602,
            224.35
          ],
          [
            0.652394,
            43.593676,
            223.73
          ],
          [
            0.652371,
            43.593743,
            223.2
          ],
          [
            0.652363,
            43.593814,
            222.74
          ],
          [
            0.652368,
            43.593882,
            222.35
          ],
          [
            0.652391,
            43.593981,
            221.79
          ],
          [
            0.652488,
            43.594226,
            220.31
          ],
          [
            0.652513,
            43.594324,
            219.68
          ],
          [
            0.652518,
            43.594432,
            219.14
          ],
          [
            0.652508,
            43.594525,
            218.73
          ],
          [
            0.652378,
            43.594935,
            216.89
          ],
          [
            0.652378,
            43.594935,
            216.89
          ],
          [
            0.652508,
            43.594525,
            218.73
          ],
          [
            0.652518,
            43.594432,
            219.14
          ],
          [
            0.652513,
            43.594324,
            219.68
          ],
          [
            0.652488,
            43.594226,
            220.31
          ],
          [
            0.652391,
            43.593981,
            221.79
          ],
          [
            0.652368,
            43.593882,
            222.35
          ],
          [
            0.652363,
            43.593814,
            222.74
          ],
          [
            0.652371,
            43.593743,
            223.2
          ],
          [
            0.652394,
            43.593676,
            223.73
          ],
          [
            0.652434,
            43.593602,
            224.35
          ],
          [
            0.652488,
            43.593534,
            224.84
          ],
          [
            0.652607,
            43.593418,
            225.63
          ],
          [
            0.652828,
            43.593351,
            228.54
          ],
          [
            0.653208,
            43.59318,
            232.08
          ],
          [
            0.653745,
            43.592982,
            236.76
          ],
          [
            0.6539,
            43.592908,
            238.28
          ],
          [
            0.654394,
            43.592788,
            242.56
          ],
          [
            0.654705,
            43.592733,
            245.14
          ],
          [
            0.655113,
            43.592694,
            248.48
          ],
          [
            0.65618,
            43.592706,
            256.0
          ],
          [
            0.656352,
            43.592691,
            257.12
          ],
          [
            0.656931,
            43.592613,
            260.87
          ],
          [
            0.657124,
            43.592609,
            261.95
          ],
          [
            0.657312,
            43.592655,
            262.99
          ],
          [
            0.657478,
            43.59276,
            264.11
          ],
          [
            0.657554,
            43.592788,
            264.51
          ],
          [
            0.65765,
            43.592788,
            264.95
          ],
          [
            0.657811,
            43.592768,
            265.62
          ],
          [
            0.658256,
            43.592609,
            267.07
          ],
          [
            0.658637,
            43.592453,
            267.78
          ],
          [
            0.658739,
            43.592384,
            267.95
          ],
          [
            0.658787,
            43.592321,
            268.04
          ],
          [
            0.658873,
            43.592154,
            268.12
          ],
          [
            0.658948,
            43.592096,
            268.15
          ],
          [
            0.659329,
            43.591956,
            268.29
          ],
          [
            0.659447,
            43.591929,
            268.18
          ],
          [
            0.659549,
            43.591921,
            267.96
          ],
          [
            0.65963,
            43.591944,
            267.86
          ],
          [
            0.659652,
            43.591982,
            267.72
          ],
          [
            0.660211,
            43.591699,
            264.77
          ],
          [
            0.660786,
            43.592071,
            260.03
          ],
          [
            0.662492,
            43.593066,
            252.4
          ],
          [
            0.66298,
            43.593398,
            250.36
          ],
          [
            0.663377,
            43.593703,
            247.83
          ],
          [
            0.663487,
            43.593823,
            246.85
          ],
          [
            0.663607,
            43.594223,
            243.89
          ],
          [
            0.663637,
            43.59427,
            243.55
          ],
          [
            0.663735,
            43.594304,
            243.05
          ],
          [
            0.66393,
            43.594336,
            242.22
          ],
          [
            0.664226,
            43.594368,
            241.1
          ],
          [
            0.664802,
            43.594414,
            238.29
          ],
          [
            0.664972,
            43.594415,
            237.31
          ],
          [
            0.665145,
            43.594403,
            236.38
          ],
          [
            0.665528,
            43.594336,
            233.84
          ],
          [
            0.665624,
            43.594339,
            232.93
          ],
          [
            0.665703,
            43.594352,
            232.14
          ],
          [
            0.665746,
            43.594396,
            231.5
          ],
          [
            0.66577,
            43.594538,
            230.97
          ],
          [
            0.66574,
            43.594598,
            231.06
          ],
          [
            0.665718,
            43.594684,
            230.72
          ],
          [
            0.665847,
            43.594699,
            229.52
          ],
          [
            0.665944,
            43.594664,
            228.77
          ],
          [
            0.666228,
            43.594501,
            226.64
          ],
          [
            0.666341,
            43.594509,
            226.01
          ],
          [
            0.666442,
            43.594505,
            225.46
          ],
          [
            0.666528,
            43.594485,
            224.95
          ],
          [
            0.666593,
            43.594458,
            224.51
          ],
          [
            0.66677,
            43.594346,
            223.2
          ],
          [
            0.666764,
            43.59426,
            222.55
          ],
          [
            0.666727,
            43.594163,
            221.79
          ],
          [
            0.666598,
            43.594015,
            220.54
          ],
          [
            0.666587,
            43.593922,
            219.87
          ],
          [
            0.666636,
            43.593852,
            219.3
          ],
          [
            0.666705,
            43.593813,
            218.83
          ],
          [
            0.666856,
            43.593775,
            217.97
          ],
          [
            0.667102,
            43.593697,
            216.54
          ],
          [
            0.667357,
            43.59364,
            215.15
          ],
          [
            0.668647,
            43.593417,
            208.06
          ],
          [
            0.669221,
            43.593293,
            204.4
          ],
          [
            0.670916,
            43.592834,
            194.69
          ],
          [
            0.672016,
            43.592547,
            192.02
          ],
          [
            0.672156,
            43.592531,
            192.0
          ],
          [
            0.67232,
            43.592526,
            192.0
          ],
          [
            0.672429,
            43.592512,
            192.03
          ],
          [
            0.672574,
            43.592547,
            192.17
          ],
          [
            0.672703,
            43.592667,
            192.5
          ],
          [
            0.672783,
            43.592788,
            192.77
          ],
          [
            0.672842,
            43.592912,
            193.07
          ],
          [
            0.672872,
            43.592956,
            193.28
          ],
          [
            0.672911,
            43.592975,
            193.67
          ],
          [
            0.672959,
            43.592865,
            194.22
          ],
          [
            0.673129,
            43.592864,
            196.11
          ],
          [
            0.673784,
            43.592802,
            203.16
          ],
          [
            0.674161,
            43.592716,
            207.04
          ],
          [
            0.674589,
            43.59265,
            211.27
          ],
          [
            0.675222,
            43.592517,
            217.17
          ],
          [
            0.675747,
            43.592442,
            221.35
          ],
          [
            0.67615,
            43.592363,
            224.11
          ],
          [
            0.676729,
            43.592289,
            228.83
          ],
          [
            0.678124,
            43.592172,
            239.19
          ],
          [
            0.678524,
            43.592117,
            242.16
          ],
          [
            0.678796,
            43.59205,
            244.3
          ],
          [
            0.679766,
            43.591745,
            252.92
          ],
          [
            0.68032,
            43.591414,
            258.4
          ],
          [
            0.680699,
            43.591176,
            261.6
          ],
          [
            0.68079,
            43.59111,
            262.33
          ],
          [
            0.680892,
            43.591024,
            263.17
          ],
          [
            0.681176,
            43.590725,
            265.45
          ],
          [
            0.681555,
            43.590307,
            267.43
          ],
          [
            0.681658,
            43.590209,
            267.83
          ],
          [
            0.681788,
            43.590146,
            268.21
          ],
          [
            0.682172,
            43.589983,
            269.48
          ],
          [
            0.682475,
            43.589825,
            270.81
          ],
          [
            0.683507,
            43.589097,
            274.88
          ],
          [
            0.683794,
            43.58898,
            274.3
          ],
          [
            0.684274,
            43.588856,
            272.61
          ],
          [
            0.684674,
            43.58878,
            270.9
          ],
          [
            0.685409,
            43.588691,
            269.27
          ],
          [
            0.686562,
            43.588479,
            268.93
          ],
          [
            0.687177,
            43.588399,
            270.28
          ],
          [
            0.687466,
            43.588343,
            271.5
          ],
          [
            0.688185,
            43.58817,
            275.25
          ],
          [
            0.688421,
            43.588098,
            276.38
          ],
          [
            0.688577,
            43.588029,
            276.91
          ],
          [
            0.688716,
            43.587922,
            277.23
          ],
          [
            0.688967,
            43.587696,
            277.56
          ],
          [
            0.689168,
            43.587531,
            276.78
          ],
          [
            0.689325,
            43.587441,
            275.87
          ],
          [
            0.689464,
            43.587395,
            274.86
          ],
          [
            0.689721,
            43.587632,
            276.51
          ],
          [
            0.690092,
            43.587882,
            276.67
          ],
          [
            0.69058,
            43.588145,
            277.58
          ],
          [
            0.691894,
            43.588792,
            276.89
          ],
          [
            0.692117,
            43.588919,
            276.19
          ],
          [
            0.692285,
            43.589035,
            276.19
          ],
          [
            0.694585,
            43.588563,
            278.0
          ],
          [
            0.694688,
            43.58853,
            277.49
          ],
          [
            0.694739,
            43.588494,
            277.13
          ],
          [
            0.694793,
            43.588424,
            276.52
          ],
          [
            0.694868,
            43.588287,
            275.32
          ],
          [
            0.696189,
            43.587036,
            264.2
          ],
          [
            0.697986,
            43.585699,
            262.45
          ],
          [
            0.700502,
            43.584203,
            250.33
          ],
          [
            0.700921,
            43.583966,
            247.74
          ],
          [
            0.701268,
            43.583734,
            246.45
          ],
          [
            0.702442,
            43.583136,
            240.95
          ],
          [
            0.703045,
            43.582896,
            236.63
          ],
          [
            0.703254,
            43.58283,
            235.32
          ],
          [
            0.703539,
            43.582779,
            233.9
          ],
          [
            0.70393,
            43.582675,
            232.7
          ],
          [
            0.704304,
            43.582535,
            232.93
          ],
          [
            0.704539,
            43.582411,
            233.58
          ],
          [
            0.704675,
            43.582315,
            234.02
          ],
          [
            0.704807,
            43.58225,
            234.4
          ],
          [
            0.70511,
            43.582165,
            235.12
          ],
          [
            0.70559,
            43.582067,
            235.96
          ],
          [
            0.705838,
            43.581997,
            236.13
          ],
          [
            0.706389,
            43.581871,
            235.71
          ],
          [
            0.706959,
            43.581788,
            233.34
          ],
          [
            0.707259,
            43.581753,
            231.35
          ],
          [
            0.707387,
            43.581718,
            230.37
          ],
          [
            0.708357,
            43.581396,
            222.45
          ],
          [
            0.709045,
            43.581193,
            218.57
          ],
          [
            0.709527,
            43.581012,
            215.76
          ],
          [
            0.709837,
            43.580967,
            213.29
          ],
          [
            0.71041,
            43.580957,
            208.8
          ],
          [
            0.71074,
            43.580877,
            205.79
          ],
          [
            0.711772,
            43.58066,
            197.23
          ],
          [
            0.712736,
            43.580607,
            189.51
          ],
          [
            0.712961,
            43.580552,
            188.52
          ],
          [
            0.714061,
            43.580207,
            187.31
          ],
          [
            0.714526,
            43.580078,
            186.07
          ],
          [
            0.715242,
            43.579964,
            183.71
          ],
          [
            0.715685,
            43.579876,
            181.85
          ],
          [
            0.716021,
            43.579754,
            180.19
          ],
          [
            0.716402,
            43.579603,
            177.87
          ],
          [
            0.716512,
            43.579572,
            177.13
          ],
          [
            0.716671,
            43.579546,
            175.65
          ],
          [
            0.717658,
            43.579464,
            168.5
          ],
          [
            0.717655,
            43.579711,
            168.52
          ],
          [
            0.718597,
            43.579765,
            166.49
          ],
          [
            0.718843,
            43.579789,
            166.08
          ],
          [
            0.719014,
            43.579823,
            165.85
          ],
          [
            0.71962,
            43.579977,
            165.32
          ],
          [
            0.719741,
            43.580051,
            165.23
          ],
          [
            0.720148,
            43.580325,
            165.19
          ],
          [
            0.720199,
            43.580396,
            165.25
          ],
          [
            0.720243,
            43.580511,
            165.4
          ],
          [
            0.720245,
            43.580658,
            165.71
          ],
          [
            0.720228,
            43.581029,
            166.8
          ],
          [
            0.720256,
            43.581178,
            167.46
          ],
          [
            0.720326,
            43.581307,
            168.15
          ],
          [
            0.720498,
            43.581488,
            169.37
          ],
          [
            0.72089,
            43.58181,
            172.5
          ],
          [
            0.721027,
            43.581906,
            172.44
          ],
          [
            0.721183,
            43.581997,
            172.49
          ],
          [
            0.722136,
            43.582503,
            170.86
          ],
          [
            0.722623,
            43.582804,
            169.9
          ],
          [
            0.72288,
            43.582941,
            170.02
          ],
          [
            0.72301,
            43.582986,
            169.94
          ],
          [
            0.723067,
            43.583084,
            172.22
          ],
          [
            0.723319,
            43.583333,
            176.55
          ],
          [
            0.723386,
            43.583411,
            177.6
          ],
          [
            0.723442,
            43.583497,
            178.6
          ],
          [
            0.723448,
            43.583563,
            179.25
          ],
          [
            0.723431,
            43.583614,
            179.83
          ],
          [
            0.723402,
            43.583655,
            180.33
          ],
          [
            0.723295,
            43.583702,
            181.26
          ],
          [
            0.722826,
            43.583856,
            184.72
          ],
          [
            0.722628,
            43.583945,
            186.16
          ],
          [
            0.721801,
            43.584397,
            193.34
          ]
        ]
      }
    },
    {
      "type": "Feature",
      "properties": {
        "source": "Vers_Castelnau-B..gpx",
        "type": "route"
      },
      "geometry": {
        "type": "LineString",
        "coordinates": [
          [
            0.615921,
            43.606008
          ],
          [
            0.61793,
            43.605182
          ],
          [
            0.623583,
            43.605164
          ],
          [
            0.625171,
            43.604831
          ],
          [
            0.623087,
            43.601632
          ],
          [
            0.625372,
            43.601
          ],
          [
            0.625904,
            43.600727
          ],
          [
            0.630229,
            43.600391
          ],
          [
            0.634435,
            43.599831
          ],
          [
            0.635437,
            43.599573
          ],
          [
            0.635834,
            43.595749
          ],
          [
            0.63892,
            43.595239
          ],
          [
            0.639034,
            43.592485
          ],
          [
            0.639935,
            43.592675
          ],
          [
            0.639955,
            43.592589
          ],
          [
            0.653133,
            43.592826
          ],
          [
            0.652378,
            43.594935
          ],
          [
            0.652378,
            43.594935
          ],
          [
            0.652607,
            43.593418
          ],
          [
            0.659652,
            43.591982
          ],
          [
            0.660211,
            43.591699
          ],
          [
            0.672911,
            43.592975
          ],
          [
            0.672959,
            43.592865
          ],
          [
            0.679766,
            43.591745
          ],
          [
            0.689464,
            43.587395
          ],
          [
            0.692285,
            43.589035
          ],
          [
            0.717658,
            43.579464
          ],
          [
            0.717655,
            43.579711
          ],
          [
            0.72301,
            43.582986
          ],
          [
            0.721801,
            43.584397
          ]
        ]
      }
    }
  ]
}