{
  "type": "FeatureCollection",
  "features": [
    {
      "type": "Feature",
      "properties": {
        "name": "GraphHopper Track",
        "source": "Forêt_de_Lézignan.gpx",
        "type": "track"
      },
      "geometry": {
        "type": "LineString",
        "coordinates": [
          [
            2.757333,
            43.200759,
            51.25
          ],
          [
            2.75738,
            43.200834,
            51.11
          ],
          [
            2.756811,
            43.200959,
            51.91
          ],
          [
            2.756588,
            43.201025,
            52.0
          ],
          [
            2.756318,
            43.201083,
            52.0
          ],
          [
            2.756162,
            43.201081,
            52.55
          ],
          [
            2.755865,
            43.200658,
            53.23
          ],
          [
            2.755613,
            43.200376,
            53.0
          ],
          [
            2.755116,
            43.200002,
            53.39
          ],
          [
            2.753908,
            43.199298,
            54.0
          ],
          [
            2.753154,
            43.198797,
            54.99
          ],
          [
            2.752416,
            43.198257,
            54.33
          ],
          [
            2.752247,
            43.198095,
            54.59
          ],
          [
            2.75202,
            43.19791,
            54.95
          ],
          [
            2.751513,
            43.19745,
            55.15
          ],
          [
            2.750128,
            43.196511,
            55.0
          ],
          [
            2.748888,
            43.195367,
            56.27
          ],
          [
            2.747221,
            43.193387,
            56.0
          ],
          [
            2.74643,
            43.192415,
            55.97
          ],
          [
            2.746182,
            43.192154,
            56.08
          ],
          [
            2.746182,
            43.192154,
            56.08
          ],
          [
            2.74643,
            43.192415,
            55.97
          ],
          [
            2.747221,
            43.193387,
            56.0
          ],
          [
            2.748888,
            43.195367,
            56.27
          ],
          [
            2.750128,
            43.196511,
            55.0
          ],
          [
            2.751513,
            43.19745,
            55.15
          ],
          [
            2.75202,
            43.19791,
            54.95
          ],
          [
            2.752247,
            43.198095,
            54.59
          ],
          [
            2.752416,
            43.198257,
            54.33
          ],
          [
            2.753154,
            43.198797,
            54.99
          ],
          [
            2.753908,
            43.199298,
            54.0
          ],
          [
            2.755116,
            43.200002,
            53.39
          ],
          [
            2.755613,
            43.200376,
            53.0
          ],
          [
            2.755865,
            43.200658,
            53.23
          ],
          [
            2.756162,
            43.201081,
            52.55
          ],
          [
            2.756318,
            43.201083,
            52.0
          ],
          [
            2.756588,
            43.201025,
            52.0
          ],
          [
            2.756811,
            43.200959,
            51.91
          ],
          [
            2.75738,
            43.200834,
            51.11
          ],
          [
            2.757333,
            43.200759,
            51.25
          ]
        ]
      }
    },
    {
      "type": "Feature",
      "properties": {
        "source": "Forêt_de_Lézignan.gpx",
        "type": "route"
      },
      "geometry": {
        "type": "LineString",
        "coordinates": [
          [
            2.757333,
            43.200759
          ],
          [
            2.75738,
            43.200834
          ],
          [
            2.756162,
            43.201081
          ],
          [
            2.751513,
            43.19745
          ],
          [
            2.746182,
            43.192154
          ],
          [
            2.746182,
            43.192154
          ],
          [
            2.751513,
            43.19745
          ],
          [
            2.756162,
            43.201081
          ],
          [
            2.75738,
            43.200834
          ],
          [
            2.757333,
            43.200759
          ]
        ]
      }
    }
  ]
}