{
  "type": "FeatureCollection",
  "features": [
    {
      "type": "Feature",
      "properties": {
        "name": "GraphHopper Track",
        "source": "Montredon-Corb..gpx",
        "type": "track"
      },
      "geometry": {
        "type": "LineString",
        "coordinates": [
          [
            2.876278,
            43.191387,
            171.51
          ],
          [
            2.876401,
            43.191716,
            171.64
          ],
          [
            2.876436,
            43.191833,
            171.44
          ],
          [
            2.876442,
            43.192226,
            170.25
          ],
          [
            2.87646,
            43.192328,
            169.93
          ],
          [
            2.876752,
            43.192813,
            168.72
          ],
          [
            2.876836,
            43.193026,
            168.32
          ],
          [
            2.876877,
            43.193193,
            168.0
          ],
          [
            2.876851,
            43.193365,
            167.65
          ],
          [
            2.87677,
            43.1936,
            167.28
          ],
          [
            2.876668,
            43.193825,
            166.92
          ],
          [
            2.876633,
            43.194032,
            166.24
          ],
          [
            2.876654,
            43.194218,
            166.57
          ],
          [
            2.876654,
            43.194334,
            167.49
          ],
          [
            2.876618,
            43.194425,
            168.51
          ],
          [
            2.876492,
            43.194539,
            171.5
          ],
          [
            2.876262,
            43.194686,
            172.88
          ],
          [
            2.876194,
            43.194792,
            173.38
          ],
          [
            2.876089,
            43.195148,
            172.78
          ],
          [
            2.876063,
            43.195376,
            170.96
          ],
          [
            2.876074,
            43.195565,
            168.7
          ],
          [
            2.876111,
            43.19567,
            167.71
          ],
          [
            2.876168,
            43.195767,
            167.1
          ],
          [
            2.876251,
            43.195877,
            166.5
          ],
          [
            2.876498,
            43.196154,
            165.23
          ],
          [
            2.876709,
            43.196307,
            165.09
          ],
          [
            2.877079,
            43.196472,
            165.96
          ],
          [
            2.877444,
            43.196555,
            166.96
          ],
          [
            2.877632,
            43.196585,
            167.19
          ],
          [
            2.877771,
            43.196625,
            167.22
          ],
          [
            2.877833,
            43.196694,
            167.15
          ],
          [
            2.877926,
            43.196987,
            166.56
          ],
          [
            2.877994,
            43.197128,
            166.11
          ],
          [
            2.878118,
            43.197315,
            165.4
          ],
          [
            2.878319,
            43.197556,
            164.0
          ],
          [
            2.878413,
            43.197703,
            163.19
          ],
          [
            2.878667,
            43.198299,
            160.22
          ],
          [
            2.879048,
            43.199095,
            153.8
          ],
          [
            2.879115,
            43.199175,
            153.04
          ],
          [
            2.879244,
            43.199269,
            151.87
          ],
          [
            2.879367,
            43.199377,
            151.02
          ],
          [
            2.879491,
            43.199471,
            150.87
          ],
          [
            2.879791,
            43.199233,
            146.82
          ],
          [
            2.880107,
            43.199233,
            142.04
          ],
          [
            2.880509,
            43.19926,
            136.16
          ],
          [
            2.880826,
            43.19926,
            130.97
          ],
          [
            2.881291,
            43.199164,
            124.02
          ],
          [
            2.881379,
            43.19901,
            121.81
          ],
          [
            2.881374,
            43.198951,
            120.91
          ],
          [
            2.881316,
            43.198893,
            119.69
          ],
          [
            2.88125,
            43.19869,
            116.02
          ],
          [
            2.881182,
            43.198597,
            114.13
          ],
          [
            2.881179,
            43.198553,
            113.42
          ],
          [
            2.881217,
            43.198498,
            112.46
          ],
          [
            2.88123,
            43.198449,
            111.68
          ],
          [
            2.881035,
            43.198157,
            106.76
          ],
          [
            2.881013,
            43.198046,
            105.18
          ],
          [
            2.881036,
            43.197936,
            103.69
          ],
          [
            2.881092,
            43.197809,
            102.07
          ],
          [
            2.881233,
            43.197647,
            99.91
          ],
          [
            2.881264,
            43.197555,
            99.01
          ],
          [
            2.881295,
            43.197398,
            97.72
          ],
          [
            2.881356,
            43.19725,
            96.53
          ],
          [
            2.881427,
            43.197132,
            95.59
          ],
          [
            2.881489,
            43.197056,
            94.98
          ],
          [
            2.881572,
            43.196997,
            94.46
          ],
          [
            2.881696,
            43.196956,
            93.93
          ],
          [
            2.882236,
            43.196833,
            91.86
          ],
          [
            2.882435,
            43.196735,
            91.08
          ],
          [
            2.882537,
            43.196713,
            90.69
          ],
          [
            2.882728,
            43.196722,
            89.97
          ],
          [
            2.882993,
            43.196715,
            89.06
          ],
          [
            2.883305,
            43.196678,
            87.94
          ],
          [
            2.88345,
            43.196642,
            87.25
          ],
          [
            2.883681,
            43.196549,
            86.14
          ],
          [
            2.883821,
            43.196484,
            85.47
          ],
          [
            2.883916,
            43.196461,
            85.08
          ],
          [
            2.884038,
            43.196491,
            84.61
          ],
          [
            2.884162,
            43.196551,
            84.08
          ],
          [
            2.884384,
            43.196682,
            83.06
          ],
          [
            2.884611,
            43.196797,
            82.03
          ],
          [
            2.884732,
            43.196843,
            81.51
          ],
          [
            2.884886,
            43.196875,
            80.97
          ],
          [
            2.885003,
            43.196878,
            80.63
          ],
          [
            2.885201,
            43.196864,
            80.06
          ],
          [
            2.885492,
            43.196883,
            79.27
          ],
          [
            2.886111,
            43.197006,
            77.37
          ],
          [
            2.886111,
            43.197006,
            77.37
          ],
          [
            2.885492,
            43.196883,
            79.27
          ],
          [
            2.885201,
            43.196864,
            80.06
          ],
          [
            2.885003,
            43.196878,
            80.63
          ],
          [
            2.884886,
            43.196875,
            80.97
          ],
          [
            2.884732,
            43.196843,
            81.51
          ],
          [
            2.884611,
            43.196797,
            82.03
          ],
          [
            2.884384,
            43.196682,
            83.06
          ],
          [
            2.884162,
            43.196551,
            84.08
          ],
          [
            2.884038,
            43.196491,
            84.61
          ],
          [
            2.883916,
            43.196461,
            85.08
          ],
          [
            2.883821,
            43.196484,
            85.47
          ],
          [
            2.883681,
            43.196549,
            86.14
          ],
          [
            2.88345,
            43.196642,
            87.25
          ],
          [
            2.883305,
            43.196678,
            87.94
          ],
          [
            2.882993,
            43.196715,
            89.06
          ],
          [
            2.882728,
            43.196722,
            89.97
          ],
          [
            2.882537,
            43.196713,
            90.69
          ],
          [
            2.882435,
            43.196735,
            91.08
          ],
          [
            2.882236,
            43.196833,
            91.86
          ],
          [
            2.881696,
            43.196956,
            93.93
          ],
          [
            2.881572,
            43.196997,
            94.46
          ],
          [
            2.881489,
            43.197056,
            94.98
          ],
          [
            2.881427,
            43.197132,
            95.59
          ],
          [
            2.881356,
            43.19725,
            96.53
          ],
          [
            2.881295,
            43.197398,
            97.72
          ],
          [
            2.881264,
            43.197555,
            99.01
          ],
          [
            2.881233,
            43.197647,
            99.91
          ],
          [
            2.881092,
            43.197809,
            102.07
          ],
          [
            2.881036,
            43.197936,
            103.69
          ],
          [
            2.881013,
            43.198046,
            105.18
          ],
          [
            2.881035,
            43.198157,
            106.76
          ],
          [
            2.88123,
            43.198449,
            111.68
          ],
          [
            2.881217,
            43.198498,
            112.46
          ],
          [
            2.881179,
            43.198553,
            113.42
          ],
          [
            2.881182,
            43.198597,
            114.13
          ],
          [
            2.88125,
            43.19869,
            116.02
          ],
          [
            2.881316,
            43.198893,
            119.69
          ],
          [
            2.881374,
            43.198951,
            120.91
          ],
          [
            2.881379,
            43.19901,
            121.81
          ],
          [
            2.881291,
            43.199164,
            124.02
          ],
          [
            2.880826,
            43.19926,
            130.97
          ],
          [
            2.880509,
            43.19926,
            136.16
          ],
          [
            2.880107,
            43.199233,
            142.04
          ],
          [
            2.879791,
            43.199233,
            146.82
          ],
          [
            2.879491,
            43.199471,
            150.87
          ],
          [
            2.879367,
            43.199377,
            151.02
          ],
          [
            2.879244,
            43.199269,
            151.87
          ],
          [
            2.879115,
            43.199175,
            153.04
          ],
          [
            2.879048,
            43.199095,
            153.8
          ],
          [
            2.878667,
            43.198299,
            160.22
          ],
          [
            2.878413,
            43.197703,
            163.19
          ],
          [
            2.878319,
            43.197556,
            164.0
          ],
          [
            2.878118,
            43.197315,
            165.4
          ],
          [
            2.877994,
            43.197128,
            166.11
          ],
          [
            2.877926,
            43.196987,
            166.56
          ],
          [
            2.877833,
            43.196694,
            167.15
          ],
          [
            2.877771,
            43.196625,
            167.22
          ],
          [
            2.877632,
            43.196585,
            167.19
          ],
          [
            2.877444,
            43.196555,
            166.96
          ],
          [
            2.877079,
            43.196472,
            165.96
          ],
          [
            2.876709,
            43.196307,
            165.09
          ],
          [
            2.876498,
            43.196154,
            165.23
          ],
          [
            2.876251,
            43.195877,
            166.5
          ],
          [
            2.876168,
            43.195767,
            167.1
          ],
          [
            2.876111,
            43.19567,
            167.71
          ],
          [
            2.876074,
            43.195565,
            168.7
          ],
          [
            2.876063,
            43.195376,
            170.96
          ],
          [
            2.876089,
            43.195148,
            172.78
          ],
          [
            2.876194,
            43.194792,
            173.38
          ],
          [
            2.876262,
            43.194686,
            172.88
          ],
          [
            2.876492,
            43.194539,
            171.5
          ],
          [
            2.876618,
            43.194425,
            168.51
          ],
          [
            2.876654,
            43.194334,
            167.49
          ],
          [
            2.876654,
            43.194218,
            166.57
          ],
          [
            2.876633,
            43.194032,
            166.24
          ],
          [
            2.876668,
            43.193825,
            166.92
          ],
          [
            2.87677,
            43.1936,
            167.28
          ],
          [
            2.876851,
            43.193365,
            167.65
          ],
          [
            2.876877,
            43.193193,
            168.0
          ],
          [
            2.876836,
            43.193026,
            168.32
          ],
          [
            2.876752,
            43.192813,
            168.72
          ],
          [
            2.87646,
            43.192328,
            169.93
          ],
          [
            2.876442,
            43.192226,
            170.25
          ],
          [
            2.876436,
            43.191833,
            171.44
          ],
          [
            2.876401,
            43.191716,
            171.64
          ],
          [
            2.876278,
            43.191387,
            171.51
          ]
        ]
      }
    },
    {
      "type": "Feature",
      "properties": {
        "source": "Montredon-Corb..gpx",
        "type": "route"
      },
      "geometry": {
        "type": "LineString",
        "coordinates": [
          [
            2.876278,
            43.191387
          ],
          [
            2.879491,
            43.199471
          ],
          [
            2.881291,
            43.199164
          ],
          [
            2.886111,
            43.197006
          ],
          [
            2.886111,
            43.197006
          ],
          [
            2.881291,
            43.199164
          ],
          [
            2.879491,
            43.199471
          ],
          [
            2.876278,
            43.191387
          ]
        ]
      }
    }
  ]
}