{
  "type": "FeatureCollection",
  "features": [
    {
      "type": "Feature",
      "properties": {
        "name": "GraphHopper Track",
        "source": "Liaison_St-Félix.gpx",
        "type": "track"
      },
      "geometry": {
        "type": "LineString",
        "coordinates": [
          [
            1.885516,
            43.448317,
            295.77
          ],
          [
            1.884645,
            43.448264,
            286.76
          ],
          [
            1.884149,
            43.448224,
            282.93
          ],
          [
            1.884014,
            43.448033,
            281.23
          ],
          [
            1.883915,
            43.44798,
            280.95
          ],
          [
            1.883405,
            43.44794,
            280.13
          ],
          [
            1.883242,
            43.447913,
            279.85
          ],
          [
            1.883112,
            43.447775,
            279.58
          ],
          [
            1.882917,
            43.447476,
            278.51
          ],
          [
            1.883152,
            43.44738,
            279.97
          ],
          [
            1.884432,
            43.446662,
            284.95
          ],
          [
            1.886059,
            43.445772,
            289.14
          ],
          [
            1.88633,
            43.445643,
            289.94
          ],
          [
            1.885883,
            43.445642,
            289.79
          ],
          [
            1.885579,
            43.445597,
            289.05
          ],
          [
            1.88533,
            43.445537,
            288.36
          ],
          [
            1.883887,
            43.445058,
            285.14
          ],
          [
            1.884155,
            43.444804,
            281.38
          ],
          [
            1.886497,
            43.443173,
            265.87
          ],
          [
            1.886825,
            43.442992,
            264.96
          ],
          [
            1.886837,
            43.442901,
            264.74
          ],
          [
            1.88687,
            43.442795,
            264.32
          ],
          [
            1.886956,
            43.442639,
            264.09
          ],
          [
            1.887041,
            43.442532,
            264.19
          ],
          [
            1.887325,
            43.442292,
            264.85
          ],
          [
            1.887417,
            43.442195,
            265.12
          ],
          [
            1.887501,
            43.442088,
            265.52
          ],
          [
            1.887784,
            43.441635,
            267.87
          ],
          [
            1.888024,
            43.441217,
            270.72
          ],
          [
            1.888072,
            43.44111,
            271.57
          ],
          [
            1.888114,
            43.440963,
            272.26
          ],
          [
            1.888119,
            43.44086,
            272.35
          ],
          [
            1.888105,
            43.440755,
            272.0
          ],
          [
            1.888061,
            43.44065,
            271.58
          ],
          [
            1.888003,
            43.440549,
            271.19
          ],
          [
            1.887924,
            43.44045,
            270.83
          ],
          [
            1.887801,
            43.440343,
            270.54
          ],
          [
            1.88732,
            43.440012,
            269.94
          ],
          [
            1.8872,
            43.439917,
            270.05
          ],
          [
            1.887106,
            43.43982,
            270.22
          ],
          [
            1.887018,
            43.439699,
            270.48
          ],
          [
            1.886865,
            43.439436,
            271.37
          ],
          [
            1.886632,
            43.438971,
            273.19
          ],
          [
            1.886437,
            43.438415,
            277.2
          ],
          [
            1.886217,
            43.437836,
            280.56
          ],
          [
            1.886124,
            43.437659,
            281.27
          ],
          [
            1.886047,
            43.437569,
            281.58
          ],
          [
            1.885954,
            43.437507,
            281.82
          ],
          [
            1.885811,
            43.437456,
            282.11
          ],
          [
            1.885635,
            43.437423,
            282.39
          ],
          [
            1.885472,
            43.437412,
            282.59
          ],
          [
            1.885306,
            43.437411,
            282.76
          ],
          [
            1.884925,
            43.437445,
            283.1
          ],
          [
            1.884796,
            43.437444,
            283.24
          ],
          [
            1.884677,
            43.437426,
            283.44
          ],
          [
            1.884566,
            43.437388,
            283.72
          ],
          [
            1.884459,
            43.437326,
            283.99
          ],
          [
            1.884393,
            43.437265,
            284.18
          ],
          [
            1.884331,
            43.437188,
            284.38
          ],
          [
            1.884268,
            43.437018,
            285.0
          ],
          [
            1.884214,
            43.436927,
            285.5
          ],
          [
            1.88414,
            43.436866,
            286.31
          ],
          [
            1.884043,
            43.436822,
            286.3
          ],
          [
            1.883939,
            43.436791,
            285.86
          ],
          [
            1.883465,
            43.436704,
            284.88
          ],
          [
            1.883332,
            43.436654,
            284.18
          ],
          [
            1.883207,
            43.436591,
            284.11
          ],
          [
            1.883111,
            43.436518,
            283.9
          ],
          [
            1.883042,
            43.436414,
            283.81
          ],
          [
            1.882999,
            43.436312,
            283.65
          ],
          [
            1.882968,
            43.436172,
            283.48
          ],
          [
            1.882954,
            43.43598,
            283.27
          ],
          [
            1.882962,
            43.435801,
            283.12
          ],
          [
            1.882987,
            43.435651,
            283.06
          ],
          [
            1.883023,
            43.435523,
            283.01
          ],
          [
            1.883103,
            43.435412,
            282.98
          ],
          [
            1.883622,
            43.434801,
            283.12
          ],
          [
            1.883682,
            43.434725,
            283.06
          ],
          [
            1.88372,
            43.43465,
            283.27
          ],
          [
            1.883722,
            43.434578,
            283.76
          ],
          [
            1.88371,
            43.43452,
            283.95
          ],
          [
            1.883668,
            43.434452,
            284.0
          ],
          [
            1.883574,
            43.434343,
            283.42
          ],
          [
            1.881814,
            43.43205,
            278.99
          ],
          [
            1.874882,
            43.43359,
            265.02
          ],
          [
            1.874684,
            43.43359,
            265.05
          ],
          [
            1.874319,
            43.433569,
            265.68
          ],
          [
            1.874219,
            43.433551,
            266.11
          ],
          [
            1.874229,
            43.433657,
            266.38
          ],
          [
            1.874172,
            43.433773,
            267.64
          ],
          [
            1.87401,
            43.433996,
            270.84
          ],
          [
            1.87398,
            43.434123,
            272.23
          ],
          [
            1.873848,
            43.434221,
            273.67
          ],
          [
            1.873848,
            43.434221,
            273.67
          ],
          [
            1.87398,
            43.434123,
            272.23
          ],
          [
            1.87401,
            43.433996,
            270.84
          ],
          [
            1.874172,
            43.433773,
            267.64
          ],
          [
            1.874229,
            43.433657,
            266.38
          ],
          [
            1.874219,
            43.433551,
            266.11
          ],
          [
            1.874041,
            43.433519,
            267.14
          ],
          [
            1.874053,
            43.43344,
            266.55
          ],
          [
            1.874019,
            43.433371,
            266.36
          ],
          [
            1.87383,
            43.433154,
            265.94
          ],
          [
            1.87048,
            43.428776,
            254.59
          ],
          [
            1.870333,
            43.428631,
            253.31
          ],
          [
            1.870251,
            43.428569,
            252.73
          ],
          [
            1.870273,
            43.428471,
            252.18
          ],
          [
            1.870378,
            43.428285,
            251.71
          ],
          [
            1.871529,
            43.426445,
            257.15
          ],
          [
            1.871714,
            43.42628,
            257.7
          ],
          [
            1.871577,
            43.426265,
            257.32
          ],
          [
            1.871401,
            43.42622,
            256.94
          ],
          [
            1.871059,
            43.42608,
            256.07
          ],
          [
            1.870413,
            43.425752,
            254.65
          ]
        ]
      }
    },
    {
      "type": "Feature",
      "properties": {
        "source": "Liaison_St-Félix.gpx",
        "type": "route"
      },
      "geometry": {
        "type": "LineString",
        "coordinates": [
          [
            1.885516,
            43.448317
          ],
          [
            1.884149,
            43.448224
          ],
          [
            1.882917,
            43.447476
          ],
          [
            1.88633,
            43.445643
          ],
          [
            1.883887,
            43.445058
          ],
          [
            1.886825,
            43.442992
          ],
          [
            1.884043,
            43.436822
          ],
          [
            1.883332,
            43.436654
          ],
          [
            1.88372,
            43.43465
          ],
          [
            1.881814,
            43.43205
          ],
          [
            1.874219,
            43.433551
          ],
          [
            1.873848,
            43.434221
          ],
          [
            1.873848,
            43.434221
          ],
          [
            1.874219,
            43.433551
          ],
          [
            1.874041,
            43.433519
          ],
          [
            1.870251,
            43.428569
          ],
          [
            1.871714,
            43.42628
          ],
          [
            1.870413,
            43.425752
          ]
        ]
      }
    }
  ]
}