{
  "type": "FeatureCollection",
  "features": [
    {
      "type": "Feature",
      "properties": {
        "name": "GraphHopper Track",
        "source": "Sentier_Capitelles.gpx",
        "type": "track"
      },
      "geometry": {
        "type": "LineString",
        "coordinates": [
          [
            1.895489,
            43.425524,
            202.2
          ],
          [
            1.896935,
            43.425883,
            205.79
          ],
          [
            1.897412,
            43.425982,
            206.64
          ],
          [
            1.898274,
            43.426141,
            207.21
          ],
          [
            1.898252,
            43.426304,
            207.94
          ],
          [
            1.89839,
            43.426643,
            210.79
          ],
          [
            1.89864,
            43.426712,
            211.84
          ],
          [
            1.898696,
            43.426739,
            211.57
          ],
          [
            1.898775,
            43.426749,
            211.26
          ],
          [
            1.898991,
            43.426731,
            210.57
          ],
          [
            1.899663,
            43.426566,
            210.6
          ],
          [
            1.899803,
            43.426546,
            210.64
          ],
          [
            1.899975,
            43.426557,
            210.67
          ],
          [
            1.900122,
            43.426597,
            210.72
          ],
          [
            1.900336,
            43.426724,
            210.77
          ],
          [
            1.900473,
            43.426787,
            210.79
          ],
          [
            1.900557,
            43.426797,
            210.79
          ],
          [
            1.900715,
            43.426766,
            210.79
          ],
          [
            1.90084,
            43.426699,
            210.78
          ],
          [
            1.900942,
            43.426625,
            210.76
          ],
          [
            1.901029,
            43.426577,
            210.74
          ],
          [
            1.901523,
            43.426346,
            210.72
          ],
          [
            1.901698,
            43.426249,
            210.81
          ],
          [
            1.902047,
            43.425927,
            211.07
          ],
          [
            1.902553,
            43.425531,
            209.16
          ],
          [
            1.90327,
            43.424772,
            210.98
          ],
          [
            1.903428,
            43.424656,
            211.11
          ],
          [
            1.903662,
            43.424604,
            211.19
          ],
          [
            1.90388,
            43.424593,
            211.21
          ],
          [
            1.904167,
            43.424635,
            211.21
          ],
          [
            1.904533,
            43.424759,
            211.17
          ],
          [
            1.904678,
            43.424829,
            211.1
          ],
          [
            1.904795,
            43.424897,
            211.04
          ],
          [
            1.905059,
            43.425092,
            211.1
          ],
          [
            1.905382,
            43.425348,
            211.17
          ],
          [
            1.905554,
            43.425452,
            211.22
          ],
          [
            1.905701,
            43.425501,
            211.27
          ],
          [
            1.905959,
            43.425559,
            211.35
          ],
          [
            1.906147,
            43.425628,
            211.44
          ],
          [
            1.906372,
            43.425764,
            211.42
          ],
          [
            1.906651,
            43.42589,
            211.37
          ],
          [
            1.90688,
            43.425972,
            211.34
          ],
          [
            1.907185,
            43.426034,
            211.36
          ],
          [
            1.907397,
            43.426056,
            211.36
          ],
          [
            1.907587,
            43.42605,
            211.33
          ],
          [
            1.908011,
            43.426002,
            211.26
          ],
          [
            1.908197,
            43.425999,
            211.27
          ],
          [
            1.908378,
            43.426033,
            211.28
          ],
          [
            1.908557,
            43.426093,
            211.31
          ],
          [
            1.908667,
            43.426168,
            211.33
          ],
          [
            1.908743,
            43.426261,
            211.35
          ],
          [
            1.908794,
            43.426365,
            211.37
          ],
          [
            1.908806,
            43.426511,
            211.41
          ],
          [
            1.908773,
            43.426896,
            211.58
          ],
          [
            1.908793,
            43.427118,
            211.68
          ],
          [
            1.908842,
            43.427391,
            211.82
          ],
          [
            1.908833,
            43.427513,
            211.85
          ],
          [
            1.908868,
            43.427632,
            211.87
          ],
          [
            1.908868,
            43.427632,
            211.87
          ],
          [
            1.908833,
            43.427513,
            211.85
          ],
          [
            1.908842,
            43.427391,
            211.82
          ],
          [
            1.908793,
            43.427118,
            211.68
          ],
          [
            1.908773,
            43.426896,
            211.58
          ],
          [
            1.908806,
            43.426511,
            211.41
          ],
          [
            1.908794,
            43.426365,
            211.37
          ],
          [
            1.908743,
            43.426261,
            211.35
          ],
          [
            1.908667,
            43.426168,
            211.33
          ],
          [
            1.908557,
            43.426093,
            211.31
          ],
          [
            1.908378,
            43.426033,
            211.28
          ],
          [
            1.908197,
            43.425999,
            211.27
          ],
          [
            1.908011,
            43.426002,
            211.26
          ],
          [
            1.907587,
            43.42605,
            211.33
          ],
          [
            1.907397,
            43.426056,
            211.36
          ],
          [
            1.907185,
            43.426034,
            211.36
          ],
          [
            1.90688,
            43.425972,
            211.34
          ],
          [
            1.906651,
            43.42589,
            211.37
          ],
          [
            1.906372,
            43.425764,
            211.42
          ],
          [
            1.906147,
            43.425628,
            211.44
          ],
          [
            1.905959,
            43.425559,
            211.35
          ],
          [
            1.905701,
            43.425501,
            211.27
          ],
          [
            1.905554,
            43.425452,
            211.22
          ],
          [
            1.905382,
            43.425348,
            211.17
          ],
          [
            1.905059,
            43.425092,
            211.1
          ],
          [
            1.904795,
            43.424897,
            211.04
          ],
          [
            1.904678,
            43.424829,
            211.1
          ],
          [
            1.904533,
            43.424759,
            211.17
          ],
          [
            1.904167,
            43.424635,
            211.21
          ],
          [
            1.90388,
            43.424593,
            211.21
          ],
          [
            1.903662,
            43.424604,
            211.19
          ],
          [
            1.903428,
            43.424656,
            211.11
          ],
          [
            1.90327,
            43.424772,
            210.98
          ],
          [
            1.902553,
            43.425531,
            209.16
          ],
          [
            1.902047,
            43.425927,
            211.07
          ],
          [
            1.901698,
            43.426249,
            210.81
          ],
          [
            1.901523,
            43.426346,
            210.72
          ],
          [
            1.901029,
            43.426577,
            210.74
          ],
          [
            1.900942,
            43.426625,
            210.76
          ],
          [
            1.90084,
            43.426699,
            210.78
          ],
          [
            1.900715,
            43.426766,
            210.79
          ],
          [
            1.900557,
            43.426797,
            210.79
          ],
          [
            1.900473,
            43.426787,
            210.79
          ],
          [
            1.900336,
            43.426724,
            210.77
          ],
          [
            1.900122,
            43.426597,
            210.72
          ],
          [
            1.899975,
            43.426557,
            210.67
          ],
          [
            1.899803,
            43.426546,
            210.64
          ],
          [
            1.899663,
            43.426566,
            210.6
          ],
          [
            1.898991,
            43.426731,
            210.57
          ],
          [
            1.898775,
            43.426749,
            211.26
          ],
          [
            1.898696,
            43.426739,
            211.57
          ],
          [
            1.89864,
            43.426712,
            211.84
          ],
          [
            1.89839,
            43.426643,
            210.79
          ],
          [
            1.898252,
            43.426304,
            207.94
          ],
          [
            1.898274,
            43.426141,
            207.21
          ],
          [
            1.897412,
            43.425982,
            206.64
          ],
          [
            1.896935,
            43.425883,
            205.79
          ],
          [
            1.895489,
            43.425524,
            202.2
          ]
        ]
      }
    },
    {
      "type": "Feature",
      "properties": {
        "source": "Sentier_Capitelles.gpx",
        "type": "route"
      },
      "geometry": {
        "type": "LineString",
        "coordinates": [
          [
            1.895489,
            43.425524
          ],
          [
            1.898274,
            43.426141
          ],
          [
            1.89839,
            43.426643
          ],
          [
            1.908868,
            43.427632
          ],
          [
            1.908868,
            43.427632
          ],
          [
            1.89839,
            43.426643
          ],
          [
            1.898274,
            43.426141
          ],
          [
            1.895489,
            43.425524
          ]
        ]
      }
    }
  ]
}