{
  "type": "FeatureCollection",
  "features": [
    {
      "type": "Feature",
      "properties": {
        "name": "GraphHopper Track",
        "source": "Circuit_Puylaurens.gpx",
        "type": "track"
      },
      "geometry": {
        "type": "LineString",
        "coordinates": [
          [
            2.012323,
            43.571653,
            336.62
          ],
          [
            2.012564,
            43.571802,
            341.42
          ],
          [
            2.012877,
            43.571645,
            342.72
          ],
          [
            2.013556,
            43.571285,
            344.93
          ],
          [
            2.014388,
            43.570901,
            343.1
          ],
          [
            2.014305,
            43.570829,
            342.89
          ],
          [
            2.014142,
            43.570721,
            341.61
          ],
          [
            2.014257,
            43.570646,
            339.66
          ],
          [
            2.014235,
            43.570621,
            339.34
          ],
          [
            2.014212,
            43.570574,
            338.59
          ],
          [
            2.014212,
            43.570574,
            338.59
          ],
          [
            2.014235,
            43.570621,
            339.34
          ],
          [
            2.014257,
            43.570646,
            339.66
          ],
          [
            2.014142,
            43.570721,
            341.61
          ],
          [
            2.014305,
            43.570829,
            342.89
          ],
          [
            2.014388,
            43.570901,
            343.1
          ],
          [
            2.014461,
            43.57094,
            343.36
          ],
          [
            2.014522,
            43.570947,
            343.42
          ],
          [
            2.01458,
            43.570934,
            343.5
          ],
          [
            2.014757,
            43.570856,
            344.17
          ],
          [
            2.014816,
            43.570855,
            344.68
          ],
          [
            2.014861,
            43.570874,
            346.1
          ],
          [
            2.014957,
            43.570966,
            350.79
          ],
          [
            2.01476,
            43.571082,
            350.04
          ],
          [
            2.014624,
            43.571195,
            349.6
          ],
          [
            2.014785,
            43.571385,
            352.74
          ],
          [
            2.014488,
            43.571524,
            352.84
          ],
          [
            2.014576,
            43.571624,
            352.95
          ],
          [
            2.01473,
            43.571753,
            352.59
          ],
          [
            2.014745,
            43.571779,
            352.56
          ],
          [
            2.014732,
            43.571797,
            352.55
          ],
          [
            2.014527,
            43.571928,
            352.3
          ],
          [
            2.014364,
            43.572054,
            352.31
          ],
          [
            2.01443,
            43.572109,
            351.56
          ],
          [
            2.014432,
            43.572133,
            351.4
          ],
          [
            2.014403,
            43.572235,
            350.59
          ],
          [
            2.01445,
            43.572273,
            349.84
          ],
          [
            2.014593,
            43.572252,
            347.49
          ],
          [
            2.01487,
            43.57225,
            342.7
          ],
          [
            2.014872,
            43.572299,
            342.42
          ],
          [
            2.014919,
            43.572422,
            342.25
          ],
          [
            2.015023,
            43.572602,
            341.88
          ],
          [
            2.015252,
            43.572922,
            340.8
          ],
          [
            2.015442,
            43.573159,
            339.78
          ],
          [
            2.015484,
            43.573228,
            339.36
          ],
          [
            2.015499,
            43.573293,
            338.81
          ],
          [
            2.015484,
            43.573367,
            338.32
          ],
          [
            2.01575,
            43.573747,
            331.33
          ],
          [
            2.015997,
            43.574004,
            324.85
          ],
          [
            2.01604,
            43.574115,
            322.54
          ],
          [
            2.016056,
            43.574396,
            316.5
          ],
          [
            2.016275,
            43.57483,
            306.9
          ],
          [
            2.016764,
            43.574866,
            304.98
          ],
          [
            2.016935,
            43.574866,
            304.49
          ],
          [
            2.017031,
            43.574859,
            304.2
          ],
          [
            2.017122,
            43.574843,
            303.89
          ],
          [
            2.01728,
            43.574795,
            303.28
          ],
          [
            2.017394,
            43.57474,
            302.79
          ],
          [
            2.017495,
            43.574669,
            302.29
          ],
          [
            2.018446,
            43.573836,
            296.07
          ],
          [
            2.01848,
            43.573938,
            295.43
          ],
          [
            2.018274,
            43.574835,
            287.48
          ],
          [
            2.018,
            43.575541,
            280.8
          ],
          [
            2.01804,
            43.575638,
            279.88
          ],
          [
            2.018292,
            43.575749,
            278.06
          ]
        ]
      }
    },
    {
      "type": "Feature",
      "properties": {
        "source": "Circuit_Puylaurens.gpx",
        "type": "route"
      },
      "geometry": {
        "type": "LineString",
        "coordinates": [
          [
            2.012323,
            43.571653
          ],
          [
            2.012564,
            43.571802
          ],
          [
            2.014388,
            43.570901
          ],
          [
            2.014142,
            43.570721
          ],
          [
            2.014212,
            43.570574
          ],
          [
            2.014212,
            43.570574
          ],
          [
            2.014142,
            43.570721
          ],
          [
            2.014388,
            43.570901
          ],
          [
            2.014957,
            43.570966
          ],
          [
            2.014624,
            43.571195
          ],
          [
            2.014785,
            43.571385
          ],
          [
            2.014488,
            43.571524
          ],
          [
            2.014364,
            43.572054
          ],
          [
            2.01445,
            43.572273
          ],
          [
            2.01487,
            43.57225
          ],
          [
            2.015484,
            43.573367
          ],
          [
            2.016275,
            43.57483
          ],
          [
            2.018446,
            43.573836
          ],
          [
            2.018292,
            43.575749
          ]
        ]
      }
    }
  ]
}