{
  "type": "FeatureCollection",
  "features": [
    {
      "type": "Feature",
      "properties": {
        "name": "GraphHopper Track",
        "source": "St-Benoît.gpx",
        "type": "track"
      },
      "geometry": {
        "type": "LineString",
        "coordinates": [
          [
            2.155497,
            44.032518,
            258.32
          ],
          [
            2.156038,
            44.032559,
            254.9
          ],
          [
            2.156713,
            44.032685,
            252.09
          ],
          [
            2.1568,
            44.033089,
            254.24
          ],
          [
            2.156792,
            44.033319,
            254.87
          ],
          [
            2.15675,
            44.033583,
            255.23
          ],
          [
            2.156676,
            44.033738,
            255.29
          ],
          [
            2.156568,
            44.033862,
            255.29
          ],
          [
            2.156374,
            44.034048,
            254.88
          ],
          [
            2.156283,
            44.034194,
            254.39
          ],
          [
            2.156245,
            44.034314,
            254.08
          ],
          [
            2.156263,
            44.034543,
            253.97
          ],
          [
            2.156346,
            44.034849,
            253.97
          ],
          [
            2.156558,
            44.035867,
            253.16
          ],
          [
            2.156574,
            44.036103,
            252.51
          ],
          [
            2.156553,
            44.036932,
            250.0
          ],
          [
            2.156522,
            44.037363,
            250.43
          ],
          [
            2.15646,
            44.037641,
            250.28
          ],
          [
            2.156372,
            44.037899,
            250.26
          ],
          [
            2.156177,
            44.038292,
            250.31
          ],
          [
            2.155298,
            44.03994,
            250.14
          ],
          [
            2.155107,
            44.040248,
            250.0
          ],
          [
            2.154952,
            44.040499,
            250.8
          ],
          [
            2.154703,
            44.040799,
            251.37
          ],
          [
            2.154109,
            44.041482,
            253.72
          ],
          [
            2.153939,
            44.041648,
            254.59
          ],
          [
            2.153758,
            44.041777,
            255.57
          ],
          [
            2.153399,
            44.042055,
            258.02
          ],
          [
            2.153304,
            44.042161,
            258.0
          ],
          [
            2.153346,
            44.042208,
            258.0
          ],
          [
            2.152938,
            44.042715,
            256.3
          ],
          [
            2.152651,
            44.043001,
            256.06
          ],
          [
            2.152285,
            44.043293,
            256.34
          ],
          [
            2.152084,
            44.043422,
            256.89
          ],
          [
            2.151687,
            44.043646,
            257.99
          ],
          [
            2.151706,
            44.043812,
            255.28
          ],
          [
            2.151676,
            44.044019,
            255.91
          ],
          [
            2.151768,
            44.044564,
            254.63
          ],
          [
            2.151469,
            44.04469,
            254.58
          ],
          [
            2.151137,
            44.044869,
            254.83
          ],
          [
            2.150775,
            44.045184,
            254.58
          ],
          [
            2.149884,
            44.046254,
            253.44
          ],
          [
            2.150095,
            44.046829,
            252.0
          ],
          [
            2.149077,
            44.047179,
            250.73
          ],
          [
            2.148118,
            44.047727,
            249.0
          ],
          [
            2.1473,
            44.048117,
            247.68
          ],
          [
            2.1465,
            44.048487,
            247.06
          ],
          [
            2.146749,
            44.049036,
            245.0
          ],
          [
            2.146949,
            44.049581,
            244.0
          ],
          [
            2.147192,
            44.050285,
            243.0
          ],
          [
            2.146418,
            44.050338,
            243.0
          ],
          [
            2.146378,
            44.050275,
            243.0
          ],
          [
            2.146289,
            44.050249,
            243.0
          ],
          [
            2.146289,
            44.050143,
            243.11
          ],
          [
            2.146262,
            44.050008,
            243.32
          ],
          [
            2.146229,
            44.04987,
            243.57
          ],
          [
            2.146164,
            44.04971,
            243.84
          ],
          [
            2.146044,
            44.049538,
            244.05
          ],
          [
            2.145594,
            44.049067,
            244.54
          ],
          [
            2.145438,
            44.048849,
            244.69
          ],
          [
            2.145254,
            44.048545,
            244.81
          ],
          [
            2.145137,
            44.048077,
            245.22
          ],
          [
            2.145105,
            44.047617,
            245.99
          ],
          [
            2.145026,
            44.047135,
            246.74
          ],
          [
            2.14494,
            44.046819,
            247.27
          ],
          [
            2.144839,
            44.046397,
            247.76
          ],
          [
            2.144752,
            44.046171,
            248.05
          ],
          [
            2.144606,
            44.045921,
            248.35
          ],
          [
            2.14436,
            44.045641,
            248.49
          ],
          [
            2.14409,
            44.045416,
            248.65
          ],
          [
            2.143379,
            44.044428,
            249.56
          ],
          [
            2.143093,
            44.044002,
            249.82
          ],
          [
            2.142723,
            44.043327,
            250.9
          ],
          [
            2.142427,
            44.042514,
            251.73
          ],
          [
            2.142427,
            44.042514,
            251.73
          ],
          [
            2.1424,
            44.042441,
            251.81
          ],
          [
            2.14209,
            44.041042,
            254.12
          ],
          [
            2.14202,
            44.040552,
            255.46
          ],
          [
            2.141903,
            44.040053,
            256.67
          ],
          [
            2.141717,
            44.0396,
            257.87
          ],
          [
            2.141607,
            44.039363,
            258.46
          ],
          [
            2.14144,
            44.039051,
            259.35
          ],
          [
            2.141131,
            44.038599,
            260.96
          ],
          [
            2.140453,
            44.03772,
            265.45
          ],
          [
            2.140041,
            44.037317,
            268.62
          ],
          [
            2.139826,
            44.037147,
            270.1
          ],
          [
            2.139771,
            44.036997,
            271.03
          ],
          [
            2.139668,
            44.036818,
            272.11
          ],
          [
            2.139457,
            44.036187,
            274.51
          ],
          [
            2.139314,
            44.035833,
            275.01
          ],
          [
            2.139135,
            44.035478,
            274.79
          ],
          [
            2.138612,
            44.034611,
            274.67
          ],
          [
            2.138527,
            44.034415,
            274.59
          ],
          [
            2.138403,
            44.033984,
            274.02
          ],
          [
            2.138367,
            44.033797,
            273.81
          ],
          [
            2.138372,
            44.033587,
            273.73
          ],
          [
            2.138396,
            44.033426,
            273.72
          ],
          [
            2.138444,
            44.033267,
            273.67
          ],
          [
            2.138592,
            44.032972,
            274.11
          ],
          [
            2.138908,
            44.032474,
            275.85
          ],
          [
            2.138955,
            44.032378,
            276.36
          ],
          [
            2.13898,
            44.032269,
            276.8
          ],
          [
            2.138964,
            44.032181,
            277.17
          ],
          [
            2.138915,
            44.032083,
            277.73
          ],
          [
            2.138851,
            44.032009,
            278.07
          ],
          [
            2.138755,
            44.031954,
            278.27
          ],
          [
            2.1388,
            44.031901,
            278.64
          ],
          [
            2.138815,
            44.031836,
            279.16
          ],
          [
            2.138807,
            44.031778,
            279.62
          ],
          [
            2.138769,
            44.031729,
            280.06
          ],
          [
            2.138702,
            44.031694,
            280.59
          ],
          [
            2.138803,
            44.031469,
            281.4
          ],
          [
            2.138933,
            44.031247,
            282.95
          ],
          [
            2.139053,
            44.031077,
            284.37
          ],
          [
            2.139262,
            44.030858,
            286.18
          ],
          [
            2.139463,
            44.030706,
            287.67
          ],
          [
            2.139656,
            44.030593,
            288.93
          ],
          [
            2.140002,
            44.030429,
            290.98
          ],
          [
            2.14069,
            44.03015,
            294.33
          ],
          [
            2.141242,
            44.029984,
            296.29
          ],
          [
            2.141279,
            44.03003,
            296.19
          ],
          [
            2.141335,
            44.030063,
            296.21
          ],
          [
            2.141405,
            44.030081,
            296.26
          ],
          [
            2.141478,
            44.03008,
            296.3
          ],
          [
            2.141546,
            44.03006,
            296.36
          ],
          [
            2.141601,
            44.030025,
            296.43
          ],
          [
            2.141635,
            44.029979,
            296.47
          ],
          [
            2.142192,
            44.03015,
            294.85
          ],
          [
            2.142334,
            44.030219,
            294.49
          ],
          [
            2.143464,
            44.031043,
            293.02
          ],
          [
            2.143768,
            44.031282,
            293.13
          ],
          [
            2.145461,
            44.032435,
            291.68
          ],
          [
            2.146439,
            44.033074,
            289.0
          ],
          [
            2.146675,
            44.033249,
            287.66
          ],
          [
            2.146947,
            44.033371,
            286.35
          ],
          [
            2.147116,
            44.033437,
            285.61
          ],
          [
            2.147358,
            44.03351,
            284.94
          ],
          [
            2.147693,
            44.033654,
            284.64
          ],
          [
            2.147929,
            44.033786,
            284.54
          ],
          [
            2.148074,
            44.033912,
            284.85
          ],
          [
            2.148151,
            44.033992,
            284.78
          ],
          [
            2.149602,
            44.03352,
            292.51
          ],
          [
            2.149986,
            44.034147,
            294.0
          ],
          [
            2.15005,
            44.03409,
            294.0
          ],
          [
            2.15024,
            44.033978,
            294.27
          ],
          [
            2.150455,
            44.033891,
            294.48
          ],
          [
            2.150851,
            44.033765,
            293.63
          ],
          [
            2.151166,
            44.033705,
            292.69
          ],
          [
            2.151512,
            44.033622,
            291.39
          ],
          [
            2.151691,
            44.033619,
            290.24
          ],
          [
            2.151785,
            44.033666,
            289.42
          ],
          [
            2.15182,
            44.033754,
            288.58
          ],
          [
            2.151837,
            44.033865,
            287.07
          ],
          [
            2.15242,
            44.033618,
            284.47
          ],
          [
            2.152536,
            44.033544,
            283.79
          ],
          [
            2.152577,
            44.033469,
            283.28
          ],
          [
            2.152594,
            44.033383,
            282.76
          ],
          [
            2.152565,
            44.033289,
            281.79
          ],
          [
            2.152514,
            44.033223,
            281.21
          ],
          [
            2.152263,
            44.03307,
            279.71
          ],
          [
            2.152206,
            44.033018,
            279.1
          ],
          [
            2.152194,
            44.032946,
            278.48
          ],
          [
            2.152207,
            44.032877,
            277.92
          ],
          [
            2.152254,
            44.03282,
            277.41
          ],
          [
            2.152346,
            44.032775,
            276.81
          ],
          [
            2.152457,
            44.032755,
            276.22
          ],
          [
            2.153154,
            44.032684,
            272.4
          ],
          [
            2.153564,
            44.032655,
            270.31
          ],
          [
            2.153884,
            44.032654,
            268.29
          ],
          [
            2.154526,
            44.032733,
            264.65
          ],
          [
            2.154656,
            44.032719,
            263.88
          ],
          [
            2.154847,
            44.032678,
            262.77
          ],
          [
            2.155064,
            44.032592,
            261.47
          ],
          [
            2.155305,
            44.032514,
            259.54
          ],
          [
            2.155382,
            44.03251,
            259.04
          ],
          [
            2.155497,
            44.032518,
            258.32
          ]
        ]
      }
    },
    {
      "type": "Feature",
      "properties": {
        "source": "St-Benoît.gpx",
        "type": "route"
      },
      "geometry": {
        "type": "LineString",
        "coordinates": [
          [
            2.155497,
            44.032518
          ],
          [
            2.156713,
            44.032685
          ],
          [
            2.155107,
            44.040248
          ],
          [
            2.153304,
            44.042161
          ],
          [
            2.153346,
            44.042208
          ],
          [
            2.151687,
            44.043646
          ],
          [
            2.151768,
            44.044564
          ],
          [
            2.149884,
            44.046254
          ],
          [
            2.150095,
            44.046829
          ],
          [
            2.1465,
            44.048487
          ],
          [
            2.147192,
            44.050285
          ],
          [
            2.146418,
            44.050338
          ],
          [
            2.143093,
            44.044002
          ],
          [
            2.142427,
            44.042514
          ],
          [
            2.142427,
            44.042514
          ],
          [
            2.138755,
            44.031954
          ],
          [
            2.141242,
            44.029984
          ],
          [
            2.148151,
            44.033992
          ],
          [
            2.149602,
            44.03352
          ],
          [
            2.149986,
            44.034147
          ],
          [
            2.151837,
            44.033865
          ],
          [
            2.155497,
            44.032518
          ]
        ]
      }
    }
  ]
}