{
  "type": "FeatureCollection",
  "features": [
    {
      "type": "Feature",
      "properties": {
        "name": "GraphHopper Track",
        "source": "Bords_de_Garonne.gpx",
        "type": "track"
      },
      "geometry": {
        "type": "LineString",
        "coordinates": [
          [
            1.01111,
            43.199622,
            266.72
          ],
          [
            1.011216,
            43.199409,
            267.0
          ],
          [
            1.011367,
            43.19946,
            267.0
          ],
          [
            1.01165,
            43.199513,
            266.22
          ],
          [
            1.01171,
            43.199446,
            266.03
          ],
          [
            1.011716,
            43.199405,
            266.0
          ],
          [
            1.012071,
            43.199515,
            265.84
          ],
          [
            1.013496,
            43.199985,
            264.53
          ],
          [
            1.013823,
            43.199332,
            265.0
          ],
          [
            1.014255,
            43.199389,
            264.06
          ],
          [
            1.014537,
            43.199465,
            264.0
          ],
          [
            1.015057,
            43.199532,
            263.92
          ],
          [
            1.015712,
            43.199596,
            263.6
          ],
          [
            1.015787,
            43.199596,
            263.19
          ],
          [
            1.015829,
            43.199589,
            263.0
          ],
          [
            1.015848,
            43.199627,
            263.0
          ],
          [
            1.015895,
            43.199651,
            263.0
          ],
          [
            1.015923,
            43.199654,
            263.0
          ],
          [
            1.015972,
            43.199643,
            263.0
          ],
          [
            1.015992,
            43.19963,
            263.0
          ],
          [
            1.016077,
            43.199638,
            263.0
          ],
          [
            1.016126,
            43.199249,
            262.98
          ],
          [
            1.016178,
            43.199143,
            262.92
          ],
          [
            1.016326,
            43.198979,
            262.93
          ],
          [
            1.016528,
            43.198845,
            262.93
          ],
          [
            1.01679,
            43.198715,
            262.91
          ],
          [
            1.017011,
            43.198625,
            262.99
          ],
          [
            1.017084,
            43.198614,
            263.0
          ],
          [
            1.017153,
            43.198622,
            263.0
          ],
          [
            1.017216,
            43.198601,
            263.0
          ],
          [
            1.017289,
            43.198591,
            263.0
          ],
          [
            1.017321,
            43.198524,
            263.0
          ],
          [
            1.017307,
            43.198494,
            263.0
          ],
          [
            1.018164,
            43.197974,
            263.0
          ],
          [
            1.018153,
            43.19792,
            263.0
          ],
          [
            1.018231,
            43.19784,
            263.03
          ],
          [
            1.018268,
            43.197746,
            263.26
          ],
          [
            1.018315,
            43.197522,
            264.0
          ],
          [
            1.018419,
            43.197165,
            263.73
          ],
          [
            1.01842,
            43.196965,
            263.61
          ],
          [
            1.020135,
            43.197313,
            263.04
          ],
          [
            1.02036,
            43.197351,
            263.0
          ],
          [
            1.020532,
            43.197357,
            263.0
          ],
          [
            1.020661,
            43.197345,
            263.0
          ],
          [
            1.020854,
            43.197283,
            263.0
          ],
          [
            1.021045,
            43.197184,
            263.0
          ],
          [
            1.021357,
            43.196996,
            263.64
          ],
          [
            1.021441,
            43.196965,
            263.39
          ],
          [
            1.021423,
            43.196935,
            263.17
          ],
          [
            1.02143,
            43.196904,
            263.09
          ],
          [
            1.021497,
            43.196834,
            263.04
          ],
          [
            1.02332,
            43.195095,
            260.51
          ],
          [
            1.023724,
            43.194679,
            260.62
          ],
          [
            1.023846,
            43.19459,
            259.45
          ],
          [
            1.023954,
            43.194659,
            259.43
          ],
          [
            1.025529,
            43.19547,
            260.78
          ],
          [
            1.025529,
            43.19547,
            260.78
          ],
          [
            1.023954,
            43.194659,
            259.43
          ],
          [
            1.023846,
            43.19459,
            259.45
          ],
          [
            1.023724,
            43.194679,
            260.62
          ],
          [
            1.02332,
            43.195095,
            260.51
          ],
          [
            1.021497,
            43.196834,
            263.04
          ],
          [
            1.02143,
            43.196904,
            263.09
          ],
          [
            1.021423,
            43.196935,
            263.17
          ],
          [
            1.021441,
            43.196965,
            263.39
          ],
          [
            1.021357,
            43.196996,
            263.64
          ],
          [
            1.021045,
            43.197184,
            263.0
          ],
          [
            1.021391,
            43.197253,
            263.07
          ],
          [
            1.021788,
            43.197358,
            263.03
          ],
          [
            1.022318,
            43.19753,
            262.95
          ],
          [
            1.02283,
            43.197708,
            262.67
          ],
          [
            1.02395,
            43.198141,
            262.05
          ],
          [
            1.024226,
            43.198271,
            262.0
          ],
          [
            1.024326,
            43.198356,
            262.0
          ],
          [
            1.024418,
            43.198517,
            261.96
          ],
          [
            1.02451,
            43.198766,
            261.95
          ],
          [
            1.024721,
            43.199472,
            262.0
          ],
          [
            1.024818,
            43.199699,
            262.0
          ],
          [
            1.02503,
            43.200011,
            262.0
          ],
          [
            1.025443,
            43.200547,
            262.0
          ],
          [
            1.025832,
            43.200944,
            262.0
          ],
          [
            1.026184,
            43.201262,
            261.25
          ],
          [
            1.026368,
            43.201389,
            261.06
          ],
          [
            1.026831,
            43.201595,
            261.02
          ],
          [
            1.026983,
            43.201708,
            261.01
          ],
          [
            1.027086,
            43.20182,
            261.0
          ],
          [
            1.027372,
            43.202096,
            261.0
          ],
          [
            1.027601,
            43.202285,
            261.0
          ],
          [
            1.02805,
            43.202592,
            261.0
          ],
          [
            1.028632,
            43.203006,
            261.0
          ],
          [
            1.028593,
            43.203015,
            261.0
          ],
          [
            1.028528,
            43.203019,
            261.0
          ],
          [
            1.027936,
            43.202981,
            261.0
          ],
          [
            1.026978,
            43.202905,
            261.23
          ],
          [
            1.025958,
            43.202854,
            261.77
          ],
          [
            1.025348,
            43.202838,
            261.97
          ],
          [
            1.024372,
            43.202783,
            262.0
          ]
        ]
      }
    },
    {
      "type": "Feature",
      "properties": {
        "source": "Bords_de_Garonne.gpx",
        "type": "route"
      },
      "geometry": {
        "type": "LineString",
        "coordinates": [
          [
            1.01111,
            43.199622
          ],
          [
            1.011216,
            43.199409
          ],
          [
            1.01165,
            43.199513
          ],
          [
            1.011716,
            43.199405
          ],
          [
            1.012071,
            43.199515
          ],
          [
            1.013496,
            43.199985
          ],
          [
            1.013823,
            43.199332
          ],
          [
            1.015829,
            43.199589
          ],
          [
            1.016077,
            43.199638
          ],
          [
            1.018153,
            43.19792
          ],
          [
            1.01842,
            43.196965
          ],
          [
            1.021441,
            43.196965
          ],
          [
            1.023846,
            43.19459
          ],
          [
            1.025529,
            43.19547
          ],
          [
            1.025529,
            43.19547
          ],
          [
            1.023846,
            43.19459
          ],
          [
            1.021441,
            43.196965
          ],
          [
            1.021045,
            43.197184
          ],
          [
            1.028632,
            43.203006
          ],
          [
            1.024372,
            43.202783
          ]
        ]
      }
    }
  ]
}