{
  "type": "FeatureCollection",
  "features": [
    {
      "type": "Feature",
      "properties": {
        "name": "GraphHopper Track",
        "source": "Parcours_Montespan.gpx",
        "type": "track"
      },
      "geometry": {
        "type": "LineString",
        "coordinates": [
          [
            0.811102,
            43.082618,
            373.46
          ],
          [
            0.810855,
            43.082173,
            376.76
          ],
          [
            0.810517,
            43.081791,
            378.58
          ],
          [
            0.809828,
            43.081416,
            379.47
          ],
          [
            0.809629,
            43.081167,
            378.79
          ],
          [
            0.809573,
            43.0808,
            375.72
          ],
          [
            0.808597,
            43.079863,
            367.67
          ],
          [
            0.807942,
            43.078986,
            369.59
          ],
          [
            0.807571,
            43.078159,
            371.76
          ],
          [
            0.807516,
            43.077888,
            372.86
          ],
          [
            0.807601,
            43.076261,
            387.17
          ],
          [
            0.807209,
            43.075931,
            391.45
          ],
          [
            0.806774,
            43.075761,
            395.02
          ],
          [
            0.806639,
            43.075316,
            396.8
          ],
          [
            0.806639,
            43.075316,
            396.8
          ],
          [
            0.806774,
            43.075761,
            395.02
          ],
          [
            0.807209,
            43.075931,
            391.45
          ],
          [
            0.807601,
            43.076261,
            387.17
          ],
          [
            0.807516,
            43.077888,
            372.86
          ],
          [
            0.807571,
            43.078159,
            371.76
          ],
          [
            0.807942,
            43.078986,
            369.59
          ],
          [
            0.808597,
            43.079863,
            367.67
          ],
          [
            0.809573,
            43.0808,
            375.72
          ],
          [
            0.809629,
            43.081167,
            378.79
          ],
          [
            0.809828,
            43.081416,
            379.47
          ],
          [
            0.810517,
            43.081791,
            378.58
          ],
          [
            0.810855,
            43.082173,
            376.76
          ],
          [
            0.811102,
            43.082618,
            373.46
          ]
        ]
      }
    },
    {
      "type": "Feature",
      "properties": {
        "source": "Parcours_Montespan.gpx",
        "type": "route"
      },
      "geometry": {
        "type": "LineString",
        "coordinates": [
          [
            0.811102,
            43.082618
          ],
          [
            0.806639,
            43.075316
          ],
          [
            0.806639,
            43.075316
          ],
          [
            0.811102,
            43.082618
          ]
        ]
      }
    }
  ]
}