{
  "type": "FeatureCollection",
  "features": [
    {
      "type": "Feature",
      "properties": {
        "name": "GraphHopper Track",
        "source": "Boucle_de_Gleysette.gpx",
        "type": "track"
      },
      "geometry": {
        "type": "LineString",
        "coordinates": [
          [
            1.162825,
            43.794223,
            168.5
          ],
          [
            1.162452,
            43.79444,
            167.0
          ],
          [
            1.162368,
            43.794495,
            167.0
          ],
          [
            1.162238,
            43.794538,
            167.0
          ],
          [
            1.161993,
            43.794603,
            166.0
          ],
          [
            1.161968,
            43.794595,
            166.0
          ],
          [
            1.161765,
            43.794581,
            166.0
          ],
          [
            1.161658,
            43.794466,
            166.78
          ],
          [
            1.160956,
            43.793513,
            168.28
          ],
          [
            1.159981,
            43.792311,
            169.53
          ],
          [
            1.159765,
            43.792076,
            169.65
          ],
          [
            1.159328,
            43.791685,
            169.0
          ],
          [
            1.158742,
            43.791195,
            169.48
          ],
          [
            1.15859,
            43.791049,
            169.75
          ],
          [
            1.158353,
            43.790745,
            170.54
          ],
          [
            1.156709,
            43.790914,
            172.41
          ],
          [
            1.156335,
            43.790934,
            172.75
          ],
          [
            1.155809,
            43.790947,
            173.31
          ],
          [
            1.155245,
            43.79095,
            173.74
          ],
          [
            1.15503,
            43.790942,
            173.93
          ],
          [
            1.154788,
            43.790914,
            174.0
          ],
          [
            1.154047,
            43.790784,
            174.44
          ],
          [
            1.153857,
            43.790773,
            174.73
          ],
          [
            1.152489,
            43.790742,
            175.76
          ],
          [
            1.152229,
            43.790728,
            176.02
          ],
          [
            1.151951,
            43.790702,
            176.29
          ],
          [
            1.14905,
            43.790367,
            178.2
          ],
          [
            1.148853,
            43.790356,
            178.12
          ],
          [
            1.149014,
            43.791461,
            177.69
          ],
          [
            1.149014,
            43.791461,
            177.69
          ],
          [
            1.148853,
            43.790356,
            178.12
          ],
          [
            1.14905,
            43.790367,
            178.2
          ],
          [
            1.151951,
            43.790702,
            176.29
          ],
          [
            1.152229,
            43.790728,
            176.02
          ],
          [
            1.152489,
            43.790742,
            175.76
          ],
          [
            1.153857,
            43.790773,
            174.73
          ],
          [
            1.154047,
            43.790784,
            174.44
          ],
          [
            1.154788,
            43.790914,
            174.0
          ],
          [
            1.15503,
            43.790942,
            173.93
          ],
          [
            1.155245,
            43.79095,
            173.74
          ],
          [
            1.155809,
            43.790947,
            173.31
          ],
          [
            1.156335,
            43.790934,
            172.75
          ],
          [
            1.156709,
            43.790914,
            172.41
          ],
          [
            1.158353,
            43.790745,
            170.54
          ],
          [
            1.15859,
            43.791049,
            169.75
          ],
          [
            1.158742,
            43.791195,
            169.48
          ],
          [
            1.159328,
            43.791685,
            169.0
          ],
          [
            1.159765,
            43.792076,
            169.65
          ],
          [
            1.159981,
            43.792311,
            169.53
          ],
          [
            1.160956,
            43.793513,
            168.28
          ],
          [
            1.161658,
            43.794466,
            166.78
          ],
          [
            1.161765,
            43.794581,
            166.0
          ],
          [
            1.161914,
            43.794595,
            166.0
          ],
          [
            1.161968,
            43.794595,
            166.0
          ],
          [
            1.161993,
            43.794603,
            166.0
          ],
          [
            1.162238,
            43.794538,
            167.0
          ],
          [
            1.162368,
            43.794495,
            167.0
          ],
          [
            1.162452,
            43.79444,
            167.0
          ],
          [
            1.162791,
            43.794242,
            168.3
          ],
          [
            1.162825,
            43.794223,
            168.5
          ]
        ]
      }
    },
    {
      "type": "Feature",
      "properties": {
        "source": "Boucle_de_Gleysette.gpx",
        "type": "route"
      },
      "geometry": {
        "type": "LineString",
        "coordinates": [
          [
            1.162825,
            43.794223
          ],
          [
            1.162452,
            43.79444
          ],
          [
            1.162238,
            43.794538
          ],
          [
            1.161993,
            43.794603
          ],
          [
            1.161765,
            43.794581
          ],
          [
            1.158353,
            43.790745
          ],
          [
            1.148853,
            43.790356
          ],
          [
            1.149014,
            43.791461
          ],
          [
            1.149014,
            43.791461
          ],
          [
            1.148853,
            43.790356
          ],
          [
            1.158353,
            43.790745
          ],
          [
            1.161765,
            43.794581
          ],
          [
            1.161914,
            43.794595
          ],
          [
            1.162452,
            43.79444
          ],
          [
            1.162791,
            43.794242
          ],
          [
            1.162825,
            43.794223
          ]
        ]
      }
    }
  ]
}