{
  "type": "FeatureCollection",
  "features": [
    {
      "type": "Feature",
      "properties": {
        "name": "GraphHopper Track",
        "source": "Villefranche-de-R..gpx",
        "type": "track"
      },
      "geometry": {
        "type": "LineString",
        "coordinates": [
          [
            2.03113,
            44.436889,
            400.1
          ],
          [
            2.030906,
            44.436854,
            399.74
          ],
          [
            2.030872,
            44.436862,
            399.58
          ],
          [
            2.030687,
            44.436824,
            398.65
          ],
          [
            2.030502,
            44.436762,
            398.0
          ],
          [
            2.030607,
            44.436633,
            398.04
          ],
          [
            2.030617,
            44.436598,
            398.1
          ],
          [
            2.03059,
            44.436503,
            397.98
          ],
          [
            2.030729,
            44.436448,
            398.7
          ],
          [
            2.030819,
            44.436429,
            399.0
          ],
          [
            2.030924,
            44.436087,
            397.42
          ],
          [
            2.031016,
            44.435971,
            397.0
          ],
          [
            2.030868,
            44.435906,
            395.99
          ],
          [
            2.030434,
            44.435823,
            392.17
          ],
          [
            2.030446,
            44.435684,
            391.02
          ],
          [
            2.030377,
            44.435604,
            390.06
          ],
          [
            2.030606,
            44.435269,
            389.02
          ],
          [
            2.030713,
            44.435055,
            388.34
          ],
          [
            2.031283,
            44.433714,
            383.0
          ],
          [
            2.031203,
            44.433647,
            382.88
          ],
          [
            2.03127,
            44.433476,
            382.03
          ],
          [
            2.031375,
            44.433485,
            382.56
          ],
          [
            2.031582,
            44.432977,
            381.69
          ],
          [
            2.031522,
            44.432968,
            381.37
          ],
          [
            2.031545,
            44.432903,
            381.1
          ],
          [
            2.031548,
            44.432874,
            380.97
          ],
          [
            2.031537,
            44.432867,
            380.92
          ],
          [
            2.031795,
            44.432019,
            376.78
          ],
          [
            2.03178,
            44.431987,
            376.61
          ],
          [
            2.031736,
            44.431945,
            376.34
          ],
          [
            2.031561,
            44.431797,
            375.18
          ],
          [
            2.031412,
            44.431697,
            375.13
          ],
          [
            2.031447,
            44.431673,
            374.98
          ],
          [
            2.031508,
            44.431649,
            374.53
          ],
          [
            2.031442,
            44.431559,
            375.11
          ],
          [
            2.031471,
            44.431548,
            374.9
          ],
          [
            2.031692,
            44.431379,
            373.62
          ],
          [
            2.031815,
            44.431271,
            372.81
          ],
          [
            2.031922,
            44.431091,
            371.9
          ],
          [
            2.032076,
            44.430501,
            369.4
          ],
          [
            2.032226,
            44.430254,
            368.55
          ],
          [
            2.032427,
            44.429777,
            370.06
          ],
          [
            2.032431,
            44.429684,
            370.33
          ],
          [
            2.032361,
            44.42935,
            371.37
          ],
          [
            2.032366,
            44.429131,
            372.09
          ],
          [
            2.032402,
            44.428712,
            373.61
          ],
          [
            2.032372,
            44.428482,
            374.53
          ],
          [
            2.032335,
            44.428338,
            375.11
          ],
          [
            2.032336,
            44.428152,
            375.88
          ],
          [
            2.032365,
            44.427997,
            376.53
          ],
          [
            2.03247,
            44.427777,
            377.37
          ],
          [
            2.032539,
            44.427571,
            378.22
          ],
          [
            2.032659,
            44.427125,
            379.0
          ],
          [
            2.032702,
            44.427051,
            378.75
          ],
          [
            2.033194,
            44.426794,
            376.99
          ],
          [
            2.033448,
            44.426597,
            375.88
          ],
          [
            2.033665,
            44.426269,
            374.18
          ],
          [
            2.034034,
            44.425392,
            372.02
          ],
          [
            2.034191,
            44.425153,
            372.81
          ],
          [
            2.034339,
            44.424968,
            373.89
          ],
          [
            2.035067,
            44.424255,
            379.19
          ],
          [
            2.035511,
            44.423782,
            382.03
          ],
          [
            2.035636,
            44.423625,
            382.92
          ],
          [
            2.035728,
            44.423469,
            383.71
          ],
          [
            2.035811,
            44.423237,
            384.78
          ],
          [
            2.035888,
            44.422863,
            386.28
          ],
          [
            2.03592,
            44.422603,
            387.23
          ],
          [
            2.035995,
            44.422413,
            387.8
          ],
          [
            2.036152,
            44.421859,
            388.75
          ],
          [
            2.03617,
            44.421579,
            388.62
          ],
          [
            2.036155,
            44.421305,
            388.03
          ],
          [
            2.036106,
            44.421107,
            387.35
          ],
          [
            2.036045,
            44.421025,
            386.99
          ],
          [
            2.035861,
            44.420616,
            385.2
          ],
          [
            2.035668,
            44.420254,
            384.12
          ],
          [
            2.035514,
            44.419829,
            383.76
          ],
          [
            2.035492,
            44.419549,
            383.93
          ],
          [
            2.035613,
            44.419015,
            384.54
          ],
          [
            2.035631,
            44.418819,
            384.76
          ],
          [
            2.035527,
            44.418326,
            385.39
          ],
          [
            2.035536,
            44.41798,
            385.67
          ],
          [
            2.035564,
            44.417674,
            385.74
          ],
          [
            2.035601,
            44.417486,
            385.57
          ],
          [
            2.035578,
            44.417284,
            385.2
          ],
          [
            2.035607,
            44.417094,
            384.63
          ],
          [
            2.035664,
            44.416855,
            383.6
          ],
          [
            2.035741,
            44.416673,
            382.55
          ],
          [
            2.035759,
            44.416525,
            381.6
          ],
          [
            2.035771,
            44.41624,
            379.62
          ],
          [
            2.035769,
            44.41588,
            376.77
          ],
          [
            2.035713,
            44.415649,
            374.74
          ],
          [
            2.035701,
            44.415498,
            373.56
          ],
          [
            2.035742,
            44.415281,
            371.91
          ],
          [
            2.035788,
            44.415195,
            371.24
          ],
          [
            2.03578,
            44.415128,
            370.73
          ],
          [
            2.035722,
            44.415087,
            370.31
          ],
          [
            2.035614,
            44.415084,
            369.78
          ],
          [
            2.035512,
            44.415099,
            369.25
          ],
          [
            2.035179,
            44.41508,
            367.55
          ],
          [
            2.034967,
            44.415086,
            366.52
          ],
          [
            2.034917,
            44.415067,
            366.26
          ],
          [
            2.034906,
            44.415024,
            365.99
          ],
          [
            2.03494,
            44.414923,
            365.33
          ],
          [
            2.034949,
            44.414828,
            364.67
          ],
          [
            2.035025,
            44.414487,
            362.22
          ],
          [
            2.035023,
            44.414409,
            361.57
          ],
          [
            2.035036,
            44.414285,
            360.44
          ],
          [
            2.035062,
            44.414199,
            359.54
          ],
          [
            2.035038,
            44.41406,
            358.04
          ],
          [
            2.034995,
            44.414015,
            357.43
          ],
          [
            2.034914,
            44.413987,
            356.69
          ],
          [
            2.034826,
            44.413966,
            355.94
          ],
          [
            2.034291,
            44.413881,
            351.69
          ],
          [
            2.034207,
            44.413849,
            350.97
          ],
          [
            2.034182,
            44.413783,
            350.23
          ],
          [
            2.034193,
            44.413659,
            348.97
          ],
          [
            2.034299,
            44.413289,
            345.87
          ],
          [
            2.034389,
            44.413055,
            344.57
          ],
          [
            2.034441,
            44.412866,
            343.71
          ],
          [
            2.034649,
            44.412379,
            341.7
          ],
          [
            2.034643,
            44.412281,
            341.43
          ],
          [
            2.034488,
            44.41216,
            341.03
          ],
          [
            2.034405,
            44.412068,
            340.78
          ],
          [
            2.034371,
            44.411963,
            340.54
          ],
          [
            2.03436,
            44.411617,
            339.72
          ],
          [
            2.034391,
            44.411517,
            339.49
          ],
          [
            2.034406,
            44.411401,
            339.29
          ],
          [
            2.034387,
            44.411312,
            339.16
          ],
          [
            2.034395,
            44.411212,
            338.83
          ],
          [
            2.034428,
            44.411106,
            338.45
          ],
          [
            2.034433,
            44.410939,
            337.93
          ],
          [
            2.034496,
            44.410831,
            337.81
          ],
          [
            2.034503,
            44.41073,
            338.0
          ],
          [
            2.034524,
            44.410655,
            338.0
          ],
          [
            2.034495,
            44.410541,
            338.01
          ],
          [
            2.034499,
            44.410463,
            338.01
          ],
          [
            2.034531,
            44.410375,
            338.03
          ],
          [
            2.034556,
            44.410335,
            338.36
          ],
          [
            2.0346,
            44.410341,
            338.35
          ],
          [
            2.034802,
            44.410274,
            338.73
          ],
          [
            2.035175,
            44.410253,
            338.82
          ],
          [
            2.035335,
            44.410215,
            338.64
          ],
          [
            2.035443,
            44.410164,
            338.29
          ],
          [
            2.03558,
            44.410079,
            336.53
          ],
          [
            2.035772,
            44.409926,
            333.65
          ],
          [
            2.036088,
            44.409718,
            330.83
          ],
          [
            2.036181,
            44.409634,
            329.86
          ],
          [
            2.036423,
            44.409365,
            327.33
          ],
          [
            2.036561,
            44.409226,
            326.25
          ],
          [
            2.036684,
            44.409118,
            325.46
          ],
          [
            2.036894,
            44.408997,
            324.51
          ],
          [
            2.037196,
            44.408873,
            323.32
          ],
          [
            2.037587,
            44.408805,
            322.23
          ],
          [
            2.037948,
            44.40875,
            321.01
          ],
          [
            2.037999,
            44.408734,
            320.6
          ],
          [
            2.038027,
            44.408713,
            320.27
          ],
          [
            2.038064,
            44.408578,
            319.61
          ],
          [
            2.03815,
            44.408403,
            319.05
          ],
          [
            2.038325,
            44.408141,
            317.77
          ],
          [
            2.038449,
            44.407997,
            316.96
          ],
          [
            2.038479,
            44.40794,
            316.58
          ],
          [
            2.038598,
            44.40784,
            316.04
          ],
          [
            2.03868,
            44.407826,
            316.0
          ],
          [
            2.038668,
            44.407668,
            316.12
          ],
          [
            2.038589,
            44.407481,
            316.41
          ],
          [
            2.038267,
            44.407213,
            316.33
          ],
          [
            2.038014,
            44.407038,
            316.22
          ],
          [
            2.037857,
            44.406839,
            316.09
          ],
          [
            2.03777,
            44.405812,
            318.68
          ],
          [
            2.037787,
            44.405201,
            319.49
          ],
          [
            2.037587,
            44.404834,
            317.52
          ],
          [
            2.037243,
            44.404348,
            310.6
          ],
          [
            2.037123,
            44.404145,
            310.07
          ],
          [
            2.036893,
            44.403701,
            310.31
          ],
          [
            2.036707,
            44.402864,
            308.78
          ],
          [
            2.036683,
            44.402505,
            308.27
          ],
          [
            2.036812,
            44.402078,
            308.7
          ],
          [
            2.037313,
            44.401108,
            310.89
          ],
          [
            2.037661,
            44.400553,
            309.75
          ],
          [
            2.037817,
            44.400163,
            308.36
          ],
          [
            2.037779,
            44.400031,
            310.44
          ],
          [
            2.037738,
            44.399954,
            311.94
          ],
          [
            2.037791,
            44.39973,
            312.16
          ],
          [
            2.037829,
            44.399625,
            312.73
          ],
          [
            2.03797,
            44.399523,
            310.87
          ],
          [
            2.037999,
            44.399465,
            309.69
          ],
          [
            2.038022,
            44.399255,
            306.31
          ],
          [
            2.03808,
            44.399188,
            304.97
          ],
          [
            2.038148,
            44.399168,
            304.0
          ],
          [
            2.038167,
            44.399133,
            303.57
          ],
          [
            2.038108,
            44.3989,
            302.55
          ],
          [
            2.038183,
            44.398762,
            301.45
          ],
          [
            2.038172,
            44.398694,
            301.0
          ],
          [
            2.038111,
            44.398307,
            298.88
          ],
          [
            2.038128,
            44.398141,
            298.0
          ],
          [
            2.038199,
            44.398027,
            297.91
          ],
          [
            2.038402,
            44.397795,
            297.21
          ],
          [
            2.038328,
            44.397557,
            296.78
          ],
          [
            2.03816,
            44.397344,
            297.2
          ],
          [
            2.037927,
            44.397199,
            300.55
          ],
          [
            2.037808,
            44.397105,
            303.29
          ],
          [
            2.037497,
            44.396989,
            309.18
          ],
          [
            2.037092,
            44.396596,
            320.21
          ],
          [
            2.036709,
            44.396295,
            329.72
          ],
          [
            2.036464,
            44.396044,
            336.36
          ],
          [
            2.036195,
            44.395727,
            343.28
          ],
          [
            2.036008,
            44.395276,
            351.19
          ],
          [
            2.035884,
            44.395034,
            354.4
          ],
          [
            2.035599,
            44.395,
            356.45
          ],
          [
            2.035271,
            44.394883,
            358.58
          ],
          [
            2.034301,
            44.394424,
            360.49
          ],
          [
            2.033833,
            44.394699,
            360.74
          ],
          [
            2.033457,
            44.394895,
            361.17
          ],
          [
            2.033254,
            44.395029,
            361.52
          ],
          [
            2.032804,
            44.395053,
            362.36
          ],
          [
            2.032321,
            44.394988,
            363.48
          ],
          [
            2.03208,
            44.394908,
            364.14
          ],
          [
            2.031799,
            44.394716,
            365.36
          ],
          [
            2.031495,
            44.394582,
            366.62
          ],
          [
            2.031062,
            44.394449,
            368.33
          ],
          [
            2.030524,
            44.394424,
            370.12
          ],
          [
            2.030305,
            44.394482,
            370.37
          ],
          [
            2.030226,
            44.394449,
            370.75
          ],
          [
            2.029292,
            44.394233,
            374.99
          ],
          [
            2.029358,
            44.394146,
            375.39
          ],
          [
            2.02967,
            44.393804,
            376.39
          ],
          [
            2.029989,
            44.393522,
            376.39
          ],
          [
            2.030061,
            44.393408,
            375.81
          ],
          [
            2.030121,
            44.393237,
            373.91
          ],
          [
            2.030107,
            44.393177,
            373.14
          ],
          [
            2.030031,
            44.393064,
            371.72
          ],
          [
            2.029601,
            44.392663,
            364.9
          ],
          [
            2.029492,
            44.392571,
            363.71
          ],
          [
            2.029314,
            44.392509,
            362.46
          ],
          [
            2.029175,
            44.39244,
            361.54
          ],
          [
            2.029133,
            44.392403,
            361.19
          ],
          [
            2.029118,
            44.392326,
            360.64
          ],
          [
            2.029123,
            44.392252,
            360.1
          ],
          [
            2.029177,
            44.392138,
            359.29
          ],
          [
            2.029358,
            44.391927,
            358.0
          ],
          [
            2.029464,
            44.391843,
            357.76
          ],
          [
            2.029569,
            44.391776,
            357.71
          ],
          [
            2.029636,
            44.391717,
            357.76
          ],
          [
            2.029683,
            44.391628,
            357.89
          ],
          [
            2.029702,
            44.391541,
            358.07
          ],
          [
            2.02968,
            44.391464,
            358.27
          ],
          [
            2.02946,
            44.391209,
            359.56
          ],
          [
            2.029435,
            44.39114,
            360.07
          ],
          [
            2.029432,
            44.391051,
            360.83
          ],
          [
            2.029457,
            44.390887,
            362.56
          ],
          [
            2.029515,
            44.390729,
            364.45
          ],
          [
            2.029684,
            44.39039,
            368.38
          ],
          [
            2.029831,
            44.390009,
            372.69
          ],
          [
            2.030033,
            44.389321,
            379.96
          ],
          [
            2.030059,
            44.388919,
            379.43
          ],
          [
            2.030055,
            44.38881,
            377.78
          ],
          [
            2.029983,
            44.388764,
            376.43
          ],
          [
            2.029709,
            44.388639,
            371.87
          ],
          [
            2.029584,
            44.388542,
            369.8
          ],
          [
            2.029459,
            44.388368,
            367.03
          ],
          [
            2.029282,
            44.38808,
            362.48
          ],
          [
            2.028914,
            44.387535,
            355.06
          ],
          [
            2.028513,
            44.387079,
            348.21
          ],
          [
            2.028312,
            44.386913,
            344.83
          ],
          [
            2.027785,
            44.3866,
            336.5
          ],
          [
            2.027694,
            44.386522,
            334.55
          ],
          [
            2.027632,
            44.386423,
            332.11
          ],
          [
            2.027515,
            44.386384,
            330.31
          ],
          [
            2.027111,
            44.386359,
            329.47
          ],
          [
            2.026889,
            44.38636,
            328.98
          ],
          [
            2.026789,
            44.386318,
            328.43
          ],
          [
            2.026777,
            44.38633,
            328.6
          ],
          [
            2.02673,
            44.386347,
            328.85
          ],
          [
            2.026652,
            44.386363,
            329.08
          ],
          [
            2.026166,
            44.386415,
            329.94
          ],
          [
            2.025394,
            44.386558,
            331.33
          ],
          [
            2.025115,
            44.386599,
            331.98
          ],
          [
            2.024729,
            44.386697,
            333.02
          ],
          [
            2.024619,
            44.386708,
            333.31
          ],
          [
            2.024419,
            44.386708,
            334.0
          ],
          [
            2.024173,
            44.386683,
            334.96
          ],
          [
            2.023957,
            44.386644,
            335.67
          ],
          [
            2.023564,
            44.386471,
            337.81
          ],
          [
            2.023329,
            44.386429,
            338.74
          ],
          [
            2.022687,
            44.38649,
            341.16
          ],
          [
            2.022687,
            44.38649,
            341.16
          ],
          [
            2.023329,
            44.386429,
            338.74
          ],
          [
            2.023564,
            44.386471,
            337.81
          ],
          [
            2.023957,
            44.386644,
            335.67
          ],
          [
            2.024173,
            44.386683,
            334.96
          ],
          [
            2.024419,
            44.386708,
            334.0
          ],
          [
            2.024619,
            44.386708,
            333.31
          ],
          [
            2.024729,
            44.386697,
            333.02
          ],
          [
            2.025115,
            44.386599,
            331.98
          ],
          [
            2.025394,
            44.386558,
            331.33
          ],
          [
            2.026166,
            44.386415,
            329.94
          ],
          [
            2.026652,
            44.386363,
            329.08
          ],
          [
            2.02673,
            44.386347,
            328.85
          ],
          [
            2.026777,
            44.38633,
            328.6
          ],
          [
            2.026789,
            44.386318,
            328.43
          ],
          [
            2.026889,
            44.38636,
            328.98
          ],
          [
            2.027111,
            44.386359,
            329.47
          ],
          [
            2.027515,
            44.386384,
            330.31
          ],
          [
            2.027658,
            44.386347,
            329.97
          ],
          [
            2.027839,
            44.386283,
            328.94
          ],
          [
            2.028469,
            44.386174,
            325.55
          ],
          [
            2.02899,
            44.386092,
            322.71
          ],
          [
            2.029225,
            44.386046,
            321.24
          ],
          [
            2.029575,
            44.385954,
            319.49
          ],
          [
            2.029653,
            44.385903,
            319.0
          ],
          [
            2.029629,
            44.385865,
            319.0
          ],
          [
            2.029548,
            44.385441,
            319.0
          ],
          [
            2.029802,
            44.385398,
            318.47
          ],
          [
            2.030016,
            44.385321,
            318.3
          ],
          [
            2.030137,
            44.385288,
            318.17
          ],
          [
            2.030745,
            44.385021,
            317.56
          ],
          [
            2.031238,
            44.384753,
            316.52
          ],
          [
            2.031924,
            44.384308,
            315.4
          ],
          [
            2.032726,
            44.383951,
            315.66
          ],
          [
            2.033445,
            44.383524,
            313.71
          ],
          [
            2.034371,
            44.383069,
            312.08
          ],
          [
            2.035269,
            44.382796,
            311.0
          ],
          [
            2.035105,
            44.382645,
            311.67
          ],
          [
            2.034946,
            44.382526,
            313.25
          ],
          [
            2.034382,
            44.382232,
            317.37
          ],
          [
            2.034126,
            44.382127,
            319.07
          ],
          [
            2.033944,
            44.38209,
            320.13
          ],
          [
            2.033799,
            44.382078,
            320.94
          ],
          [
            2.033568,
            44.38209,
            322.26
          ],
          [
            2.033083,
            44.382206,
            325.29
          ],
          [
            2.032913,
            44.382232,
            326.34
          ],
          [
            2.032629,
            44.382211,
            328.07
          ],
          [
            2.032388,
            44.382172,
            329.6
          ],
          [
            2.032188,
            44.382097,
            331.0
          ],
          [
            2.03021,
            44.381094,
            340.21
          ],
          [
            2.029969,
            44.381011,
            340.85
          ],
          [
            2.029568,
            44.380925,
            342.01
          ],
          [
            2.02927,
            44.38089,
            342.96
          ],
          [
            2.028132,
            44.380827,
            346.72
          ],
          [
            2.027143,
            44.380726,
            349.35
          ],
          [
            2.026803,
            44.380644,
            350.04
          ],
          [
            2.026619,
            44.380581,
            350.48
          ],
          [
            2.026587,
            44.380558,
            350.64
          ],
          [
            2.026412,
            44.380511,
            350.67
          ],
          [
            2.025901,
            44.380208,
            350.89
          ],
          [
            2.025674,
            44.38005,
            350.98
          ],
          [
            2.025338,
            44.379651,
            351.55
          ],
          [
            2.025219,
            44.37946,
            352.05
          ],
          [
            2.025137,
            44.379231,
            352.88
          ],
          [
            2.025122,
            44.379017,
            353.87
          ],
          [
            2.025101,
            44.37891,
            354.48
          ],
          [
            2.025109,
            44.378841,
            354.95
          ],
          [
            2.02523,
            44.378707,
            356.17
          ],
          [
            2.025354,
            44.378608,
            357.29
          ],
          [
            2.025498,
            44.378386,
            359.35
          ],
          [
            2.025467,
            44.378213,
            360.74
          ],
          [
            2.025158,
            44.377988,
            362.74
          ],
          [
            2.025127,
            44.377922,
            363.1
          ],
          [
            2.025168,
            44.377874,
            363.35
          ],
          [
            2.02523,
            44.377848,
            363.57
          ],
          [
            2.025395,
            44.377711,
            364.1
          ],
          [
            2.025483,
            44.377667,
            364.22
          ],
          [
            2.025586,
            44.37756,
            364.33
          ],
          [
            2.025638,
            44.377464,
            364.38
          ],
          [
            2.025679,
            44.377339,
            364.44
          ],
          [
            2.025808,
            44.377195,
            364.67
          ],
          [
            2.025937,
            44.377007,
            365.16
          ],
          [
            2.025875,
            44.376885,
            365.53
          ],
          [
            2.025756,
            44.376756,
            365.95
          ],
          [
            2.025617,
            44.376649,
            366.54
          ],
          [
            2.025488,
            44.376535,
            367.38
          ],
          [
            2.025457,
            44.376343,
            367.9
          ],
          [
            2.025416,
            44.376273,
            367.78
          ],
          [
            2.025317,
            44.376218,
            367.29
          ],
          [
            2.025338,
            44.376177,
            367.32
          ],
          [
            2.02541,
            44.376126,
            367.52
          ],
          [
            2.02556,
            44.375978,
            367.54
          ],
          [
            2.025813,
            44.375805,
            367.44
          ],
          [
            2.026231,
            44.375487,
            367.52
          ],
          [
            2.026649,
            44.37531,
            367.87
          ],
          [
            2.027046,
            44.375115,
            368.34
          ],
          [
            2.02781,
            44.375202,
            368.9
          ],
          [
            2.027903,
            44.375111,
            369.09
          ],
          [
            2.028016,
            44.375019,
            369.36
          ],
          [
            2.028156,
            44.374842,
            369.96
          ],
          [
            2.028331,
            44.374562,
            371.21
          ],
          [
            2.028455,
            44.374292,
            372.52
          ],
          [
            2.028605,
            44.374119,
            373.32
          ],
          [
            2.028713,
            44.374053,
            373.63
          ],
          [
            2.028827,
            44.374016,
            373.86
          ],
          [
            2.029028,
            44.373982,
            374.21
          ],
          [
            2.029673,
            44.373817,
            373.44
          ],
          [
            2.029837,
            44.373817,
            372.89
          ],
          [
            2.029473,
            44.373111,
            371.06
          ],
          [
            2.029378,
            44.372641,
            366.85
          ],
          [
            2.029333,
            44.372416,
            365.69
          ],
          [
            2.029388,
            44.372046,
            363.62
          ],
          [
            2.029214,
            44.371634,
            360.13
          ],
          [
            2.02942,
            44.371142,
            354.95
          ],
          [
            2.029734,
            44.370791,
            350.81
          ],
          [
            2.030294,
            44.370234,
            345.31
          ],
          [
            2.030562,
            44.369892,
            342.35
          ],
          [
            2.030911,
            44.369496,
            337.38
          ],
          [
            2.031121,
            44.368999,
            334.06
          ],
          [
            2.031503,
            44.368285,
            329.44
          ],
          [
            2.031564,
            44.368129,
            328.26
          ],
          [
            2.031652,
            44.368068,
            327.74
          ],
          [
            2.031746,
            44.367947,
            326.85
          ],
          [
            2.031816,
            44.367766,
            326.05
          ],
          [
            2.031929,
            44.367524,
            325.22
          ],
          [
            2.032159,
            44.367206,
            324.2
          ],
          [
            2.032525,
            44.366742,
            322.9
          ],
          [
            2.032767,
            44.36647,
            322.22
          ],
          [
            2.032859,
            44.366327,
            321.91
          ],
          [
            2.033034,
            44.365917,
            320.99
          ],
          [
            2.033058,
            44.36584,
            320.9
          ],
          [
            2.033186,
            44.365644,
            319.94
          ],
          [
            2.03356,
            44.365292,
            317.8
          ],
          [
            2.033981,
            44.364975,
            316.35
          ],
          [
            2.035323,
            44.364055,
            309.78
          ],
          [
            2.035458,
            44.363923,
            308.81
          ],
          [
            2.035605,
            44.363615,
            306.98
          ],
          [
            2.035655,
            44.36338,
            305.86
          ],
          [
            2.03563,
            44.362516,
            304.86
          ],
          [
            2.035506,
            44.362418,
            304.91
          ],
          [
            2.035574,
            44.362307,
            304.97
          ],
          [
            2.035516,
            44.361354,
            307.93
          ],
          [
            2.035449,
            44.361353,
            307.88
          ],
          [
            2.035421,
            44.361291,
            308.3
          ],
          [
            2.035383,
            44.361236,
            308.48
          ],
          [
            2.035284,
            44.361153,
            308.62
          ],
          [
            2.035162,
            44.361116,
            308.41
          ],
          [
            2.035198,
            44.361007,
            308.91
          ],
          [
            2.035401,
            44.360996,
            309.22
          ],
          [
            2.035477,
            44.360959,
            309.39
          ],
          [
            2.035523,
            44.360822,
            310.11
          ],
          [
            2.035515,
            44.360782,
            310.29
          ],
          [
            2.035489,
            44.36004,
            313.34
          ],
          [
            2.035493,
            44.359875,
            313.93
          ],
          [
            2.035508,
            44.359813,
            314.2
          ],
          [
            2.035869,
            44.358486,
            318.88
          ],
          [
            2.036017,
            44.358219,
            319.88
          ],
          [
            2.036242,
            44.357892,
            321.96
          ],
          [
            2.036329,
            44.357809,
            322.46
          ],
          [
            2.036324,
            44.357683,
            322.83
          ],
          [
            2.036246,
            44.35745,
            323.0
          ],
          [
            2.036256,
            44.357373,
            323.0
          ],
          [
            2.036225,
            44.357251,
            323.0
          ],
          [
            2.036223,
            44.357197,
            323.0
          ],
          [
            2.036185,
            44.357149,
            322.98
          ],
          [
            2.036169,
            44.357052,
            322.74
          ],
          [
            2.036176,
            44.356951,
            322.58
          ],
          [
            2.036256,
            44.356801,
            321.81
          ],
          [
            2.036375,
            44.356528,
            319.47
          ],
          [
            2.036584,
            44.356038,
            316.91
          ],
          [
            2.036626,
            44.355899,
            315.36
          ],
          [
            2.03659,
            44.355801,
            314.02
          ],
          [
            2.036473,
            44.3557,
            312.29
          ],
          [
            2.036412,
            44.355598,
            310.92
          ],
          [
            2.036459,
            44.3555,
            309.11
          ],
          [
            2.036834,
            44.354901,
            296.61
          ],
          [
            2.037068,
            44.354619,
            290.78
          ],
          [
            2.037114,
            44.354541,
            289.51
          ],
          [
            2.037234,
            44.35439,
            287.15
          ],
          [
            2.037316,
            44.354323,
            286.14
          ],
          [
            2.037442,
            44.354297,
            285.3
          ],
          [
            2.037841,
            44.354253,
            281.35
          ],
          [
            2.037959,
            44.354219,
            279.85
          ],
          [
            2.038064,
            44.354179,
            278.81
          ],
          [
            2.037759,
            44.354044,
            278.98
          ],
          [
            2.037708,
            44.354039,
            279.13
          ],
          [
            2.037701,
            44.353426,
            274.49
          ],
          [
            2.037964,
            44.353403,
            274.0
          ],
          [
            2.037887,
            44.352873,
            272.0
          ],
          [
            2.037699,
            44.352,
            265.12
          ],
          [
            2.037946,
            44.351951,
            264.7
          ],
          [
            2.037807,
            44.351599,
            260.14
          ]
        ]
      }
    },
    {
      "type": "Feature",
      "properties": {
        "source": "Villefranche-de-R..gpx",
        "type": "route"
      },
      "geometry": {
        "type": "LineString",
        "coordinates": [
          [
            2.03113,
            44.436889
          ],
          [
            2.030687,
            44.436824
          ],
          [
            2.030502,
            44.436762
          ],
          [
            2.03059,
            44.436503
          ],
          [
            2.030819,
            44.436429
          ],
          [
            2.031016,
            44.435971
          ],
          [
            2.030434,
            44.435823
          ],
          [
            2.030377,
            44.435604
          ],
          [
            2.031283,
            44.433714
          ],
          [
            2.03127,
            44.433476
          ],
          [
            2.031375,
            44.433485
          ],
          [
            2.031582,
            44.432977
          ],
          [
            2.031412,
            44.431697
          ],
          [
            2.031508,
            44.431649
          ],
          [
            2.031442,
            44.431559
          ],
          [
            2.032366,
            44.429131
          ],
          [
            2.032659,
            44.427125
          ],
          [
            2.033665,
            44.426269
          ],
          [
            2.034503,
            44.41073
          ],
          [
            2.034556,
            44.410335
          ],
          [
            2.03868,
            44.407826
          ],
          [
            2.037738,
            44.399954
          ],
          [
            2.038148,
            44.399168
          ],
          [
            2.038172,
            44.398694
          ],
          [
            2.038402,
            44.397795
          ],
          [
            2.030305,
            44.394482
          ],
          [
            2.029292,
            44.394233
          ],
          [
            2.026789,
            44.386318
          ],
          [
            2.022687,
            44.38649
          ],
          [
            2.022687,
            44.38649
          ],
          [
            2.026789,
            44.386318
          ],
          [
            2.027515,
            44.386384
          ],
          [
            2.029653,
            44.385903
          ],
          [
            2.029548,
            44.385441
          ],
          [
            2.035269,
            44.382796
          ],
          [
            2.026587,
            44.380558
          ],
          [
            2.025317,
            44.376218
          ],
          [
            2.029837,
            44.373817
          ],
          [
            2.029378,
            44.372641
          ],
          [
            2.030911,
            44.369496
          ],
          [
            2.035506,
            44.362418
          ],
          [
            2.035516,
            44.361354
          ],
          [
            2.035162,
            44.361116
          ],
          [
            2.035198,
            44.361007
          ],
          [
            2.035401,
            44.360996
          ],
          [
            2.035508,
            44.359813
          ],
          [
            2.036329,
            44.357809
          ],
          [
            2.036246,
            44.35745
          ],
          [
            2.036225,
            44.357251
          ],
          [
            2.038064,
            44.354179
          ],
          [
            2.037708,
            44.354039
          ],
          [
            2.037701,
            44.353426
          ],
          [
            2.037964,
            44.353403
          ],
          [
            2.037699,
            44.352
          ],
          [
            2.037946,
            44.351951
          ],
          [
            2.037807,
            44.351599
          ]
        ]
      }
    }
  ]
}