{
  "type": "FeatureCollection",
  "features": [
    {
      "type": "Feature",
      "properties": {
        "name": "GraphHopper Track",
        "source": "Balade_du_Marbre.gpx",
        "type": "track"
      },
      "geometry": {
        "type": "LineString",
        "coordinates": [
          [
            2.565492,
            43.291417,
            131.51
          ],
          [
            2.565199,
            43.291431,
            132.45
          ],
          [
            2.565387,
            43.291644,
            130.71
          ],
          [
            2.565835,
            43.292075,
            127.04
          ],
          [
            2.56572,
            43.292096,
            127.11
          ],
          [
            2.565051,
            43.292337,
            127.05
          ],
          [
            2.564446,
            43.292588,
            127.31
          ],
          [
            2.564191,
            43.292752,
            127.52
          ],
          [
            2.563414,
            43.293424,
            131.43
          ],
          [
            2.562667,
            43.294017,
            131.33
          ],
          [
            2.562388,
            43.294286,
            131.84
          ],
          [
            2.560292,
            43.296029,
            135.44
          ],
          [
            2.560025,
            43.296294,
            136.0
          ],
          [
            2.559883,
            43.296401,
            136.04
          ],
          [
            2.559412,
            43.296719,
            136.49
          ],
          [
            2.558331,
            43.297885,
            137.96
          ],
          [
            2.557316,
            43.298872,
            139.65
          ],
          [
            2.557029,
            43.29913,
            139.93
          ],
          [
            2.55673,
            43.299378,
            140.2
          ],
          [
            2.556185,
            43.300009,
            140.87
          ],
          [
            2.556053,
            43.300189,
            141.01
          ],
          [
            2.555926,
            43.300391,
            141.04
          ],
          [
            2.553862,
            43.301146,
            143.76
          ],
          [
            2.553231,
            43.30141,
            144.52
          ],
          [
            2.553034,
            43.30151,
            144.67
          ],
          [
            2.552894,
            43.301606,
            144.77
          ],
          [
            2.552739,
            43.301793,
            144.96
          ],
          [
            2.552569,
            43.302039,
            145.0
          ],
          [
            2.55245,
            43.30225,
            145.0
          ],
          [
            2.551726,
            43.302252,
            145.79
          ],
          [
            2.550664,
            43.302274,
            146.97
          ],
          [
            2.550087,
            43.302338,
            147.84
          ],
          [
            2.548864,
            43.302562,
            153.36
          ],
          [
            2.548322,
            43.302671,
            155.96
          ],
          [
            2.548144,
            43.302714,
            156.49
          ],
          [
            2.547338,
            43.302868,
            156.27
          ],
          [
            2.547069,
            43.303091,
            153.81
          ],
          [
            2.546441,
            43.30365,
            148.97
          ],
          [
            2.5461,
            43.303914,
            146.95
          ],
          [
            2.545994,
            43.304022,
            145.18
          ],
          [
            2.545927,
            43.304132,
            144.41
          ],
          [
            2.54578,
            43.304448,
            144.12
          ],
          [
            2.545639,
            43.30467,
            144.06
          ],
          [
            2.545439,
            43.304891,
            144.1
          ],
          [
            2.545323,
            43.305006,
            144.12
          ],
          [
            2.545138,
            43.305226,
            144.24
          ],
          [
            2.545055,
            43.305313,
            144.41
          ],
          [
            2.544981,
            43.305403,
            144.91
          ],
          [
            2.544977,
            43.305453,
            145.0
          ],
          [
            2.54504,
            43.305503,
            145.0
          ],
          [
            2.545315,
            43.305789,
            145.0
          ],
          [
            2.54559,
            43.30606,
            144.68
          ],
          [
            2.545676,
            43.306136,
            144.63
          ],
          [
            2.545776,
            43.306197,
            144.55
          ],
          [
            2.545896,
            43.306225,
            144.44
          ],
          [
            2.546197,
            43.306224,
            143.88
          ],
          [
            2.546314,
            43.306235,
            143.81
          ],
          [
            2.546412,
            43.306255,
            143.99
          ],
          [
            2.546787,
            43.306465,
            143.54
          ],
          [
            2.547168,
            43.306607,
            144.33
          ],
          [
            2.548184,
            43.306904,
            146.33
          ],
          [
            2.548495,
            43.306939,
            148.43
          ],
          [
            2.548673,
            43.306977,
            149.61
          ],
          [
            2.548814,
            43.307034,
            150.68
          ],
          [
            2.549004,
            43.307064,
            151.0
          ],
          [
            2.549181,
            43.307064,
            150.95
          ],
          [
            2.549265,
            43.306949,
            150.55
          ],
          [
            2.549673,
            43.306536,
            149.29
          ],
          [
            2.549831,
            43.306414,
            148.35
          ],
          [
            2.549831,
            43.306414,
            148.35
          ],
          [
            2.549673,
            43.306536,
            149.29
          ],
          [
            2.549265,
            43.306949,
            150.55
          ],
          [
            2.549181,
            43.307064,
            150.95
          ],
          [
            2.549004,
            43.307064,
            151.0
          ],
          [
            2.548814,
            43.307034,
            150.68
          ],
          [
            2.548673,
            43.306977,
            149.61
          ],
          [
            2.548495,
            43.306939,
            148.43
          ],
          [
            2.548184,
            43.306904,
            146.33
          ],
          [
            2.547168,
            43.306607,
            144.33
          ],
          [
            2.546787,
            43.306465,
            143.54
          ],
          [
            2.546412,
            43.306255,
            143.99
          ],
          [
            2.546314,
            43.306235,
            143.81
          ],
          [
            2.546197,
            43.306224,
            143.88
          ],
          [
            2.545896,
            43.306225,
            144.44
          ],
          [
            2.545776,
            43.306197,
            144.55
          ],
          [
            2.545676,
            43.306136,
            144.63
          ],
          [
            2.54559,
            43.30606,
            144.68
          ],
          [
            2.545315,
            43.305789,
            145.0
          ],
          [
            2.54504,
            43.305503,
            145.0
          ],
          [
            2.544977,
            43.305453,
            145.0
          ],
          [
            2.544981,
            43.305403,
            144.91
          ],
          [
            2.545055,
            43.305313,
            144.41
          ],
          [
            2.545138,
            43.305226,
            144.24
          ],
          [
            2.545323,
            43.305006,
            144.12
          ],
          [
            2.545439,
            43.304891,
            144.1
          ],
          [
            2.545639,
            43.30467,
            144.06
          ],
          [
            2.54578,
            43.304448,
            144.12
          ],
          [
            2.545927,
            43.304132,
            144.41
          ],
          [
            2.545994,
            43.304022,
            145.18
          ],
          [
            2.546098,
            43.304046,
            144.8
          ],
          [
            2.546208,
            43.304004,
            144.57
          ],
          [
            2.547366,
            43.303328,
            144.28
          ],
          [
            2.547659,
            43.303214,
            144.49
          ],
          [
            2.54785,
            43.303192,
            144.5
          ],
          [
            2.548604,
            43.303273,
            143.02
          ],
          [
            2.548893,
            43.303273,
            142.13
          ],
          [
            2.549107,
            43.303231,
            141.45
          ],
          [
            2.549247,
            43.303148,
            140.92
          ],
          [
            2.549434,
            43.303018,
            140.18
          ],
          [
            2.549792,
            43.302876,
            139.56
          ],
          [
            2.550405,
            43.302768,
            139.27
          ],
          [
            2.550542,
            43.302785,
            139.0
          ],
          [
            2.550639,
            43.302766,
            138.85
          ],
          [
            2.550982,
            43.302647,
            138.94
          ],
          [
            2.551395,
            43.302566,
            139.12
          ],
          [
            2.55183,
            43.302527,
            139.6
          ],
          [
            2.552251,
            43.302531,
            140.16
          ],
          [
            2.55258,
            43.30257,
            140.63
          ],
          [
            2.553122,
            43.302686,
            141.73
          ],
          [
            2.553474,
            43.302707,
            142.41
          ],
          [
            2.553737,
            43.302684,
            142.85
          ],
          [
            2.553847,
            43.302631,
            143.13
          ],
          [
            2.55392,
            43.302545,
            143.45
          ],
          [
            2.553923,
            43.302465,
            143.77
          ],
          [
            2.553835,
            43.302258,
            143.89
          ],
          [
            2.553829,
            43.302182,
            143.88
          ],
          [
            2.553856,
            43.302131,
            143.81
          ],
          [
            2.554471,
            43.301754,
            143.28
          ],
          [
            2.554509,
            43.3017,
            143.23
          ],
          [
            2.554557,
            43.300891,
            143.0
          ],
          [
            2.555926,
            43.300391,
            141.04
          ],
          [
            2.556053,
            43.300189,
            141.01
          ],
          [
            2.556185,
            43.300009,
            140.87
          ],
          [
            2.55673,
            43.299378,
            140.2
          ],
          [
            2.557029,
            43.29913,
            139.93
          ],
          [
            2.557316,
            43.298872,
            139.65
          ],
          [
            2.558331,
            43.297885,
            137.96
          ],
          [
            2.559412,
            43.296719,
            136.49
          ],
          [
            2.559883,
            43.296401,
            136.04
          ],
          [
            2.560025,
            43.296294,
            136.0
          ],
          [
            2.560292,
            43.296029,
            135.44
          ],
          [
            2.562388,
            43.294286,
            131.84
          ],
          [
            2.562667,
            43.294017,
            131.33
          ],
          [
            2.563414,
            43.293424,
            131.43
          ],
          [
            2.564191,
            43.292752,
            127.52
          ],
          [
            2.564446,
            43.292588,
            127.31
          ],
          [
            2.565051,
            43.292337,
            127.05
          ],
          [
            2.56572,
            43.292096,
            127.11
          ],
          [
            2.565835,
            43.292075,
            127.04
          ],
          [
            2.565387,
            43.291644,
            130.71
          ],
          [
            2.565199,
            43.291431,
            132.45
          ],
          [
            2.565492,
            43.291417,
            131.51
          ]
        ]
      }
    },
    {
      "type": "Feature",
      "properties": {
        "source": "Balade_du_Marbre.gpx",
        "type": "route"
      },
      "geometry": {
        "type": "LineString",
        "coordinates": [
          [
            2.565492,
            43.291417
          ],
          [
            2.565199,
            43.291431
          ],
          [
            2.565835,
            43.292075
          ],
          [
            2.555926,
            43.300391
          ],
          [
            2.55245,
            43.30225
          ],
          [
            2.547338,
            43.302868
          ],
          [
            2.544977,
            43.305453
          ],
          [
            2.549181,
            43.307064
          ],
          [
            2.549831,
            43.306414
          ],
          [
            2.549831,
            43.306414
          ],
          [
            2.549181,
            43.307064
          ],
          [
            2.544977,
            43.305453
          ],
          [
            2.545994,
            43.304022
          ],
          [
            2.554557,
            43.300891
          ],
          [
            2.555926,
            43.300391
          ],
          [
            2.565835,
            43.292075
          ],
          [
            2.565199,
            43.291431
          ],
          [
            2.565492,
            43.291417
          ]
        ]
      }
    }
  ]
}