{
  "type": "FeatureCollection",
  "features": [
    {
      "type": "Feature",
      "properties": {
        "name": "GraphHopper Track",
        "source": "Reyrevignes.gpx",
        "type": "track"
      },
      "geometry": {
        "type": "LineString",
        "coordinates": [
          [
            1.917463,
            44.654744,
            373.97
          ],
          [
            1.917515,
            44.654824,
            373.81
          ],
          [
            1.91787,
            44.654815,
            374.42
          ],
          [
            1.917896,
            44.654732,
            374.22
          ],
          [
            1.917943,
            44.654665,
            373.77
          ],
          [
            1.91807,
            44.654528,
            372.29
          ],
          [
            1.918255,
            44.654354,
            370.3
          ],
          [
            1.918354,
            44.654196,
            368.8
          ],
          [
            1.918139,
            44.654115,
            368.84
          ],
          [
            1.918089,
            44.654089,
            368.66
          ],
          [
            1.918251,
            44.653942,
            367.42
          ],
          [
            1.918515,
            44.653599,
            365.27
          ],
          [
            1.918916,
            44.653052,
            362.75
          ],
          [
            1.919512,
            44.652427,
            360.64
          ],
          [
            1.919588,
            44.652358,
            360.68
          ],
          [
            1.919728,
            44.652274,
            360.07
          ],
          [
            1.919932,
            44.652232,
            358.94
          ],
          [
            1.92039,
            44.652192,
            356.08
          ],
          [
            1.920657,
            44.652155,
            354.53
          ],
          [
            1.920966,
            44.652053,
            352.56
          ],
          [
            1.921256,
            44.651848,
            350.23
          ],
          [
            1.921615,
            44.65151,
            348.0
          ],
          [
            1.921894,
            44.651276,
            346.69
          ],
          [
            1.922605,
            44.650606,
            340.02
          ],
          [
            1.922756,
            44.650501,
            338.39
          ],
          [
            1.922944,
            44.650439,
            337.66
          ],
          [
            1.923231,
            44.650401,
            336.82
          ],
          [
            1.925178,
            44.65046,
            343.11
          ],
          [
            1.925183,
            44.649785,
            340.54
          ],
          [
            1.925288,
            44.649609,
            340.14
          ],
          [
            1.925431,
            44.649498,
            339.88
          ],
          [
            1.925724,
            44.649415,
            339.52
          ],
          [
            1.925887,
            44.649313,
            339.2
          ],
          [
            1.92603,
            44.648984,
            337.98
          ],
          [
            1.926141,
            44.648845,
            337.24
          ],
          [
            1.926532,
            44.648738,
            335.93
          ],
          [
            1.926825,
            44.648571,
            335.03
          ],
          [
            1.927137,
            44.648089,
            334.69
          ],
          [
            1.927932,
            44.646426,
            339.19
          ],
          [
            1.927932,
            44.646426,
            339.19
          ],
          [
            1.927137,
            44.648089,
            334.69
          ],
          [
            1.926825,
            44.648571,
            335.03
          ],
          [
            1.926532,
            44.648738,
            335.93
          ],
          [
            1.926141,
            44.648845,
            337.24
          ],
          [
            1.92603,
            44.648984,
            337.98
          ],
          [
            1.925887,
            44.649313,
            339.2
          ],
          [
            1.925724,
            44.649415,
            339.52
          ],
          [
            1.925431,
            44.649498,
            339.88
          ],
          [
            1.925288,
            44.649609,
            340.14
          ],
          [
            1.925183,
            44.649785,
            340.54
          ],
          [
            1.925178,
            44.65046,
            343.11
          ],
          [
            1.923231,
            44.650401,
            336.82
          ],
          [
            1.922944,
            44.650439,
            337.66
          ],
          [
            1.922756,
            44.650501,
            338.39
          ],
          [
            1.922605,
            44.650606,
            340.02
          ],
          [
            1.921894,
            44.651276,
            346.69
          ],
          [
            1.921615,
            44.65151,
            348.0
          ],
          [
            1.921256,
            44.651848,
            350.23
          ],
          [
            1.920966,
            44.652053,
            352.56
          ],
          [
            1.920657,
            44.652155,
            354.53
          ],
          [
            1.92039,
            44.652192,
            356.08
          ],
          [
            1.919932,
            44.652232,
            358.94
          ],
          [
            1.919728,
            44.652274,
            360.07
          ],
          [
            1.919588,
            44.652358,
            360.68
          ],
          [
            1.919512,
            44.652427,
            360.64
          ],
          [
            1.918916,
            44.653052,
            362.75
          ],
          [
            1.918515,
            44.653599,
            365.27
          ],
          [
            1.918251,
            44.653942,
            367.42
          ],
          [
            1.918089,
            44.654089,
            368.66
          ],
          [
            1.91797,
            44.654152,
            369.4
          ],
          [
            1.91783,
            44.654208,
            370.08
          ],
          [
            1.91762,
            44.654253,
            370.57
          ],
          [
            1.917005,
            44.654308,
            371.49
          ],
          [
            1.91715,
            44.65449,
            372.44
          ],
          [
            1.917221,
            44.654556,
            372.85
          ],
          [
            1.917397,
            44.654686,
            373.67
          ],
          [
            1.917463,
            44.654744,
            373.97
          ]
        ]
      }
    },
    {
      "type": "Feature",
      "properties": {
        "source": "Reyrevignes.gpx",
        "type": "route"
      },
      "geometry": {
        "type": "LineString",
        "coordinates": [
          [
            1.917463,
            44.654744
          ],
          [
            1.917515,
            44.654824
          ],
          [
            1.91787,
            44.654815
          ],
          [
            1.918354,
            44.654196
          ],
          [
            1.918089,
            44.654089
          ],
          [
            1.925178,
            44.65046
          ],
          [
            1.927932,
            44.646426
          ],
          [
            1.927932,
            44.646426
          ],
          [
            1.925178,
            44.65046
          ],
          [
            1.917005,
            44.654308
          ],
          [
            1.917463,
            44.654744
          ]
        ]
      }
    }
  ]
}