{
  "type": "FeatureCollection",
  "features": [
    {
      "type": "Feature",
      "properties": {
        "name": "GraphHopper Track",
        "source": "Mariailles.gpx",
        "type": "track"
      },
      "geometry": {
        "type": "LineString",
        "coordinates": [
          [
            2.381886,
            42.518498,
            1034.94
          ],
          [
            2.381887,
            42.518707,
            1037.17
          ],
          [
            2.381804,
            42.518882,
            1038.9
          ],
          [
            2.381803,
            42.518982,
            1039.95
          ],
          [
            2.381841,
            42.519116,
            1041.36
          ],
          [
            2.381835,
            42.519204,
            1042.25
          ],
          [
            2.381758,
            42.519529,
            1045.51
          ],
          [
            2.381779,
            42.519607,
            1046.25
          ],
          [
            2.38182,
            42.519699,
            1047.15
          ],
          [
            2.381846,
            42.519853,
            1048.58
          ],
          [
            2.381851,
            42.520187,
            1052.19
          ],
          [
            2.381754,
            42.520535,
            1055.9
          ],
          [
            2.381714,
            42.520602,
            1056.68
          ],
          [
            2.381671,
            42.520608,
            1057.03
          ],
          [
            2.381636,
            42.520589,
            1057.38
          ],
          [
            2.381623,
            42.520519,
            1058.15
          ],
          [
            2.38167,
            42.520267,
            1061.1
          ],
          [
            2.381645,
            42.520142,
            1062.53
          ],
          [
            2.3815,
            42.519835,
            1065.9
          ],
          [
            2.381365,
            42.519691,
            1067.57
          ],
          [
            2.381328,
            42.519628,
            1068.29
          ],
          [
            2.381308,
            42.519437,
            1070.3
          ],
          [
            2.381172,
            42.519057,
            1074.53
          ],
          [
            2.381056,
            42.5188,
            1077.43
          ],
          [
            2.38089,
            42.51853,
            1081.07
          ],
          [
            2.38073,
            42.518351,
            1083.55
          ],
          [
            2.380552,
            42.518227,
            1085.62
          ],
          [
            2.380349,
            42.518125,
            1087.75
          ],
          [
            2.38032,
            42.51809,
            1088.25
          ],
          [
            2.380295,
            42.518037,
            1088.91
          ],
          [
            2.380299,
            42.517919,
            1090.27
          ],
          [
            2.380345,
            42.517746,
            1092.27
          ],
          [
            2.380359,
            42.51762,
            1093.68
          ],
          [
            2.380349,
            42.517256,
            1097.75
          ],
          [
            2.380363,
            42.51709,
            1099.69
          ],
          [
            2.380517,
            42.516391,
            1107.83
          ],
          [
            2.380567,
            42.516194,
            1110.01
          ],
          [
            2.380633,
            42.516083,
            1111.31
          ],
          [
            2.380942,
            42.515835,
            1115.1
          ],
          [
            2.381005,
            42.515745,
            1116.26
          ],
          [
            2.381067,
            42.515621,
            1117.74
          ],
          [
            2.381096,
            42.515489,
            1119.17
          ],
          [
            2.381101,
            42.515302,
            1121.43
          ],
          [
            2.381071,
            42.515159,
            1123.18
          ],
          [
            2.381032,
            42.515031,
            1124.88
          ],
          [
            2.381099,
            42.51497,
            1125.45
          ],
          [
            2.381142,
            42.514872,
            1127.24
          ],
          [
            2.381235,
            42.51471,
            1131.75
          ],
          [
            2.381384,
            42.514682,
            1133.91
          ],
          [
            2.381814,
            42.514685,
            1139.59
          ],
          [
            2.382529,
            42.514589,
            1149.96
          ],
          [
            2.383534,
            42.51449,
            1165.36
          ],
          [
            2.383724,
            42.514526,
            1168.11
          ],
          [
            2.384229,
            42.514743,
            1176.03
          ],
          [
            2.384715,
            42.514915,
            1182.98
          ],
          [
            2.385188,
            42.515031,
            1189.84
          ],
          [
            2.385623,
            42.515086,
            1196.27
          ],
          [
            2.385848,
            42.515086,
            1199.41
          ],
          [
            2.386043,
            42.515107,
            1201.88
          ],
          [
            2.386209,
            42.51519,
            1204.31
          ],
          [
            2.386484,
            42.515382,
            1209.05
          ],
          [
            2.386591,
            42.515407,
            1210.04
          ],
          [
            2.38675,
            42.515408,
            1211.18
          ],
          [
            2.386873,
            42.515291,
            1212.99
          ],
          [
            2.386876,
            42.515224,
            1214.46
          ],
          [
            2.386786,
            42.514959,
            1217.77
          ],
          [
            2.386791,
            42.514846,
            1218.9
          ],
          [
            2.386891,
            42.514642,
            1220.34
          ],
          [
            2.386981,
            42.514279,
            1222.96
          ],
          [
            2.387053,
            42.514172,
            1223.83
          ],
          [
            2.387305,
            42.513887,
            1226.64
          ],
          [
            2.387694,
            42.513577,
            1231.78
          ],
          [
            2.387967,
            42.51332,
            1237.09
          ],
          [
            2.388118,
            42.513159,
            1240.79
          ],
          [
            2.388255,
            42.512821,
            1247.63
          ],
          [
            2.388472,
            42.512667,
            1251.9
          ],
          [
            2.388954,
            42.512482,
            1260.38
          ],
          [
            2.389014,
            42.51243,
            1261.82
          ],
          [
            2.389119,
            42.512307,
            1265.0
          ],
          [
            2.389194,
            42.512195,
            1267.45
          ],
          [
            2.389325,
            42.512129,
            1270.1
          ],
          [
            2.389516,
            42.512011,
            1274.48
          ],
          [
            2.389647,
            42.511878,
            1279.0
          ],
          [
            2.389734,
            42.51184,
            1280.34
          ],
          [
            2.389741,
            42.511752,
            1285.42
          ],
          [
            2.389691,
            42.511666,
            1289.31
          ],
          [
            2.390117,
            42.511546,
            1292.39
          ],
          [
            2.390236,
            42.511488,
            1295.48
          ],
          [
            2.39034,
            42.51142,
            1298.6
          ],
          [
            2.390322,
            42.511397,
            1299.38
          ],
          [
            2.390146,
            42.511349,
            1303.44
          ],
          [
            2.390132,
            42.511332,
            1304.03
          ],
          [
            2.390383,
            42.511196,
            1310.36
          ],
          [
            2.390556,
            42.511071,
            1315.29
          ],
          [
            2.390568,
            42.511031,
            1316.42
          ],
          [
            2.390483,
            42.511004,
            1318.27
          ],
          [
            2.390253,
            42.511018,
            1322.8
          ],
          [
            2.390191,
            42.510998,
            1324.11
          ],
          [
            2.390354,
            42.510928,
            1327.9
          ],
          [
            2.390686,
            42.510714,
            1336.53
          ],
          [
            2.390883,
            42.510466,
            1343.05
          ],
          [
            2.390989,
            42.51037,
            1345.98
          ],
          [
            2.390979,
            42.510344,
            1346.63
          ],
          [
            2.390908,
            42.510339,
            1347.86
          ],
          [
            2.390713,
            42.5104,
            1351.58
          ],
          [
            2.39056,
            42.510484,
            1354.93
          ],
          [
            2.390401,
            42.510532,
            1357.48
          ],
          [
            2.390336,
            42.510522,
            1358.28
          ],
          [
            2.390351,
            42.510489,
            1358.83
          ],
          [
            2.390518,
            42.510345,
            1363.45
          ],
          [
            2.390673,
            42.510154,
            1369.9
          ],
          [
            2.390814,
            42.509912,
            1378.28
          ],
          [
            2.39102,
            42.509591,
            1387.88
          ],
          [
            2.391101,
            42.509539,
            1390.09
          ],
          [
            2.391228,
            42.50955,
            1392.8
          ],
          [
            2.391432,
            42.509595,
            1397.31
          ],
          [
            2.391968,
            42.50973,
            1409.08
          ],
          [
            2.3926,
            42.50983,
            1422.88
          ],
          [
            2.39275,
            42.50982,
            1426.08
          ],
          [
            2.392589,
            42.509724,
            1430.22
          ],
          [
            2.392406,
            42.509573,
            1435.19
          ],
          [
            2.392428,
            42.509559,
            1435.7
          ],
          [
            2.392479,
            42.509552,
            1436.62
          ],
          [
            2.393082,
            42.509677,
            1447.56
          ],
          [
            2.393461,
            42.509719,
            1452.95
          ],
          [
            2.393723,
            42.509722,
            1456.0
          ],
          [
            2.393795,
            42.509763,
            1454.76
          ],
          [
            2.393865,
            42.509821,
            1453.82
          ],
          [
            2.394054,
            42.509558,
            1451.24
          ],
          [
            2.39436,
            42.509256,
            1451.36
          ],
          [
            2.394889,
            42.508985,
            1452.3
          ],
          [
            2.39504,
            42.508897,
            1452.54
          ],
          [
            2.39543,
            42.508719,
            1452.97
          ],
          [
            2.395521,
            42.508662,
            1452.63
          ],
          [
            2.395589,
            42.508672,
            1450.5
          ],
          [
            2.395615,
            42.508653,
            1450.54
          ],
          [
            2.395588,
            42.50855,
            1453.74
          ],
          [
            2.395606,
            42.508339,
            1455.66
          ],
          [
            2.395675,
            42.508212,
            1456.5
          ],
          [
            2.395698,
            42.507601,
            1459.1
          ],
          [
            2.395737,
            42.507438,
            1459.68
          ],
          [
            2.395809,
            42.507303,
            1460.14
          ],
          [
            2.395939,
            42.507182,
            1460.59
          ],
          [
            2.396021,
            42.507119,
            1460.85
          ],
          [
            2.396028,
            42.507031,
            1461.19
          ],
          [
            2.39597,
            42.506893,
            1461.83
          ],
          [
            2.39586,
            42.506703,
            1462.43
          ],
          [
            2.395709,
            42.506508,
            1463.58
          ],
          [
            2.395595,
            42.506391,
            1464.41
          ],
          [
            2.395587,
            42.506332,
            1464.72
          ],
          [
            2.395677,
            42.50624,
            1465.18
          ],
          [
            2.395662,
            42.50618,
            1465.44
          ],
          [
            2.395612,
            42.506069,
            1465.97
          ],
          [
            2.39555,
            42.505978,
            1466.37
          ],
          [
            2.395514,
            42.505775,
            1467.06
          ],
          [
            2.395537,
            42.505775,
            1467.11
          ],
          [
            2.395618,
            42.505814,
            1467.38
          ],
          [
            2.395733,
            42.505831,
            1467.95
          ],
          [
            2.395923,
            42.505883,
            1469.17
          ],
          [
            2.396036,
            42.505964,
            1470.24
          ],
          [
            2.396167,
            42.506023,
            1471.38
          ],
          [
            2.396304,
            42.506049,
            1472.63
          ],
          [
            2.396676,
            42.506075,
            1477.25
          ],
          [
            2.396617,
            42.50602,
            1478.67
          ],
          [
            2.39644,
            42.505913,
            1482.43
          ],
          [
            2.396663,
            42.505899,
            1486.75
          ],
          [
            2.39674,
            42.505857,
            1488.64
          ],
          [
            2.396587,
            42.505788,
            1492.13
          ],
          [
            2.396481,
            42.50573,
            1494.78
          ],
          [
            2.396611,
            42.505718,
            1497.38
          ],
          [
            2.396646,
            42.505699,
            1498.22
          ],
          [
            2.396532,
            42.505629,
            1501.1
          ],
          [
            2.396607,
            42.505571,
            1503.33
          ],
          [
            2.396478,
            42.505566,
            1505.82
          ],
          [
            2.39635,
            42.505541,
            1508.33
          ],
          [
            2.396206,
            42.505421,
            1511.82
          ],
          [
            2.39611,
            42.505306,
            1515.33
          ],
          [
            2.396117,
            42.50524,
            1516.34
          ],
          [
            2.396173,
            42.505167,
            1515.83
          ],
          [
            2.396237,
            42.504762,
            1516.71
          ],
          [
            2.396311,
            42.504632,
            1517.09
          ],
          [
            2.396508,
            42.504362,
            1518.17
          ],
          [
            2.39675,
            42.504135,
            1519.72
          ],
          [
            2.396897,
            42.503825,
            1521.66
          ],
          [
            2.396993,
            42.503667,
            1522.6
          ],
          [
            2.397207,
            42.503371,
            1525.98
          ],
          [
            2.397262,
            42.503304,
            1526.89
          ],
          [
            2.397385,
            42.503253,
            1528.0
          ],
          [
            2.397463,
            42.503198,
            1528.95
          ],
          [
            2.397501,
            42.503142,
            1529.69
          ],
          [
            2.397498,
            42.503055,
            1530.76
          ],
          [
            2.397533,
            42.502968,
            1531.96
          ],
          [
            2.397608,
            42.502883,
            1533.37
          ],
          [
            2.397725,
            42.502904,
            1534.53
          ],
          [
            2.397782,
            42.503004,
            1535.88
          ],
          [
            2.397867,
            42.503078,
            1537.21
          ],
          [
            2.397932,
            42.503212,
            1539.09
          ],
          [
            2.398044,
            42.503372,
            1541.04
          ],
          [
            2.398072,
            42.503465,
            1542.02
          ],
          [
            2.398178,
            42.503544,
            1543.14
          ],
          [
            2.398382,
            42.5036,
            1545.04
          ],
          [
            2.398586,
            42.503645,
            1546.85
          ],
          [
            2.398941,
            42.50367,
            1549.94
          ],
          [
            2.39922,
            42.503702,
            1552.72
          ],
          [
            2.399436,
            42.503778,
            1555.42
          ],
          [
            2.399619,
            42.503803,
            1557.72
          ],
          [
            2.399809,
            42.50377,
            1560.2
          ],
          [
            2.400209,
            42.503523,
            1566.66
          ],
          [
            2.400502,
            42.503287,
            1572.47
          ],
          [
            2.400689,
            42.503242,
            1569.24
          ],
          [
            2.40094,
            42.503147,
            1568.49
          ],
          [
            2.401193,
            42.503138,
            1567.72
          ],
          [
            2.401327,
            42.503117,
            1567.27
          ],
          [
            2.401537,
            42.503098,
            1566.3
          ],
          [
            2.401537,
            42.503098,
            1566.3
          ],
          [
            2.401327,
            42.503117,
            1567.27
          ],
          [
            2.401193,
            42.503138,
            1567.72
          ],
          [
            2.40094,
            42.503147,
            1568.49
          ],
          [
            2.400689,
            42.503242,
            1569.24
          ],
          [
            2.400502,
            42.503287,
            1572.47
          ],
          [
            2.40041,
            42.503292,
            1574.4
          ],
          [
            2.400666,
            42.503105,
            1576.34
          ],
          [
            2.400955,
            42.50296,
            1580.14
          ],
          [
            2.401201,
            42.502875,
            1582.8
          ],
          [
            2.401419,
            42.502704,
            1585.55
          ],
          [
            2.401517,
            42.50259,
            1587.18
          ],
          [
            2.401584,
            42.502404,
            1589.42
          ],
          [
            2.401818,
            42.502137,
            1592.66
          ],
          [
            2.402264,
            42.501846,
            1597.52
          ],
          [
            2.402427,
            42.501646,
            1600.68
          ],
          [
            2.402506,
            42.501535,
            1602.31
          ],
          [
            2.402545,
            42.501393,
            1604.25
          ],
          [
            2.40265,
            42.501196,
            1607.19
          ],
          [
            2.402802,
            42.501005,
            1609.94
          ],
          [
            2.402903,
            42.500839,
            1611.92
          ],
          [
            2.402957,
            42.500721,
            1613.16
          ],
          [
            2.403329,
            42.500302,
            1618.52
          ],
          [
            2.403332,
            42.500223,
            1619.52
          ],
          [
            2.403355,
            42.500178,
            1620.12
          ],
          [
            2.403528,
            42.500125,
            1621.76
          ],
          [
            2.403657,
            42.500045,
            1623.22
          ],
          [
            2.40378,
            42.499801,
            1626.96
          ],
          [
            2.403822,
            42.499779,
            1627.61
          ],
          [
            2.403881,
            42.499774,
            1628.35
          ],
          [
            2.403961,
            42.499805,
            1629.39
          ],
          [
            2.404217,
            42.500164,
            1635.32
          ],
          [
            2.40428,
            42.500297,
            1637.11
          ],
          [
            2.404267,
            42.500435,
            1639.01
          ],
          [
            2.404327,
            42.500543,
            1640.91
          ],
          [
            2.404425,
            42.500603,
            1641.92
          ],
          [
            2.404694,
            42.500738,
            1644.84
          ],
          [
            2.404798,
            42.500764,
            1646.58
          ],
          [
            2.404874,
            42.500762,
            1648.46
          ],
          [
            2.404968,
            42.500827,
            1649.25
          ],
          [
            2.40512,
            42.500891,
            1651.03
          ],
          [
            2.405404,
            42.500918,
            1654.75
          ],
          [
            2.405598,
            42.500924,
            1657.99
          ],
          [
            2.405807,
            42.500871,
            1661.54
          ],
          [
            2.406046,
            42.500789,
            1665.83
          ],
          [
            2.406241,
            42.500693,
            1669.8
          ],
          [
            2.40645,
            42.500642,
            1673.84
          ],
          [
            2.406903,
            42.500712,
            1681.74
          ],
          [
            2.407118,
            42.500759,
            1685.3
          ],
          [
            2.407252,
            42.500805,
            1685.64
          ],
          [
            2.407336,
            42.500864,
            1685.87
          ],
          [
            2.407498,
            42.500955,
            1686.87
          ],
          [
            2.407787,
            42.501167,
            1689.48
          ],
          [
            2.407826,
            42.501276,
            1689.22
          ],
          [
            2.407825,
            42.501479,
            1689.31
          ],
          [
            2.407751,
            42.501551,
            1688.9
          ],
          [
            2.407628,
            42.501702,
            1688.2
          ],
          [
            2.407623,
            42.501785,
            1688.71
          ],
          [
            2.407655,
            42.501887,
            1689.62
          ],
          [
            2.407622,
            42.50197,
            1689.45
          ],
          [
            2.407531,
            42.502084,
            1688.67
          ]
        ]
      }
    },
    {
      "type": "Feature",
      "properties": {
        "source": "Mariailles.gpx",
        "type": "route"
      },
      "geometry": {
        "type": "LineString",
        "coordinates": [
          [
            2.381886,
            42.518498
          ],
          [
            2.381032,
            42.515031
          ],
          [
            2.389734,
            42.51184
          ],
          [
            2.393723,
            42.509722
          ],
          [
            2.393865,
            42.509821
          ],
          [
            2.394054,
            42.509558
          ],
          [
            2.395589,
            42.508672
          ],
          [
            2.396117,
            42.50524
          ],
          [
            2.401537,
            42.503098
          ],
          [
            2.401537,
            42.503098
          ],
          [
            2.400502,
            42.503287
          ],
          [
            2.40041,
            42.503292
          ],
          [
            2.407118,
            42.500759
          ],
          [
            2.407787,
            42.501167
          ],
          [
            2.407531,
            42.502084
          ]
        ]
      }
    }
  ]
}