{
  "type": "FeatureCollection",
  "features": [
    {
      "type": "Feature",
      "properties": {
        "name": "GraphHopper Track",
        "source": "Durfort_Cuivre.gpx",
        "type": "track"
      },
      "geometry": {
        "type": "LineString",
        "coordinates": [
          [
            2.066882,
            43.438733,
            282.19
          ],
          [
            2.066835,
            43.438511,
            282.0
          ],
          [
            2.066818,
            43.438359,
            282.0
          ],
          [
            2.066873,
            43.438277,
            281.91
          ],
          [
            2.067054,
            43.438241,
            282.42
          ],
          [
            2.067394,
            43.438235,
            283.3
          ],
          [
            2.068674,
            43.438133,
            286.02
          ],
          [
            2.068941,
            43.438122,
            286.46
          ],
          [
            2.069195,
            43.438129,
            287.23
          ],
          [
            2.069352,
            43.43816,
            288.13
          ],
          [
            2.06939,
            43.438178,
            288.48
          ],
          [
            2.069595,
            43.438158,
            289.31
          ],
          [
            2.069897,
            43.438023,
            290.22
          ],
          [
            2.070321,
            43.437817,
            291.93
          ],
          [
            2.070853,
            43.437475,
            293.34
          ],
          [
            2.071636,
            43.436661,
            296.58
          ],
          [
            2.071639,
            43.436421,
            295.98
          ],
          [
            2.071631,
            43.436312,
            296.02
          ],
          [
            2.071596,
            43.436236,
            296.01
          ],
          [
            2.071454,
            43.43606,
            295.8
          ],
          [
            2.071376,
            43.43594,
            295.78
          ],
          [
            2.071191,
            43.435565,
            295.0
          ],
          [
            2.071062,
            43.435369,
            295.69
          ],
          [
            2.071049,
            43.435313,
            295.98
          ],
          [
            2.070842,
            43.435236,
            296.19
          ],
          [
            2.070842,
            43.435236,
            296.19
          ],
          [
            2.071049,
            43.435313,
            295.98
          ],
          [
            2.071062,
            43.435369,
            295.69
          ],
          [
            2.071191,
            43.435565,
            295.0
          ],
          [
            2.071376,
            43.43594,
            295.78
          ],
          [
            2.071454,
            43.43606,
            295.8
          ],
          [
            2.071596,
            43.436236,
            296.01
          ],
          [
            2.071631,
            43.436312,
            296.02
          ],
          [
            2.071639,
            43.436421,
            295.98
          ],
          [
            2.071636,
            43.436661,
            296.58
          ],
          [
            2.071827,
            43.436462,
            298.27
          ],
          [
            2.071971,
            43.436232,
            300.17
          ],
          [
            2.072107,
            43.435924,
            302.13
          ],
          [
            2.072168,
            43.435731,
            303.44
          ],
          [
            2.072183,
            43.435578,
            304.31
          ],
          [
            2.07218,
            43.435451,
            304.79
          ],
          [
            2.072151,
            43.435233,
            306.08
          ],
          [
            2.07215,
            43.435093,
            306.9
          ],
          [
            2.072181,
            43.434783,
            309.4
          ],
          [
            2.072189,
            43.43415,
            313.08
          ],
          [
            2.072242,
            43.433998,
            314.08
          ],
          [
            2.072287,
            43.433962,
            314.44
          ],
          [
            2.07245,
            43.433897,
            315.48
          ],
          [
            2.072686,
            43.433836,
            316.8
          ],
          [
            2.072909,
            43.433762,
            317.97
          ],
          [
            2.073004,
            43.433722,
            318.42
          ],
          [
            2.073131,
            43.433636,
            319.06
          ],
          [
            2.073384,
            43.43322,
            321.14
          ],
          [
            2.073456,
            43.433153,
            321.26
          ]
        ]
      }
    },
    {
      "type": "Feature",
      "properties": {
        "source": "Durfort_Cuivre.gpx",
        "type": "route"
      },
      "geometry": {
        "type": "LineString",
        "coordinates": [
          [
            2.066882,
            43.438733
          ],
          [
            2.066818,
            43.438359
          ],
          [
            2.06939,
            43.438178
          ],
          [
            2.071636,
            43.436661
          ],
          [
            2.070842,
            43.435236
          ],
          [
            2.070842,
            43.435236
          ],
          [
            2.071636,
            43.436661
          ],
          [
            2.073456,
            43.433153
          ]
        ]
      }
    }
  ]
}