{
  "type": "FeatureCollection",
  "features": [
    {
      "type": "Feature",
      "properties": {
        "name": "GraphHopper Track",
        "source": "Circuit_autour_de_Cabrerets_corrigé.gpx",
        "type": "track"
      },
      "geometry": {
        "type": "LineString",
        "coordinates": [
          [
            2.157558,
            44.666145,
            241.71
          ],
          [
            2.157271,
            44.666084,
            243.53
          ],
          [
            2.157093,
            44.665995,
            243.66
          ],
          [
            2.157055,
            44.665945,
            243.61
          ],
          [
            2.156963,
            44.665858,
            242.97
          ],
          [
            2.156691,
            44.665927,
            242.98
          ],
          [
            2.156384,
            44.66606,
            243.79
          ],
          [
            2.15613,
            44.66625,
            244.12
          ],
          [
            2.156034,
            44.666268,
            244.45
          ],
          [
            2.155502,
            44.66631,
            245.77
          ],
          [
            2.154503,
            44.666451,
            248.96
          ],
          [
            2.153594,
            44.666534,
            253.32
          ],
          [
            2.152411,
            44.666624,
            259.39
          ],
          [
            2.152148,
            44.666634,
            260.25
          ],
          [
            2.151942,
            44.666628,
            260.6
          ],
          [
            2.151391,
            44.66654,
            262.29
          ],
          [
            2.151304,
            44.666535,
            262.79
          ],
          [
            2.151311,
            44.666493,
            263.07
          ],
          [
            2.150997,
            44.665976,
            265.98
          ],
          [
            2.150924,
            44.665884,
            266.44
          ],
          [
            2.150615,
            44.66564,
            267.22
          ],
          [
            2.150558,
            44.665575,
            267.15
          ],
          [
            2.150522,
            44.665495,
            266.97
          ],
          [
            2.150522,
            44.665495,
            266.97
          ],
          [
            2.150558,
            44.665575,
            267.15
          ],
          [
            2.150615,
            44.66564,
            267.22
          ],
          [
            2.150924,
            44.665884,
            266.44
          ],
          [
            2.150997,
            44.665976,
            265.98
          ],
          [
            2.151311,
            44.666493,
            263.07
          ],
          [
            2.151304,
            44.666535,
            262.79
          ],
          [
            2.151391,
            44.66654,
            262.29
          ],
          [
            2.151942,
            44.666628,
            260.6
          ],
          [
            2.152148,
            44.666634,
            260.25
          ],
          [
            2.152411,
            44.666624,
            259.39
          ],
          [
            2.153594,
            44.666534,
            253.32
          ],
          [
            2.154503,
            44.666451,
            248.96
          ],
          [
            2.155502,
            44.66631,
            245.77
          ],
          [
            2.156034,
            44.666268,
            244.45
          ],
          [
            2.15613,
            44.66625,
            244.12
          ],
          [
            2.156384,
            44.66606,
            243.79
          ],
          [
            2.156691,
            44.665927,
            242.98
          ],
          [
            2.156963,
            44.665858,
            242.97
          ],
          [
            2.157055,
            44.665945,
            243.61
          ],
          [
            2.157093,
            44.665995,
            243.66
          ],
          [
            2.157271,
            44.666084,
            243.53
          ],
          [
            2.157214,
            44.666296,
            244.25
          ],
          [
            2.157194,
            44.666462,
            244.22
          ],
          [
            2.157209,
            44.666599,
            244.34
          ],
          [
            2.157367,
            44.667046,
            244.75
          ]
        ]
      }
    },
    {
      "type": "Feature",
      "properties": {
        "source": "Circuit_autour_de_Cabrerets_corrigé.gpx",
        "type": "route"
      },
      "geometry": {
        "type": "LineString",
        "coordinates": [
          [
            2.157558,
            44.666145
          ],
          [
            2.156963,
            44.665858
          ],
          [
            2.151304,
            44.666535
          ],
          [
            2.150558,
            44.665575
          ],
          [
            2.150522,
            44.665495
          ],
          [
            2.150522,
            44.665495
          ],
          [
            2.151304,
            44.666535
          ],
          [
            2.156963,
            44.665858
          ],
          [
            2.157271,
            44.666084
          ],
          [
            2.157367,
            44.667046
          ]
        ]
      }
    }
  ]
}