{
  "type": "FeatureCollection",
  "features": [
    {
      "type": "Feature",
      "properties": {
        "name": "GraphHopper Track",
        "source": "Cirque_dAutoire.gpx",
        "type": "track"
      },
      "geometry": {
        "type": "LineString",
        "coordinates": [
          [
            1.821094,
            44.85445,
            178.72
          ],
          [
            1.821125,
            44.854478,
            178.41
          ],
          [
            1.821295,
            44.854384,
            180.22
          ],
          [
            1.821381,
            44.854271,
            182.97
          ],
          [
            1.821189,
            44.854118,
            184.37
          ],
          [
            1.821088,
            44.853979,
            184.66
          ],
          [
            1.820994,
            44.853897,
            184.94
          ],
          [
            1.820836,
            44.853779,
            185.43
          ],
          [
            1.820798,
            44.853742,
            185.7
          ],
          [
            1.820698,
            44.853613,
            186.09
          ],
          [
            1.820519,
            44.853421,
            185.39
          ],
          [
            1.820449,
            44.853376,
            185.04
          ],
          [
            1.820372,
            44.853346,
            184.71
          ],
          [
            1.820279,
            44.853385,
            183.88
          ],
          [
            1.820261,
            44.853384,
            183.73
          ],
          [
            1.820127,
            44.85332,
            181.86
          ],
          [
            1.820058,
            44.853258,
            181.37
          ],
          [
            1.819933,
            44.853063,
            181.22
          ],
          [
            1.819858,
            44.852908,
            180.85
          ],
          [
            1.819799,
            44.852852,
            180.77
          ],
          [
            1.819369,
            44.852617,
            180.94
          ],
          [
            1.819281,
            44.85255,
            180.87
          ],
          [
            1.819203,
            44.852466,
            180.82
          ],
          [
            1.819,
            44.852194,
            182.81
          ],
          [
            1.818912,
            44.852127,
            183.56
          ],
          [
            1.818726,
            44.851591,
            190.04
          ],
          [
            1.818596,
            44.851326,
            193.12
          ],
          [
            1.818857,
            44.851114,
            197.42
          ],
          [
            1.818921,
            44.850976,
            196.9
          ],
          [
            1.818942,
            44.850834,
            196.02
          ],
          [
            1.818912,
            44.850661,
            194.86
          ],
          [
            1.818572,
            44.8503,
            193.1
          ],
          [
            1.818096,
            44.849985,
            191.39
          ],
          [
            1.817774,
            44.849899,
            191.46
          ],
          [
            1.8174,
            44.849561,
            192.33
          ],
          [
            1.817332,
            44.849494,
            192.43
          ],
          [
            1.8173,
            44.849424,
            192.57
          ],
          [
            1.817295,
            44.849172,
            193.49
          ],
          [
            1.817251,
            44.849103,
            193.78
          ],
          [
            1.817172,
            44.849082,
            194.0
          ],
          [
            1.817073,
            44.849019,
            194.36
          ],
          [
            1.817004,
            44.848949,
            194.78
          ],
          [
            1.816878,
            44.848879,
            195.37
          ],
          [
            1.816729,
            44.848772,
            196.06
          ],
          [
            1.816532,
            44.848651,
            197.3
          ],
          [
            1.816455,
            44.848614,
            197.95
          ],
          [
            1.816387,
            44.848566,
            198.75
          ],
          [
            1.816333,
            44.848499,
            199.43
          ],
          [
            1.816282,
            44.848472,
            199.91
          ],
          [
            1.816152,
            44.848436,
            201.08
          ],
          [
            1.81607,
            44.848393,
            202.19
          ],
          [
            1.816038,
            44.848356,
            203.03
          ],
          [
            1.816035,
            44.848325,
            203.6
          ],
          [
            1.816052,
            44.84825,
            204.97
          ],
          [
            1.816106,
            44.848111,
            208.26
          ],
          [
            1.816094,
            44.848057,
            209.42
          ],
          [
            1.816071,
            44.848026,
            209.88
          ],
          [
            1.815951,
            44.847969,
            208.77
          ],
          [
            1.81569,
            44.84778,
            210.92
          ],
          [
            1.815428,
            44.84755,
            214.18
          ],
          [
            1.815428,
            44.84755,
            214.18
          ],
          [
            1.81569,
            44.84778,
            210.92
          ],
          [
            1.815951,
            44.847969,
            208.77
          ],
          [
            1.816071,
            44.848026,
            209.88
          ],
          [
            1.816141,
            44.848042,
            211.08
          ],
          [
            1.816206,
            44.848073,
            212.53
          ],
          [
            1.816258,
            44.848073,
            213.65
          ],
          [
            1.816283,
            44.848053,
            214.46
          ],
          [
            1.816258,
            44.847974,
            217.13
          ],
          [
            1.816127,
            44.847855,
            222.09
          ],
          [
            1.816136,
            44.847836,
            222.7
          ],
          [
            1.816237,
            44.847833,
            224.92
          ],
          [
            1.816414,
            44.847833,
            228.89
          ],
          [
            1.816897,
            44.847923,
            240.03
          ],
          [
            1.817213,
            44.847966,
            247.04
          ],
          [
            1.817349,
            44.848019,
            249.46
          ],
          [
            1.8177,
            44.848021,
            258.19
          ],
          [
            1.817985,
            44.848086,
            262.98
          ],
          [
            1.818294,
            44.848191,
            269.54
          ],
          [
            1.818637,
            44.848261,
            277.12
          ],
          [
            1.819308,
            44.848337,
            292.39
          ],
          [
            1.819493,
            44.84832,
            296.79
          ],
          [
            1.819938,
            44.848415,
            307.27
          ],
          [
            1.820533,
            44.848592,
            319.05
          ],
          [
            1.820952,
            44.848824,
            327.06
          ],
          [
            1.821711,
            44.849288,
            338.41
          ],
          [
            1.821893,
            44.84935,
            339.83
          ],
          [
            1.822014,
            44.849425,
            340.7
          ],
          [
            1.822167,
            44.849577,
            341.66
          ],
          [
            1.822569,
            44.850077,
            341.79
          ],
          [
            1.822738,
            44.850271,
            341.47
          ],
          [
            1.822856,
            44.850389,
            341.19
          ],
          [
            1.822856,
            44.850522,
            340.69
          ],
          [
            1.822894,
            44.850666,
            339.2
          ],
          [
            1.823039,
            44.850879,
            335.7
          ],
          [
            1.82317,
            44.851096,
            332.31
          ],
          [
            1.823272,
            44.851239,
            329.72
          ],
          [
            1.823427,
            44.851345,
            326.87
          ],
          [
            1.823722,
            44.851492,
            321.56
          ],
          [
            1.82391,
            44.851625,
            318.42
          ],
          [
            1.823972,
            44.851752,
            317.18
          ],
          [
            1.824042,
            44.851868,
            316.17
          ],
          [
            1.824299,
            44.852032,
            313.99
          ],
          [
            1.824452,
            44.852051,
            313.23
          ],
          [
            1.824661,
            44.852106,
            312.46
          ],
          [
            1.824854,
            44.852182,
            312.19
          ],
          [
            1.825037,
            44.85222,
            312.17
          ],
          [
            1.825265,
            44.852256,
            311.38
          ],
          [
            1.825412,
            44.852305,
            311.93
          ],
          [
            1.8256,
            44.852439,
            312.6
          ],
          [
            1.825777,
            44.852451,
            313.77
          ],
          [
            1.825916,
            44.852345,
            314.72
          ],
          [
            1.825941,
            44.852282,
            314.9
          ],
          [
            1.82584,
            44.852021,
            315.82
          ],
          [
            1.825661,
            44.851474,
            318.82
          ]
        ]
      }
    },
    {
      "type": "Feature",
      "properties": {
        "source": "Cirque_dAutoire.gpx",
        "type": "route"
      },
      "geometry": {
        "type": "LineString",
        "coordinates": [
          [
            1.821094,
            44.85445
          ],
          [
            1.821125,
            44.854478
          ],
          [
            1.821381,
            44.854271
          ],
          [
            1.821189,
            44.854118
          ],
          [
            1.820798,
            44.853742
          ],
          [
            1.820372,
            44.853346
          ],
          [
            1.820279,
            44.853385
          ],
          [
            1.820261,
            44.853384
          ],
          [
            1.818912,
            44.852127
          ],
          [
            1.815428,
            44.84755
          ],
          [
            1.815428,
            44.84755
          ],
          [
            1.816071,
            44.848026
          ],
          [
            1.817349,
            44.848019
          ],
          [
            1.825777,
            44.852451
          ],
          [
            1.825661,
            44.851474
          ]
        ]
      }
    }
  ]
}