{
  "type": "FeatureCollection",
  "features": [
    {
      "type": "Feature",
      "properties": {
        "name": "GraphHopper Track",
        "source": "Forêt_de_la_Matte.gpx",
        "type": "track"
      },
      "geometry": {
        "type": "LineString",
        "coordinates": [
          [
            2.105905,
            42.531685,
            1741.71
          ],
          [
            2.105698,
            42.531931,
            1744.0
          ],
          [
            2.105695,
            42.531975,
            1744.33
          ],
          [
            2.105727,
            42.532006,
            1744.62
          ],
          [
            2.105786,
            42.532002,
            1744.93
          ],
          [
            2.106033,
            42.531807,
            1746.77
          ],
          [
            2.106092,
            42.531789,
            1747.1
          ],
          [
            2.106154,
            42.531791,
            1747.42
          ],
          [
            2.106183,
            42.531811,
            1747.63
          ],
          [
            2.106186,
            42.531836,
            1747.82
          ],
          [
            2.106108,
            42.531907,
            1748.52
          ],
          [
            2.105985,
            42.532054,
            1749.91
          ],
          [
            2.105945,
            42.53217,
            1750.92
          ],
          [
            2.105958,
            42.532305,
            1752.18
          ],
          [
            2.106052,
            42.532445,
            1753.62
          ],
          [
            2.106167,
            42.532556,
            1754.82
          ],
          [
            2.106502,
            42.532662,
            1757.74
          ],
          [
            2.106602,
            42.532726,
            1758.81
          ],
          [
            2.106674,
            42.53285,
            1759.92
          ],
          [
            2.106708,
            42.532993,
            1760.49
          ],
          [
            2.106406,
            42.53302,
            1760.07
          ],
          [
            2.105793,
            42.53303,
            1760.46
          ],
          [
            2.105648,
            42.533061,
            1760.38
          ],
          [
            2.105229,
            42.533073,
            1760.04
          ],
          [
            2.104797,
            42.533056,
            1759.31
          ],
          [
            2.104147,
            42.533103,
            1757.54
          ],
          [
            2.103887,
            42.533156,
            1756.85
          ],
          [
            2.103671,
            42.533241,
            1756.29
          ],
          [
            2.10344,
            42.533369,
            1755.66
          ],
          [
            2.10319,
            42.533584,
            1754.98
          ],
          [
            2.10305,
            42.533727,
            1754.5
          ],
          [
            2.10296,
            42.533853,
            1754.87
          ],
          [
            2.102864,
            42.533909,
            1754.85
          ],
          [
            2.102752,
            42.533998,
            1754.8
          ],
          [
            2.102601,
            42.534065,
            1754.94
          ],
          [
            2.102436,
            42.534098,
            1755.16
          ],
          [
            2.102044,
            42.534127,
            1755.32
          ],
          [
            2.101839,
            42.534177,
            1755.3
          ],
          [
            2.101735,
            42.534216,
            1755.58
          ],
          [
            2.101256,
            42.534424,
            1756.57
          ],
          [
            2.101123,
            42.53453,
            1756.6
          ],
          [
            2.100897,
            42.534759,
            1756.46
          ],
          [
            2.100552,
            42.535184,
            1755.56
          ],
          [
            2.100353,
            42.535378,
            1755.06
          ],
          [
            2.100186,
            42.535497,
            1754.81
          ],
          [
            2.100077,
            42.535548,
            1754.71
          ],
          [
            2.099882,
            42.53561,
            1754.75
          ],
          [
            2.099576,
            42.535672,
            1755.31
          ],
          [
            2.099254,
            42.535713,
            1756.55
          ],
          [
            2.099107,
            42.535756,
            1757.29
          ],
          [
            2.098908,
            42.535925,
            1758.81
          ],
          [
            2.098676,
            42.536233,
            1762.3
          ],
          [
            2.098534,
            42.536355,
            1762.94
          ],
          [
            2.098436,
            42.536327,
            1762.01
          ],
          [
            2.098235,
            42.536228,
            1760.77
          ],
          [
            2.098054,
            42.536119,
            1759.94
          ],
          [
            2.097881,
            42.536001,
            1758.99
          ],
          [
            2.0975,
            42.535839,
            1757.41
          ],
          [
            2.0973,
            42.535721,
            1756.5
          ],
          [
            2.09717,
            42.535597,
            1755.71
          ],
          [
            2.097079,
            42.53543,
            1754.79
          ],
          [
            2.096985,
            42.535319,
            1754.06
          ],
          [
            2.096807,
            42.535195,
            1752.97
          ],
          [
            2.096701,
            42.535046,
            1751.93
          ],
          [
            2.096591,
            42.534942,
            1751.07
          ],
          [
            2.096379,
            42.53487,
            1749.77
          ],
          [
            2.096244,
            42.534749,
            1748.48
          ],
          [
            2.096158,
            42.534568,
            1746.93
          ],
          [
            2.095879,
            42.534395,
            1744.79
          ],
          [
            2.095779,
            42.534385,
            1744.22
          ],
          [
            2.095756,
            42.534416,
            1743.94
          ],
          [
            2.095769,
            42.534509,
            1743.17
          ],
          [
            2.095841,
            42.53468,
            1741.61
          ],
          [
            2.095862,
            42.534892,
            1739.56
          ],
          [
            2.095817,
            42.535019,
            1738.3
          ],
          [
            2.095768,
            42.535059,
            1737.79
          ],
          [
            2.095675,
            42.535062,
            1737.16
          ],
          [
            2.095462,
            42.535001,
            1735.68
          ],
          [
            2.095299,
            42.535029,
            1734.63
          ],
          [
            2.095149,
            42.535137,
            1733.34
          ],
          [
            2.095055,
            42.535283,
            1731.85
          ],
          [
            2.094975,
            42.535457,
            1730.49
          ],
          [
            2.094884,
            42.535733,
            1729.38
          ],
          [
            2.09479,
            42.535829,
            1728.34
          ],
          [
            2.0946,
            42.535981,
            1728.0
          ],
          [
            2.094117,
            42.536418,
            1726.49
          ],
          [
            2.093936,
            42.53653,
            1726.48
          ],
          [
            2.093395,
            42.536897,
            1726.3
          ],
          [
            2.093116,
            42.537029,
            1726.38
          ],
          [
            2.092898,
            42.537155,
            1726.53
          ],
          [
            2.092749,
            42.537219,
            1726.59
          ],
          [
            2.092472,
            42.537411,
            1726.82
          ],
          [
            2.092035,
            42.537759,
            1727.0
          ],
          [
            2.091861,
            42.538184,
            1727.0
          ],
          [
            2.091732,
            42.538399,
            1727.04
          ],
          [
            2.091589,
            42.538704,
            1727.32
          ],
          [
            2.091534,
            42.538875,
            1727.49
          ],
          [
            2.091535,
            42.539071,
            1727.64
          ],
          [
            2.091568,
            42.539161,
            1727.72
          ],
          [
            2.09163,
            42.539236,
            1727.82
          ],
          [
            2.09175,
            42.539312,
            1727.93
          ],
          [
            2.091878,
            42.539408,
            1728.08
          ],
          [
            2.09191,
            42.539521,
            1728.18
          ],
          [
            2.091914,
            42.539662,
            1728.22
          ],
          [
            2.091934,
            42.539795,
            1728.15
          ],
          [
            2.091982,
            42.539859,
            1728.13
          ],
          [
            2.092162,
            42.539959,
            1728.18
          ],
          [
            2.092231,
            42.540067,
            1728.22
          ],
          [
            2.092276,
            42.540198,
            1728.24
          ],
          [
            2.092266,
            42.540331,
            1728.22
          ],
          [
            2.092227,
            42.540433,
            1728.17
          ],
          [
            2.092149,
            42.540516,
            1728.12
          ],
          [
            2.092135,
            42.54059,
            1728.08
          ],
          [
            2.092052,
            42.540748,
            1727.97
          ],
          [
            2.091889,
            42.54095,
            1727.86
          ],
          [
            2.091561,
            42.541142,
            1727.47
          ],
          [
            2.091192,
            42.541417,
            1727.07
          ],
          [
            2.09108,
            42.541551,
            1726.77
          ],
          [
            2.09103,
            42.541697,
            1726.49
          ],
          [
            2.090959,
            42.541786,
            1726.33
          ],
          [
            2.090892,
            42.541988,
            1726.01
          ],
          [
            2.090843,
            42.542189,
            1725.84
          ],
          [
            2.090854,
            42.542775,
            1725.55
          ],
          [
            2.090824,
            42.542926,
            1725.8
          ],
          [
            2.090632,
            42.54315,
            1726.24
          ],
          [
            2.090502,
            42.543343,
            1726.63
          ],
          [
            2.090398,
            42.543517,
            1727.43
          ],
          [
            2.090367,
            42.543645,
            1727.49
          ],
          [
            2.090217,
            42.543811,
            1725.55
          ],
          [
            2.08987,
            42.543894,
            1721.03
          ],
          [
            2.0897,
            42.543998,
            1718.68
          ],
          [
            2.089637,
            42.544004,
            1718.68
          ],
          [
            2.089565,
            42.544058,
            1718.85
          ],
          [
            2.089494,
            42.544254,
            1718.83
          ],
          [
            2.089507,
            42.544389,
            1718.79
          ],
          [
            2.089576,
            42.544491,
            1718.57
          ],
          [
            2.08971,
            42.544551,
            1718.25
          ],
          [
            2.090169,
            42.544675,
            1718.11
          ],
          [
            2.090258,
            42.544745,
            1718.12
          ],
          [
            2.090435,
            42.544987,
            1718.12
          ],
          [
            2.090534,
            42.545042,
            1718.0
          ],
          [
            2.090688,
            42.545182,
            1718.0
          ],
          [
            2.090544,
            42.545235,
            1717.96
          ],
          [
            2.0906,
            42.545329,
            1717.47
          ],
          [
            2.090679,
            42.545405,
            1717.61
          ],
          [
            2.090814,
            42.54549,
            1717.72
          ],
          [
            2.090906,
            42.54558,
            1717.81
          ],
          [
            2.090972,
            42.545659,
            1717.86
          ],
          [
            2.090988,
            42.545704,
            1717.87
          ],
          [
            2.090988,
            42.545744,
            1717.81
          ],
          [
            2.090969,
            42.545808,
            1717.39
          ],
          [
            2.090988,
            42.545882,
            1716.98
          ],
          [
            2.091001,
            42.546024,
            1716.72
          ],
          [
            2.090951,
            42.546569,
            1711.02
          ],
          [
            2.090948,
            42.546753,
            1709.37
          ],
          [
            2.090874,
            42.547106,
            1706.32
          ],
          [
            2.090901,
            42.54742,
            1704.05
          ],
          [
            2.09083,
            42.547802,
            1699.93
          ],
          [
            2.090827,
            42.547932,
            1698.23
          ],
          [
            2.09079,
            42.548107,
            1695.85
          ],
          [
            2.090724,
            42.548266,
            1693.4
          ],
          [
            2.090669,
            42.548336,
            1692.12
          ],
          [
            2.090598,
            42.548384,
            1690.95
          ],
          [
            2.090356,
            42.548495,
            1687.39
          ],
          [
            2.090269,
            42.548572,
            1685.71
          ],
          [
            2.090229,
            42.548675,
            1684.0
          ],
          [
            2.09025,
            42.548797,
            1682.15
          ],
          [
            2.090332,
            42.548968,
            1679.62
          ],
          [
            2.090406,
            42.549162,
            1677.04
          ],
          [
            2.090422,
            42.549257,
            1675.86
          ],
          [
            2.090385,
            42.549455,
            1673.67
          ],
          [
            2.090422,
            42.549534,
            1672.86
          ],
          [
            2.09054,
            42.549614,
            1671.8
          ],
          [
            2.090682,
            42.549687,
            1670.74
          ],
          [
            2.090877,
            42.549724,
            1669.57
          ],
          [
            2.091064,
            42.549742,
            1668.48
          ],
          [
            2.091188,
            42.54979,
            1667.65
          ],
          [
            2.091248,
            42.549844,
            1667.07
          ],
          [
            2.09129,
            42.550021,
            1665.57
          ],
          [
            2.091288,
            42.550129,
            1664.66
          ],
          [
            2.091311,
            42.550223,
            1663.81
          ],
          [
            2.091585,
            42.550601,
            1659.04
          ],
          [
            2.09164,
            42.550698,
            1657.79
          ],
          [
            2.091664,
            42.550789,
            1656.72
          ],
          [
            2.091659,
            42.550919,
            1655.3
          ],
          [
            2.091683,
            42.551045,
            1653.93
          ],
          [
            2.091759,
            42.551159,
            1652.52
          ],
          [
            2.092038,
            42.551493,
            1648.02
          ],
          [
            2.092167,
            42.551685,
            1645.94
          ],
          [
            2.092217,
            42.551817,
            1644.6
          ],
          [
            2.092308,
            42.55195,
            1642.9
          ],
          [
            2.092313,
            42.552016,
            1642.01
          ],
          [
            2.09228,
            42.552197,
            1639.15
          ],
          [
            2.092249,
            42.552307,
            1637.24
          ],
          [
            2.092133,
            42.552579,
            1632.09
          ],
          [
            2.092133,
            42.552732,
            1628.92
          ],
          [
            2.092143,
            42.552792,
            1627.38
          ],
          [
            2.092172,
            42.552862,
            1625.42
          ],
          [
            2.09221,
            42.552913,
            1623.83
          ],
          [
            2.092361,
            42.552996,
            1619.97
          ],
          [
            2.092502,
            42.55305,
            1616.85
          ],
          [
            2.092884,
            42.553092,
            1610.01
          ],
          [
            2.093049,
            42.553097,
            1607.49
          ],
          [
            2.093347,
            42.553143,
            1603.41
          ],
          [
            2.093419,
            42.553171,
            1602.47
          ],
          [
            2.093454,
            42.553229,
            1601.55
          ],
          [
            2.093467,
            42.55331,
            1600.44
          ],
          [
            2.093441,
            42.553432,
            1599.27
          ],
          [
            2.093449,
            42.553514,
            1598.8
          ],
          [
            2.093425,
            42.553589,
            1598.42
          ],
          [
            2.093431,
            42.553665,
            1598.08
          ],
          [
            2.093459,
            42.553756,
            1597.6
          ],
          [
            2.093536,
            42.553816,
            1597.06
          ],
          [
            2.093641,
            42.55387,
            1596.37
          ],
          [
            2.093775,
            42.553915,
            1595.51
          ],
          [
            2.094133,
            42.554095,
            1592.75
          ],
          [
            2.094284,
            42.554218,
            1591.14
          ],
          [
            2.094475,
            42.554322,
            1589.17
          ],
          [
            2.094648,
            42.554437,
            1586.87
          ],
          [
            2.094832,
            42.554528,
            1584.65
          ],
          [
            2.094997,
            42.554689,
            1582.2
          ],
          [
            2.095134,
            42.554743,
            1581.0
          ],
          [
            2.095221,
            42.554768,
            1580.31
          ],
          [
            2.095302,
            42.55478,
            1579.7
          ],
          [
            2.095384,
            42.554819,
            1578.98
          ],
          [
            2.095458,
            42.554902,
            1577.94
          ],
          [
            2.095479,
            42.554947,
            1577.43
          ],
          [
            2.095529,
            42.55549,
            1570.84
          ],
          [
            2.095523,
            42.555504,
            1570.64
          ],
          [
            2.095523,
            42.555504,
            1570.64
          ],
          [
            2.095497,
            42.555579,
            1569.61
          ],
          [
            2.095389,
            42.555715,
            1567.37
          ],
          [
            2.095336,
            42.555841,
            1565.26
          ],
          [
            2.095318,
            42.555961,
            1563.22
          ],
          [
            2.095328,
            42.556019,
            1562.2
          ],
          [
            2.095431,
            42.55624,
            1558.27
          ],
          [
            2.095497,
            42.556306,
            1557.02
          ],
          [
            2.095529,
            42.556395,
            1555.72
          ],
          [
            2.095502,
            42.556469,
            1554.71
          ],
          [
            2.095442,
            42.556552,
            1553.51
          ],
          [
            2.095423,
            42.556634,
            1552.53
          ],
          [
            2.095357,
            42.556773,
            1550.93
          ],
          [
            2.095156,
            42.556981,
            1548.78
          ],
          [
            2.095127,
            42.557026,
            1548.47
          ],
          [
            2.095155,
            42.557301,
            1547.24
          ],
          [
            2.095152,
            42.557452,
            1546.44
          ],
          [
            2.09517,
            42.557699,
            1545.32
          ],
          [
            2.094738,
            42.557691,
            1545.31
          ],
          [
            2.094447,
            42.557721,
            1544.95
          ],
          [
            2.094259,
            42.557777,
            1544.71
          ],
          [
            2.09408,
            42.557869,
            1544.45
          ],
          [
            2.093825,
            42.558034,
            1544.01
          ],
          [
            2.093662,
            42.558176,
            1543.72
          ],
          [
            2.093516,
            42.558346,
            1543.4
          ],
          [
            2.093224,
            42.558755,
            1542.62
          ],
          [
            2.093121,
            42.559068,
            1542.06
          ],
          [
            2.09295,
            42.559761,
            1540.52
          ],
          [
            2.09273,
            42.560279,
            1539.56
          ],
          [
            2.092202,
            42.56114,
            1539.01
          ],
          [
            2.091966,
            42.561432,
            1539.0
          ],
          [
            2.091604,
            42.561829,
            1539.01
          ],
          [
            2.091092,
            42.56231,
            1539.63
          ],
          [
            2.091008,
            42.562447,
            1539.87
          ],
          [
            2.091032,
            42.562562,
            1540.21
          ],
          [
            2.091104,
            42.562627,
            1540.72
          ],
          [
            2.091224,
            42.56264,
            1541.51
          ],
          [
            2.09137,
            42.562638,
            1541.94
          ],
          [
            2.091583,
            42.562671,
            1542.78
          ],
          [
            2.091678,
            42.562722,
            1543.0
          ],
          [
            2.091721,
            42.562745,
            1543.0
          ],
          [
            2.091759,
            42.562837,
            1543.29
          ],
          [
            2.091747,
            42.562934,
            1543.3
          ],
          [
            2.091659,
            42.563307,
            1542.97
          ],
          [
            2.091544,
            42.563558,
            1542.26
          ],
          [
            2.091368,
            42.563829,
            1541.33
          ],
          [
            2.091199,
            42.564061,
            1540.51
          ],
          [
            2.091108,
            42.564228,
            1539.66
          ],
          [
            2.09101,
            42.5645,
            1539.04
          ],
          [
            2.090965,
            42.564661,
            1539.04
          ],
          [
            2.0905,
            42.565475,
            1539.13
          ],
          [
            2.090367,
            42.565649,
            1539.14
          ],
          [
            2.090163,
            42.565845,
            1539.16
          ],
          [
            2.089931,
            42.566007,
            1539.09
          ],
          [
            2.08957,
            42.56623,
            1539.97
          ],
          [
            2.089408,
            42.566285,
            1540.0
          ],
          [
            2.089216,
            42.566335,
            1540.0
          ],
          [
            2.088978,
            42.566345,
            1540.04
          ],
          [
            2.088704,
            42.566288,
            1540.29
          ],
          [
            2.088137,
            42.566143,
            1541.18
          ],
          [
            2.08798,
            42.566131,
            1541.52
          ],
          [
            2.087773,
            42.566151,
            1542.07
          ],
          [
            2.08735,
            42.566265,
            1543.45
          ],
          [
            2.086898,
            42.566407,
            1545.0
          ],
          [
            2.086337,
            42.566622,
            1546.22
          ],
          [
            2.086044,
            42.566832,
            1546.08
          ],
          [
            2.085994,
            42.566985,
            1545.8
          ],
          [
            2.085951,
            42.567302,
            1544.87
          ],
          [
            2.085905,
            42.567774,
            1543.26
          ],
          [
            2.085723,
            42.568693,
            1542.75
          ],
          [
            2.085749,
            42.568821,
            1543.36
          ],
          [
            2.085831,
            42.56896,
            1542.91
          ],
          [
            2.086215,
            42.56933,
            1542.25
          ],
          [
            2.086278,
            42.569414,
            1542.19
          ],
          [
            2.08649,
            42.569944,
            1541.86
          ],
          [
            2.086931,
            42.570856,
            1541.4
          ],
          [
            2.086968,
            42.570994,
            1541.29
          ],
          [
            2.086979,
            42.57108,
            1541.21
          ],
          [
            2.086395,
            42.571715,
            1542.12
          ],
          [
            2.086354,
            42.571827,
            1542.02
          ],
          [
            2.086365,
            42.57193,
            1541.91
          ],
          [
            2.086452,
            42.572037,
            1541.74
          ],
          [
            2.08678,
            42.572252,
            1541.25
          ],
          [
            2.087173,
            42.572535,
            1540.91
          ],
          [
            2.087692,
            42.572934,
            1542.09
          ],
          [
            2.087942,
            42.5731,
            1542.82
          ],
          [
            2.088082,
            42.573153,
            1543.09
          ],
          [
            2.08819,
            42.573161,
            1543.25
          ],
          [
            2.089381,
            42.573096,
            1543.0
          ],
          [
            2.089549,
            42.573101,
            1542.35
          ],
          [
            2.089771,
            42.573167,
            1542.63
          ],
          [
            2.090947,
            42.573642,
            1545.45
          ],
          [
            2.091436,
            42.573875,
            1545.37
          ],
          [
            2.091665,
            42.574019,
            1544.98
          ],
          [
            2.091764,
            42.574156,
            1544.38
          ],
          [
            2.091921,
            42.574638,
            1542.32
          ],
          [
            2.092008,
            42.574754,
            1542.19
          ],
          [
            2.092088,
            42.574817,
            1542.58
          ],
          [
            2.092299,
            42.57485,
            1544.2
          ],
          [
            2.092415,
            42.57484,
            1545.11
          ],
          [
            2.092457,
            42.574802,
            1545.23
          ],
          [
            2.092971,
            42.574165,
            1543.43
          ],
          [
            2.093351,
            42.573732,
            1541.93
          ],
          [
            2.093582,
            42.5735,
            1541.0
          ],
          [
            2.093743,
            42.57335,
            1540.5
          ],
          [
            2.094018,
            42.57325,
            1540.08
          ],
          [
            2.094087,
            42.573182,
            1539.91
          ],
          [
            2.094166,
            42.572959,
            1539.38
          ],
          [
            2.094517,
            42.572448,
            1538.54
          ],
          [
            2.094624,
            42.57231,
            1538.31
          ],
          [
            2.094752,
            42.572219,
            1538.96
          ],
          [
            2.094815,
            42.572036,
            1538.14
          ],
          [
            2.094889,
            42.571984,
            1538.08
          ],
          [
            2.094978,
            42.571957,
            1538.07
          ],
          [
            2.095149,
            42.571933,
            1538.01
          ],
          [
            2.095349,
            42.571933,
            1537.93
          ],
          [
            2.095541,
            42.571949,
            1537.83
          ],
          [
            2.09563,
            42.571993,
            1537.79
          ],
          [
            2.09566,
            42.572061,
            1537.76
          ],
          [
            2.095593,
            42.572282,
            1537.66
          ],
          [
            2.095608,
            42.572366,
            1537.63
          ],
          [
            2.09566,
            42.572415,
            1537.62
          ],
          [
            2.095752,
            42.572432,
            1537.61
          ],
          [
            2.095867,
            42.572399,
            1537.59
          ],
          [
            2.096111,
            42.572292,
            1537.57
          ],
          [
            2.096337,
            42.572232,
            1537.57
          ],
          [
            2.096456,
            42.572219,
            1537.6
          ],
          [
            2.096548,
            42.572243,
            1537.62
          ],
          [
            2.096615,
            42.572303,
            1537.63
          ],
          [
            2.096671,
            42.572385,
            1537.67
          ],
          [
            2.096697,
            42.572491,
            1537.74
          ],
          [
            2.096645,
            42.572808,
            1538.22
          ],
          [
            2.096671,
            42.572906,
            1538.3
          ],
          [
            2.096759,
            42.57313,
            1538.7
          ],
          [
            2.096748,
            42.5732,
            1538.92
          ],
          [
            2.096674,
            42.573321,
            1539.63
          ],
          [
            2.096645,
            42.573391,
            1539.97
          ],
          [
            2.096648,
            42.57344,
            1540.0
          ],
          [
            2.096707,
            42.573504,
            1540.28
          ],
          [
            2.096824,
            42.573583,
            1540.85
          ],
          [
            2.096972,
            42.57373,
            1540.92
          ],
          [
            2.097221,
            42.574053,
            1540.67
          ],
          [
            2.097312,
            42.574229,
            1539.24
          ],
          [
            2.097303,
            42.574429,
            1537.88
          ],
          [
            2.097342,
            42.574514,
            1537.3
          ],
          [
            2.097686,
            42.57469,
            1539.24
          ],
          [
            2.097761,
            42.574818,
            1540.6
          ],
          [
            2.097685,
            42.574856,
            1540.84
          ],
          [
            2.097539,
            42.575001,
            1541.04
          ]
        ]
      }
    },
    {
      "type": "Feature",
      "properties": {
        "source": "Forêt_de_la_Matte.gpx",
        "type": "route"
      },
      "geometry": {
        "type": "LineString",
        "coordinates": [
          [
            2.105905,
            42.531685
          ],
          [
            2.106708,
            42.532993
          ],
          [
            2.101735,
            42.534216
          ],
          [
            2.098534,
            42.536355
          ],
          [
            2.092035,
            42.537759
          ],
          [
            2.090367,
            42.543645
          ],
          [
            2.0897,
            42.543998
          ],
          [
            2.08971,
            42.544551
          ],
          [
            2.090688,
            42.545182
          ],
          [
            2.090544,
            42.545235
          ],
          [
            2.095523,
            42.555504
          ],
          [
            2.095523,
            42.555504
          ],
          [
            2.09517,
            42.557699
          ],
          [
            2.091678,
            42.562722
          ],
          [
            2.086979,
            42.57108
          ],
          [
            2.092088,
            42.574817
          ],
          [
            2.092415,
            42.57484
          ],
          [
            2.096824,
            42.573583
          ],
          [
            2.097761,
            42.574818
          ],
          [
            2.097539,
            42.575001
          ]
        ]
      }
    }
  ]
}