{
  "type": "FeatureCollection",
  "features": [
    {
      "type": "Feature",
      "properties": {
        "name": "GraphHopper Track",
        "source": "Roc_de_Pennautier.gpx",
        "type": "track"
      },
      "geometry": {
        "type": "LineString",
        "coordinates": [
          [
            2.315054,
            43.245367,
            102.08
          ],
          [
            2.314698,
            43.245735,
            102.42
          ],
          [
            2.314329,
            43.246012,
            102.79
          ],
          [
            2.313819,
            43.246303,
            103.23
          ],
          [
            2.312488,
            43.246979,
            104.43
          ],
          [
            2.309242,
            43.248042,
            105.6
          ],
          [
            2.308953,
            43.248097,
            105.19
          ],
          [
            2.307936,
            43.248112,
            105.0
          ],
          [
            2.306919,
            43.248097,
            103.86
          ],
          [
            2.306019,
            43.248192,
            102.74
          ],
          [
            2.305489,
            43.248202,
            103.09
          ],
          [
            2.305489,
            43.248202,
            103.09
          ],
          [
            2.306019,
            43.248192,
            102.74
          ],
          [
            2.306919,
            43.248097,
            103.86
          ],
          [
            2.307936,
            43.248112,
            105.0
          ],
          [
            2.308953,
            43.248097,
            105.19
          ],
          [
            2.309242,
            43.248042,
            105.6
          ],
          [
            2.312488,
            43.246979,
            104.43
          ],
          [
            2.313819,
            43.246303,
            103.23
          ],
          [
            2.314329,
            43.246012,
            102.79
          ],
          [
            2.314698,
            43.245735,
            102.42
          ],
          [
            2.315054,
            43.245367,
            102.08
          ]
        ]
      }
    },
    {
      "type": "Feature",
      "properties": {
        "source": "Roc_de_Pennautier.gpx",
        "type": "route"
      },
      "geometry": {
        "type": "LineString",
        "coordinates": [
          [
            2.315054,
            43.245367
          ],
          [
            2.305489,
            43.248202
          ],
          [
            2.305489,
            43.248202
          ],
          [
            2.315054,
            43.245367
          ]
        ]
      }
    }
  ]
}