{
  "type": "FeatureCollection",
  "features": [
    {
      "type": "Feature",
      "properties": {
        "name": "GraphHopper Track",
        "source": "Circuit_de_Fraysse.gpx",
        "type": "track"
      },
      "geometry": {
        "type": "LineString",
        "coordinates": [
          [
            2.439012,
            43.888923,
            615.03
          ],
          [
            2.439012,
            43.888923,
            615.03
          ]
        ]
      }
    },
    {
      "type": "Feature",
      "properties": {
        "source": "Circuit_de_Fraysse.gpx",
        "type": "route"
      },
      "geometry": {
        "type": "LineString",
        "coordinates": [
          [
            2.439012,
            43.888923
          ],
          [
            2.439012,
            43.888923
          ]
        ]
      }
    }
  ]
}