{
  "type": "FeatureCollection",
  "features": [
    {
      "type": "Feature",
      "properties": {
        "name": "GraphHopper Track",
        "source": "Boucle_Roquefeuil.gpx",
        "type": "track"
      },
      "geometry": {
        "type": "LineString",
        "coordinates": [
          [
            1.911875,
            42.819013,
            1256.91
          ],
          [
            1.912587,
            42.818521,
            1260.17
          ],
          [
            1.913447,
            42.817944,
            1264.78
          ],
          [
            1.913945,
            42.817585,
            1266.04
          ],
          [
            1.914719,
            42.817873,
            1271.18
          ],
          [
            1.915392,
            42.818013,
            1275.41
          ],
          [
            1.916059,
            42.818169,
            1280.24
          ],
          [
            1.916527,
            42.8183,
            1284.29
          ],
          [
            1.916849,
            42.818357,
            1287.12
          ],
          [
            1.917549,
            42.818579,
            1294.35
          ],
          [
            1.918286,
            42.818656,
            1301.35
          ],
          [
            1.918614,
            42.818741,
            1305.0
          ],
          [
            1.919407,
            42.818851,
            1316.24
          ],
          [
            1.920336,
            42.819291,
            1341.05
          ],
          [
            1.920568,
            42.819469,
            1349.93
          ],
          [
            1.920906,
            42.819693,
            1362.14
          ],
          [
            1.921508,
            42.82012,
            1382.34
          ],
          [
            1.921811,
            42.820254,
            1389.55
          ],
          [
            1.921895,
            42.820321,
            1391.45
          ],
          [
            1.922001,
            42.820472,
            1394.48
          ],
          [
            1.922694,
            42.820777,
            1403.77
          ],
          [
            1.922691,
            42.820862,
            1404.51
          ],
          [
            1.922715,
            42.820947,
            1405.08
          ],
          [
            1.922826,
            42.821115,
            1405.71
          ],
          [
            1.922938,
            42.821215,
            1406.28
          ],
          [
            1.923097,
            42.821299,
            1406.84
          ],
          [
            1.923499,
            42.821431,
            1408.54
          ],
          [
            1.923581,
            42.821825,
            1411.77
          ],
          [
            1.923563,
            42.822161,
            1415.65
          ],
          [
            1.923496,
            42.822344,
            1419.09
          ],
          [
            1.923485,
            42.822587,
            1424.41
          ],
          [
            1.922891,
            42.82384,
            1450.24
          ],
          [
            1.922741,
            42.824865,
            1452.59
          ],
          [
            1.922864,
            42.82543,
            1447.73
          ],
          [
            1.922864,
            42.82543,
            1447.73
          ],
          [
            1.922741,
            42.824865,
            1452.59
          ],
          [
            1.922891,
            42.82384,
            1450.24
          ],
          [
            1.923485,
            42.822587,
            1424.41
          ],
          [
            1.923496,
            42.822344,
            1419.09
          ],
          [
            1.923563,
            42.822161,
            1415.65
          ],
          [
            1.923581,
            42.821825,
            1411.77
          ],
          [
            1.923499,
            42.821431,
            1408.54
          ],
          [
            1.923097,
            42.821299,
            1406.84
          ],
          [
            1.922938,
            42.821215,
            1406.28
          ],
          [
            1.922826,
            42.821115,
            1405.71
          ],
          [
            1.922715,
            42.820947,
            1405.08
          ],
          [
            1.922691,
            42.820862,
            1404.51
          ],
          [
            1.922694,
            42.820777,
            1403.77
          ],
          [
            1.922001,
            42.820472,
            1394.48
          ],
          [
            1.921895,
            42.820321,
            1391.45
          ],
          [
            1.921811,
            42.820254,
            1389.55
          ],
          [
            1.921508,
            42.82012,
            1382.34
          ],
          [
            1.920906,
            42.819693,
            1362.14
          ],
          [
            1.920568,
            42.819469,
            1349.93
          ],
          [
            1.920336,
            42.819291,
            1341.05
          ],
          [
            1.919407,
            42.818851,
            1316.24
          ],
          [
            1.918614,
            42.818741,
            1305.0
          ],
          [
            1.918286,
            42.818656,
            1301.35
          ],
          [
            1.917549,
            42.818579,
            1294.35
          ],
          [
            1.916849,
            42.818357,
            1287.12
          ],
          [
            1.916527,
            42.8183,
            1284.29
          ],
          [
            1.916059,
            42.818169,
            1280.24
          ],
          [
            1.915392,
            42.818013,
            1275.41
          ],
          [
            1.914719,
            42.817873,
            1271.18
          ],
          [
            1.913945,
            42.817585,
            1266.04
          ],
          [
            1.913447,
            42.817944,
            1264.78
          ],
          [
            1.912587,
            42.818521,
            1260.17
          ],
          [
            1.911875,
            42.819013,
            1256.91
          ]
        ]
      }
    },
    {
      "type": "Feature",
      "properties": {
        "source": "Boucle_Roquefeuil.gpx",
        "type": "route"
      },
      "geometry": {
        "type": "LineString",
        "coordinates": [
          [
            1.911875,
            42.819013
          ],
          [
            1.913945,
            42.817585
          ],
          [
            1.922001,
            42.820472
          ],
          [
            1.922694,
            42.820777
          ],
          [
            1.923499,
            42.821431
          ],
          [
            1.922864,
            42.82543
          ],
          [
            1.922864,
            42.82543
          ],
          [
            1.923563,
            42.822161
          ],
          [
            1.923499,
            42.821431
          ],
          [
            1.922694,
            42.820777
          ],
          [
            1.913945,
            42.817585
          ],
          [
            1.911875,
            42.819013
          ]
        ]
      }
    }
  ]
}