{
  "type": "FeatureCollection",
  "features": [
    {
      "type": "Feature",
      "properties": {
        "name": "GraphHopper Track",
        "source": "Costabona_Crêtes.gpx",
        "type": "track"
      },
      "geometry": {
        "type": "LineString",
        "coordinates": [
          [
            2.376991,
            42.459182,
            1748.94
          ],
          [
            2.376743,
            42.459176,
            1747.29
          ],
          [
            2.37668,
            42.459168,
            1747.13
          ],
          [
            2.376621,
            42.459178,
            1747.06
          ],
          [
            2.376229,
            42.459146,
            1747.73
          ],
          [
            2.376123,
            42.459121,
            1748.22
          ],
          [
            2.376067,
            42.459086,
            1748.75
          ],
          [
            2.376013,
            42.459074,
            1749.31
          ],
          [
            2.375952,
            42.459086,
            1749.64
          ],
          [
            2.37585,
            42.459066,
            1749.87
          ],
          [
            2.375714,
            42.459061,
            1750.33
          ],
          [
            2.375582,
            42.459047,
            1751.54
          ],
          [
            2.375339,
            42.458973,
            1752.04
          ],
          [
            2.375284,
            42.458976,
            1752.32
          ],
          [
            2.375049,
            42.459043,
            1753.82
          ],
          [
            2.374882,
            42.459063,
            1754.76
          ],
          [
            2.374385,
            42.459071,
            1757.22
          ],
          [
            2.37423,
            42.459088,
            1758.19
          ],
          [
            2.373904,
            42.459143,
            1760.45
          ],
          [
            2.373483,
            42.459187,
            1763.17
          ],
          [
            2.373286,
            42.459194,
            1764.45
          ],
          [
            2.373064,
            42.459173,
            1765.98
          ],
          [
            2.372818,
            42.459134,
            1767.65
          ],
          [
            2.372383,
            42.458961,
            1770.69
          ],
          [
            2.372022,
            42.458844,
            1772.96
          ],
          [
            2.371843,
            42.458743,
            1774.28
          ],
          [
            2.3715,
            42.458494,
            1777.1
          ],
          [
            2.370762,
            42.458061,
            1782.54
          ],
          [
            2.369992,
            42.457536,
            1788.73
          ],
          [
            2.369857,
            42.457407,
            1790.43
          ],
          [
            2.369801,
            42.457391,
            1790.91
          ],
          [
            2.369712,
            42.457398,
            1791.63
          ],
          [
            2.369572,
            42.457426,
            1792.84
          ],
          [
            2.369465,
            42.457483,
            1793.96
          ],
          [
            2.369378,
            42.457556,
            1795.08
          ],
          [
            2.369229,
            42.457709,
            1797.23
          ],
          [
            2.36899,
            42.457904,
            1799.64
          ],
          [
            2.368795,
            42.458099,
            1801.04
          ],
          [
            2.368671,
            42.458204,
            1801.75
          ],
          [
            2.368513,
            42.458293,
            1802.5
          ],
          [
            2.3684,
            42.458328,
            1802.94
          ],
          [
            2.368299,
            42.458331,
            1803.3
          ],
          [
            2.368155,
            42.458313,
            1803.84
          ],
          [
            2.367758,
            42.45821,
            1805.62
          ],
          [
            2.367555,
            42.458148,
            1806.58
          ],
          [
            2.367142,
            42.457977,
            1808.87
          ],
          [
            2.366834,
            42.457872,
            1810.34
          ],
          [
            2.366746,
            42.45783,
            1810.8
          ],
          [
            2.366622,
            42.457745,
            1811.58
          ],
          [
            2.366465,
            42.457607,
            1812.74
          ],
          [
            2.366312,
            42.457499,
            1813.76
          ],
          [
            2.366139,
            42.457324,
            1815.19
          ],
          [
            2.366018,
            42.457174,
            1816.48
          ],
          [
            2.365891,
            42.457066,
            1817.51
          ],
          [
            2.365633,
            42.456901,
            1819.44
          ],
          [
            2.365547,
            42.456828,
            1820.19
          ],
          [
            2.365484,
            42.456728,
            1821.05
          ],
          [
            2.365444,
            42.456645,
            1821.78
          ],
          [
            2.365336,
            42.456303,
            1824.44
          ],
          [
            2.36529,
            42.456187,
            1825.35
          ],
          [
            2.365222,
            42.456108,
            1826.05
          ],
          [
            2.365117,
            42.456023,
            1826.83
          ],
          [
            2.364982,
            42.455937,
            1827.72
          ],
          [
            2.364932,
            42.455891,
            1828.11
          ],
          [
            2.364909,
            42.45582,
            1828.6
          ],
          [
            2.364947,
            42.45556,
            1830.25
          ],
          [
            2.364775,
            42.454932,
            1833.21
          ],
          [
            2.364771,
            42.454838,
            1833.65
          ],
          [
            2.364783,
            42.454751,
            1834.1
          ],
          [
            2.364846,
            42.454524,
            1835.2
          ],
          [
            2.364889,
            42.45441,
            1835.61
          ],
          [
            2.36498,
            42.454223,
            1836.2
          ],
          [
            2.365076,
            42.454077,
            1836.54
          ],
          [
            2.365185,
            42.45398,
            1836.69
          ],
          [
            2.365408,
            42.453848,
            1836.85
          ],
          [
            2.365541,
            42.453756,
            1836.98
          ],
          [
            2.365593,
            42.453695,
            1837.02
          ],
          [
            2.365629,
            42.453611,
            1837.08
          ],
          [
            2.365623,
            42.453507,
            1837.19
          ],
          [
            2.365511,
            42.45315,
            1838.12
          ],
          [
            2.365521,
            42.453095,
            1838.31
          ],
          [
            2.365702,
            42.45274,
            1840.46
          ],
          [
            2.365703,
            42.452679,
            1840.93
          ],
          [
            2.365678,
            42.452634,
            1841.3
          ],
          [
            2.365483,
            42.452465,
            1842.99
          ],
          [
            2.365298,
            42.452285,
            1844.92
          ],
          [
            2.365217,
            42.452176,
            1846.0
          ],
          [
            2.365168,
            42.452075,
            1846.94
          ],
          [
            2.36513,
            42.451925,
            1848.35
          ],
          [
            2.365094,
            42.451433,
            1853.21
          ],
          [
            2.365096,
            42.451169,
            1855.99
          ],
          [
            2.365113,
            42.451062,
            1857.06
          ],
          [
            2.365185,
            42.45092,
            1858.61
          ],
          [
            2.365407,
            42.450711,
            1861.34
          ],
          [
            2.365473,
            42.450633,
            1862.25
          ],
          [
            2.365482,
            42.450514,
            1863.4
          ],
          [
            2.365427,
            42.450431,
            1864.24
          ],
          [
            2.365346,
            42.450388,
            1864.89
          ],
          [
            2.365179,
            42.450382,
            1865.98
          ],
          [
            2.365086,
            42.450369,
            1866.59
          ],
          [
            2.364374,
            42.450051,
            1872.11
          ],
          [
            2.363841,
            42.44985,
            1875.95
          ],
          [
            2.363544,
            42.44972,
            1878.09
          ],
          [
            2.363256,
            42.449565,
            1880.23
          ],
          [
            2.363146,
            42.449452,
            1881.23
          ],
          [
            2.363104,
            42.44937,
            1881.82
          ],
          [
            2.363096,
            42.449286,
            1882.4
          ],
          [
            2.363118,
            42.449119,
            1883.55
          ],
          [
            2.363119,
            42.449015,
            1884.33
          ],
          [
            2.363015,
            42.448796,
            1886.08
          ],
          [
            2.36295,
            42.448542,
            1887.82
          ],
          [
            2.362882,
            42.448054,
            1890.21
          ],
          [
            2.362852,
            42.447942,
            1888.61
          ],
          [
            2.362859,
            42.447824,
            1888.03
          ],
          [
            2.362875,
            42.447764,
            1888.04
          ],
          [
            2.362944,
            42.447702,
            1887.82
          ],
          [
            2.363047,
            42.447666,
            1887.45
          ],
          [
            2.363254,
            42.447638,
            1887.07
          ],
          [
            2.363312,
            42.447581,
            1886.98
          ],
          [
            2.363309,
            42.447522,
            1886.84
          ],
          [
            2.363252,
            42.447471,
            1886.74
          ],
          [
            2.363163,
            42.447455,
            1886.69
          ],
          [
            2.363004,
            42.447442,
            1886.69
          ],
          [
            2.362788,
            42.447444,
            1886.57
          ],
          [
            2.362634,
            42.447485,
            1886.44
          ],
          [
            2.362269,
            42.447652,
            1886.47
          ],
          [
            2.362032,
            42.447725,
            1886.73
          ],
          [
            2.361807,
            42.447747,
            1886.92
          ],
          [
            2.361496,
            42.447726,
            1887.21
          ],
          [
            2.361314,
            42.447724,
            1887.33
          ],
          [
            2.361186,
            42.447765,
            1887.41
          ],
          [
            2.360901,
            42.44807,
            1887.71
          ],
          [
            2.360613,
            42.448257,
            1887.82
          ],
          [
            2.360287,
            42.448331,
            1887.72
          ],
          [
            2.359975,
            42.448351,
            1887.43
          ],
          [
            2.359685,
            42.448324,
            1887.27
          ],
          [
            2.359444,
            42.448252,
            1887.28
          ],
          [
            2.359249,
            42.448147,
            1887.43
          ],
          [
            2.359101,
            42.448009,
            1887.71
          ],
          [
            2.358732,
            42.447415,
            1889.78
          ],
          [
            2.358282,
            42.446919,
            1892.9
          ],
          [
            2.358154,
            42.446738,
            1894.06
          ],
          [
            2.358058,
            42.446554,
            1895.09
          ],
          [
            2.357961,
            42.446506,
            1895.52
          ],
          [
            2.357832,
            42.446516,
            1895.99
          ],
          [
            2.357671,
            42.446509,
            1896.56
          ],
          [
            2.3575,
            42.446424,
            1897.26
          ],
          [
            2.356972,
            42.44602,
            1899.09
          ],
          [
            2.356882,
            42.445906,
            1899.47
          ],
          [
            2.356887,
            42.445732,
            1899.53
          ],
          [
            2.356863,
            42.445627,
            1898.94
          ],
          [
            2.356733,
            42.445593,
            1898.61
          ],
          [
            2.356527,
            42.445635,
            1897.68
          ],
          [
            2.356353,
            42.445773,
            1895.55
          ],
          [
            2.356124,
            42.446001,
            1892.24
          ],
          [
            2.356028,
            42.446112,
            1892.37
          ],
          [
            2.355965,
            42.446215,
            1893.61
          ],
          [
            2.355942,
            42.446369,
            1895.46
          ],
          [
            2.356271,
            42.44665,
            1897.07
          ],
          [
            2.35648,
            42.44686,
            1898.13
          ],
          [
            2.35653,
            42.446964,
            1898.55
          ],
          [
            2.356547,
            42.447083,
            1899.01
          ],
          [
            2.356526,
            42.447298,
            1899.85
          ],
          [
            2.356539,
            42.447548,
            1900.89
          ],
          [
            2.356488,
            42.447983,
            1902.7
          ],
          [
            2.356506,
            42.448196,
            1903.51
          ],
          [
            2.356696,
            42.448848,
            1905.75
          ],
          [
            2.356822,
            42.449121,
            1906.53
          ],
          [
            2.357009,
            42.449471,
            1907.45
          ],
          [
            2.357201,
            42.449768,
            1908.4
          ],
          [
            2.357598,
            42.45032,
            1910.15
          ],
          [
            2.358152,
            42.451035,
            1912.07
          ],
          [
            2.358264,
            42.451215,
            1912.34
          ],
          [
            2.35833,
            42.451375,
            1912.71
          ],
          [
            2.358337,
            42.451484,
            1912.98
          ],
          [
            2.358312,
            42.451577,
            1913.23
          ],
          [
            2.358231,
            42.451667,
            1913.53
          ],
          [
            2.357852,
            42.451907,
            1914.97
          ],
          [
            2.35752,
            42.452213,
            1916.85
          ],
          [
            2.357336,
            42.452427,
            1918.04
          ],
          [
            2.357211,
            42.452686,
            1918.93
          ],
          [
            2.357166,
            42.452866,
            1919.37
          ],
          [
            2.357162,
            42.453022,
            1919.63
          ],
          [
            2.357191,
            42.45312,
            1919.71
          ],
          [
            2.357275,
            42.45324,
            1919.87
          ],
          [
            2.357521,
            42.453523,
            1920.44
          ],
          [
            2.357567,
            42.453598,
            1920.63
          ],
          [
            2.357582,
            42.4537,
            1920.91
          ],
          [
            2.357517,
            42.453915,
            1921.65
          ],
          [
            2.357463,
            42.454037,
            1922.09
          ],
          [
            2.357182,
            42.454343,
            1923.68
          ],
          [
            2.357018,
            42.454585,
            1924.87
          ],
          [
            2.356896,
            42.454888,
            1926.03
          ],
          [
            2.356802,
            42.455195,
            1926.88
          ],
          [
            2.35669,
            42.455973,
            1927.79
          ],
          [
            2.356657,
            42.456119,
            1927.94
          ],
          [
            2.356588,
            42.456245,
            1928.11
          ],
          [
            2.356472,
            42.456341,
            1928.29
          ],
          [
            2.356269,
            42.456427,
            1928.58
          ],
          [
            2.355619,
            42.456585,
            1930.11
          ],
          [
            2.355281,
            42.456711,
            1931.16
          ],
          [
            2.354928,
            42.456876,
            1932.24
          ],
          [
            2.354758,
            42.456934,
            1932.7
          ],
          [
            2.354394,
            42.457043,
            1933.7
          ],
          [
            2.353992,
            42.45713,
            1934.69
          ],
          [
            2.352335,
            42.45724,
            1938.17
          ],
          [
            2.351867,
            42.457259,
            1939.34
          ],
          [
            2.351341,
            42.457244,
            1940.89
          ],
          [
            2.350452,
            42.457258,
            1943.41
          ],
          [
            2.349741,
            42.457242,
            1945.45
          ],
          [
            2.349515,
            42.457213,
            1946.11
          ],
          [
            2.349374,
            42.457162,
            1946.57
          ],
          [
            2.347208,
            42.456151,
            1953.51
          ],
          [
            2.346078,
            42.455725,
            1956.66
          ],
          [
            2.345961,
            42.455707,
            1956.89
          ],
          [
            2.345398,
            42.455733,
            1957.88
          ],
          [
            2.345059,
            42.455718,
            1958.74
          ],
          [
            2.344572,
            42.455618,
            1959.7
          ],
          [
            2.344206,
            42.455512,
            1961.3
          ],
          [
            2.34395,
            42.455498,
            1961.78
          ],
          [
            2.34372,
            42.455516,
            1962.79
          ],
          [
            2.343456,
            42.455578,
            1963.27
          ],
          [
            2.342983,
            42.455633,
            1964.25
          ],
          [
            2.342484,
            42.455637,
            1965.39
          ],
          [
            2.342359,
            42.455654,
            1965.6
          ],
          [
            2.342229,
            42.45569,
            1965.85
          ],
          [
            2.342049,
            42.455725,
            1966.39
          ],
          [
            2.341243,
            42.455745,
            1969.82
          ],
          [
            2.341055,
            42.455788,
            1970.5
          ],
          [
            2.340897,
            42.45586,
            1971.22
          ],
          [
            2.340648,
            42.456036,
            1972.4
          ],
          [
            2.340199,
            42.456273,
            1974.0
          ],
          [
            2.340149,
            42.456345,
            1974.29
          ],
          [
            2.34014,
            42.456412,
            1974.53
          ],
          [
            2.340209,
            42.456506,
            1974.93
          ],
          [
            2.340258,
            42.456639,
            1975.45
          ],
          [
            2.340263,
            42.45676,
            1975.87
          ],
          [
            2.340209,
            42.456974,
            1976.62
          ],
          [
            2.340082,
            42.457181,
            1977.52
          ],
          [
            2.339799,
            42.457453,
            1978.76
          ],
          [
            2.339652,
            42.457617,
            1979.43
          ],
          [
            2.339513,
            42.457833,
            1980.16
          ],
          [
            2.339397,
            42.457955,
            1980.57
          ],
          [
            2.338963,
            42.458331,
            1981.86
          ],
          [
            2.338735,
            42.45847,
            1982.48
          ],
          [
            2.338467,
            42.458599,
            1983.3
          ],
          [
            2.338243,
            42.458676,
            1984.01
          ],
          [
            2.337637,
            42.458802,
            1985.92
          ],
          [
            2.337401,
            42.458868,
            1986.64
          ],
          [
            2.337168,
            42.459008,
            1987.48
          ],
          [
            2.337064,
            42.459121,
            1987.93
          ],
          [
            2.337043,
            42.459202,
            1988.2
          ],
          [
            2.337098,
            42.459304,
            1988.53
          ],
          [
            2.337324,
            42.459538,
            1989.28
          ],
          [
            2.337615,
            42.459795,
            1989.93
          ],
          [
            2.337846,
            42.459931,
            1990.03
          ],
          [
            2.337997,
            42.459999,
            1989.99
          ],
          [
            2.338198,
            42.460065,
            1989.83
          ],
          [
            2.338739,
            42.460265,
            1988.3
          ],
          [
            2.338898,
            42.460316,
            1987.66
          ],
          [
            2.339001,
            42.460379,
            1987.13
          ],
          [
            2.339078,
            42.460461,
            1986.58
          ],
          [
            2.339173,
            42.460592,
            1985.75
          ],
          [
            2.339222,
            42.460704,
            1985.08
          ],
          [
            2.339228,
            42.460819,
            1984.42
          ],
          [
            2.33919,
            42.460933,
            1983.73
          ],
          [
            2.339064,
            42.46114,
            1982.41
          ],
          [
            2.338692,
            42.461614,
            1979.88
          ],
          [
            2.338534,
            42.461774,
            1978.93
          ],
          [
            2.338408,
            42.461949,
            1977.94
          ],
          [
            2.33823,
            42.462297,
            1976.14
          ],
          [
            2.338137,
            42.462418,
            1975.46
          ],
          [
            2.33782,
            42.462659,
            1973.71
          ],
          [
            2.33736,
            42.463116,
            1971.09
          ],
          [
            2.336576,
            42.463949,
            1966.34
          ],
          [
            2.336413,
            42.464085,
            1965.59
          ],
          [
            2.336138,
            42.464213,
            1964.6
          ],
          [
            2.335998,
            42.464333,
            1963.98
          ],
          [
            2.335816,
            42.464611,
            1962.91
          ],
          [
            2.33582,
            42.464672,
            1962.71
          ],
          [
            2.335897,
            42.464762,
            1962.37
          ],
          [
            2.336157,
            42.464954,
            1961.38
          ],
          [
            2.336359,
            42.465072,
            1960.69
          ],
          [
            2.336757,
            42.465206,
            1959.68
          ],
          [
            2.337134,
            42.465346,
            1958.98
          ],
          [
            2.337407,
            42.465433,
            1958.33
          ],
          [
            2.337543,
            42.465486,
            1957.97
          ],
          [
            2.337612,
            42.465534,
            1957.76
          ],
          [
            2.33773,
            42.465695,
            1957.22
          ],
          [
            2.337823,
            42.465771,
            1956.93
          ],
          [
            2.337964,
            42.46582,
            1956.63
          ],
          [
            2.33835,
            42.465918,
            1955.76
          ],
          [
            2.339479,
            42.466074,
            1953.79
          ],
          [
            2.339671,
            42.466121,
            1953.53
          ],
          [
            2.339803,
            42.46618,
            1953.32
          ],
          [
            2.341071,
            42.466937,
            1950.87
          ],
          [
            2.341372,
            42.467148,
            1950.15
          ],
          [
            2.341661,
            42.467409,
            1949.33
          ],
          [
            2.341769,
            42.46753,
            1948.92
          ],
          [
            2.341869,
            42.467719,
            1948.32
          ],
          [
            2.34197,
            42.467861,
            1947.79
          ],
          [
            2.34218,
            42.467994,
            1947.0
          ],
          [
            2.342779,
            42.46825,
            1945.33
          ],
          [
            2.343145,
            42.46844,
            1944.66
          ],
          [
            2.343222,
            42.468522,
            1944.47
          ],
          [
            2.343242,
            42.468674,
            1944.19
          ],
          [
            2.343185,
            42.468991,
            1943.56
          ],
          [
            2.343218,
            42.46961,
            1941.33
          ],
          [
            2.343266,
            42.469805,
            1940.57
          ],
          [
            2.343319,
            42.470148,
            1939.26
          ],
          [
            2.34338,
            42.470334,
            1938.56
          ],
          [
            2.34369,
            42.471054,
            1936.54
          ],
          [
            2.343697,
            42.471154,
            1936.33
          ],
          [
            2.343539,
            42.471369,
            1935.99
          ],
          [
            2.343418,
            42.471572,
            1935.85
          ],
          [
            2.343285,
            42.471768,
            1935.7
          ],
          [
            2.343174,
            42.471839,
            1935.6
          ],
          [
            2.342948,
            42.471944,
            1935.38
          ],
          [
            2.342655,
            42.472141,
            1934.93
          ],
          [
            2.34232,
            42.47247,
            1933.73
          ],
          [
            2.341967,
            42.472776,
            1931.94
          ],
          [
            2.34142,
            42.473115,
            1929.38
          ],
          [
            2.340712,
            42.473644,
            1925.89
          ],
          [
            2.340405,
            42.47383,
            1924.79
          ],
          [
            2.339943,
            42.474059,
            1923.21
          ],
          [
            2.339754,
            42.47418,
            1922.53
          ],
          [
            2.33957,
            42.474369,
            1921.67
          ],
          [
            2.339467,
            42.474587,
            1920.66
          ],
          [
            2.339407,
            42.475282,
            1917.44
          ],
          [
            2.33948,
            42.475713,
            1915.54
          ],
          [
            2.33955,
            42.475909,
            1914.63
          ],
          [
            2.339551,
            42.476004,
            1914.22
          ],
          [
            2.339507,
            42.476068,
            1913.9
          ],
          [
            2.339244,
            42.476252,
            1912.71
          ],
          [
            2.338739,
            42.47663,
            1909.93
          ],
          [
            2.338487,
            42.476897,
            1908.06
          ],
          [
            2.338275,
            42.477216,
            1905.94
          ],
          [
            2.33817,
            42.477281,
            1905.31
          ],
          [
            2.337968,
            42.477329,
            1904.34
          ],
          [
            2.337738,
            42.477338,
            1903.31
          ],
          [
            2.337287,
            42.477238,
            1901.34
          ],
          [
            2.336638,
            42.477017,
            1898.32
          ],
          [
            2.335853,
            42.476624,
            1894.77
          ],
          [
            2.335159,
            42.47633,
            1891.85
          ],
          [
            2.334933,
            42.476283,
            1891.04
          ],
          [
            2.334714,
            42.476277,
            1890.31
          ],
          [
            2.334446,
            42.476296,
            1889.34
          ],
          [
            2.333914,
            42.476356,
            1887.23
          ],
          [
            2.333283,
            42.47649,
            1884.68
          ],
          [
            2.332498,
            42.476717,
            1881.15
          ],
          [
            2.332093,
            42.476817,
            1879.45
          ],
          [
            2.331927,
            42.476831,
            1878.79
          ],
          [
            2.331714,
            42.476826,
            1877.93
          ],
          [
            2.3313,
            42.476722,
            1876.17
          ],
          [
            2.330348,
            42.476535,
            1872.3
          ],
          [
            2.32941,
            42.476331,
            1868.61
          ],
          [
            2.329104,
            42.476289,
            1867.4
          ],
          [
            2.328169,
            42.476183,
            1863.79
          ],
          [
            2.327664,
            42.476096,
            1861.99
          ],
          [
            2.326998,
            42.47583,
            1859.41
          ],
          [
            2.326389,
            42.475572,
            1856.83
          ],
          [
            2.325726,
            42.475303,
            1853.63
          ],
          [
            2.325394,
            42.475145,
            1851.61
          ],
          [
            2.325219,
            42.475106,
            1850.57
          ],
          [
            2.32507,
            42.475117,
            1849.69
          ],
          [
            2.324908,
            42.475179,
            1848.63
          ],
          [
            2.324772,
            42.475285,
            1847.27
          ],
          [
            2.324699,
            42.475481,
            1845.29
          ],
          [
            2.324635,
            42.47561,
            1844.17
          ],
          [
            2.324576,
            42.475675,
            1843.77
          ],
          [
            2.324391,
            42.475758,
            1845.89
          ],
          [
            2.324168,
            42.475831,
            1848.44
          ],
          [
            2.323562,
            42.476135,
            1856.38
          ],
          [
            2.323385,
            42.476183,
            1858.34
          ],
          [
            2.323048,
            42.476207,
            1862.01
          ],
          [
            2.32286,
            42.476254,
            1864.18
          ],
          [
            2.322705,
            42.476318,
            1866.11
          ],
          [
            2.322135,
            42.476409,
            1872.05
          ],
          [
            2.321997,
            42.476465,
            1873.86
          ],
          [
            2.321803,
            42.476569,
            1876.25
          ],
          [
            2.321543,
            42.476672,
            1879.51
          ],
          [
            2.321295,
            42.476742,
            1882.91
          ],
          [
            2.321031,
            42.476756,
            1886.11
          ],
          [
            2.320827,
            42.476755,
            1889.2
          ],
          [
            2.320594,
            42.476703,
            1892.73
          ],
          [
            2.320526,
            42.47666,
            1893.99
          ],
          [
            2.320498,
            42.476599,
            1895.27
          ],
          [
            2.320519,
            42.476556,
            1896.27
          ],
          [
            2.32061,
            42.476463,
            1898.99
          ],
          [
            2.32067,
            42.476276,
            1903.09
          ],
          [
            2.320634,
            42.476237,
            1903.99
          ],
          [
            2.320727,
            42.476066,
            1907.06
          ],
          [
            2.320831,
            42.475475,
            1920.03
          ],
          [
            2.321107,
            42.475031,
            1932.57
          ],
          [
            2.321294,
            42.47487,
            1938.45
          ],
          [
            2.321413,
            42.474255,
            1956.24
          ],
          [
            2.321757,
            42.474049,
            1965.36
          ],
          [
            2.321763,
            42.473752,
            1973.74
          ],
          [
            2.321827,
            42.4737,
            1975.7
          ],
          [
            2.321853,
            42.473419,
            1983.09
          ],
          [
            2.32196,
            42.473116,
            1990.88
          ],
          [
            2.321882,
            42.472834,
            1997.93
          ],
          [
            2.321833,
            42.472692,
            2001.48
          ],
          [
            2.321906,
            42.472555,
            2004.99
          ],
          [
            2.32162,
            42.47187,
            2023.64
          ],
          [
            2.321574,
            42.471621,
            2031.16
          ],
          [
            2.321716,
            42.47129,
            2042.15
          ],
          [
            2.321833,
            42.471191,
            2046.45
          ],
          [
            2.321769,
            42.470962,
            2053.87
          ],
          [
            2.321787,
            42.470757,
            2059.91
          ],
          [
            2.321781,
            42.470448,
            2067.67
          ],
          [
            2.321796,
            42.470109,
            2074.44
          ],
          [
            2.322112,
            42.469664,
            2081.06
          ],
          [
            2.322288,
            42.469501,
            2083.19
          ],
          [
            2.322587,
            42.469292,
            2086.34
          ],
          [
            2.322947,
            42.469003,
            2090.76
          ],
          [
            2.323101,
            42.46889,
            2092.98
          ],
          [
            2.323237,
            42.468609,
            2097.7
          ],
          [
            2.323424,
            42.468351,
            2102.86
          ],
          [
            2.323393,
            42.467863,
            2112.09
          ],
          [
            2.323321,
            42.467748,
            2114.54
          ],
          [
            2.323278,
            42.467534,
            2118.66
          ],
          [
            2.323265,
            42.46729,
            2123.3
          ],
          [
            2.323287,
            42.467218,
            2124.68
          ],
          [
            2.323619,
            42.467049,
            2130.43
          ],
          [
            2.323878,
            42.466998,
            2134.2
          ],
          [
            2.324247,
            42.466979,
            2139.32
          ],
          [
            2.3244,
            42.466994,
            2141.45
          ],
          [
            2.324728,
            42.466969,
            2145.92
          ],
          [
            2.325136,
            42.466898,
            2151.64
          ],
          [
            2.325366,
            42.466791,
            2155.41
          ],
          [
            2.325601,
            42.466763,
            2158.75
          ],
          [
            2.32598,
            42.466757,
            2164.23
          ],
          [
            2.326368,
            42.466696,
            2170.21
          ],
          [
            2.32669,
            42.466696,
            2175.31
          ],
          [
            2.326933,
            42.466636,
            2179.43
          ],
          [
            2.327364,
            42.466448,
            2187.12
          ],
          [
            2.327479,
            42.466314,
            2190.03
          ],
          [
            2.327751,
            42.465867,
            2197.24
          ],
          [
            2.327804,
            42.465657,
            2199.47
          ],
          [
            2.327805,
            42.464933,
            2203.61
          ],
          [
            2.327925,
            42.464388,
            2205.63
          ],
          [
            2.327962,
            42.463839,
            2208.02
          ],
          [
            2.328253,
            42.462957,
            2215.02
          ],
          [
            2.328368,
            42.462719,
            2217.6
          ],
          [
            2.328355,
            42.462598,
            2218.94
          ],
          [
            2.328394,
            42.462456,
            2220.48
          ],
          [
            2.328201,
            42.46156,
            2228.42
          ],
          [
            2.32807,
            42.460358,
            2234.03
          ],
          [
            2.328061,
            42.460067,
            2235.52
          ],
          [
            2.328121,
            42.459662,
            2237.64
          ],
          [
            2.328304,
            42.459016,
            2240.79
          ],
          [
            2.328258,
            42.458167,
            2242.63
          ],
          [
            2.328033,
            42.457482,
            2243.57
          ],
          [
            2.327917,
            42.456959,
            2245.79
          ],
          [
            2.327832,
            42.456435,
            2250.56
          ],
          [
            2.327674,
            42.455938,
            2257.81
          ],
          [
            2.327603,
            42.455525,
            2265.02
          ],
          [
            2.327595,
            42.455183,
            2271.04
          ],
          [
            2.327521,
            42.455024,
            2273.95
          ],
          [
            2.327408,
            42.454923,
            2276.21
          ],
          [
            2.327205,
            42.454567,
            2283.01
          ],
          [
            2.327087,
            42.454472,
            2285.29
          ],
          [
            2.326911,
            42.454176,
            2291.13
          ],
          [
            2.32645,
            42.453279,
            2309.25
          ],
          [
            2.326337,
            42.453133,
            2312.47
          ],
          [
            2.326124,
            42.452435,
            2324.77
          ],
          [
            2.326111,
            42.452142,
            2325.76
          ],
          [
            2.325887,
            42.450807,
            2326.08
          ],
          [
            2.325611,
            42.449965,
            2333.46
          ],
          [
            2.32547,
            42.449714,
            2338.06
          ],
          [
            2.325477,
            42.449458,
            2343.03
          ],
          [
            2.32542,
            42.449204,
            2348.43
          ],
          [
            2.325421,
            42.449092,
            2350.85
          ],
          [
            2.325444,
            42.449041,
            2352.02
          ],
          [
            2.325446,
            42.448999,
            2352.96
          ],
          [
            2.325475,
            42.448962,
            2353.93
          ],
          [
            2.325472,
            42.448889,
            2355.6
          ],
          [
            2.325517,
            42.448804,
            2357.72
          ],
          [
            2.325509,
            42.448727,
            2359.5
          ],
          [
            2.325516,
            42.448499,
            2364.59
          ],
          [
            2.325466,
            42.44823,
            2370.42
          ],
          [
            2.325594,
            42.447997,
            2375.93
          ],
          [
            2.325701,
            42.447864,
            2379.3
          ],
          [
            2.325749,
            42.447826,
            2380.45
          ],
          [
            2.325746,
            42.447789,
            2381.25
          ],
          [
            2.325793,
            42.447757,
            2382.25
          ],
          [
            2.325825,
            42.447709,
            2383.36
          ],
          [
            2.325886,
            42.447663,
            2384.69
          ],
          [
            2.326006,
            42.447485,
            2388.86
          ],
          [
            2.326124,
            42.44739,
            2391.54
          ],
          [
            2.326176,
            42.447289,
            2393.66
          ],
          [
            2.326267,
            42.447252,
            2395.11
          ],
          [
            2.326415,
            42.447119,
            2398.27
          ],
          [
            2.326529,
            42.446988,
            2400.96
          ],
          [
            2.326751,
            42.446592,
            2407.39
          ],
          [
            2.32692,
            42.446222,
            2412.42
          ],
          [
            2.327152,
            42.445965,
            2416.66
          ],
          [
            2.327433,
            42.445368,
            2423.79
          ],
          [
            2.327411,
            42.445076,
            2425.4
          ],
          [
            2.327304,
            42.444666,
            2425.14
          ],
          [
            2.327244,
            42.444574,
            2424.73
          ],
          [
            2.327189,
            42.444437,
            2424.07
          ],
          [
            2.327058,
            42.444233,
            2422.8
          ],
          [
            2.327041,
            42.444136,
            2422.18
          ],
          [
            2.32698,
            42.444012,
            2421.22
          ],
          [
            2.326859,
            42.44389,
            2420.02
          ],
          [
            2.326831,
            42.443821,
            2419.48
          ],
          [
            2.326701,
            42.443636,
            2417.92
          ],
          [
            2.326659,
            42.443455,
            2416.62
          ],
          [
            2.326614,
            42.443385,
            2416.08
          ],
          [
            2.326608,
            42.4433,
            2415.5
          ],
          [
            2.32657,
            42.443198,
            2414.79
          ],
          [
            2.326487,
            42.443035,
            2413.76
          ],
          [
            2.32647,
            42.442869,
            2412.96
          ],
          [
            2.326409,
            42.442714,
            2412.51
          ],
          [
            2.326448,
            42.442402,
            2412.45
          ],
          [
            2.326507,
            42.442113,
            2412.75
          ],
          [
            2.326632,
            42.441758,
            2412.99
          ],
          [
            2.326633,
            42.441325,
            2412.79
          ],
          [
            2.326697,
            42.440968,
            2411.97
          ],
          [
            2.326792,
            42.440637,
            2411.28
          ],
          [
            2.326793,
            42.440438,
            2410.94
          ],
          [
            2.326833,
            42.439984,
            2409.94
          ],
          [
            2.326879,
            42.439731,
            2408.94
          ],
          [
            2.326803,
            42.439524,
            2407.64
          ],
          [
            2.326724,
            42.439199,
            2404.64
          ],
          [
            2.326737,
            42.439125,
            2403.86
          ],
          [
            2.326775,
            42.439057,
            2403.05
          ],
          [
            2.326766,
            42.438944,
            2401.76
          ],
          [
            2.326692,
            42.43869,
            2398.58
          ],
          [
            2.326715,
            42.438654,
            2398.09
          ],
          [
            2.3267,
            42.438407,
            2395.12
          ],
          [
            2.326813,
            42.438074,
            2391.71
          ],
          [
            2.326859,
            42.437709,
            2388.91
          ],
          [
            2.326904,
            42.437484,
            2387.41
          ],
          [
            2.326954,
            42.437,
            2384.33
          ],
          [
            2.32696,
            42.436829,
            2383.31
          ],
          [
            2.327179,
            42.436454,
            2381.31
          ],
          [
            2.327406,
            42.435998,
            2380.16
          ],
          [
            2.327559,
            42.435732,
            2379.99
          ],
          [
            2.327885,
            42.434653,
            2379.28
          ],
          [
            2.328088,
            42.433825,
            2377.81
          ],
          [
            2.328648,
            42.432649,
            2378.14
          ],
          [
            2.32882,
            42.431767,
            2381.46
          ],
          [
            2.328828,
            42.4314,
            2383.4
          ],
          [
            2.328845,
            42.431103,
            2384.89
          ],
          [
            2.328798,
            42.430513,
            2388.44
          ],
          [
            2.328867,
            42.429887,
            2392.43
          ],
          [
            2.328927,
            42.429123,
            2397.01
          ],
          [
            2.328833,
            42.42839,
            2401.34
          ],
          [
            2.328852,
            42.428115,
            2403.03
          ],
          [
            2.328833,
            42.428003,
            2403.76
          ],
          [
            2.328827,
            42.427658,
            2405.95
          ],
          [
            2.328783,
            42.427482,
            2406.96
          ],
          [
            2.328737,
            42.42717,
            2408.51
          ],
          [
            2.328713,
            42.426835,
            2410.04
          ],
          [
            2.328729,
            42.426297,
            2412.0
          ],
          [
            2.328673,
            42.426127,
            2411.5
          ],
          [
            2.328619,
            42.425806,
            2407.98
          ],
          [
            2.328597,
            42.425748,
            2407.32
          ],
          [
            2.328569,
            42.425721,
            2406.84
          ],
          [
            2.32851,
            42.425688,
            2405.93
          ],
          [
            2.328383,
            42.425635,
            2404.16
          ],
          [
            2.328325,
            42.425622,
            2403.39
          ],
          [
            2.328249,
            42.425617,
            2402.38
          ],
          [
            2.32817,
            42.425576,
            2401.06
          ],
          [
            2.328109,
            42.425568,
            2400.2
          ],
          [
            2.328012,
            42.425576,
            2398.8
          ],
          [
            2.327851,
            42.425554,
            2396.36
          ],
          [
            2.327724,
            42.425523,
            2394.31
          ],
          [
            2.327696,
            42.425501,
            2393.68
          ],
          [
            2.3277,
            42.425486,
            2393.35
          ],
          [
            2.327791,
            42.425428,
            2391.39
          ],
          [
            2.327786,
            42.425401,
            2390.76
          ],
          [
            2.327773,
            42.42539,
            2390.44
          ],
          [
            2.327637,
            42.425383,
            2388.05
          ],
          [
            2.327556,
            42.425357,
            2386.44
          ],
          [
            2.327341,
            42.425263,
            2381.77
          ],
          [
            2.327175,
            42.425205,
            2378.46
          ],
          [
            2.327113,
            42.425171,
            2377.12
          ],
          [
            2.327059,
            42.425129,
            2375.78
          ],
          [
            2.326929,
            42.424989,
            2372.03
          ],
          [
            2.326726,
            42.42471,
            2365.18
          ],
          [
            2.326668,
            42.424609,
            2362.8
          ],
          [
            2.326455,
            42.424065,
            2350.75
          ],
          [
            2.32643,
            42.423938,
            2347.67
          ],
          [
            2.326436,
            42.423823,
            2344.78
          ],
          [
            2.326447,
            42.423766,
            2343.32
          ],
          [
            2.326529,
            42.423665,
            2340.26
          ],
          [
            2.326559,
            42.423612,
            2338.74
          ],
          [
            2.326559,
            42.423554,
            2337.14
          ],
          [
            2.326501,
            42.423271,
            2329.21
          ],
          [
            2.326512,
            42.42321,
            2327.59
          ],
          [
            2.32663,
            42.423038,
            2322.53
          ],
          [
            2.32672,
            42.422937,
            2319.06
          ],
          [
            2.326751,
            42.422887,
            2317.5
          ],
          [
            2.326773,
            42.422834,
            2316.06
          ],
          [
            2.326781,
            42.422775,
            2314.58
          ],
          [
            2.326773,
            42.422604,
            2310.81
          ],
          [
            2.326794,
            42.422545,
            2309.89
          ],
          [
            2.326871,
            42.422444,
            2307.69
          ],
          [
            2.326901,
            42.422372,
            2306.37
          ],
          [
            2.326696,
            42.422147,
            2305.22
          ],
          [
            2.326166,
            42.42186,
            2302.8
          ],
          [
            2.326146,
            42.42172,
            2302.1
          ],
          [
            2.326237,
            42.421606,
            2301.37
          ],
          [
            2.326527,
            42.421411,
            2299.79
          ],
          [
            2.326945,
            42.421101,
            2298.77
          ],
          [
            2.32698,
            42.420972,
            2298.76
          ],
          [
            2.327215,
            42.420766,
            2298.69
          ],
          [
            2.327455,
            42.420616,
            2299.05
          ],
          [
            2.327872,
            42.420442,
            2300.12
          ],
          [
            2.328283,
            42.42007,
            2301.19
          ],
          [
            2.328493,
            42.41983,
            2302.28
          ],
          [
            2.328675,
            42.419724,
            2302.98
          ],
          [
            2.328809,
            42.419603,
            2303.61
          ],
          [
            2.329202,
            42.419394,
            2304.97
          ],
          [
            2.329471,
            42.419264,
            2305.79
          ],
          [
            2.330101,
            42.419108,
            2306.59
          ],
          [
            2.330545,
            42.418865,
            2306.71
          ],
          [
            2.330838,
            42.418597,
            2306.58
          ],
          [
            2.33146,
            42.418217,
            2306.76
          ],
          [
            2.331856,
            42.418102,
            2307.07
          ],
          [
            2.332569,
            42.417712,
            2308.48
          ],
          [
            2.333413,
            42.417231,
            2310.66
          ],
          [
            2.333968,
            42.41701,
            2311.66
          ],
          [
            2.334246,
            42.416947,
            2312.26
          ],
          [
            2.334347,
            42.416915,
            2312.52
          ],
          [
            2.334875,
            42.416964,
            2316.16
          ],
          [
            2.335237,
            42.416982,
            2320.49
          ],
          [
            2.335605,
            42.416949,
            2324.76
          ],
          [
            2.335973,
            42.416886,
            2329.79
          ],
          [
            2.336443,
            42.416767,
            2336.24
          ],
          [
            2.336641,
            42.416738,
            2337.76
          ],
          [
            2.337012,
            42.416718,
            2339.35
          ],
          [
            2.337526,
            42.416653,
            2342.89
          ],
          [
            2.338113,
            42.416639,
            2349.24
          ],
          [
            2.338463,
            42.416555,
            2355.15
          ],
          [
            2.338653,
            42.41654,
            2358.76
          ],
          [
            2.339045,
            42.416547,
            2367.01
          ],
          [
            2.339184,
            42.416516,
            2370.15
          ],
          [
            2.339431,
            42.416572,
            2375.66
          ],
          [
            2.340278,
            42.416586,
            2390.25
          ],
          [
            2.340278,
            42.416586,
            2390.25
          ],
          [
            2.339431,
            42.416572,
            2375.66
          ],
          [
            2.339184,
            42.416516,
            2370.15
          ],
          [
            2.339045,
            42.416547,
            2367.01
          ],
          [
            2.338653,
            42.41654,
            2358.76
          ],
          [
            2.338508,
            42.416552,
            2356.0
          ]
        ]
      }
    },
    {
      "type": "Feature",
      "properties": {
        "source": "Costabona_Crêtes.gpx",
        "type": "route"
      },
      "geometry": {
        "type": "LineString",
        "coordinates": [
          [
            2.376991,
            42.459182
          ],
          [
            2.324576,
            42.475675
          ],
          [
            2.321543,
            42.476672
          ],
          [
            2.320634,
            42.476237
          ],
          [
            2.328828,
            42.4314
          ],
          [
            2.326901,
            42.422372
          ],
          [
            2.340278,
            42.416586
          ],
          [
            2.340278,
            42.416586
          ],
          [
            2.338508,
            42.416552
          ]
        ]
      }
    }
  ]
}