{
  "type": "FeatureCollection",
  "features": [
    {
      "type": "Feature",
      "properties": {
        "name": "GraphHopper Track",
        "source": "Montsaunès__Salies.gpx",
        "type": "track"
      },
      "geometry": {
        "type": "LineString",
        "coordinates": [
          [
            0.938236,
            43.111212,
            345.18
          ],
          [
            0.938236,
            43.111212,
            345.18
          ],
          [
            0.939194,
            43.110744,
            346.79
          ],
          [
            0.939739,
            43.110527,
            347.97
          ],
          [
            0.940353,
            43.110361,
            349.14
          ],
          [
            0.941372,
            43.11016,
            351.42
          ],
          [
            0.942572,
            43.109969,
            354.9
          ],
          [
            0.942749,
            43.109901,
            355.58
          ],
          [
            0.942942,
            43.109745,
            356.71
          ],
          [
            0.944014,
            43.108351,
            360.16
          ],
          [
            0.944407,
            43.108011,
            358.97
          ],
          [
            0.944693,
            43.107832,
            357.07
          ],
          [
            0.94511,
            43.107625,
            353.48
          ],
          [
            0.945591,
            43.107459,
            349.41
          ],
          [
            0.946302,
            43.107269,
            344.1
          ],
          [
            0.946574,
            43.107143,
            341.99
          ],
          [
            0.946748,
            43.106942,
            340.05
          ],
          [
            0.946996,
            43.1065,
            337.07
          ],
          [
            0.947487,
            43.105765,
            331.94
          ],
          [
            0.947874,
            43.105253,
            326.45
          ],
          [
            0.948158,
            43.105066,
            325.41
          ],
          [
            0.949017,
            43.104646,
            319.8
          ],
          [
            0.949616,
            43.104445,
            315.47
          ],
          [
            0.950268,
            43.104248,
            311.02
          ],
          [
            0.950928,
            43.104082,
            307.46
          ],
          [
            0.951542,
            43.103984,
            305.28
          ],
          [
            0.95183,
            43.103946,
            304.27
          ],
          [
            0.952427,
            43.103918,
            303.0
          ],
          [
            0.952784,
            43.103893,
            302.47
          ],
          [
            0.953185,
            43.10393,
            301.73
          ],
          [
            0.953643,
            43.104022,
            300.34
          ],
          [
            0.953651,
            43.103988,
            300.19
          ],
          [
            0.954681,
            43.104184,
            297.42
          ],
          [
            0.954711,
            43.104175,
            297.27
          ],
          [
            0.954776,
            43.104177,
            297.0
          ],
          [
            0.954782,
            43.104229,
            297.3
          ],
          [
            0.955435,
            43.104326,
            295.93
          ],
          [
            0.95601,
            43.104332,
            295.0
          ],
          [
            0.956021,
            43.104403,
            295.0
          ]
        ]
      }
    },
    {
      "type": "Feature",
      "properties": {
        "source": "Montsaunès__Salies.gpx",
        "type": "route"
      },
      "geometry": {
        "type": "LineString",
        "coordinates": [
          [
            0.938236,
            43.111212
          ],
          [
            0.938236,
            43.111212
          ],
          [
            0.953643,
            43.104022
          ],
          [
            0.954776,
            43.104177
          ],
          [
            0.954782,
            43.104229
          ],
          [
            0.95601,
            43.104332
          ],
          [
            0.956021,
            43.104403
          ]
        ]
      }
    }
  ]
}