{
  "type": "FeatureCollection",
  "features": [
    {
      "type": "Feature",
      "properties": {
        "name": "GraphHopper Track",
        "source": "Circuit_Fonsorbes.gpx",
        "type": "track"
      },
      "geometry": {
        "type": "LineString",
        "coordinates": [
          [
            1.230348,
            43.535566,
            200.64
          ],
          [
            1.230467,
            43.535711,
            200.54
          ],
          [
            1.229893,
            43.535998,
            200.66
          ],
          [
            1.230012,
            43.536113,
            201.0
          ],
          [
            1.228055,
            43.537481,
            199.23
          ],
          [
            1.227976,
            43.537528,
            199.18
          ],
          [
            1.227933,
            43.537538,
            199.15
          ],
          [
            1.227877,
            43.537531,
            199.08
          ],
          [
            1.227767,
            43.537477,
            199.0
          ],
          [
            1.2276,
            43.537423,
            199.0
          ],
          [
            1.227387,
            43.537393,
            199.0
          ],
          [
            1.227194,
            43.537406,
            199.0
          ],
          [
            1.227043,
            43.537442,
            199.0
          ],
          [
            1.226872,
            43.53752,
            199.0
          ],
          [
            1.226766,
            43.53744,
            199.0
          ],
          [
            1.225352,
            43.536552,
            200.0
          ],
          [
            1.225091,
            43.536824,
            200.0
          ],
          [
            1.224664,
            43.537312,
            200.0
          ],
          [
            1.224484,
            43.537561,
            200.0
          ],
          [
            1.224379,
            43.53775,
            200.0
          ],
          [
            1.224315,
            43.537901,
            200.0
          ],
          [
            1.223847,
            43.538813,
            200.02
          ],
          [
            1.22355,
            43.539437,
            200.22
          ],
          [
            1.223388,
            43.539755,
            201.16
          ],
          [
            1.223313,
            43.539885,
            201.44
          ],
          [
            1.223187,
            43.54004,
            201.8
          ],
          [
            1.223043,
            43.540155,
            202.06
          ],
          [
            1.22269,
            43.540395,
            203.0
          ],
          [
            1.222109,
            43.540737,
            203.0
          ],
          [
            1.22206,
            43.540773,
            203.0
          ],
          [
            1.221506,
            43.541042,
            203.0
          ],
          [
            1.220752,
            43.541386,
            203.0
          ],
          [
            1.220693,
            43.541421,
            203.0
          ],
          [
            1.220625,
            43.541444,
            203.0
          ],
          [
            1.219594,
            43.541903,
            203.05
          ],
          [
            1.218144,
            43.542564,
            203.78
          ],
          [
            1.217846,
            43.542707,
            203.75
          ],
          [
            1.217475,
            43.54287,
            203.02
          ],
          [
            1.217415,
            43.542806,
            203.06
          ],
          [
            1.217263,
            43.542874,
            203.02
          ],
          [
            1.216981,
            43.542982,
            203.0
          ],
          [
            1.216924,
            43.542995,
            203.0
          ],
          [
            1.216845,
            43.542993,
            203.0
          ],
          [
            1.216731,
            43.542968,
            203.0
          ],
          [
            1.216643,
            43.542938,
            203.0
          ],
          [
            1.216579,
            43.542891,
            203.0
          ],
          [
            1.216568,
            43.542872,
            203.0
          ],
          [
            1.216541,
            43.542882,
            203.0
          ],
          [
            1.21648,
            43.542832,
            203.0
          ],
          [
            1.216317,
            43.542595,
            203.0
          ],
          [
            1.216182,
            43.5425,
            203.0
          ],
          [
            1.216095,
            43.54249,
            203.0
          ],
          [
            1.216026,
            43.54245,
            203.0
          ],
          [
            1.215916,
            43.542462,
            203.0
          ],
          [
            1.215658,
            43.542553,
            203.0
          ],
          [
            1.214479,
            43.542968,
            204.0
          ],
          [
            1.214284,
            43.542897,
            204.72
          ],
          [
            1.214171,
            43.542864,
            204.8
          ],
          [
            1.213957,
            43.542822,
            204.97
          ],
          [
            1.213883,
            43.542836,
            204.99
          ],
          [
            1.213357,
            43.543028,
            206.0
          ],
          [
            1.213303,
            43.54298,
            205.79
          ],
          [
            1.213154,
            43.542885,
            205.52
          ],
          [
            1.213005,
            43.542819,
            205.84
          ],
          [
            1.21282,
            43.542776,
            206.18
          ],
          [
            1.21261,
            43.542755,
            206.42
          ],
          [
            1.212418,
            43.542762,
            206.85
          ],
          [
            1.212202,
            43.542814,
            207.0
          ],
          [
            1.212071,
            43.542867,
            207.0
          ],
          [
            1.211941,
            43.542931,
            207.0
          ],
          [
            1.211675,
            43.543125,
            207.0
          ],
          [
            1.211734,
            43.543186,
            206.96
          ],
          [
            1.212736,
            43.544482,
            205.8
          ],
          [
            1.211801,
            43.544779,
            205.85
          ],
          [
            1.210946,
            43.545023,
            206.4
          ],
          [
            1.213031,
            43.545925,
            206.0
          ],
          [
            1.21389,
            43.546252,
            206.0
          ],
          [
            1.214551,
            43.546563,
            206.0
          ],
          [
            1.214551,
            43.546563,
            206.0
          ],
          [
            1.21389,
            43.546252,
            206.0
          ],
          [
            1.213031,
            43.545925,
            206.0
          ],
          [
            1.210946,
            43.545023,
            206.4
          ],
          [
            1.211801,
            43.544779,
            205.85
          ],
          [
            1.212736,
            43.544482,
            205.8
          ],
          [
            1.211734,
            43.543186,
            206.96
          ],
          [
            1.211675,
            43.543125,
            207.0
          ],
          [
            1.211941,
            43.542931,
            207.0
          ],
          [
            1.212071,
            43.542867,
            207.0
          ],
          [
            1.212202,
            43.542814,
            207.0
          ],
          [
            1.212418,
            43.542762,
            206.85
          ],
          [
            1.21261,
            43.542755,
            206.42
          ],
          [
            1.21282,
            43.542776,
            206.18
          ],
          [
            1.213005,
            43.542819,
            205.84
          ],
          [
            1.213154,
            43.542885,
            205.52
          ],
          [
            1.213303,
            43.54298,
            205.79
          ],
          [
            1.213357,
            43.543028,
            206.0
          ],
          [
            1.213883,
            43.542836,
            204.99
          ],
          [
            1.213957,
            43.542822,
            204.97
          ],
          [
            1.214171,
            43.542864,
            204.8
          ],
          [
            1.214284,
            43.542897,
            204.72
          ],
          [
            1.214479,
            43.542968,
            204.0
          ],
          [
            1.214758,
            43.542872,
            204.0
          ],
          [
            1.215916,
            43.542462,
            203.0
          ],
          [
            1.216026,
            43.54245,
            203.0
          ],
          [
            1.216095,
            43.54249,
            203.0
          ],
          [
            1.216182,
            43.5425,
            203.0
          ],
          [
            1.216317,
            43.542595,
            203.0
          ],
          [
            1.21648,
            43.542832,
            203.0
          ],
          [
            1.216541,
            43.542882,
            203.0
          ],
          [
            1.216568,
            43.542872,
            203.0
          ],
          [
            1.216579,
            43.542891,
            203.0
          ],
          [
            1.216643,
            43.542938,
            203.0
          ],
          [
            1.216731,
            43.542968,
            203.0
          ],
          [
            1.216845,
            43.542993,
            203.0
          ],
          [
            1.216924,
            43.542995,
            203.0
          ],
          [
            1.216981,
            43.542982,
            203.0
          ],
          [
            1.217263,
            43.542874,
            203.02
          ],
          [
            1.217415,
            43.542806,
            203.06
          ],
          [
            1.217475,
            43.54287,
            203.02
          ],
          [
            1.217846,
            43.542707,
            203.75
          ],
          [
            1.218144,
            43.542564,
            203.78
          ],
          [
            1.219594,
            43.541903,
            203.05
          ],
          [
            1.220625,
            43.541444,
            203.0
          ],
          [
            1.220693,
            43.541421,
            203.0
          ],
          [
            1.220752,
            43.541386,
            203.0
          ],
          [
            1.221506,
            43.541042,
            203.0
          ],
          [
            1.22206,
            43.540773,
            203.0
          ],
          [
            1.222109,
            43.540737,
            203.0
          ],
          [
            1.22269,
            43.540395,
            203.0
          ],
          [
            1.223043,
            43.540155,
            202.06
          ],
          [
            1.223187,
            43.54004,
            201.8
          ],
          [
            1.223313,
            43.539885,
            201.44
          ],
          [
            1.223388,
            43.539755,
            201.16
          ],
          [
            1.22355,
            43.539437,
            200.22
          ],
          [
            1.223847,
            43.538813,
            200.02
          ],
          [
            1.224315,
            43.537901,
            200.0
          ],
          [
            1.224379,
            43.53775,
            200.0
          ],
          [
            1.224484,
            43.537561,
            200.0
          ],
          [
            1.224664,
            43.537312,
            200.0
          ],
          [
            1.225091,
            43.536824,
            200.0
          ],
          [
            1.225352,
            43.536552,
            200.0
          ],
          [
            1.226766,
            43.53744,
            199.0
          ],
          [
            1.226872,
            43.53752,
            199.0
          ],
          [
            1.227043,
            43.537442,
            199.0
          ],
          [
            1.227194,
            43.537406,
            199.0
          ],
          [
            1.227387,
            43.537393,
            199.0
          ],
          [
            1.2276,
            43.537423,
            199.0
          ],
          [
            1.227767,
            43.537477,
            199.0
          ],
          [
            1.227877,
            43.537531,
            199.08
          ],
          [
            1.227933,
            43.537538,
            199.15
          ],
          [
            1.227976,
            43.537528,
            199.18
          ],
          [
            1.228055,
            43.537481,
            199.23
          ],
          [
            1.230012,
            43.536113,
            201.0
          ],
          [
            1.229893,
            43.535998,
            200.66
          ],
          [
            1.230467,
            43.535711,
            200.54
          ],
          [
            1.230348,
            43.535566,
            200.64
          ]
        ]
      }
    },
    {
      "type": "Feature",
      "properties": {
        "source": "Circuit_Fonsorbes.gpx",
        "type": "route"
      },
      "geometry": {
        "type": "LineString",
        "coordinates": [
          [
            1.230348,
            43.535566
          ],
          [
            1.230467,
            43.535711
          ],
          [
            1.229893,
            43.535998
          ],
          [
            1.230012,
            43.536113
          ],
          [
            1.225352,
            43.536552
          ],
          [
            1.217475,
            43.54287
          ],
          [
            1.216568,
            43.542872
          ],
          [
            1.216541,
            43.542882
          ],
          [
            1.216317,
            43.542595
          ],
          [
            1.216182,
            43.5425
          ],
          [
            1.215658,
            43.542553
          ],
          [
            1.214479,
            43.542968
          ],
          [
            1.211675,
            43.543125
          ],
          [
            1.212736,
            43.544482
          ],
          [
            1.210946,
            43.545023
          ],
          [
            1.214551,
            43.546563
          ],
          [
            1.214551,
            43.546563
          ],
          [
            1.210946,
            43.545023
          ],
          [
            1.212736,
            43.544482
          ],
          [
            1.211675,
            43.543125
          ],
          [
            1.213357,
            43.543028
          ],
          [
            1.214758,
            43.542872
          ],
          [
            1.215916,
            43.542462
          ],
          [
            1.216026,
            43.54245
          ],
          [
            1.21648,
            43.542832
          ],
          [
            1.216541,
            43.542882
          ],
          [
            1.216568,
            43.542872
          ],
          [
            1.217475,
            43.54287
          ],
          [
            1.225352,
            43.536552
          ],
          [
            1.230012,
            43.536113
          ],
          [
            1.229893,
            43.535998
          ],
          [
            1.230467,
            43.535711
          ],
          [
            1.230348,
            43.535566
          ]
        ]
      }
    }
  ]
}