{
  "type": "FeatureCollection",
  "features": [
    {
      "type": "Feature",
      "properties": {
        "name": "GraphHopper Track",
        "source": "Coteaux_et_vallons.gpx",
        "type": "track"
      },
      "geometry": {
        "type": "LineString",
        "coordinates": [
          [
            0.875623,
            43.626346,
            172.58
          ],
          [
            0.875339,
            43.626007,
            166.81
          ],
          [
            0.876389,
            43.625511,
            170.93
          ],
          [
            0.876884,
            43.625257,
            174.42
          ],
          [
            0.876486,
            43.624787,
            183.25
          ],
          [
            0.876524,
            43.624759,
            183.92
          ],
          [
            0.877024,
            43.624625,
            184.64
          ],
          [
            0.877294,
            43.62452,
            185.75
          ],
          [
            0.87744,
            43.624452,
            186.41
          ],
          [
            0.878024,
            43.624142,
            188.9
          ],
          [
            0.878106,
            43.624087,
            188.88
          ],
          [
            0.87789,
            43.62398,
            190.03
          ],
          [
            0.879025,
            43.62363,
            193.08
          ],
          [
            0.87938,
            43.623496,
            194.69
          ],
          [
            0.879996,
            43.623257,
            195.0
          ],
          [
            0.880856,
            43.62294,
            196.59
          ],
          [
            0.881023,
            43.622827,
            197.09
          ],
          [
            0.880994,
            43.62279,
            197.1
          ],
          [
            0.881008,
            43.622749,
            197.29
          ],
          [
            0.881056,
            43.622724,
            197.55
          ],
          [
            0.881085,
            43.622723,
            197.71
          ],
          [
            0.881055,
            43.622333,
            199.44
          ],
          [
            0.881063,
            43.622157,
            199.72
          ],
          [
            0.881102,
            43.622001,
            199.76
          ],
          [
            0.881209,
            43.621744,
            199.78
          ],
          [
            0.881285,
            43.621598,
            199.73
          ],
          [
            0.881392,
            43.621447,
            199.81
          ],
          [
            0.881823,
            43.621038,
            199.28
          ],
          [
            0.881918,
            43.620932,
            199.0
          ],
          [
            0.882068,
            43.620732,
            198.26
          ],
          [
            0.882289,
            43.620395,
            198.65
          ],
          [
            0.882445,
            43.620218,
            199.0
          ],
          [
            0.882417,
            43.620149,
            199.0
          ],
          [
            0.882706,
            43.619903,
            199.0
          ],
          [
            0.882922,
            43.619692,
            199.0
          ],
          [
            0.883212,
            43.619374,
            198.05
          ],
          [
            0.883516,
            43.618924,
            195.07
          ],
          [
            0.883892,
            43.618239,
            189.86
          ],
          [
            0.884356,
            43.617442,
            187.31
          ],
          [
            0.884562,
            43.617119,
            187.74
          ],
          [
            0.885311,
            43.616137,
            183.99
          ],
          [
            0.886163,
            43.61496,
            178.91
          ],
          [
            0.886898,
            43.613896,
            173.94
          ],
          [
            0.887052,
            43.613707,
            173.0
          ],
          [
            0.887821,
            43.612941,
            170.0
          ],
          [
            0.888356,
            43.61222,
            167.06
          ],
          [
            0.888667,
            43.611815,
            166.32
          ],
          [
            0.888862,
            43.611579,
            166.01
          ],
          [
            0.889461,
            43.61096,
            165.38
          ],
          [
            0.889964,
            43.610524,
            165.0
          ],
          [
            0.890249,
            43.610295,
            165.1
          ],
          [
            0.890996,
            43.609739,
            167.05
          ],
          [
            0.89132,
            43.609436,
            168.0
          ],
          [
            0.891756,
            43.608997,
            166.14
          ],
          [
            0.892189,
            43.608607,
            164.0
          ],
          [
            0.893065,
            43.607903,
            160.68
          ],
          [
            0.893266,
            43.607756,
            160.17
          ],
          [
            0.893651,
            43.607559,
            160.06
          ],
          [
            0.893914,
            43.60744,
            160.0
          ],
          [
            0.894501,
            43.607208,
            160.0
          ],
          [
            0.894659,
            43.607121,
            160.25
          ],
          [
            0.895319,
            43.606643,
            161.31
          ],
          [
            0.896174,
            43.606141,
            163.09
          ],
          [
            0.896476,
            43.605979,
            163.46
          ],
          [
            0.896871,
            43.605819,
            163.69
          ],
          [
            0.898285,
            43.605297,
            164.4
          ],
          [
            0.89857,
            43.605203,
            164.72
          ],
          [
            0.899468,
            43.604951,
            165.87
          ],
          [
            0.899785,
            43.604871,
            166.31
          ],
          [
            0.900103,
            43.604763,
            166.55
          ],
          [
            0.900691,
            43.604478,
            166.87
          ],
          [
            0.901679,
            43.603937,
            167.13
          ],
          [
            0.902219,
            43.603562,
            166.57
          ],
          [
            0.902422,
            43.603449,
            166.41
          ],
          [
            0.903716,
            43.60286,
            166.62
          ],
          [
            0.904001,
            43.602648,
            165.97
          ],
          [
            0.904573,
            43.602078,
            167.15
          ],
          [
            0.904916,
            43.601794,
            167.49
          ],
          [
            0.906404,
            43.600749,
            168.09
          ],
          [
            0.907562,
            43.600017,
            169.53
          ],
          [
            0.908185,
            43.59965,
            170.06
          ],
          [
            0.90837,
            43.599564,
            170.17
          ],
          [
            0.908566,
            43.599503,
            170.26
          ],
          [
            0.908954,
            43.599408,
            170.6
          ],
          [
            0.909321,
            43.599292,
            171.07
          ],
          [
            0.909843,
            43.599026,
            171.95
          ],
          [
            0.910062,
            43.598827,
            171.97
          ],
          [
            0.910292,
            43.59855,
            171.55
          ],
          [
            0.910669,
            43.598197,
            171.36
          ],
          [
            0.911106,
            43.597878,
            171.33
          ],
          [
            0.911799,
            43.597514,
            171.38
          ],
          [
            0.911971,
            43.597406,
            171.29
          ],
          [
            0.91208,
            43.597276,
            171.16
          ],
          [
            0.912094,
            43.597141,
            170.98
          ],
          [
            0.91197,
            43.596674,
            170.42
          ],
          [
            0.91189,
            43.596529,
            169.96
          ],
          [
            0.911735,
            43.596338,
            169.93
          ],
          [
            0.911712,
            43.596243,
            170.0
          ],
          [
            0.911772,
            43.596178,
            170.4
          ],
          [
            0.913691,
            43.595621,
            182.63
          ],
          [
            0.91387,
            43.595541,
            184.17
          ],
          [
            0.914133,
            43.595337,
            186.75
          ],
          [
            0.914288,
            43.595249,
            187.72
          ],
          [
            0.91448,
            43.595196,
            188.75
          ],
          [
            0.915052,
            43.595121,
            191.55
          ],
          [
            0.915228,
            43.595074,
            192.22
          ],
          [
            0.915228,
            43.595074,
            192.22
          ],
          [
            0.915052,
            43.595121,
            191.55
          ],
          [
            0.91448,
            43.595196,
            188.75
          ],
          [
            0.914288,
            43.595249,
            187.72
          ],
          [
            0.914133,
            43.595337,
            186.75
          ],
          [
            0.91387,
            43.595541,
            184.17
          ],
          [
            0.913691,
            43.595621,
            182.63
          ],
          [
            0.911772,
            43.596178,
            170.4
          ],
          [
            0.911712,
            43.596243,
            170.0
          ],
          [
            0.911735,
            43.596338,
            169.93
          ],
          [
            0.91189,
            43.596529,
            169.96
          ],
          [
            0.91197,
            43.596674,
            170.42
          ],
          [
            0.912094,
            43.597141,
            170.98
          ],
          [
            0.91208,
            43.597276,
            171.16
          ],
          [
            0.911971,
            43.597406,
            171.29
          ],
          [
            0.911799,
            43.597514,
            171.38
          ],
          [
            0.911106,
            43.597878,
            171.33
          ],
          [
            0.910669,
            43.598197,
            171.36
          ],
          [
            0.910292,
            43.59855,
            171.55
          ],
          [
            0.910062,
            43.598827,
            171.97
          ],
          [
            0.909843,
            43.599026,
            171.95
          ],
          [
            0.909321,
            43.599292,
            171.07
          ],
          [
            0.908954,
            43.599408,
            170.6
          ],
          [
            0.908566,
            43.599503,
            170.26
          ],
          [
            0.90837,
            43.599564,
            170.17
          ],
          [
            0.908185,
            43.59965,
            170.06
          ],
          [
            0.907562,
            43.600017,
            169.53
          ],
          [
            0.906404,
            43.600749,
            168.09
          ],
          [
            0.904916,
            43.601794,
            167.49
          ],
          [
            0.904573,
            43.602078,
            167.15
          ],
          [
            0.904001,
            43.602648,
            165.97
          ],
          [
            0.903716,
            43.60286,
            166.62
          ],
          [
            0.902422,
            43.603449,
            166.41
          ],
          [
            0.902219,
            43.603562,
            166.57
          ],
          [
            0.901679,
            43.603937,
            167.13
          ],
          [
            0.900691,
            43.604478,
            166.87
          ],
          [
            0.900103,
            43.604763,
            166.55
          ],
          [
            0.899785,
            43.604871,
            166.31
          ],
          [
            0.899468,
            43.604951,
            165.87
          ],
          [
            0.89857,
            43.605203,
            164.72
          ],
          [
            0.898285,
            43.605297,
            164.4
          ],
          [
            0.896871,
            43.605819,
            163.69
          ],
          [
            0.896476,
            43.605979,
            163.46
          ],
          [
            0.896174,
            43.606141,
            163.09
          ],
          [
            0.895319,
            43.606643,
            161.31
          ],
          [
            0.894659,
            43.607121,
            160.25
          ],
          [
            0.894501,
            43.607208,
            160.0
          ],
          [
            0.893914,
            43.60744,
            160.0
          ],
          [
            0.893651,
            43.607559,
            160.06
          ],
          [
            0.893266,
            43.607756,
            160.17
          ],
          [
            0.893065,
            43.607903,
            160.68
          ],
          [
            0.892189,
            43.608607,
            164.0
          ],
          [
            0.891756,
            43.608997,
            166.14
          ],
          [
            0.89132,
            43.609436,
            168.0
          ],
          [
            0.890996,
            43.609739,
            167.05
          ],
          [
            0.890249,
            43.610295,
            165.1
          ],
          [
            0.889964,
            43.610524,
            165.0
          ],
          [
            0.889461,
            43.61096,
            165.38
          ],
          [
            0.888862,
            43.611579,
            166.01
          ],
          [
            0.888667,
            43.611815,
            166.32
          ],
          [
            0.887777,
            43.612992,
            170.0
          ],
          [
            0.887052,
            43.613707,
            173.0
          ],
          [
            0.886898,
            43.613896,
            173.94
          ],
          [
            0.886163,
            43.61496,
            178.91
          ],
          [
            0.885311,
            43.616137,
            183.99
          ],
          [
            0.884562,
            43.617119,
            187.74
          ],
          [
            0.884356,
            43.617442,
            187.31
          ],
          [
            0.883892,
            43.618239,
            189.86
          ],
          [
            0.883516,
            43.618924,
            195.07
          ],
          [
            0.883212,
            43.619374,
            198.05
          ],
          [
            0.882922,
            43.619692,
            199.0
          ],
          [
            0.882706,
            43.619903,
            199.0
          ],
          [
            0.882417,
            43.620149,
            199.0
          ],
          [
            0.882445,
            43.620218,
            199.0
          ],
          [
            0.882289,
            43.620395,
            198.65
          ],
          [
            0.882259,
            43.620442,
            198.49
          ],
          [
            0.882068,
            43.620732,
            198.26
          ],
          [
            0.881918,
            43.620932,
            199.0
          ],
          [
            0.881823,
            43.621038,
            199.28
          ],
          [
            0.881392,
            43.621447,
            199.81
          ],
          [
            0.881285,
            43.621598,
            199.73
          ],
          [
            0.881209,
            43.621744,
            199.78
          ],
          [
            0.881102,
            43.622001,
            199.76
          ],
          [
            0.881063,
            43.622157,
            199.72
          ],
          [
            0.881055,
            43.622333,
            199.44
          ],
          [
            0.881085,
            43.622723,
            197.71
          ],
          [
            0.881056,
            43.622724,
            197.55
          ],
          [
            0.881008,
            43.622749,
            197.29
          ],
          [
            0.880994,
            43.62279,
            197.1
          ],
          [
            0.881023,
            43.622827,
            197.09
          ],
          [
            0.880856,
            43.62294,
            196.59
          ],
          [
            0.879996,
            43.623257,
            195.0
          ],
          [
            0.87938,
            43.623496,
            194.69
          ],
          [
            0.879025,
            43.62363,
            193.08
          ],
          [
            0.87789,
            43.62398,
            190.03
          ],
          [
            0.878201,
            43.624134,
            187.9
          ],
          [
            0.878222,
            43.624173,
            187.5
          ],
          [
            0.878218,
            43.62422,
            187.08
          ],
          [
            0.877869,
            43.624688,
            180.76
          ],
          [
            0.877804,
            43.624751,
            179.87
          ],
          [
            0.876884,
            43.625257,
            174.42
          ],
          [
            0.876389,
            43.625511,
            170.93
          ],
          [
            0.875339,
            43.626007,
            166.81
          ],
          [
            0.875623,
            43.626346,
            172.58
          ]
        ]
      }
    },
    {
      "type": "Feature",
      "properties": {
        "source": "Coteaux_et_vallons.gpx",
        "type": "route"
      },
      "geometry": {
        "type": "LineString",
        "coordinates": [
          [
            0.875623,
            43.626346
          ],
          [
            0.875339,
            43.626007
          ],
          [
            0.876884,
            43.625257
          ],
          [
            0.876486,
            43.624787
          ],
          [
            0.878106,
            43.624087
          ],
          [
            0.87789,
            43.62398
          ],
          [
            0.87938,
            43.623496
          ],
          [
            0.881023,
            43.622827
          ],
          [
            0.882445,
            43.620218
          ],
          [
            0.882417,
            43.620149
          ],
          [
            0.915228,
            43.595074
          ],
          [
            0.915228,
            43.595074
          ],
          [
            0.911712,
            43.596243
          ],
          [
            0.882417,
            43.620149
          ],
          [
            0.882445,
            43.620218
          ],
          [
            0.882259,
            43.620442
          ],
          [
            0.881085,
            43.622723
          ],
          [
            0.87938,
            43.623496
          ],
          [
            0.87789,
            43.62398
          ],
          [
            0.878201,
            43.624134
          ],
          [
            0.875339,
            43.626007
          ],
          [
            0.875623,
            43.626346
          ]
        ]
      }
    }
  ]
}