{
  "type": "FeatureCollection",
  "features": [
    {
      "type": "Feature",
      "properties": {
        "name": "GraphHopper Track",
        "source": "Gimont__Mauvezin.gpx",
        "type": "track"
      },
      "geometry": {
        "type": "LineString",
        "coordinates": [
          [
            0.875623,
            43.626346,
            172.58
          ],
          [
            0.875868,
            43.626637,
            177.54
          ],
          [
            0.876464,
            43.627248,
            170.98
          ],
          [
            0.87683,
            43.627598,
            164.97
          ],
          [
            0.876798,
            43.627619,
            164.8
          ],
          [
            0.877208,
            43.627955,
            162.1
          ],
          [
            0.876554,
            43.628432,
            157.51
          ],
          [
            0.876395,
            43.628565,
            157.6
          ],
          [
            0.876214,
            43.628743,
            156.74
          ],
          [
            0.876034,
            43.628975,
            155.63
          ],
          [
            0.875905,
            43.629212,
            154.46
          ],
          [
            0.875686,
            43.629717,
            151.88
          ],
          [
            0.875615,
            43.629845,
            151.12
          ],
          [
            0.875258,
            43.630412,
            149.36
          ],
          [
            0.875162,
            43.630523,
            148.88
          ],
          [
            0.875215,
            43.630738,
            148.21
          ],
          [
            0.875228,
            43.630876,
            148.68
          ],
          [
            0.875237,
            43.631285,
            150.54
          ],
          [
            0.8753,
            43.631425,
            151.05
          ],
          [
            0.875344,
            43.631481,
            151.09
          ],
          [
            0.875673,
            43.631749,
            151.09
          ],
          [
            0.876075,
            43.632012,
            151.11
          ],
          [
            0.876614,
            43.632323,
            150.75
          ],
          [
            0.876814,
            43.632409,
            150.89
          ],
          [
            0.876992,
            43.632471,
            150.76
          ],
          [
            0.877375,
            43.632578,
            150.03
          ],
          [
            0.877611,
            43.632661,
            150.07
          ],
          [
            0.87884,
            43.633279,
            152.21
          ],
          [
            0.87913,
            43.633464,
            153.25
          ],
          [
            0.879272,
            43.633584,
            153.06
          ],
          [
            0.879383,
            43.63371,
            152.46
          ],
          [
            0.879452,
            43.633815,
            151.44
          ],
          [
            0.879535,
            43.634051,
            149.66
          ],
          [
            0.879699,
            43.635141,
            148.78
          ],
          [
            0.87972,
            43.635221,
            149.16
          ],
          [
            0.879752,
            43.635292,
            149.49
          ],
          [
            0.880242,
            43.636149,
            150.58
          ],
          [
            0.880848,
            43.637172,
            151.17
          ],
          [
            0.880998,
            43.637388,
            151.69
          ],
          [
            0.882318,
            43.638912,
            153.3
          ],
          [
            0.882349,
            43.638957,
            153.22
          ],
          [
            0.882399,
            43.639151,
            152.94
          ],
          [
            0.881573,
            43.639331,
            148.3
          ],
          [
            0.881458,
            43.639385,
            147.52
          ],
          [
            0.881396,
            43.639434,
            146.97
          ],
          [
            0.881365,
            43.639493,
            146.41
          ],
          [
            0.881369,
            43.639569,
            145.68
          ],
          [
            0.881412,
            43.639685,
            145.52
          ],
          [
            0.881424,
            43.639748,
            145.6
          ],
          [
            0.881405,
            43.639796,
            145.53
          ],
          [
            0.881337,
            43.639828,
            145.13
          ],
          [
            0.881155,
            43.639867,
            142.22
          ],
          [
            0.880843,
            43.639958,
            143.85
          ],
          [
            0.880613,
            43.639998,
            143.84
          ],
          [
            0.880382,
            43.640024,
            143.77
          ],
          [
            0.878608,
            43.640104,
            144.24
          ],
          [
            0.876728,
            43.640154,
            146.7
          ],
          [
            0.876568,
            43.640165,
            147.0
          ],
          [
            0.8764,
            43.64019,
            146.95
          ],
          [
            0.876038,
            43.640299,
            146.33
          ],
          [
            0.876232,
            43.640576,
            146.0
          ],
          [
            0.876035,
            43.640656,
            146.0
          ],
          [
            0.876569,
            43.641577,
            146.19
          ],
          [
            0.875123,
            43.642278,
            158.95
          ],
          [
            0.87234,
            43.643613,
            170.12
          ],
          [
            0.871998,
            43.643768,
            172.38
          ],
          [
            0.868218,
            43.645176,
            186.04
          ],
          [
            0.866547,
            43.645709,
            189.93
          ],
          [
            0.866401,
            43.645891,
            190.0
          ],
          [
            0.865659,
            43.647444,
            185.83
          ],
          [
            0.865629,
            43.647534,
            185.34
          ],
          [
            0.865621,
            43.647616,
            184.89
          ],
          [
            0.865673,
            43.647866,
            183.36
          ],
          [
            0.865669,
            43.647943,
            182.84
          ],
          [
            0.86554,
            43.648528,
            178.03
          ],
          [
            0.865281,
            43.649259,
            171.49
          ],
          [
            0.865223,
            43.649362,
            170.49
          ],
          [
            0.86514,
            43.649451,
            169.6
          ],
          [
            0.864706,
            43.649712,
            168.0
          ],
          [
            0.864157,
            43.65001,
            170.12
          ],
          [
            0.863969,
            43.650129,
            171.44
          ],
          [
            0.863711,
            43.650312,
            173.12
          ],
          [
            0.862995,
            43.650928,
            180.38
          ],
          [
            0.861814,
            43.651738,
            192.32
          ],
          [
            0.861665,
            43.65188,
            194.04
          ],
          [
            0.861491,
            43.65208,
            196.28
          ],
          [
            0.860638,
            43.65326,
            202.82
          ],
          [
            0.860508,
            43.653392,
            202.21
          ],
          [
            0.859876,
            43.653957,
            198.89
          ],
          [
            0.85971,
            43.654148,
            197.78
          ],
          [
            0.859484,
            43.65445,
            196.28
          ],
          [
            0.858827,
            43.655405,
            194.89
          ],
          [
            0.857679,
            43.657454,
            191.08
          ],
          [
            0.857078,
            43.658463,
            183.06
          ],
          [
            0.856841,
            43.658909,
            180.58
          ],
          [
            0.856482,
            43.659713,
            177.23
          ],
          [
            0.856146,
            43.66028,
            175.74
          ],
          [
            0.855753,
            43.660986,
            181.82
          ],
          [
            0.8557,
            43.661111,
            182.84
          ],
          [
            0.8558,
            43.661695,
            187.55
          ],
          [
            0.855796,
            43.662185,
            191.9
          ],
          [
            0.855767,
            43.662423,
            194.09
          ],
          [
            0.855724,
            43.662575,
            195.42
          ],
          [
            0.854669,
            43.664767,
            206.99
          ],
          [
            0.854525,
            43.664976,
            207.54
          ],
          [
            0.852451,
            43.667267,
            211.0
          ],
          [
            0.852663,
            43.66753,
            211.71
          ],
          [
            0.852857,
            43.667855,
            212.0
          ],
          [
            0.852892,
            43.667987,
            212.0
          ],
          [
            0.85295,
            43.668383,
            211.62
          ],
          [
            0.853007,
            43.668533,
            211.3
          ],
          [
            0.853086,
            43.668678,
            211.02
          ],
          [
            0.85366,
            43.66934,
            209.2
          ],
          [
            0.853934,
            43.669673,
            208.47
          ],
          [
            0.854123,
            43.669974,
            209.51
          ],
          [
            0.854178,
            43.670132,
            209.75
          ],
          [
            0.8542,
            43.67029,
            209.99
          ],
          [
            0.85417,
            43.670451,
            210.0
          ],
          [
            0.853892,
            43.671024,
            206.72
          ],
          [
            0.853879,
            43.671134,
            205.97
          ],
          [
            0.853899,
            43.671253,
            205.16
          ],
          [
            0.853954,
            43.671404,
            204.09
          ],
          [
            0.854211,
            43.671976,
            200.86
          ],
          [
            0.854237,
            43.672088,
            200.51
          ],
          [
            0.854231,
            43.672218,
            200.19
          ],
          [
            0.854113,
            43.672659,
            200.14
          ],
          [
            0.854119,
            43.672784,
            200.39
          ],
          [
            0.854141,
            43.672903,
            200.69
          ],
          [
            0.854672,
            43.674078,
            205.67
          ],
          [
            0.854752,
            43.674214,
            205.4
          ],
          [
            0.854822,
            43.674314,
            204.6
          ],
          [
            0.855132,
            43.674536,
            202.79
          ],
          [
            0.855678,
            43.674959,
            199.08
          ],
          [
            0.855928,
            43.675258,
            196.94
          ],
          [
            0.856065,
            43.675373,
            196.0
          ],
          [
            0.856231,
            43.675481,
            195.0
          ],
          [
            0.857006,
            43.675872,
            191.7
          ],
          [
            0.857277,
            43.675987,
            192.25
          ],
          [
            0.858383,
            43.676277,
            199.86
          ],
          [
            0.858606,
            43.676368,
            201.12
          ],
          [
            0.858814,
            43.676493,
            202.33
          ],
          [
            0.858967,
            43.676621,
            203.31
          ],
          [
            0.859161,
            43.676864,
            204.78
          ],
          [
            0.859554,
            43.677403,
            207.82
          ],
          [
            0.859592,
            43.677524,
            208.0
          ],
          [
            0.859606,
            43.677645,
            207.61
          ],
          [
            0.859606,
            43.677819,
            206.31
          ],
          [
            0.85959,
            43.67808,
            204.1
          ],
          [
            0.859647,
            43.678446,
            201.4
          ],
          [
            0.85973,
            43.678702,
            199.97
          ],
          [
            0.859856,
            43.678911,
            198.83
          ],
          [
            0.860034,
            43.679103,
            197.81
          ],
          [
            0.860347,
            43.679338,
            196.7
          ],
          [
            0.86053,
            43.679543,
            196.11
          ],
          [
            0.860789,
            43.679915,
            195.21
          ],
          [
            0.86095,
            43.680084,
            195.07
          ],
          [
            0.8611,
            43.680212,
            194.92
          ],
          [
            0.859877,
            43.681139,
            200.66
          ],
          [
            0.859539,
            43.681351,
            200.71
          ],
          [
            0.858017,
            43.682228,
            198.74
          ],
          [
            0.85679,
            43.682915,
            198.42
          ],
          [
            0.856789,
            43.68297,
            198.38
          ],
          [
            0.856828,
            43.68306,
            198.15
          ],
          [
            0.85693,
            43.683162,
            197.49
          ],
          [
            0.856971,
            43.683175,
            197.36
          ],
          [
            0.856955,
            43.683258,
            196.63
          ],
          [
            0.856901,
            43.683312,
            196.2
          ],
          [
            0.856848,
            43.683368,
            195.73
          ],
          [
            0.855491,
            43.684058,
            190.55
          ],
          [
            0.855397,
            43.684137,
            189.81
          ],
          [
            0.855354,
            43.684223,
            189.1
          ],
          [
            0.855352,
            43.684292,
            188.55
          ],
          [
            0.855895,
            43.685399,
            178.38
          ],
          [
            0.855895,
            43.685399,
            178.38
          ],
          [
            0.856051,
            43.685717,
            175.45
          ],
          [
            0.856065,
            43.685773,
            175.15
          ],
          [
            0.856051,
            43.685829,
            174.86
          ],
          [
            0.856008,
            43.685872,
            174.6
          ],
          [
            0.855252,
            43.6862,
            171.81
          ],
          [
            0.85522,
            43.686242,
            171.61
          ],
          [
            0.855217,
            43.686295,
            171.39
          ],
          [
            0.855692,
            43.687372,
            165.61
          ],
          [
            0.855598,
            43.687424,
            165.24
          ],
          [
            0.854691,
            43.688308,
            162.15
          ],
          [
            0.85445,
            43.688469,
            161.45
          ],
          [
            0.854092,
            43.688642,
            160.53
          ],
          [
            0.853711,
            43.688803,
            159.39
          ],
          [
            0.853588,
            43.68887,
            158.57
          ],
          [
            0.853303,
            43.688752,
            159.17
          ],
          [
            0.852991,
            43.688664,
            160.26
          ],
          [
            0.852673,
            43.6886,
            161.2
          ],
          [
            0.852204,
            43.688529,
            162.21
          ],
          [
            0.851879,
            43.688443,
            162.79
          ],
          [
            0.851188,
            43.688213,
            163.54
          ],
          [
            0.85081,
            43.688134,
            164.83
          ],
          [
            0.850219,
            43.688025,
            167.23
          ],
          [
            0.849956,
            43.687993,
            167.75
          ],
          [
            0.84914,
            43.687957,
            169.99
          ],
          [
            0.848761,
            43.687958,
            170.9
          ],
          [
            0.847099,
            43.68804,
            171.1
          ],
          [
            0.846666,
            43.688081,
            170.49
          ],
          [
            0.846494,
            43.688115,
            170.18
          ],
          [
            0.846312,
            43.688172,
            169.88
          ],
          [
            0.845805,
            43.688403,
            169.38
          ],
          [
            0.845601,
            43.688467,
            169.35
          ],
          [
            0.844951,
            43.68859,
            169.95
          ],
          [
            0.844731,
            43.688647,
            170.36
          ],
          [
            0.84442,
            43.688767,
            170.09
          ],
          [
            0.846017,
            43.691537,
            154.53
          ],
          [
            0.846033,
            43.691628,
            154.26
          ],
          [
            0.846024,
            43.691715,
            154.07
          ],
          [
            0.845981,
            43.691813,
            153.89
          ],
          [
            0.845606,
            43.692279,
            153.18
          ],
          [
            0.845538,
            43.692424,
            152.73
          ],
          [
            0.845485,
            43.692834,
            150.15
          ],
          [
            0.845513,
            43.692896,
            149.6
          ],
          [
            0.846118,
            43.693174,
            145.12
          ],
          [
            0.846131,
            43.693219,
            144.75
          ],
          [
            0.84613,
            43.693263,
            144.39
          ],
          [
            0.845759,
            43.693775,
            140.79
          ],
          [
            0.845733,
            43.693852,
            140.42
          ],
          [
            0.845744,
            43.693901,
            140.09
          ],
          [
            0.845772,
            43.69393,
            139.88
          ],
          [
            0.845569,
            43.69425,
            138.42
          ],
          [
            0.845443,
            43.694596,
            137.29
          ],
          [
            0.845236,
            43.695311,
            135.14
          ],
          [
            0.845153,
            43.695395,
            135.22
          ],
          [
            0.845151,
            43.695464,
            136.12
          ],
          [
            0.845561,
            43.696075,
            136.07
          ],
          [
            0.845687,
            43.696192,
            135.81
          ],
          [
            0.846319,
            43.696594,
            134.21
          ],
          [
            0.84635,
            43.696625,
            134.24
          ],
          [
            0.846356,
            43.696707,
            134.8
          ],
          [
            0.846645,
            43.696933,
            134.24
          ],
          [
            0.846795,
            43.697126,
            134.29
          ],
          [
            0.846845,
            43.697359,
            134.36
          ],
          [
            0.846859,
            43.697603,
            134.57
          ],
          [
            0.846819,
            43.697704,
            134.73
          ],
          [
            0.846295,
            43.698749,
            135.73
          ],
          [
            0.846533,
            43.698859,
            134.81
          ],
          [
            0.846935,
            43.699113,
            133.92
          ],
          [
            0.847364,
            43.699474,
            133.17
          ],
          [
            0.847635,
            43.699768,
            133.6
          ],
          [
            0.849422,
            43.701627,
            134.91
          ],
          [
            0.849548,
            43.701788,
            134.28
          ],
          [
            0.849841,
            43.702256,
            133.22
          ],
          [
            0.85055,
            43.703771,
            132.0
          ],
          [
            0.850908,
            43.704405,
            132.0
          ],
          [
            0.851996,
            43.706205,
            131.48
          ],
          [
            0.85221,
            43.706523,
            131.74
          ],
          [
            0.852354,
            43.706704,
            131.79
          ],
          [
            0.85257,
            43.706952,
            131.9
          ],
          [
            0.853221,
            43.707639,
            131.47
          ],
          [
            0.853672,
            43.708072,
            131.19
          ],
          [
            0.853899,
            43.708234,
            131.19
          ],
          [
            0.854279,
            43.708435,
            131.28
          ],
          [
            0.854766,
            43.708643,
            131.28
          ],
          [
            0.85507,
            43.708764,
            131.58
          ],
          [
            0.858067,
            43.709879,
            130.62
          ],
          [
            0.85856,
            43.710091,
            130.57
          ],
          [
            0.858974,
            43.71031,
            130.25
          ],
          [
            0.859195,
            43.710458,
            130.3
          ],
          [
            0.859604,
            43.710785,
            130.11
          ],
          [
            0.860785,
            43.711903,
            129.22
          ],
          [
            0.861091,
            43.712118,
            129.08
          ],
          [
            0.861403,
            43.712306,
            129.29
          ],
          [
            0.860616,
            43.712749,
            128.29
          ],
          [
            0.860413,
            43.712831,
            128.11
          ],
          [
            0.859873,
            43.71298,
            127.66
          ],
          [
            0.859564,
            43.713085,
            127.46
          ],
          [
            0.859503,
            43.713141,
            127.34
          ],
          [
            0.859478,
            43.713241,
            127.15
          ],
          [
            0.859462,
            43.713448,
            127.02
          ],
          [
            0.859445,
            43.71348,
            127.05
          ],
          [
            0.859398,
            43.713529,
            127.37
          ],
          [
            0.859336,
            43.713563,
            127.64
          ],
          [
            0.859228,
            43.713587,
            127.79
          ],
          [
            0.858653,
            43.71363,
            127.94
          ],
          [
            0.857432,
            43.713644,
            128.23
          ],
          [
            0.857352,
            43.713662,
            128.22
          ],
          [
            0.857271,
            43.713718,
            128.21
          ],
          [
            0.857021,
            43.714074,
            131.62
          ],
          [
            0.856836,
            43.714071,
            132.55
          ],
          [
            0.856498,
            43.714031,
            133.63
          ],
          [
            0.855163,
            43.713716,
            130.39
          ],
          [
            0.854781,
            43.713599,
            130.08
          ],
          [
            0.853832,
            43.713869,
            133.96
          ],
          [
            0.853609,
            43.713925,
            134.99
          ],
          [
            0.853168,
            43.714008,
            137.12
          ],
          [
            0.853011,
            43.714053,
            137.98
          ],
          [
            0.852478,
            43.714233,
            141.09
          ],
          [
            0.849048,
            43.715623,
            157.4
          ],
          [
            0.84889,
            43.7157,
            157.9
          ],
          [
            0.847575,
            43.716539,
            163.42
          ],
          [
            0.847334,
            43.716701,
            164.62
          ],
          [
            0.847186,
            43.71677,
            165.15
          ],
          [
            0.846983,
            43.716838,
            165.71
          ],
          [
            0.846771,
            43.716883,
            166.42
          ],
          [
            0.846017,
            43.717006,
            166.14
          ],
          [
            0.845562,
            43.717025,
            166.26
          ],
          [
            0.845376,
            43.717056,
            166.89
          ],
          [
            0.844101,
            43.717358,
            171.53
          ],
          [
            0.843304,
            43.717476,
            173.7
          ],
          [
            0.842983,
            43.717558,
            174.64
          ],
          [
            0.840862,
            43.718193,
            183.19
          ],
          [
            0.840309,
            43.718363,
            185.55
          ],
          [
            0.839946,
            43.71849,
            187.52
          ],
          [
            0.839312,
            43.718829,
            189.2
          ],
          [
            0.838696,
            43.719135,
            190.83
          ],
          [
            0.838557,
            43.719211,
            190.38
          ],
          [
            0.838495,
            43.719271,
            190.05
          ],
          [
            0.838475,
            43.719345,
            190.49
          ],
          [
            0.838477,
            43.719423,
            190.84
          ],
          [
            0.838504,
            43.7195,
            191.0
          ],
          [
            0.838615,
            43.719602,
            191.0
          ],
          [
            0.839427,
            43.720191,
            194.27
          ],
          [
            0.839827,
            43.72052,
            196.97
          ],
          [
            0.839907,
            43.720611,
            197.69
          ],
          [
            0.839906,
            43.720664,
            198.0
          ],
          [
            0.839885,
            43.720696,
            198.0
          ],
          [
            0.839833,
            43.720729,
            198.0
          ],
          [
            0.839703,
            43.720781,
            198.0
          ],
          [
            0.83893,
            43.721048,
            198.0
          ],
          [
            0.83469,
            43.722576,
            196.97
          ],
          [
            0.834379,
            43.722675,
            196.89
          ],
          [
            0.834068,
            43.722759,
            196.8
          ],
          [
            0.833792,
            43.722845,
            196.74
          ],
          [
            0.832399,
            43.723291,
            198.0
          ],
          [
            0.833037,
            43.724024,
            191.07
          ],
          [
            0.834508,
            43.725679,
            178.07
          ],
          [
            0.833435,
            43.72589,
            179.01
          ],
          [
            0.830943,
            43.72632,
            179.2
          ],
          [
            0.829875,
            43.726619,
            179.51
          ],
          [
            0.829838,
            43.726679,
            179.35
          ],
          [
            0.830122,
            43.727301,
            176.2
          ],
          [
            0.830232,
            43.727712,
            173.74
          ],
          [
            0.83035,
            43.72829,
            171.03
          ],
          [
            0.830399,
            43.728348,
            170.82
          ],
          [
            0.830467,
            43.72838,
            170.6
          ],
          [
            0.830699,
            43.728456,
            169.96
          ],
          [
            0.831024,
            43.728478,
            169.42
          ],
          [
            0.831081,
            43.728491,
            169.38
          ],
          [
            0.831096,
            43.728513,
            169.41
          ],
          [
            0.831093,
            43.728612,
            170.17
          ],
          [
            0.830745,
            43.728587,
            170.84
          ],
          [
            0.830569,
            43.728551,
            170.61
          ],
          [
            0.830556,
            43.728591,
            170.89
          ],
          [
            0.830555,
            43.728629,
            170.96
          ],
          [
            0.830587,
            43.728725,
            171.44
          ],
          [
            0.83069,
            43.728875,
            173.02
          ],
          [
            0.83082,
            43.72902,
            174.75
          ],
          [
            0.830862,
            43.729086,
            175.62
          ],
          [
            0.830874,
            43.72913,
            176.24
          ],
          [
            0.830855,
            43.729176,
            177.02
          ],
          [
            0.830832,
            43.729201,
            177.56
          ],
          [
            0.830691,
            43.729278,
            178.1
          ],
          [
            0.830455,
            43.729378,
            178.17
          ],
          [
            0.830056,
            43.729585,
            177.97
          ],
          [
            0.829908,
            43.729695,
            177.92
          ],
          [
            0.829782,
            43.729765,
            178.07
          ],
          [
            0.829558,
            43.729854,
            178.21
          ],
          [
            0.829193,
            43.729933,
            178.0
          ],
          [
            0.828924,
            43.729969,
            177.85
          ],
          [
            0.8281,
            43.730011,
            177.62
          ],
          [
            0.827578,
            43.730059,
            177.74
          ],
          [
            0.827337,
            43.73009,
            177.94
          ],
          [
            0.827156,
            43.730144,
            178.0
          ],
          [
            0.82662,
            43.730329,
            179.58
          ],
          [
            0.826549,
            43.73036,
            179.78
          ],
          [
            0.826507,
            43.7304,
            179.91
          ],
          [
            0.82648,
            43.730514,
            180.0
          ],
          [
            0.826447,
            43.730547,
            180.0
          ],
          [
            0.826296,
            43.730616,
            180.2
          ],
          [
            0.826128,
            43.73067,
            180.56
          ],
          [
            0.825681,
            43.730776,
            181.27
          ],
          [
            0.825244,
            43.730869,
            182.48
          ]
        ]
      }
    },
    {
      "type": "Feature",
      "properties": {
        "source": "Gimont__Mauvezin.gpx",
        "type": "route"
      },
      "geometry": {
        "type": "LineString",
        "coordinates": [
          [
            0.875623,
            43.626346
          ],
          [
            0.87683,
            43.627598
          ],
          [
            0.876798,
            43.627619
          ],
          [
            0.877208,
            43.627955
          ],
          [
            0.875162,
            43.630523
          ],
          [
            0.882399,
            43.639151
          ],
          [
            0.881405,
            43.639796
          ],
          [
            0.876038,
            43.640299
          ],
          [
            0.876232,
            43.640576
          ],
          [
            0.876035,
            43.640656
          ],
          [
            0.876569,
            43.641577
          ],
          [
            0.866547,
            43.645709
          ],
          [
            0.852451,
            43.667267
          ],
          [
            0.8611,
            43.680212
          ],
          [
            0.85679,
            43.682915
          ],
          [
            0.856971,
            43.683175
          ],
          [
            0.856901,
            43.683312
          ],
          [
            0.855895,
            43.685399
          ],
          [
            0.855895,
            43.685399
          ],
          [
            0.855692,
            43.687372
          ],
          [
            0.853588,
            43.68887
          ],
          [
            0.84442,
            43.688767
          ],
          [
            0.846295,
            43.698749
          ],
          [
            0.861403,
            43.712306
          ],
          [
            0.857021,
            43.714074
          ],
          [
            0.854781,
            43.713599
          ],
          [
            0.832399,
            43.723291
          ],
          [
            0.834508,
            43.725679
          ],
          [
            0.831093,
            43.728612
          ],
          [
            0.830569,
            43.728551
          ],
          [
            0.825244,
            43.730869
          ]
        ]
      }
    }
  ]
}