{
  "type": "FeatureCollection",
  "features": [
    {
      "type": "Feature",
      "properties": {
        "name": "GraphHopper Track",
        "source": "Montaut_et_Ségos.gpx",
        "type": "track"
      },
      "geometry": {
        "type": "LineString",
        "coordinates": [
          [
            0.895914,
            43.617369,
            156.0
          ],
          [
            0.896003,
            43.617369,
            156.0
          ],
          [
            0.896064,
            43.617404,
            156.0
          ],
          [
            0.896295,
            43.617773,
            156.0
          ],
          [
            0.896402,
            43.617835,
            156.0
          ],
          [
            0.896053,
            43.618007,
            156.08
          ],
          [
            0.895815,
            43.618083,
            156.72
          ],
          [
            0.894434,
            43.618334,
            159.57
          ],
          [
            0.894072,
            43.618412,
            160.19
          ],
          [
            0.893323,
            43.618639,
            160.95
          ],
          [
            0.891957,
            43.619129,
            162.12
          ],
          [
            0.891016,
            43.619487,
            162.0
          ],
          [
            0.890039,
            43.619883,
            163.27
          ],
          [
            0.889253,
            43.620145,
            166.17
          ],
          [
            0.888421,
            43.620391,
            169.87
          ],
          [
            0.884908,
            43.621336,
            193.79
          ],
          [
            0.884024,
            43.621544,
            198.95
          ],
          [
            0.883879,
            43.621588,
            199.28
          ],
          [
            0.883809,
            43.621612,
            199.1
          ],
          [
            0.883562,
            43.621758,
            200.94
          ],
          [
            0.883164,
            43.622039,
            202.15
          ],
          [
            0.881629,
            43.618168,
            197.0
          ],
          [
            0.880896,
            43.616278,
            201.43
          ],
          [
            0.878318,
            43.609719,
            197.58
          ],
          [
            0.877798,
            43.608424,
            205.0
          ],
          [
            0.877548,
            43.60776,
            203.1
          ],
          [
            0.876928,
            43.606181,
            204.98
          ],
          [
            0.876783,
            43.60584,
            204.0
          ],
          [
            0.875891,
            43.603548,
            193.95
          ],
          [
            0.874573,
            43.600162,
            204.0
          ],
          [
            0.873997,
            43.598667,
            196.17
          ],
          [
            0.873214,
            43.596686,
            203.29
          ],
          [
            0.874204,
            43.596646,
            198.98
          ],
          [
            0.874439,
            43.596624,
            198.25
          ],
          [
            0.874602,
            43.596553,
            197.74
          ],
          [
            0.875383,
            43.595907,
            195.99
          ],
          [
            0.875488,
            43.595788,
            195.89
          ],
          [
            0.875537,
            43.595657,
            195.73
          ],
          [
            0.875635,
            43.59513,
            196.02
          ],
          [
            0.875651,
            43.594762,
            196.0
          ],
          [
            0.875673,
            43.594609,
            195.76
          ],
          [
            0.875725,
            43.594453,
            195.52
          ],
          [
            0.875918,
            43.593999,
            194.78
          ],
          [
            0.876129,
            43.593581,
            193.97
          ],
          [
            0.876388,
            43.593154,
            193.0
          ],
          [
            0.876687,
            43.592791,
            191.9
          ],
          [
            0.87674,
            43.5927,
            191.57
          ],
          [
            0.876782,
            43.592575,
            190.86
          ],
          [
            0.876806,
            43.592414,
            189.52
          ],
          [
            0.876842,
            43.591701,
            183.29
          ],
          [
            0.876904,
            43.591427,
            180.94
          ],
          [
            0.877015,
            43.591114,
            178.49
          ],
          [
            0.87723,
            43.590597,
            175.31
          ],
          [
            0.877353,
            43.59018,
            173.95
          ],
          [
            0.877453,
            43.589962,
            173.22
          ],
          [
            0.877636,
            43.589614,
            171.94
          ],
          [
            0.877845,
            43.589267,
            170.49
          ],
          [
            0.878418,
            43.588417,
            168.0
          ],
          [
            0.878746,
            43.588086,
            168.0
          ],
          [
            0.879297,
            43.587507,
            172.78
          ],
          [
            0.87955,
            43.58729,
            174.82
          ],
          [
            0.880263,
            43.586721,
            179.79
          ],
          [
            0.880465,
            43.58655,
            180.77
          ],
          [
            0.880556,
            43.586455,
            181.34
          ],
          [
            0.880601,
            43.586393,
            181.83
          ],
          [
            0.880667,
            43.586217,
            184.34
          ],
          [
            0.880754,
            43.586026,
            186.29
          ],
          [
            0.88176,
            43.584702,
            194.91
          ],
          [
            0.881908,
            43.58452,
            194.88
          ],
          [
            0.88198,
            43.584402,
            194.77
          ],
          [
            0.882047,
            43.584256,
            194.52
          ],
          [
            0.882268,
            43.583405,
            191.74
          ],
          [
            0.883163,
            43.583826,
            197.24
          ],
          [
            0.883297,
            43.583859,
            197.89
          ],
          [
            0.883409,
            43.583849,
            198.32
          ],
          [
            0.883486,
            43.583892,
            198.59
          ],
          [
            0.883553,
            43.583974,
            198.7
          ],
          [
            0.883593,
            43.584077,
            198.74
          ],
          [
            0.883598,
            43.58418,
            198.78
          ],
          [
            0.883559,
            43.584246,
            198.95
          ],
          [
            0.883559,
            43.584246,
            198.95
          ],
          [
            0.883598,
            43.58418,
            198.78
          ],
          [
            0.883593,
            43.584077,
            198.74
          ],
          [
            0.883553,
            43.583974,
            198.7
          ],
          [
            0.883486,
            43.583892,
            198.59
          ],
          [
            0.883409,
            43.583849,
            198.32
          ],
          [
            0.883297,
            43.583859,
            197.89
          ],
          [
            0.883163,
            43.583826,
            197.24
          ],
          [
            0.882268,
            43.583405,
            191.74
          ],
          [
            0.882047,
            43.584256,
            194.52
          ],
          [
            0.88198,
            43.584402,
            194.77
          ],
          [
            0.881908,
            43.58452,
            194.88
          ],
          [
            0.88176,
            43.584702,
            194.91
          ],
          [
            0.880754,
            43.586026,
            186.29
          ],
          [
            0.880667,
            43.586217,
            184.34
          ],
          [
            0.880601,
            43.586393,
            181.83
          ],
          [
            0.880556,
            43.586455,
            181.34
          ],
          [
            0.880465,
            43.58655,
            180.77
          ],
          [
            0.880263,
            43.586721,
            179.79
          ],
          [
            0.87955,
            43.58729,
            174.82
          ],
          [
            0.879297,
            43.587507,
            172.78
          ],
          [
            0.878746,
            43.588086,
            168.0
          ],
          [
            0.878418,
            43.588417,
            168.0
          ],
          [
            0.877845,
            43.589267,
            170.49
          ],
          [
            0.877636,
            43.589614,
            171.94
          ],
          [
            0.877453,
            43.589962,
            173.22
          ],
          [
            0.877353,
            43.59018,
            173.95
          ],
          [
            0.87723,
            43.590597,
            175.31
          ],
          [
            0.877015,
            43.591114,
            178.49
          ],
          [
            0.876904,
            43.591427,
            180.94
          ],
          [
            0.876842,
            43.591701,
            183.29
          ],
          [
            0.876806,
            43.592414,
            189.52
          ],
          [
            0.876782,
            43.592575,
            190.86
          ],
          [
            0.87674,
            43.5927,
            191.57
          ],
          [
            0.876687,
            43.592791,
            191.9
          ],
          [
            0.876388,
            43.593154,
            193.0
          ],
          [
            0.876129,
            43.593581,
            193.97
          ],
          [
            0.875918,
            43.593999,
            194.78
          ],
          [
            0.875725,
            43.594453,
            195.52
          ],
          [
            0.875673,
            43.594609,
            195.76
          ],
          [
            0.875651,
            43.594762,
            196.0
          ],
          [
            0.875635,
            43.59513,
            196.02
          ],
          [
            0.877394,
            43.595122,
            190.81
          ],
          [
            0.87899,
            43.595195,
            184.23
          ],
          [
            0.881209,
            43.595312,
            178.39
          ],
          [
            0.882814,
            43.595501,
            165.28
          ],
          [
            0.882825,
            43.595583,
            165.31
          ],
          [
            0.882891,
            43.595677,
            165.44
          ],
          [
            0.882987,
            43.595744,
            165.51
          ],
          [
            0.883708,
            43.596184,
            165.66
          ],
          [
            0.88412,
            43.59646,
            165.59
          ],
          [
            0.884245,
            43.596592,
            165.44
          ],
          [
            0.884426,
            43.596811,
            165.72
          ],
          [
            0.884956,
            43.59752,
            165.64
          ],
          [
            0.885073,
            43.597728,
            165.54
          ],
          [
            0.885109,
            43.597849,
            165.47
          ],
          [
            0.885196,
            43.598348,
            165.37
          ],
          [
            0.885181,
            43.598569,
            165.08
          ],
          [
            0.884991,
            43.600119,
            163.93
          ],
          [
            0.884884,
            43.600622,
            163.71
          ],
          [
            0.884669,
            43.601204,
            163.45
          ],
          [
            0.88463,
            43.6014,
            163.52
          ],
          [
            0.884624,
            43.601619,
            163.6
          ],
          [
            0.884708,
            43.602762,
            164.85
          ],
          [
            0.884813,
            43.602826,
            164.51
          ],
          [
            0.885204,
            43.603227,
            164.09
          ],
          [
            0.885657,
            43.603636,
            163.75
          ],
          [
            0.886957,
            43.604542,
            163.6
          ],
          [
            0.887152,
            43.604647,
            163.58
          ],
          [
            0.88739,
            43.604741,
            163.55
          ],
          [
            0.889959,
            43.605584,
            162.42
          ],
          [
            0.890191,
            43.605672,
            162.35
          ],
          [
            0.890399,
            43.605781,
            162.23
          ],
          [
            0.890819,
            43.606059,
            162.04
          ],
          [
            0.890945,
            43.606133,
            162.0
          ],
          [
            0.89099,
            43.606218,
            162.0
          ],
          [
            0.891537,
            43.606878,
            161.98
          ],
          [
            0.891708,
            43.607028,
            161.95
          ],
          [
            0.893065,
            43.607903,
            160.68
          ],
          [
            0.893266,
            43.607756,
            160.17
          ],
          [
            0.893651,
            43.607559,
            160.06
          ],
          [
            0.893914,
            43.60744,
            160.0
          ],
          [
            0.894501,
            43.607208,
            160.0
          ],
          [
            0.894659,
            43.607121,
            160.25
          ],
          [
            0.895319,
            43.606643,
            161.31
          ],
          [
            0.896174,
            43.606141,
            163.09
          ],
          [
            0.896476,
            43.605979,
            163.46
          ],
          [
            0.896871,
            43.605819,
            163.69
          ],
          [
            0.898285,
            43.605297,
            164.4
          ],
          [
            0.89857,
            43.605203,
            164.72
          ],
          [
            0.899468,
            43.604951,
            165.87
          ],
          [
            0.899785,
            43.604871,
            166.31
          ],
          [
            0.900103,
            43.604763,
            166.55
          ],
          [
            0.900691,
            43.604478,
            166.87
          ],
          [
            0.901265,
            43.604167,
            166.86
          ],
          [
            0.901305,
            43.60421,
            167.59
          ],
          [
            0.904609,
            43.604853,
            187.65
          ],
          [
            0.904663,
            43.604895,
            188.26
          ],
          [
            0.90471,
            43.604966,
            189.09
          ],
          [
            0.904723,
            43.605039,
            189.92
          ],
          [
            0.904706,
            43.605484,
            196.89
          ]
        ]
      }
    },
    {
      "type": "Feature",
      "properties": {
        "source": "Montaut_et_Ségos.gpx",
        "type": "route"
      },
      "geometry": {
        "type": "LineString",
        "coordinates": [
          [
            0.895914,
            43.617369
          ],
          [
            0.896402,
            43.617835
          ],
          [
            0.883164,
            43.622039
          ],
          [
            0.873214,
            43.596686
          ],
          [
            0.882268,
            43.583405
          ],
          [
            0.883559,
            43.584246
          ],
          [
            0.883559,
            43.584246
          ],
          [
            0.882268,
            43.583405
          ],
          [
            0.875635,
            43.59513
          ],
          [
            0.882814,
            43.595501
          ],
          [
            0.884708,
            43.602762
          ],
          [
            0.890945,
            43.606133
          ],
          [
            0.893065,
            43.607903
          ],
          [
            0.901265,
            43.604167
          ],
          [
            0.901305,
            43.60421
          ],
          [
            0.904706,
            43.605484
          ]
        ]
      }
    }
  ]
}