{
  "type": "FeatureCollection",
  "features": [
    {
      "type": "Feature",
      "properties": {
        "name": "GraphHopper Track",
        "source": "Terres_de_Nataïs.gpx",
        "type": "track"
      },
      "geometry": {
        "type": "LineString",
        "coordinates": [
          [
            1.625818,
            43.118259,
            296.13
          ],
          [
            1.626315,
            43.118608,
            296.16
          ],
          [
            1.626429,
            43.118742,
            296.23
          ],
          [
            1.626545,
            43.119011,
            296.08
          ],
          [
            1.626556,
            43.119123,
            296.0
          ],
          [
            1.627031,
            43.118752,
            295.51
          ],
          [
            1.627476,
            43.118574,
            295.4
          ],
          [
            1.627598,
            43.118516,
            295.92
          ],
          [
            1.627619,
            43.118712,
            295.98
          ],
          [
            1.627654,
            43.11878,
            295.98
          ],
          [
            1.627767,
            43.11882,
            295.99
          ],
          [
            1.62808,
            43.118881,
            295.99
          ],
          [
            1.629113,
            43.118955,
            296.0
          ],
          [
            1.629463,
            43.11889,
            296.0
          ],
          [
            1.629764,
            43.118849,
            297.0
          ],
          [
            1.630224,
            43.118791,
            296.94
          ],
          [
            1.630534,
            43.118768,
            296.0
          ],
          [
            1.630539,
            43.11879,
            296.02
          ],
          [
            1.630493,
            43.11881,
            296.13
          ],
          [
            1.630253,
            43.118837,
            296.58
          ],
          [
            1.630216,
            43.118864,
            296.55
          ],
          [
            1.630159,
            43.119142,
            296.29
          ],
          [
            1.630117,
            43.119173,
            296.43
          ],
          [
            1.630365,
            43.117864,
            297.02
          ],
          [
            1.630419,
            43.117432,
            297.25
          ],
          [
            1.630482,
            43.117147,
            297.46
          ],
          [
            1.630537,
            43.116982,
            297.65
          ],
          [
            1.630581,
            43.116899,
            297.8
          ],
          [
            1.630638,
            43.11682,
            297.97
          ],
          [
            1.630812,
            43.116628,
            298.0
          ],
          [
            1.630944,
            43.116622,
            298.07
          ],
          [
            1.631382,
            43.116658,
            298.81
          ],
          [
            1.631635,
            43.116687,
            299.0
          ],
          [
            1.631698,
            43.116687,
            299.0
          ],
          [
            1.631773,
            43.11667,
            299.0
          ],
          [
            1.631901,
            43.116628,
            299.0
          ],
          [
            1.632033,
            43.116562,
            299.0
          ],
          [
            1.632112,
            43.116496,
            299.0
          ],
          [
            1.632143,
            43.116421,
            299.0
          ],
          [
            1.632105,
            43.116337,
            299.0
          ],
          [
            1.632,
            43.116233,
            298.99
          ],
          [
            1.631854,
            43.116106,
            299.04
          ],
          [
            1.631524,
            43.115837,
            299.3
          ],
          [
            1.631301,
            43.115605,
            299.61
          ],
          [
            1.63119,
            43.115363,
            299.86
          ],
          [
            1.631199,
            43.115284,
            299.95
          ],
          [
            1.631254,
            43.115258,
            299.99
          ],
          [
            1.631333,
            43.115237,
            299.99
          ],
          [
            1.632258,
            43.115089,
            299.76
          ],
          [
            1.632503,
            43.115076,
            299.75
          ],
          [
            1.632503,
            43.115076,
            299.75
          ],
          [
            1.632258,
            43.115089,
            299.76
          ],
          [
            1.631333,
            43.115237,
            299.99
          ],
          [
            1.631254,
            43.115258,
            299.99
          ],
          [
            1.631199,
            43.115284,
            299.95
          ],
          [
            1.63119,
            43.115363,
            299.86
          ],
          [
            1.631301,
            43.115605,
            299.61
          ],
          [
            1.631524,
            43.115837,
            299.3
          ],
          [
            1.631854,
            43.116106,
            299.04
          ],
          [
            1.632,
            43.116233,
            298.99
          ],
          [
            1.632105,
            43.116337,
            299.0
          ],
          [
            1.632143,
            43.116421,
            299.0
          ],
          [
            1.632112,
            43.116496,
            299.0
          ],
          [
            1.632033,
            43.116562,
            299.0
          ],
          [
            1.631901,
            43.116628,
            299.0
          ],
          [
            1.631773,
            43.11667,
            299.0
          ],
          [
            1.631698,
            43.116687,
            299.0
          ],
          [
            1.631635,
            43.116687,
            299.0
          ],
          [
            1.631382,
            43.116658,
            298.81
          ],
          [
            1.630944,
            43.116622,
            298.07
          ],
          [
            1.630812,
            43.116628,
            298.0
          ],
          [
            1.630638,
            43.11682,
            297.97
          ],
          [
            1.630581,
            43.116899,
            297.8
          ],
          [
            1.630537,
            43.116982,
            297.65
          ],
          [
            1.630482,
            43.117147,
            297.46
          ],
          [
            1.630419,
            43.117432,
            297.25
          ],
          [
            1.630365,
            43.117864,
            297.02
          ],
          [
            1.630117,
            43.119173,
            296.43
          ],
          [
            1.630159,
            43.119142,
            296.29
          ],
          [
            1.630216,
            43.118864,
            296.55
          ],
          [
            1.630253,
            43.118837,
            296.58
          ],
          [
            1.630493,
            43.11881,
            296.13
          ],
          [
            1.630539,
            43.11879,
            296.02
          ],
          [
            1.630534,
            43.118768,
            296.0
          ],
          [
            1.630224,
            43.118791,
            296.94
          ],
          [
            1.629764,
            43.118849,
            297.0
          ],
          [
            1.629463,
            43.11889,
            296.0
          ],
          [
            1.629113,
            43.118955,
            296.0
          ],
          [
            1.62808,
            43.118881,
            295.99
          ],
          [
            1.627767,
            43.11882,
            295.99
          ],
          [
            1.627654,
            43.11878,
            295.98
          ],
          [
            1.627619,
            43.118712,
            295.98
          ],
          [
            1.627598,
            43.118516,
            295.92
          ],
          [
            1.627476,
            43.118574,
            295.4
          ],
          [
            1.627031,
            43.118752,
            295.51
          ],
          [
            1.626556,
            43.119123,
            296.0
          ],
          [
            1.626545,
            43.119011,
            296.08
          ],
          [
            1.626429,
            43.118742,
            296.23
          ],
          [
            1.626315,
            43.118608,
            296.16
          ],
          [
            1.625818,
            43.118259,
            296.13
          ]
        ]
      }
    },
    {
      "type": "Feature",
      "properties": {
        "source": "Terres_de_Nataïs.gpx",
        "type": "route"
      },
      "geometry": {
        "type": "LineString",
        "coordinates": [
          [
            1.625818,
            43.118259
          ],
          [
            1.626556,
            43.119123
          ],
          [
            1.627598,
            43.118516
          ],
          [
            1.630117,
            43.119173
          ],
          [
            1.632033,
            43.116562
          ],
          [
            1.631199,
            43.115284
          ],
          [
            1.632503,
            43.115076
          ],
          [
            1.632503,
            43.115076
          ],
          [
            1.631199,
            43.115284
          ],
          [
            1.632033,
            43.116562
          ],
          [
            1.630117,
            43.119173
          ],
          [
            1.627598,
            43.118516
          ],
          [
            1.626556,
            43.119123
          ],
          [
            1.625818,
            43.118259
          ]
        ]
      }
    }
  ]
}