{
  "type": "FeatureCollection",
  "features": [
    {
      "type": "Feature",
      "properties": {
        "name": "GraphHopper Track",
        "source": "St-Pons-Thomières.gpx",
        "type": "track"
      },
      "geometry": {
        "type": "LineString",
        "coordinates": [
          [
            2.7555,
            43.4885,
            357.82
          ],
          [
            2.7555,
            43.4885,
            357.82
          ],
          [
            2.755455,
            43.488449,
            357.0
          ],
          [
            2.755388,
            43.488335,
            355.03
          ],
          [
            2.755254,
            43.488,
            349.72
          ],
          [
            2.755114,
            43.487834,
            346.63
          ],
          [
            2.754352,
            43.487011,
            335.58
          ],
          [
            2.754358,
            43.486949,
            335.22
          ],
          [
            2.75462,
            43.486731,
            333.18
          ],
          [
            2.754283,
            43.486509,
            335.38
          ],
          [
            2.754163,
            43.48643,
            336.62
          ],
          [
            2.754181,
            43.486404,
            336.76
          ],
          [
            2.75416,
            43.486383,
            336.93
          ],
          [
            2.754049,
            43.486297,
            337.6
          ],
          [
            2.754131,
            43.48625,
            337.98
          ],
          [
            2.754151,
            43.486204,
            338.35
          ],
          [
            2.754139,
            43.48616,
            338.6
          ],
          [
            2.75405,
            43.486089,
            339.05
          ],
          [
            2.754063,
            43.486025,
            339.23
          ],
          [
            2.754084,
            43.485979,
            339.51
          ],
          [
            2.754139,
            43.485939,
            340.01
          ],
          [
            2.754227,
            43.485924,
            340.79
          ],
          [
            2.7545,
            43.485954,
            341.35
          ],
          [
            2.754724,
            43.486057,
            342.0
          ],
          [
            2.755034,
            43.486233,
            342.94
          ],
          [
            2.75519,
            43.486292,
            343.74
          ],
          [
            2.755301,
            43.486323,
            344.27
          ],
          [
            2.755556,
            43.486359,
            346.1
          ],
          [
            2.755896,
            43.486392,
            347.43
          ],
          [
            2.755887,
            43.486301,
            348.55
          ],
          [
            2.755799,
            43.486171,
            350.3
          ],
          [
            2.755677,
            43.486064,
            351.74
          ],
          [
            2.755646,
            43.486018,
            352.58
          ],
          [
            2.755664,
            43.485985,
            353.32
          ],
          [
            2.755742,
            43.485923,
            354.51
          ],
          [
            2.755851,
            43.485914,
            355.01
          ],
          [
            2.75597,
            43.4859,
            355.65
          ],
          [
            2.756276,
            43.485923,
            356.62
          ],
          [
            2.756471,
            43.48591,
            358.2
          ],
          [
            2.756624,
            43.485869,
            359.98
          ],
          [
            2.756677,
            43.485807,
            360.9
          ],
          [
            2.756656,
            43.485742,
            361.54
          ],
          [
            2.75656,
            43.485701,
            362.44
          ],
          [
            2.756377,
            43.485698,
            364.8
          ],
          [
            2.756332,
            43.485655,
            366.03
          ],
          [
            2.756396,
            43.485538,
            368.17
          ],
          [
            2.756503,
            43.485456,
            370.17
          ],
          [
            2.756624,
            43.485427,
            371.22
          ],
          [
            2.756962,
            43.485384,
            373.54
          ],
          [
            2.75722,
            43.48534,
            375.14
          ],
          [
            2.757435,
            43.485314,
            374.2
          ],
          [
            2.757581,
            43.485267,
            372.66
          ],
          [
            2.757751,
            43.48518,
            370.76
          ],
          [
            2.757847,
            43.485097,
            369.15
          ],
          [
            2.757931,
            43.484984,
            367.89
          ],
          [
            2.758182,
            43.484731,
            365.2
          ],
          [
            2.75847,
            43.484482,
            363.06
          ]
        ]
      }
    },
    {
      "type": "Feature",
      "properties": {
        "source": "St-Pons-Thomières.gpx",
        "type": "route"
      },
      "geometry": {
        "type": "LineString",
        "coordinates": [
          [
            2.7555,
            43.4885
          ],
          [
            2.7555,
            43.4885
          ],
          [
            2.75462,
            43.486731
          ],
          [
            2.754283,
            43.486509
          ],
          [
            2.754163,
            43.48643
          ],
          [
            2.754181,
            43.486404
          ],
          [
            2.75416,
            43.486383
          ],
          [
            2.754049,
            43.486297
          ],
          [
            2.755896,
            43.486392
          ],
          [
            2.755646,
            43.486018
          ],
          [
            2.755851,
            43.485914
          ],
          [
            2.75722,
            43.48534
          ],
          [
            2.757931,
            43.484984
          ],
          [
            2.75847,
            43.484482
          ]
        ]
      }
    }
  ]
}