{
  "type": "FeatureCollection",
  "features": [
    {
      "type": "Feature",
      "properties": {
        "name": "GraphHopper Track",
        "source": "Sentier_dAussonne.gpx",
        "type": "track"
      },
      "geometry": {
        "type": "LineString",
        "coordinates": [
          [
            1.319594,
            43.684464,
            146.0
          ],
          [
            1.319502,
            43.684239,
            145.19
          ],
          [
            1.319454,
            43.684145,
            144.8
          ],
          [
            1.318992,
            43.684257,
            145.23
          ],
          [
            1.318782,
            43.683956,
            147.02
          ],
          [
            1.318752,
            43.683927,
            147.24
          ],
          [
            1.318704,
            43.683916,
            147.42
          ],
          [
            1.318644,
            43.683916,
            147.61
          ],
          [
            1.318323,
            43.684034,
            148.75
          ],
          [
            1.318252,
            43.684032,
            148.92
          ],
          [
            1.31821,
            43.684016,
            149.04
          ],
          [
            1.318075,
            43.683826,
            149.76
          ],
          [
            1.317986,
            43.683765,
            150.13
          ],
          [
            1.317918,
            43.683743,
            150.45
          ],
          [
            1.317599,
            43.683686,
            151.0
          ],
          [
            1.31758,
            43.683528,
            151.07
          ],
          [
            1.317675,
            43.683238,
            151.83
          ],
          [
            1.317579,
            43.683221,
            151.96
          ],
          [
            1.317422,
            43.683171,
            152.01
          ],
          [
            1.317132,
            43.683058,
            152.36
          ],
          [
            1.317042,
            43.683043,
            152.43
          ],
          [
            1.316832,
            43.682977,
            152.77
          ],
          [
            1.316742,
            43.682929,
            152.97
          ],
          [
            1.316322,
            43.682766,
            153.35
          ],
          [
            1.316126,
            43.682711,
            153.63
          ],
          [
            1.31597,
            43.682641,
            153.88
          ],
          [
            1.315932,
            43.682592,
            154.04
          ],
          [
            1.315936,
            43.682529,
            154.13
          ],
          [
            1.316078,
            43.682237,
            154.26
          ],
          [
            1.316141,
            43.682082,
            154.0
          ],
          [
            1.316132,
            43.682048,
            154.0
          ],
          [
            1.316061,
            43.682052,
            154.37
          ],
          [
            1.316007,
            43.682044,
            154.67
          ],
          [
            1.315054,
            43.681891,
            155.23
          ],
          [
            1.314934,
            43.681877,
            155.2
          ],
          [
            1.314822,
            43.681873,
            155.08
          ],
          [
            1.314788,
            43.681879,
            155.05
          ],
          [
            1.314763,
            43.681851,
            155.06
          ],
          [
            1.314742,
            43.681843,
            155.13
          ],
          [
            1.314696,
            43.681844,
            155.34
          ],
          [
            1.314683,
            43.681822,
            155.52
          ],
          [
            1.314543,
            43.681808,
            156.19
          ],
          [
            1.31387,
            43.68167,
            159.0
          ],
          [
            1.313936,
            43.681389,
            158.2
          ],
          [
            1.313435,
            43.681188,
            159.0
          ],
          [
            1.313382,
            43.681233,
            159.03
          ],
          [
            1.313219,
            43.681198,
            159.89
          ],
          [
            1.313162,
            43.681364,
            160.02
          ],
          [
            1.312966,
            43.681329,
            160.22
          ],
          [
            1.312966,
            43.681329,
            160.22
          ],
          [
            1.313162,
            43.681364,
            160.02
          ],
          [
            1.313219,
            43.681198,
            159.89
          ],
          [
            1.313382,
            43.681233,
            159.03
          ],
          [
            1.313435,
            43.681188,
            159.0
          ],
          [
            1.313936,
            43.681389,
            158.2
          ],
          [
            1.314608,
            43.681564,
            156.0
          ],
          [
            1.314637,
            43.681749,
            155.84
          ],
          [
            1.314696,
            43.681844,
            155.34
          ],
          [
            1.314676,
            43.681853,
            155.42
          ],
          [
            1.314654,
            43.681881,
            155.48
          ],
          [
            1.314653,
            43.681897,
            155.52
          ],
          [
            1.314674,
            43.681926,
            155.43
          ],
          [
            1.314693,
            43.681935,
            155.32
          ],
          [
            1.314674,
            43.682023,
            155.22
          ],
          [
            1.314734,
            43.682612,
            154.15
          ],
          [
            1.314817,
            43.683207,
            154.39
          ],
          [
            1.314805,
            43.683483,
            154.26
          ],
          [
            1.314718,
            43.683863,
            153.03
          ],
          [
            1.31478,
            43.684258,
            152.93
          ],
          [
            1.314838,
            43.684435,
            152.48
          ],
          [
            1.314997,
            43.684757,
            151.66
          ],
          [
            1.31528,
            43.685122,
            150.8
          ],
          [
            1.3155,
            43.685354,
            150.17
          ],
          [
            1.315629,
            43.685505,
            150.0
          ],
          [
            1.31564,
            43.685528,
            150.0
          ],
          [
            1.315606,
            43.685542,
            150.0
          ],
          [
            1.315581,
            43.685564,
            150.05
          ],
          [
            1.315568,
            43.685591,
            150.11
          ],
          [
            1.315568,
            43.685619,
            150.3
          ],
          [
            1.315584,
            43.68565,
            150.53
          ],
          [
            1.315616,
            43.685674,
            150.74
          ],
          [
            1.315624,
            43.685755,
            151.0
          ],
          [
            1.315641,
            43.685773,
            151.0
          ],
          [
            1.315249,
            43.686421,
            152.67
          ]
        ]
      }
    },
    {
      "type": "Feature",
      "properties": {
        "source": "Sentier_dAussonne.gpx",
        "type": "route"
      },
      "geometry": {
        "type": "LineString",
        "coordinates": [
          [
            1.319594,
            43.684464
          ],
          [
            1.319454,
            43.684145
          ],
          [
            1.318992,
            43.684257
          ],
          [
            1.317599,
            43.683686
          ],
          [
            1.317675,
            43.683238
          ],
          [
            1.316132,
            43.682048
          ],
          [
            1.314788,
            43.681879
          ],
          [
            1.314683,
            43.681822
          ],
          [
            1.31387,
            43.68167
          ],
          [
            1.313936,
            43.681389
          ],
          [
            1.313435,
            43.681188
          ],
          [
            1.313219,
            43.681198
          ],
          [
            1.313162,
            43.681364
          ],
          [
            1.312966,
            43.681329
          ],
          [
            1.312966,
            43.681329
          ],
          [
            1.313162,
            43.681364
          ],
          [
            1.313219,
            43.681198
          ],
          [
            1.313435,
            43.681188
          ],
          [
            1.314608,
            43.681564
          ],
          [
            1.314696,
            43.681844
          ],
          [
            1.31564,
            43.685528
          ],
          [
            1.315641,
            43.685773
          ],
          [
            1.315249,
            43.686421
          ]
        ]
      }
    }
  ]
}