{
  "type": "FeatureCollection",
  "features": [
    {
      "type": "Feature",
      "properties": {
        "name": "GraphHopper Track",
        "source": "Falga.gpx",
        "type": "track"
      },
      "geometry": {
        "type": "LineString",
        "coordinates": [
          [
            1.859321,
            43.487346,
            263.42
          ],
          [
            1.85986,
            43.487015,
            264.08
          ],
          [
            1.860523,
            43.486582,
            265.16
          ],
          [
            1.861071,
            43.486189,
            266.35
          ],
          [
            1.861275,
            43.486053,
            267.0
          ],
          [
            1.861377,
            43.485954,
            267.39
          ],
          [
            1.861423,
            43.485884,
            267.64
          ],
          [
            1.861808,
            43.485035,
            270.83
          ],
          [
            1.861909,
            43.484901,
            271.24
          ],
          [
            1.862097,
            43.484734,
            271.77
          ],
          [
            1.86296,
            43.484148,
            273.82
          ],
          [
            1.864926,
            43.482969,
            275.0
          ],
          [
            1.86533,
            43.4827,
            275.0
          ],
          [
            1.865521,
            43.48251,
            275.16
          ],
          [
            1.865521,
            43.48251,
            275.16
          ],
          [
            1.86533,
            43.4827,
            275.0
          ],
          [
            1.864926,
            43.482969,
            275.0
          ],
          [
            1.86296,
            43.484148,
            273.82
          ],
          [
            1.862097,
            43.484734,
            271.77
          ],
          [
            1.861909,
            43.484901,
            271.24
          ],
          [
            1.861808,
            43.485035,
            270.83
          ],
          [
            1.861423,
            43.485884,
            267.64
          ],
          [
            1.861377,
            43.485954,
            267.39
          ],
          [
            1.861275,
            43.486053,
            267.0
          ],
          [
            1.861071,
            43.486189,
            266.35
          ],
          [
            1.860523,
            43.486582,
            265.16
          ],
          [
            1.85986,
            43.487015,
            264.08
          ],
          [
            1.859321,
            43.487346,
            263.42
          ]
        ]
      }
    },
    {
      "type": "Feature",
      "properties": {
        "source": "Falga.gpx",
        "type": "route"
      },
      "geometry": {
        "type": "LineString",
        "coordinates": [
          [
            1.859321,
            43.487346
          ],
          [
            1.861377,
            43.485954
          ],
          [
            1.865521,
            43.48251
          ],
          [
            1.865521,
            43.48251
          ],
          [
            1.859321,
            43.487346
          ]
        ]
      }
    }
  ]
}