{
  "type": "FeatureCollection",
  "features": [
    {
      "type": "Feature",
      "properties": {
        "name": "GraphHopper Track",
        "source": "Boucle_de_Molas.gpx",
        "type": "track"
      },
      "geometry": {
        "type": "LineString",
        "coordinates": [
          [
            0.815515,
            43.355541,
            212.51
          ],
          [
            0.815005,
            43.355658,
            213.63
          ],
          [
            0.814663,
            43.35575,
            214.35
          ],
          [
            0.814344,
            43.355884,
            215.92
          ],
          [
            0.814187,
            43.355964,
            217.0
          ],
          [
            0.815045,
            43.357025,
            217.28
          ],
          [
            0.815052,
            43.35708,
            217.28
          ],
          [
            0.816398,
            43.358758,
            218.69
          ],
          [
            0.817339,
            43.359969,
            217.95
          ],
          [
            0.818568,
            43.361502,
            215.81
          ],
          [
            0.820488,
            43.363946,
            214.08
          ],
          [
            0.820986,
            43.36455,
            214.0
          ],
          [
            0.82302,
            43.367191,
            212.0
          ],
          [
            0.823118,
            43.367273,
            211.99
          ],
          [
            0.823272,
            43.367435,
            212.01
          ],
          [
            0.823389,
            43.367512,
            212.23
          ],
          [
            0.823461,
            43.367519,
            211.92
          ],
          [
            0.823527,
            43.367542,
            211.68
          ],
          [
            0.823572,
            43.367523,
            211.43
          ],
          [
            0.823739,
            43.367501,
            210.91
          ],
          [
            0.824181,
            43.367401,
            210.08
          ],
          [
            0.825594,
            43.367,
            208.0
          ],
          [
            0.824654,
            43.365872,
            209.09
          ],
          [
            0.824654,
            43.365872,
            209.09
          ],
          [
            0.825594,
            43.367,
            208.0
          ],
          [
            0.824181,
            43.367401,
            210.08
          ],
          [
            0.823739,
            43.367501,
            210.91
          ],
          [
            0.823572,
            43.367523,
            211.43
          ],
          [
            0.823527,
            43.367542,
            211.68
          ],
          [
            0.823461,
            43.367519,
            211.92
          ],
          [
            0.823389,
            43.367512,
            212.23
          ],
          [
            0.823272,
            43.367435,
            212.01
          ],
          [
            0.823118,
            43.367273,
            211.99
          ],
          [
            0.82302,
            43.367191,
            212.0
          ],
          [
            0.820986,
            43.36455,
            214.0
          ],
          [
            0.820488,
            43.363946,
            214.08
          ],
          [
            0.818568,
            43.361502,
            215.81
          ],
          [
            0.817339,
            43.359969,
            217.95
          ],
          [
            0.816398,
            43.358758,
            218.69
          ],
          [
            0.815052,
            43.35708,
            217.28
          ],
          [
            0.815045,
            43.357025,
            217.28
          ],
          [
            0.814187,
            43.355964,
            217.0
          ],
          [
            0.814344,
            43.355884,
            215.92
          ],
          [
            0.814663,
            43.35575,
            214.35
          ],
          [
            0.815005,
            43.355658,
            213.63
          ],
          [
            0.815515,
            43.355541,
            212.51
          ]
        ]
      }
    },
    {
      "type": "Feature",
      "properties": {
        "source": "Boucle_de_Molas.gpx",
        "type": "route"
      },
      "geometry": {
        "type": "LineString",
        "coordinates": [
          [
            0.815515,
            43.355541
          ],
          [
            0.814187,
            43.355964
          ],
          [
            0.82302,
            43.367191
          ],
          [
            0.823389,
            43.367512
          ],
          [
            0.823739,
            43.367501
          ],
          [
            0.825594,
            43.367
          ],
          [
            0.824654,
            43.365872
          ],
          [
            0.824654,
            43.365872
          ],
          [
            0.825594,
            43.367
          ],
          [
            0.823739,
            43.367501
          ],
          [
            0.823527,
            43.367542
          ],
          [
            0.815052,
            43.35708
          ],
          [
            0.814187,
            43.355964
          ],
          [
            0.815515,
            43.355541
          ]
        ]
      }
    }
  ]
}