{
  "type": "FeatureCollection",
  "features": [
    {
      "type": "Feature",
      "properties": {
        "name": "GraphHopper Track",
        "source": "Sentier_de_Roques.gpx",
        "type": "track"
      },
      "geometry": {
        "type": "LineString",
        "coordinates": [
          [
            1.375612,
            43.511521,
            153.0
          ],
          [
            1.375666,
            43.511367,
            153.0
          ],
          [
            1.375686,
            43.511233,
            153.0
          ],
          [
            1.375586,
            43.511134,
            153.28
          ],
          [
            1.376063,
            43.510856,
            153.23
          ],
          [
            1.376217,
            43.51079,
            153.11
          ],
          [
            1.376264,
            43.510874,
            153.34
          ],
          [
            1.376362,
            43.510998,
            153.73
          ],
          [
            1.376432,
            43.511048,
            153.79
          ],
          [
            1.376645,
            43.511116,
            153.99
          ],
          [
            1.376799,
            43.511126,
            154.0
          ],
          [
            1.377005,
            43.511069,
            154.0
          ],
          [
            1.378034,
            43.510531,
            154.0
          ],
          [
            1.378114,
            43.51051,
            154.0
          ],
          [
            1.378284,
            43.510525,
            154.0
          ],
          [
            1.378336,
            43.510573,
            154.0
          ],
          [
            1.378431,
            43.510594,
            154.0
          ],
          [
            1.3785,
            43.51058,
            154.0
          ],
          [
            1.378543,
            43.510555,
            154.0
          ],
          [
            1.378574,
            43.510512,
            153.95
          ],
          [
            1.378577,
            43.510465,
            153.9
          ],
          [
            1.378715,
            43.51044,
            153.33
          ],
          [
            1.379819,
            43.510846,
            153.34
          ],
          [
            1.379911,
            43.510905,
            153.65
          ],
          [
            1.379902,
            43.510939,
            153.91
          ],
          [
            1.380458,
            43.511105,
            153.89
          ],
          [
            1.381702,
            43.511594,
            154.06
          ],
          [
            1.382063,
            43.511722,
            153.66
          ],
          [
            1.382388,
            43.511849,
            154.0
          ],
          [
            1.382526,
            43.511911,
            153.78
          ],
          [
            1.383814,
            43.512394,
            153.0
          ],
          [
            1.384067,
            43.512468,
            153.0
          ],
          [
            1.384336,
            43.512511,
            153.0
          ],
          [
            1.385058,
            43.512604,
            153.0
          ],
          [
            1.38583,
            43.512632,
            153.42
          ],
          [
            1.386282,
            43.512667,
            153.88
          ],
          [
            1.386454,
            43.512689,
            154.59
          ],
          [
            1.38664,
            43.512727,
            154.06
          ],
          [
            1.386728,
            43.512758,
            153.74
          ],
          [
            1.387082,
            43.512915,
            152.6
          ],
          [
            1.387217,
            43.512954,
            153.0
          ],
          [
            1.387242,
            43.51288,
            152.03
          ],
          [
            1.387562,
            43.512968,
            153.24
          ],
          [
            1.387652,
            43.512986,
            153.43
          ],
          [
            1.387703,
            43.512985,
            152.81
          ],
          [
            1.387776,
            43.512963,
            151.61
          ],
          [
            1.388285,
            43.511365,
            150.88
          ],
          [
            1.388389,
            43.511076,
            150.52
          ],
          [
            1.388438,
            43.511085,
            150.93
          ],
          [
            1.38868,
            43.510412,
            150.03
          ],
          [
            1.388694,
            43.51026,
            150.0
          ],
          [
            1.388632,
            43.51026,
            150.0
          ],
          [
            1.388541,
            43.510245,
            150.0
          ],
          [
            1.388173,
            43.51006,
            151.08
          ],
          [
            1.38822,
            43.5099,
            151.0
          ],
          [
            1.388118,
            43.509908,
            151.0
          ],
          [
            1.388113,
            43.509865,
            151.0
          ],
          [
            1.387924,
            43.509869,
            151.45
          ],
          [
            1.387394,
            43.50994,
            151.53
          ],
          [
            1.387287,
            43.509944,
            151.1
          ],
          [
            1.38718,
            43.509934,
            151.0
          ],
          [
            1.387194,
            43.509869,
            151.0
          ],
          [
            1.387177,
            43.509836,
            151.0
          ],
          [
            1.38713,
            43.509802,
            151.0
          ],
          [
            1.387031,
            43.509771,
            151.0
          ],
          [
            1.386961,
            43.509735,
            151.0
          ],
          [
            1.386935,
            43.50969,
            151.0
          ],
          [
            1.386929,
            43.509586,
            151.0
          ],
          [
            1.386824,
            43.509482,
            151.6
          ],
          [
            1.386534,
            43.509345,
            151.64
          ],
          [
            1.38639,
            43.509334,
            151.52
          ],
          [
            1.386177,
            43.509381,
            151.0
          ],
          [
            1.38597,
            43.508981,
            152.0
          ],
          [
            1.386023,
            43.508959,
            152.0
          ],
          [
            1.386011,
            43.508916,
            152.0
          ],
          [
            1.386033,
            43.508889,
            152.0
          ],
          [
            1.385925,
            43.508496,
            151.98
          ],
          [
            1.385604,
            43.507765,
            151.7
          ],
          [
            1.385431,
            43.507561,
            152.0
          ],
          [
            1.38554,
            43.506911,
            153.46
          ],
          [
            1.385591,
            43.506804,
            153.78
          ],
          [
            1.385689,
            43.506681,
            154.16
          ],
          [
            1.385954,
            43.506417,
            155.09
          ],
          [
            1.386227,
            43.506199,
            155.81
          ],
          [
            1.386358,
            43.506072,
            155.86
          ],
          [
            1.386388,
            43.506011,
            156.08
          ],
          [
            1.386476,
            43.505777,
            156.76
          ],
          [
            1.386512,
            43.505631,
            156.98
          ],
          [
            1.386512,
            43.505631,
            156.98
          ],
          [
            1.386476,
            43.505777,
            156.76
          ],
          [
            1.386358,
            43.506072,
            155.86
          ],
          [
            1.386227,
            43.506199,
            155.81
          ],
          [
            1.385954,
            43.506417,
            155.09
          ],
          [
            1.385689,
            43.506681,
            154.16
          ],
          [
            1.385591,
            43.506804,
            153.78
          ],
          [
            1.38554,
            43.506911,
            153.46
          ],
          [
            1.385431,
            43.507561,
            152.0
          ],
          [
            1.385604,
            43.507765,
            151.7
          ],
          [
            1.385925,
            43.508496,
            151.98
          ],
          [
            1.386033,
            43.508889,
            152.0
          ],
          [
            1.386011,
            43.508916,
            152.0
          ],
          [
            1.386023,
            43.508959,
            152.0
          ],
          [
            1.38597,
            43.508981,
            152.0
          ],
          [
            1.386177,
            43.509381,
            151.0
          ],
          [
            1.38639,
            43.509334,
            151.52
          ],
          [
            1.386534,
            43.509345,
            151.64
          ],
          [
            1.386824,
            43.509482,
            151.6
          ],
          [
            1.386929,
            43.509586,
            151.0
          ],
          [
            1.386935,
            43.50969,
            151.0
          ],
          [
            1.386961,
            43.509735,
            151.0
          ],
          [
            1.387031,
            43.509771,
            151.0
          ],
          [
            1.38713,
            43.509802,
            151.0
          ],
          [
            1.387177,
            43.509836,
            151.0
          ],
          [
            1.387194,
            43.509869,
            151.0
          ],
          [
            1.38718,
            43.509934,
            151.0
          ],
          [
            1.387287,
            43.509944,
            151.1
          ],
          [
            1.387394,
            43.50994,
            151.53
          ],
          [
            1.387924,
            43.509869,
            151.45
          ],
          [
            1.388113,
            43.509865,
            151.0
          ],
          [
            1.388118,
            43.509908,
            151.0
          ],
          [
            1.38822,
            43.5099,
            151.0
          ],
          [
            1.388173,
            43.51006,
            151.08
          ],
          [
            1.388541,
            43.510245,
            150.0
          ],
          [
            1.388632,
            43.51026,
            150.0
          ],
          [
            1.388694,
            43.51026,
            150.0
          ],
          [
            1.38868,
            43.510412,
            150.03
          ],
          [
            1.388438,
            43.511085,
            150.93
          ],
          [
            1.388389,
            43.511076,
            150.52
          ],
          [
            1.388285,
            43.511365,
            150.88
          ],
          [
            1.387776,
            43.512963,
            151.61
          ],
          [
            1.387703,
            43.512985,
            152.81
          ],
          [
            1.387652,
            43.512986,
            153.43
          ],
          [
            1.387562,
            43.512968,
            153.24
          ],
          [
            1.387242,
            43.51288,
            152.03
          ],
          [
            1.387236,
            43.512898,
            152.22
          ],
          [
            1.387115,
            43.512846,
            151.53
          ],
          [
            1.387029,
            43.512791,
            150.67
          ],
          [
            1.386808,
            43.512577,
            147.95
          ],
          [
            1.386721,
            43.51252,
            147.18
          ],
          [
            1.386504,
            43.512449,
            145.61
          ],
          [
            1.386225,
            43.512345,
            144.84
          ],
          [
            1.386068,
            43.512308,
            144.68
          ],
          [
            1.385994,
            43.5123,
            144.75
          ],
          [
            1.385925,
            43.512262,
            144.72
          ],
          [
            1.385846,
            43.512258,
            144.78
          ],
          [
            1.385705,
            43.512195,
            144.92
          ],
          [
            1.385625,
            43.512197,
            144.99
          ],
          [
            1.385376,
            43.512136,
            145.07
          ],
          [
            1.385171,
            43.512106,
            145.21
          ],
          [
            1.384987,
            43.512064,
            145.33
          ],
          [
            1.38478,
            43.511995,
            145.54
          ],
          [
            1.38464,
            43.511929,
            145.63
          ],
          [
            1.384478,
            43.511893,
            145.68
          ],
          [
            1.384332,
            43.511877,
            145.74
          ],
          [
            1.383965,
            43.51178,
            146.01
          ],
          [
            1.383827,
            43.511725,
            146.12
          ],
          [
            1.383715,
            43.511712,
            146.25
          ],
          [
            1.383541,
            43.51167,
            146.41
          ],
          [
            1.383422,
            43.511577,
            146.5
          ],
          [
            1.383378,
            43.511448,
            146.6
          ],
          [
            1.383253,
            43.511332,
            146.73
          ],
          [
            1.383031,
            43.511176,
            147.09
          ],
          [
            1.382783,
            43.511066,
            147.35
          ],
          [
            1.382476,
            43.510943,
            147.59
          ],
          [
            1.382318,
            43.510841,
            147.8
          ],
          [
            1.382096,
            43.510646,
            148.0
          ],
          [
            1.381922,
            43.510469,
            148.0
          ],
          [
            1.381751,
            43.510334,
            147.47
          ],
          [
            1.381266,
            43.510379,
            147.87
          ],
          [
            1.380754,
            43.510351,
            147.97
          ],
          [
            1.380396,
            43.510304,
            147.88
          ],
          [
            1.380129,
            43.51031,
            147.98
          ],
          [
            1.37987,
            43.510388,
            148.29
          ],
          [
            1.379736,
            43.51041,
            149.13
          ],
          [
            1.37957,
            43.510398,
            150.14
          ],
          [
            1.379318,
            43.510343,
            151.71
          ],
          [
            1.378888,
            43.510153,
            151.73
          ],
          [
            1.378737,
            43.510122,
            151.97
          ],
          [
            1.378478,
            43.510254,
            152.76
          ],
          [
            1.378411,
            43.510371,
            153.36
          ],
          [
            1.378338,
            43.510391,
            153.64
          ],
          [
            1.378283,
            43.510437,
            153.95
          ],
          [
            1.378273,
            43.510479,
            153.99
          ],
          [
            1.378284,
            43.510525,
            154.0
          ],
          [
            1.378114,
            43.51051,
            154.0
          ],
          [
            1.378034,
            43.510531,
            154.0
          ],
          [
            1.377005,
            43.511069,
            154.0
          ],
          [
            1.376799,
            43.511126,
            154.0
          ],
          [
            1.376645,
            43.511116,
            153.99
          ],
          [
            1.376432,
            43.511048,
            153.79
          ],
          [
            1.376362,
            43.510998,
            153.73
          ],
          [
            1.376264,
            43.510874,
            153.34
          ],
          [
            1.376217,
            43.51079,
            153.11
          ],
          [
            1.376063,
            43.510856,
            153.23
          ],
          [
            1.375586,
            43.511134,
            153.28
          ],
          [
            1.375686,
            43.511233,
            153.0
          ],
          [
            1.375666,
            43.511367,
            153.0
          ],
          [
            1.375612,
            43.511521,
            153.0
          ]
        ]
      }
    },
    {
      "type": "Feature",
      "properties": {
        "source": "Sentier_de_Roques.gpx",
        "type": "route"
      },
      "geometry": {
        "type": "LineString",
        "coordinates": [
          [
            1.375612,
            43.511521
          ],
          [
            1.375686,
            43.511233
          ],
          [
            1.375586,
            43.511134
          ],
          [
            1.376217,
            43.51079
          ],
          [
            1.378284,
            43.510525
          ],
          [
            1.379902,
            43.510939
          ],
          [
            1.387217,
            43.512954
          ],
          [
            1.388438,
            43.511085
          ],
          [
            1.388694,
            43.51026
          ],
          [
            1.388118,
            43.509908
          ],
          [
            1.388113,
            43.509865
          ],
          [
            1.38718,
            43.509934
          ],
          [
            1.386929,
            43.509586
          ],
          [
            1.386177,
            43.509381
          ],
          [
            1.38597,
            43.508981
          ],
          [
            1.386033,
            43.508889
          ],
          [
            1.385431,
            43.507561
          ],
          [
            1.386388,
            43.506011
          ],
          [
            1.386512,
            43.505631
          ],
          [
            1.386512,
            43.505631
          ],
          [
            1.385431,
            43.507561
          ],
          [
            1.386033,
            43.508889
          ],
          [
            1.38597,
            43.508981
          ],
          [
            1.386177,
            43.509381
          ],
          [
            1.386929,
            43.509586
          ],
          [
            1.38718,
            43.509934
          ],
          [
            1.388113,
            43.509865
          ],
          [
            1.388118,
            43.509908
          ],
          [
            1.388694,
            43.51026
          ],
          [
            1.388438,
            43.511085
          ],
          [
            1.387236,
            43.512898
          ],
          [
            1.381751,
            43.510334
          ],
          [
            1.378737,
            43.510122
          ],
          [
            1.378411,
            43.510371
          ],
          [
            1.376217,
            43.51079
          ],
          [
            1.375586,
            43.511134
          ],
          [
            1.375686,
            43.511233
          ],
          [
            1.375612,
            43.511521
          ]
        ]
      }
    }
  ]
}