{
  "type": "FeatureCollection",
  "features": [
    {
      "type": "Feature",
      "properties": {
        "name": "GraphHopper Track",
        "source": "Tour_de_Barberousse.gpx",
        "type": "track"
      },
      "geometry": {
        "type": "LineString",
        "coordinates": [
          [
            3.145344,
            43.14483,
            1.87
          ],
          [
            3.145147,
            43.144991,
            1.97
          ],
          [
            3.145039,
            43.145101,
            2.0
          ],
          [
            3.144844,
            43.145352,
            2.25
          ],
          [
            3.144813,
            43.145363,
            2.1
          ],
          [
            3.144766,
            43.145394,
            2.23
          ],
          [
            3.144737,
            43.145435,
            2.35
          ],
          [
            3.144729,
            43.145481,
            2.47
          ],
          [
            3.144743,
            43.145526,
            2.36
          ],
          [
            3.144772,
            43.14556,
            2.25
          ],
          [
            3.144811,
            43.145647,
            1.69
          ],
          [
            3.144829,
            43.145744,
            1.0
          ],
          [
            3.144771,
            43.145922,
            1.0
          ],
          [
            3.144981,
            43.145966,
            1.0
          ],
          [
            3.145057,
            43.145967,
            1.0
          ],
          [
            3.145241,
            43.145925,
            1.0
          ],
          [
            3.145446,
            43.145894,
            1.0
          ],
          [
            3.145775,
            43.14588,
            1.0
          ],
          [
            3.146539,
            43.145898,
            1.03
          ],
          [
            3.146479,
            43.145946,
            1.01
          ],
          [
            3.146411,
            43.14598,
            1.0
          ],
          [
            3.146347,
            43.146042,
            1.0
          ],
          [
            3.146242,
            43.146094,
            1.0
          ],
          [
            3.146168,
            43.146106,
            1.01
          ],
          [
            3.145682,
            43.146285,
            1.05
          ],
          [
            3.14553,
            43.146371,
            1.07
          ],
          [
            3.145346,
            43.146594,
            1.08
          ],
          [
            3.14449,
            43.147317,
            1.05
          ],
          [
            3.143802,
            43.147789,
            1.25
          ],
          [
            3.143479,
            43.148087,
            1.82
          ],
          [
            3.143418,
            43.148105,
            1.85
          ],
          [
            3.143246,
            43.148254,
            1.94
          ],
          [
            3.143057,
            43.148444,
            2.01
          ],
          [
            3.142882,
            43.148588,
            2.17
          ],
          [
            3.142503,
            43.148826,
            2.47
          ],
          [
            3.142105,
            43.149138,
            3.13
          ],
          [
            3.142005,
            43.149183,
            3.46
          ],
          [
            3.141886,
            43.149177,
            3.36
          ],
          [
            3.14178,
            43.149145,
            3.25
          ],
          [
            3.141168,
            43.148915,
            3.12
          ],
          [
            3.140862,
            43.148793,
            3.12
          ],
          [
            3.140634,
            43.148675,
            3.1
          ],
          [
            3.140342,
            43.148553,
            3.0
          ],
          [
            3.139521,
            43.148242,
            2.7
          ],
          [
            3.13935,
            43.14815,
            2.65
          ],
          [
            3.139181,
            43.148036,
            2.66
          ],
          [
            3.139093,
            43.147954,
            2.7
          ],
          [
            3.139001,
            43.147902,
            2.76
          ],
          [
            3.138341,
            43.147737,
            3.21
          ],
          [
            3.138116,
            43.147652,
            3.27
          ],
          [
            3.137626,
            43.147409,
            3.47
          ],
          [
            3.13717,
            43.147148,
            3.7
          ],
          [
            3.136621,
            43.146814,
            4.54
          ],
          [
            3.136385,
            43.146624,
            4.07
          ],
          [
            3.13619,
            43.146413,
            4.27
          ],
          [
            3.136089,
            43.146341,
            4.29
          ],
          [
            3.136001,
            43.14631,
            4.32
          ],
          [
            3.13531,
            43.146206,
            4.23
          ],
          [
            3.133431,
            43.145972,
            3.98
          ],
          [
            3.133369,
            43.145937,
            4.0
          ],
          [
            3.133353,
            43.14588,
            4.05
          ],
          [
            3.133349,
            43.1458,
            4.28
          ],
          [
            3.133193,
            43.145807,
            4.95
          ],
          [
            3.132595,
            43.146186,
            5.88
          ],
          [
            3.13194,
            43.146573,
            6.84
          ],
          [
            3.131805,
            43.146613,
            7.0
          ],
          [
            3.130753,
            43.146698,
            9.92
          ],
          [
            3.130247,
            43.146727,
            12.2
          ],
          [
            3.129883,
            43.14676,
            13.89
          ],
          [
            3.129558,
            43.146819,
            15.47
          ],
          [
            3.129472,
            43.14685,
            15.86
          ],
          [
            3.129268,
            43.146845,
            19.19
          ],
          [
            3.129061,
            43.146857,
            21.04
          ],
          [
            3.12882,
            43.146848,
            22.01
          ],
          [
            3.128623,
            43.146805,
            22.95
          ],
          [
            3.128304,
            43.146685,
            22.18
          ],
          [
            3.128281,
            43.146583,
            22.69
          ],
          [
            3.128208,
            43.146514,
            22.6
          ],
          [
            3.128017,
            43.146439,
            22.37
          ],
          [
            3.127679,
            43.146353,
            23.06
          ],
          [
            3.127564,
            43.1463,
            23.36
          ],
          [
            3.127505,
            43.146209,
            23.57
          ],
          [
            3.127413,
            43.145908,
            23.96
          ],
          [
            3.127332,
            43.14581,
            24.01
          ],
          [
            3.127143,
            43.145699,
            23.99
          ],
          [
            3.126924,
            43.145633,
            24.09
          ],
          [
            3.126621,
            43.145637,
            24.41
          ],
          [
            3.12644,
            43.145725,
            24.61
          ],
          [
            3.126241,
            43.145848,
            24.87
          ],
          [
            3.126146,
            43.145865,
            25.04
          ],
          [
            3.12602,
            43.145844,
            25.33
          ],
          [
            3.125848,
            43.1458,
            25.9
          ],
          [
            3.125424,
            43.145723,
            27.86
          ],
          [
            3.124923,
            43.145653,
            29.77
          ],
          [
            3.12466,
            43.145662,
            30.62
          ],
          [
            3.124418,
            43.145714,
            31.39
          ],
          [
            3.124314,
            43.145784,
            31.78
          ],
          [
            3.124064,
            43.145818,
            32.28
          ],
          [
            3.123868,
            43.145829,
            32.55
          ],
          [
            3.123557,
            43.145809,
            32.74
          ],
          [
            3.123388,
            43.145768,
            32.67
          ],
          [
            3.123217,
            43.145707,
            32.6
          ],
          [
            3.122887,
            43.145648,
            32.5
          ],
          [
            3.122769,
            43.145645,
            32.43
          ],
          [
            3.122596,
            43.145623,
            32.3
          ],
          [
            3.12191,
            43.145413,
            31.95
          ],
          [
            3.121729,
            43.145349,
            31.99
          ],
          [
            3.121635,
            43.145296,
            31.96
          ],
          [
            3.121359,
            43.145214,
            32.03
          ],
          [
            3.121184,
            43.145144,
            32.57
          ],
          [
            3.12093,
            43.145075,
            33.21
          ],
          [
            3.120755,
            43.14504,
            33.68
          ],
          [
            3.120533,
            43.144959,
            34.39
          ],
          [
            3.120422,
            43.144843,
            35.06
          ],
          [
            3.11993,
            43.144692,
            36.93
          ],
          [
            3.119613,
            43.144689,
            38.94
          ],
          [
            3.119298,
            43.144669,
            42.14
          ],
          [
            3.118929,
            43.144864,
            44.53
          ],
          [
            3.118721,
            43.145138,
            46.63
          ],
          [
            3.118453,
            43.145338,
            48.12
          ],
          [
            3.118155,
            43.145516,
            49.98
          ],
          [
            3.118081,
            43.145662,
            50.02
          ],
          [
            3.117995,
            43.145742,
            50.62
          ],
          [
            3.117831,
            43.145872,
            52.51
          ],
          [
            3.11763,
            43.146068,
            54.55
          ],
          [
            3.117634,
            43.146299,
            55.88
          ],
          [
            3.117569,
            43.146389,
            56.15
          ],
          [
            3.117474,
            43.146394,
            57.81
          ],
          [
            3.117299,
            43.146234,
            60.91
          ],
          [
            3.117122,
            43.146152,
            63.49
          ],
          [
            3.116804,
            43.146151,
            68.29
          ],
          [
            3.116722,
            43.146293,
            69.86
          ],
          [
            3.116627,
            43.146355,
            70.43
          ],
          [
            3.116451,
            43.146258,
            70.85
          ],
          [
            3.116338,
            43.146105,
            69.51
          ],
          [
            3.116217,
            43.146026,
            68.6
          ],
          [
            3.115878,
            43.145708,
            67.4
          ],
          [
            3.11576,
            43.145664,
            67.22
          ],
          [
            3.115581,
            43.145645,
            66.91
          ],
          [
            3.115412,
            43.145649,
            66.44
          ],
          [
            3.115238,
            43.145644,
            65.86
          ],
          [
            3.115096,
            43.145624,
            65.47
          ],
          [
            3.114764,
            43.145517,
            65.18
          ],
          [
            3.114699,
            43.145418,
            65.07
          ],
          [
            3.114343,
            43.145268,
            63.84
          ],
          [
            3.114162,
            43.145212,
            62.92
          ],
          [
            3.113819,
            43.145211,
            63.66
          ],
          [
            3.113633,
            43.145251,
            63.28
          ],
          [
            3.113514,
            43.145265,
            63.26
          ],
          [
            3.113364,
            43.14517,
            62.88
          ],
          [
            3.11329,
            43.145172,
            63.22
          ],
          [
            3.113018,
            43.145142,
            65.36
          ],
          [
            3.112946,
            43.145117,
            66.15
          ],
          [
            3.112829,
            43.145224,
            66.82
          ],
          [
            3.112074,
            43.145709,
            70.92
          ],
          [
            3.111993,
            43.145798,
            71.41
          ],
          [
            3.111925,
            43.14589,
            71.91
          ],
          [
            3.111844,
            43.145971,
            72.38
          ],
          [
            3.111774,
            43.146024,
            72.69
          ],
          [
            3.111657,
            43.146092,
            73.16
          ],
          [
            3.111571,
            43.146243,
            73.86
          ],
          [
            3.11149,
            43.146315,
            74.28
          ],
          [
            3.111327,
            43.146412,
            74.97
          ],
          [
            3.111282,
            43.146504,
            75.44
          ],
          [
            3.111077,
            43.146674,
            76.6
          ],
          [
            3.110952,
            43.146759,
            77.4
          ],
          [
            3.11084,
            43.146866,
            78.39
          ],
          [
            3.11057,
            43.147038,
            80.24
          ],
          [
            3.110418,
            43.147112,
            81.3
          ],
          [
            3.110306,
            43.147143,
            82.13
          ],
          [
            3.110174,
            43.147163,
            83.31
          ],
          [
            3.109986,
            43.147128,
            84.91
          ],
          [
            3.109751,
            43.14737,
            86.63
          ],
          [
            3.109753,
            43.147495,
            87.53
          ],
          [
            3.109621,
            43.147551,
            88.99
          ],
          [
            3.10949,
            43.147665,
            91.2
          ],
          [
            3.109442,
            43.147721,
            92.31
          ],
          [
            3.109249,
            43.147813,
            95.81
          ],
          [
            3.109118,
            43.147923,
            99.23
          ],
          [
            3.108975,
            43.148005,
            102.39
          ],
          [
            3.10854,
            43.14821,
            112.81
          ],
          [
            3.108389,
            43.148299,
            117.42
          ],
          [
            3.108199,
            43.148497,
            125.79
          ],
          [
            3.108025,
            43.14859,
            131.51
          ],
          [
            3.107889,
            43.148648,
            135.83
          ],
          [
            3.107669,
            43.148719,
            142.82
          ],
          [
            3.107477,
            43.148793,
            149.27
          ],
          [
            3.10735,
            43.148905,
            155.03
          ],
          [
            3.107273,
            43.149092,
            163.05
          ],
          [
            3.10736,
            43.149155,
            170.83
          ],
          [
            3.107429,
            43.149474,
            174.72
          ],
          [
            3.107315,
            43.14971,
            175.89
          ],
          [
            3.107197,
            43.149828,
            176.96
          ],
          [
            3.107101,
            43.150004,
            178.17
          ],
          [
            3.106967,
            43.15014,
            178.83
          ],
          [
            3.106888,
            43.150295,
            179.79
          ],
          [
            3.106998,
            43.150426,
            187.89
          ],
          [
            3.107191,
            43.15046,
            189.03
          ],
          [
            3.107325,
            43.150441,
            188.93
          ],
          [
            3.107264,
            43.150603,
            189.98
          ],
          [
            3.107063,
            43.15063,
            190.8
          ],
          [
            3.106628,
            43.150737,
            191.34
          ],
          [
            3.106466,
            43.150751,
            191.28
          ],
          [
            3.106374,
            43.150748,
            191.34
          ],
          [
            3.106247,
            43.150723,
            191.43
          ],
          [
            3.10575,
            43.150535,
            190.93
          ],
          [
            3.105619,
            43.150467,
            190.62
          ],
          [
            3.105425,
            43.150312,
            189.49
          ],
          [
            3.105231,
            43.150211,
            188.79
          ],
          [
            3.10503,
            43.150083,
            188.14
          ],
          [
            3.104861,
            43.149938,
            187.46
          ],
          [
            3.104479,
            43.149558,
            185.95
          ],
          [
            3.104318,
            43.149442,
            185.6
          ],
          [
            3.104132,
            43.14934,
            185.34
          ],
          [
            3.104024,
            43.149309,
            185.29
          ],
          [
            3.103906,
            43.14929,
            185.29
          ],
          [
            3.103774,
            43.149297,
            185.34
          ],
          [
            3.103653,
            43.149336,
            185.44
          ],
          [
            3.103597,
            43.149377,
            185.53
          ],
          [
            3.103557,
            43.149433,
            185.63
          ],
          [
            3.10354,
            43.149504,
            185.78
          ],
          [
            3.103548,
            43.149577,
            185.95
          ],
          [
            3.103796,
            43.149982,
            187.51
          ],
          [
            3.103894,
            43.150163,
            188.22
          ],
          [
            3.103962,
            43.15039,
            188.97
          ],
          [
            3.103981,
            43.150523,
            189.36
          ],
          [
            3.103973,
            43.150611,
            189.6
          ],
          [
            3.103938,
            43.150713,
            189.85
          ],
          [
            3.103782,
            43.150983,
            190.39
          ],
          [
            3.103728,
            43.151103,
            190.61
          ],
          [
            3.103652,
            43.151447,
            191.04
          ],
          [
            3.103633,
            43.151722,
            191.55
          ],
          [
            3.103559,
            43.151758,
            191.14
          ],
          [
            3.103529,
            43.1518,
            190.87
          ],
          [
            3.103482,
            43.151828,
            190.82
          ],
          [
            3.103282,
            43.151877,
            190.88
          ],
          [
            3.103092,
            43.151763,
            190.02
          ],
          [
            3.102697,
            43.151549,
            187.66
          ],
          [
            3.102514,
            43.15143,
            186.22
          ],
          [
            3.102437,
            43.151354,
            185.49
          ],
          [
            3.102325,
            43.151197,
            184.05
          ],
          [
            3.102176,
            43.150967,
            182.01
          ],
          [
            3.102007,
            43.150652,
            179.56
          ],
          [
            3.10195,
            43.150592,
            179.06
          ],
          [
            3.101865,
            43.15056,
            178.56
          ],
          [
            3.101793,
            43.150574,
            178.15
          ],
          [
            3.101724,
            43.150622,
            177.62
          ],
          [
            3.101635,
            43.150917,
            175.58
          ],
          [
            3.101594,
            43.150999,
            175.04
          ],
          [
            3.101525,
            43.151079,
            174.37
          ],
          [
            3.101432,
            43.151146,
            173.44
          ],
          [
            3.10134,
            43.151178,
            172.49
          ],
          [
            3.101242,
            43.151185,
            171.88
          ],
          [
            3.101141,
            43.151161,
            171.45
          ],
          [
            3.101027,
            43.151096,
            171.96
          ],
          [
            3.100896,
            43.150998,
            172.84
          ],
          [
            3.100617,
            43.150838,
            174.17
          ],
          [
            3.100507,
            43.150744,
            174.62
          ],
          [
            3.100195,
            43.150387,
            175.8
          ],
          [
            3.099861,
            43.150159,
            175.78
          ],
          [
            3.099612,
            43.149883,
            175.15
          ],
          [
            3.099471,
            43.149741,
            174.54
          ],
          [
            3.099367,
            43.149669,
            174.08
          ],
          [
            3.099302,
            43.14964,
            173.82
          ],
          [
            3.099041,
            43.149578,
            172.82
          ],
          [
            3.098978,
            43.149541,
            172.38
          ],
          [
            3.098957,
            43.149497,
            171.9
          ],
          [
            3.098983,
            43.149443,
            171.09
          ],
          [
            3.099021,
            43.149413,
            170.59
          ],
          [
            3.098977,
            43.149338,
            169.45
          ],
          [
            3.098846,
            43.149257,
            167.63
          ],
          [
            3.098757,
            43.149163,
            164.94
          ],
          [
            3.098701,
            43.149146,
            163.65
          ],
          [
            3.098596,
            43.149095,
            160.69
          ],
          [
            3.098439,
            43.149078,
            157.42
          ],
          [
            3.098374,
            43.149004,
            154.98
          ],
          [
            3.098283,
            43.148963,
            152.33
          ],
          [
            3.09814,
            43.148995,
            148.25
          ],
          [
            3.098045,
            43.148983,
            145.73
          ],
          [
            3.098006,
            43.148967,
            144.72
          ],
          [
            3.097967,
            43.148886,
            142.88
          ],
          [
            3.097735,
            43.148921,
            141.74
          ],
          [
            3.097642,
            43.148904,
            141.49
          ],
          [
            3.097586,
            43.148869,
            141.47
          ],
          [
            3.097561,
            43.148807,
            141.45
          ],
          [
            3.097568,
            43.148657,
            142.04
          ],
          [
            3.097585,
            43.148556,
            142.7
          ],
          [
            3.097635,
            43.14841,
            143.81
          ],
          [
            3.097637,
            43.148339,
            144.33
          ],
          [
            3.09759,
            43.148249,
            144.91
          ],
          [
            3.097469,
            43.148109,
            146.02
          ],
          [
            3.097337,
            43.147998,
            147.18
          ],
          [
            3.097108,
            43.147862,
            148.99
          ],
          [
            3.096764,
            43.147634,
            151.91
          ],
          [
            3.096682,
            43.147607,
            152.45
          ],
          [
            3.096579,
            43.147599,
            153.04
          ],
          [
            3.096368,
            43.147621,
            154.21
          ],
          [
            3.096065,
            43.147641,
            155.78
          ],
          [
            3.095863,
            43.147684,
            156.65
          ],
          [
            3.095695,
            43.147748,
            157.12
          ],
          [
            3.095416,
            43.147839,
            157.51
          ],
          [
            3.095143,
            43.147914,
            157.78
          ],
          [
            3.095053,
            43.147891,
            157.71
          ],
          [
            3.095029,
            43.14785,
            157.6
          ],
          [
            3.095032,
            43.147634,
            156.47
          ],
          [
            3.095003,
            43.147568,
            156.45
          ],
          [
            3.094998,
            43.14749,
            156.19
          ],
          [
            3.094772,
            43.147534,
            160.88
          ],
          [
            3.094613,
            43.147516,
            164.02
          ],
          [
            3.094507,
            43.147566,
            166.53
          ],
          [
            3.09439,
            43.147585,
            168.75
          ],
          [
            3.094203,
            43.147649,
            172.17
          ],
          [
            3.093866,
            43.147702,
            177.44
          ],
          [
            3.0937,
            43.147722,
            179.81
          ],
          [
            3.093606,
            43.14777,
            181.32
          ],
          [
            3.093361,
            43.14781,
            184.22
          ],
          [
            3.093156,
            43.147891,
            186.45
          ],
          [
            3.092972,
            43.14801,
            188.41
          ],
          [
            3.0928,
            43.14816,
            190.09
          ],
          [
            3.092591,
            43.148266,
            191.32
          ],
          [
            3.092422,
            43.148393,
            192.23
          ],
          [
            3.09125,
            43.148743,
            193.24
          ],
          [
            3.090701,
            43.148877,
            191.51
          ],
          [
            3.09011,
            43.149007,
            187.95
          ],
          [
            3.089748,
            43.149126,
            184.44
          ],
          [
            3.089594,
            43.149152,
            182.92
          ],
          [
            3.08954,
            43.149169,
            182.36
          ],
          [
            3.08947,
            43.149173,
            181.72
          ],
          [
            3.088939,
            43.149268,
            177.02
          ],
          [
            3.088762,
            43.149321,
            175.51
          ],
          [
            3.088607,
            43.14939,
            174.06
          ],
          [
            3.088025,
            43.149503,
            170.53
          ],
          [
            3.087624,
            43.149625,
            167.58
          ],
          [
            3.084671,
            43.150366,
            188.71
          ],
          [
            3.082438,
            43.151113,
            195.57
          ],
          [
            3.081773,
            43.151241,
            197.05
          ],
          [
            3.081318,
            43.151154,
            197.63
          ],
          [
            3.080692,
            43.150261,
            198.29
          ],
          [
            3.081009,
            43.149731,
            198.63
          ],
          [
            3.080939,
            43.149397,
            197.77
          ],
          [
            3.080829,
            43.149172,
            197.06
          ],
          [
            3.080567,
            43.14883,
            196.34
          ],
          [
            3.080328,
            43.148497,
            195.96
          ],
          [
            3.080169,
            43.148387,
            195.83
          ],
          [
            3.080255,
            43.148288,
            196.43
          ],
          [
            3.080828,
            43.147903,
            195.77
          ],
          [
            3.081392,
            43.147658,
            194.87
          ],
          [
            3.081722,
            43.147431,
            194.12
          ],
          [
            3.081912,
            43.147384,
            193.74
          ],
          [
            3.081966,
            43.147269,
            193.4
          ],
          [
            3.082526,
            43.147003,
            191.87
          ],
          [
            3.082736,
            43.146809,
            190.89
          ],
          [
            3.083031,
            43.14669,
            189.78
          ],
          [
            3.083159,
            43.146558,
            188.97
          ],
          [
            3.083548,
            43.146457,
            187.34
          ],
          [
            3.084047,
            43.146149,
            184.45
          ],
          [
            3.08413,
            43.146155,
            184.06
          ],
          [
            3.084358,
            43.14603,
            182.63
          ],
          [
            3.084632,
            43.145825,
            180.61
          ],
          [
            3.084956,
            43.145805,
            178.92
          ],
          [
            3.085474,
            43.145656,
            175.97
          ],
          [
            3.085548,
            43.145531,
            174.95
          ],
          [
            3.085548,
            43.145531,
            174.95
          ],
          [
            3.085662,
            43.14534,
            173.39
          ]
        ]
      }
    },
    {
      "type": "Feature",
      "properties": {
        "source": "Tour_de_Barberousse.gpx",
        "type": "route"
      },
      "geometry": {
        "type": "LineString",
        "coordinates": [
          [
            3.145344,
            43.14483
          ],
          [
            3.145039,
            43.145101
          ],
          [
            3.144844,
            43.145352
          ],
          [
            3.144771,
            43.145922
          ],
          [
            3.146539,
            43.145898
          ],
          [
            3.143479,
            43.148087
          ],
          [
            3.142005,
            43.149183
          ],
          [
            3.133349,
            43.1458
          ],
          [
            3.121635,
            43.145296
          ],
          [
            3.119613,
            43.144689
          ],
          [
            3.117569,
            43.146389
          ],
          [
            3.116804,
            43.146151
          ],
          [
            3.113514,
            43.145265
          ],
          [
            3.113364,
            43.14517
          ],
          [
            3.112946,
            43.145117
          ],
          [
            3.109986,
            43.147128
          ],
          [
            3.109753,
            43.147495
          ],
          [
            3.10736,
            43.149155
          ],
          [
            3.107325,
            43.150441
          ],
          [
            3.094998,
            43.14749
          ],
          [
            3.080169,
            43.148387
          ],
          [
            3.085548,
            43.145531
          ],
          [
            3.085548,
            43.145531
          ],
          [
            3.085662,
            43.14534
          ]
        ]
      }
    }
  ]
}