{
  "type": "FeatureCollection",
  "features": [
    {
      "type": "Feature",
      "properties": {
        "name": "GraphHopper Track",
        "source": "Boucle_de_Martiel.gpx",
        "type": "track"
      },
      "geometry": {
        "type": "LineString",
        "coordinates": [
          [
            1.923048,
            44.373845,
            383.61
          ],
          [
            1.922704,
            44.373732,
            384.43
          ],
          [
            1.922531,
            44.373665,
            385.0
          ],
          [
            1.922154,
            44.373434,
            385.74
          ],
          [
            1.922092,
            44.373372,
            385.86
          ],
          [
            1.921957,
            44.373107,
            385.85
          ],
          [
            1.921873,
            44.372869,
            386.63
          ],
          [
            1.921859,
            44.372766,
            386.72
          ],
          [
            1.921819,
            44.372714,
            386.54
          ],
          [
            1.921535,
            44.372892,
            385.55
          ],
          [
            1.920042,
            44.37361,
            379.07
          ],
          [
            1.919904,
            44.373655,
            378.21
          ],
          [
            1.919508,
            44.373575,
            377.5
          ],
          [
            1.919338,
            44.373507,
            377.12
          ],
          [
            1.919134,
            44.373387,
            376.75
          ],
          [
            1.918991,
            44.373274,
            376.63
          ],
          [
            1.918724,
            44.372977,
            375.66
          ],
          [
            1.918459,
            44.372726,
            373.87
          ],
          [
            1.918391,
            44.372641,
            373.16
          ],
          [
            1.918227,
            44.372394,
            371.06
          ],
          [
            1.918136,
            44.372285,
            369.44
          ],
          [
            1.917754,
            44.371879,
            364.06
          ],
          [
            1.917383,
            44.371368,
            363.35
          ],
          [
            1.917092,
            44.370714,
            364.2
          ],
          [
            1.916968,
            44.370388,
            364.24
          ],
          [
            1.91694,
            44.370225,
            364.29
          ],
          [
            1.91694,
            44.370018,
            364.45
          ],
          [
            1.916994,
            44.369594,
            364.99
          ],
          [
            1.916986,
            44.369413,
            365.52
          ],
          [
            1.91697,
            44.369328,
            365.97
          ],
          [
            1.916922,
            44.369254,
            366.55
          ],
          [
            1.916848,
            44.369203,
            367.31
          ],
          [
            1.916678,
            44.369138,
            368.9
          ],
          [
            1.916396,
            44.36911,
            371.19
          ],
          [
            1.915694,
            44.369075,
            375.91
          ],
          [
            1.915528,
            44.369035,
            377.02
          ],
          [
            1.915399,
            44.36897,
            377.98
          ],
          [
            1.915314,
            44.368885,
            378.86
          ],
          [
            1.915244,
            44.36878,
            379.83
          ],
          [
            1.914873,
            44.368026,
            386.38
          ],
          [
            1.914708,
            44.36785,
            387.81
          ],
          [
            1.914577,
            44.367837,
            388.1
          ],
          [
            1.914413,
            44.367784,
            388.6
          ],
          [
            1.914185,
            44.3676,
            388.88
          ],
          [
            1.914106,
            44.367489,
            388.49
          ],
          [
            1.913898,
            44.367334,
            388.04
          ],
          [
            1.913619,
            44.367164,
            387.76
          ],
          [
            1.913262,
            44.366981,
            387.79
          ],
          [
            1.912357,
            44.366444,
            390.63
          ],
          [
            1.912263,
            44.36638,
            391.04
          ],
          [
            1.912245,
            44.366328,
            391.34
          ],
          [
            1.912295,
            44.366275,
            391.77
          ],
          [
            1.912443,
            44.366212,
            392.34
          ],
          [
            1.912803,
            44.365993,
            393.71
          ],
          [
            1.913267,
            44.365813,
            394.69
          ],
          [
            1.913267,
            44.365813,
            394.69
          ],
          [
            1.912803,
            44.365993,
            393.71
          ],
          [
            1.912443,
            44.366212,
            392.34
          ],
          [
            1.912295,
            44.366275,
            391.77
          ],
          [
            1.912245,
            44.366328,
            391.34
          ],
          [
            1.912263,
            44.36638,
            391.04
          ],
          [
            1.912357,
            44.366444,
            390.63
          ],
          [
            1.913262,
            44.366981,
            387.79
          ],
          [
            1.913619,
            44.367164,
            387.76
          ],
          [
            1.913898,
            44.367334,
            388.04
          ],
          [
            1.914106,
            44.367489,
            388.49
          ],
          [
            1.914185,
            44.3676,
            388.88
          ],
          [
            1.914413,
            44.367784,
            388.6
          ],
          [
            1.914577,
            44.367837,
            388.1
          ],
          [
            1.914708,
            44.36785,
            387.81
          ],
          [
            1.914873,
            44.368026,
            386.38
          ],
          [
            1.915244,
            44.36878,
            379.83
          ],
          [
            1.915314,
            44.368885,
            378.86
          ],
          [
            1.915399,
            44.36897,
            377.98
          ],
          [
            1.915528,
            44.369035,
            377.02
          ],
          [
            1.915694,
            44.369075,
            375.91
          ],
          [
            1.916396,
            44.36911,
            371.19
          ],
          [
            1.916678,
            44.369138,
            368.9
          ],
          [
            1.916848,
            44.369203,
            367.31
          ],
          [
            1.916922,
            44.369254,
            366.55
          ],
          [
            1.91697,
            44.369328,
            365.97
          ],
          [
            1.916986,
            44.369413,
            365.52
          ],
          [
            1.916994,
            44.369594,
            364.99
          ],
          [
            1.91694,
            44.370018,
            364.45
          ],
          [
            1.91694,
            44.370225,
            364.29
          ],
          [
            1.916968,
            44.370388,
            364.24
          ],
          [
            1.917092,
            44.370714,
            364.2
          ],
          [
            1.917383,
            44.371368,
            363.35
          ],
          [
            1.917754,
            44.371879,
            364.06
          ],
          [
            1.918136,
            44.372285,
            369.44
          ],
          [
            1.918227,
            44.372394,
            371.06
          ],
          [
            1.918391,
            44.372641,
            373.16
          ],
          [
            1.918459,
            44.372726,
            373.87
          ],
          [
            1.918724,
            44.372977,
            375.66
          ],
          [
            1.918991,
            44.373274,
            376.63
          ],
          [
            1.919134,
            44.373387,
            376.75
          ],
          [
            1.919338,
            44.373507,
            377.12
          ],
          [
            1.919508,
            44.373575,
            377.5
          ],
          [
            1.919904,
            44.373655,
            378.21
          ],
          [
            1.920042,
            44.37361,
            379.07
          ],
          [
            1.921535,
            44.372892,
            385.55
          ],
          [
            1.921819,
            44.372714,
            386.54
          ],
          [
            1.921859,
            44.372766,
            386.72
          ],
          [
            1.921873,
            44.372869,
            386.63
          ],
          [
            1.921957,
            44.373107,
            385.85
          ],
          [
            1.922092,
            44.373372,
            385.86
          ],
          [
            1.922154,
            44.373434,
            385.74
          ],
          [
            1.922531,
            44.373665,
            385.0
          ],
          [
            1.922704,
            44.373732,
            384.43
          ],
          [
            1.923048,
            44.373845,
            383.61
          ]
        ]
      }
    },
    {
      "type": "Feature",
      "properties": {
        "source": "Boucle_de_Martiel.gpx",
        "type": "route"
      },
      "geometry": {
        "type": "LineString",
        "coordinates": [
          [
            1.923048,
            44.373845
          ],
          [
            1.921819,
            44.372714
          ],
          [
            1.919904,
            44.373655
          ],
          [
            1.919508,
            44.373575
          ],
          [
            1.914708,
            44.36785
          ],
          [
            1.912245,
            44.366328
          ],
          [
            1.913267,
            44.365813
          ],
          [
            1.913267,
            44.365813
          ],
          [
            1.912245,
            44.366328
          ],
          [
            1.919904,
            44.373655
          ],
          [
            1.921819,
            44.372714
          ],
          [
            1.923048,
            44.373845
          ]
        ]
      }
    }
  ]
}