{
  "type": "FeatureCollection",
  "features": [
    {
      "type": "Feature",
      "properties": {
        "name": "GraphHopper Track",
        "source": "Crêtes_Nord.gpx",
        "type": "track"
      },
      "geometry": {
        "type": "LineString",
        "coordinates": [
          [
            2.113696,
            42.700675,
            1260.14
          ],
          [
            2.113236,
            42.700565,
            1257.15
          ],
          [
            2.112816,
            42.700536,
            1254.99
          ],
          [
            2.112242,
            42.700198,
            1251.43
          ],
          [
            2.111778,
            42.700065,
            1249.16
          ],
          [
            2.110906,
            42.699597,
            1243.2
          ],
          [
            2.110591,
            42.699135,
            1240.7
          ],
          [
            2.11021,
            42.698763,
            1239.35
          ],
          [
            2.10986,
            42.698624,
            1238.42
          ],
          [
            2.108897,
            42.698537,
            1236.49
          ],
          [
            2.108544,
            42.698459,
            1236.0
          ],
          [
            2.108209,
            42.698173,
            1235.31
          ],
          [
            2.107416,
            42.69798,
            1234.21
          ],
          [
            2.107105,
            42.698014,
            1233.74
          ],
          [
            2.106552,
            42.698419,
            1230.8
          ],
          [
            2.106075,
            42.698633,
            1230.02
          ],
          [
            2.105683,
            42.698851,
            1230.21
          ],
          [
            2.104583,
            42.699168,
            1229.87
          ],
          [
            2.103563,
            42.699419,
            1226.35
          ],
          [
            2.103148,
            42.699411,
            1224.82
          ],
          [
            2.102463,
            42.699272,
            1222.96
          ],
          [
            2.101479,
            42.698642,
            1221.26
          ],
          [
            2.101133,
            42.698501,
            1221.28
          ],
          [
            2.100475,
            42.698062,
            1221.75
          ],
          [
            2.100256,
            42.698051,
            1222.24
          ],
          [
            2.099642,
            42.698104,
            1223.61
          ],
          [
            2.099407,
            42.698161,
            1224.39
          ],
          [
            2.099237,
            42.698188,
            1225.08
          ],
          [
            2.099076,
            42.698223,
            1225.66
          ],
          [
            2.098889,
            42.698278,
            1225.37
          ],
          [
            2.098688,
            42.698321,
            1224.65
          ],
          [
            2.0983,
            42.698381,
            1222.75
          ],
          [
            2.098267,
            42.698446,
            1221.75
          ],
          [
            2.098276,
            42.698524,
            1220.9
          ],
          [
            2.098272,
            42.698612,
            1219.93
          ],
          [
            2.098287,
            42.698694,
            1219.05
          ],
          [
            2.098364,
            42.698828,
            1217.42
          ],
          [
            2.098379,
            42.698895,
            1216.87
          ],
          [
            2.09844,
            42.699045,
            1215.45
          ],
          [
            2.098457,
            42.699126,
            1214.75
          ],
          [
            2.098542,
            42.699297,
            1212.64
          ],
          [
            2.098463,
            42.699321,
            1212.85
          ],
          [
            2.098384,
            42.699361,
            1213.02
          ],
          [
            2.098436,
            42.699454,
            1211.99
          ],
          [
            2.098467,
            42.699928,
            1206.51
          ],
          [
            2.098461,
            42.700037,
            1204.8
          ],
          [
            2.098522,
            42.700294,
            1200.57
          ],
          [
            2.098872,
            42.700299,
            1198.48
          ],
          [
            2.099638,
            42.700447,
            1195.05
          ],
          [
            2.099826,
            42.700517,
            1193.25
          ],
          [
            2.099912,
            42.700562,
            1192.1
          ],
          [
            2.099985,
            42.70062,
            1190.95
          ],
          [
            2.100189,
            42.700902,
            1186.96
          ],
          [
            2.100506,
            42.701387,
            1180.83
          ],
          [
            2.10078,
            42.701647,
            1177.13
          ],
          [
            2.101105,
            42.701893,
            1173.18
          ],
          [
            2.101284,
            42.702162,
            1169.0
          ],
          [
            2.101705,
            42.703513,
            1159.28
          ],
          [
            2.102021,
            42.704134,
            1163.52
          ],
          [
            2.102251,
            42.704652,
            1169.39
          ],
          [
            2.10233,
            42.704797,
            1170.91
          ],
          [
            2.103134,
            42.705546,
            1176.54
          ],
          [
            2.103924,
            42.706101,
            1178.32
          ],
          [
            2.10422,
            42.706348,
            1179.0
          ],
          [
            2.105072,
            42.707207,
            1183.2
          ],
          [
            2.105257,
            42.707369,
            1184.53
          ],
          [
            2.106019,
            42.70794,
            1190.59
          ],
          [
            2.106202,
            42.708097,
            1192.28
          ],
          [
            2.107113,
            42.709248,
            1204.62
          ],
          [
            2.107715,
            42.709784,
            1208.26
          ],
          [
            2.108029,
            42.710094,
            1207.73
          ],
          [
            2.108156,
            42.71026,
            1206.0
          ],
          [
            2.108248,
            42.710453,
            1203.12
          ],
          [
            2.10828,
            42.710595,
            1200.79
          ],
          [
            2.108268,
            42.71071,
            1199.13
          ],
          [
            2.108146,
            42.711005,
            1194.5
          ],
          [
            2.108136,
            42.711094,
            1193.17
          ],
          [
            2.108157,
            42.711487,
            1187.57
          ],
          [
            2.108204,
            42.711946,
            1181.72
          ],
          [
            2.108381,
            42.712679,
            1174.26
          ],
          [
            2.108466,
            42.712799,
            1173.0
          ],
          [
            2.108568,
            42.712968,
            1171.53
          ],
          [
            2.108574,
            42.713064,
            1171.13
          ],
          [
            2.108417,
            42.713356,
            1171.0
          ],
          [
            2.108311,
            42.713575,
            1170.85
          ],
          [
            2.108277,
            42.713731,
            1170.71
          ],
          [
            2.108294,
            42.713869,
            1169.9
          ],
          [
            2.108367,
            42.713944,
            1169.27
          ],
          [
            2.108417,
            42.714013,
            1169.17
          ],
          [
            2.108425,
            42.714065,
            1169.11
          ],
          [
            2.10839,
            42.714217,
            1168.75
          ],
          [
            2.108295,
            42.714517,
            1167.99
          ],
          [
            2.108473,
            42.714562,
            1166.61
          ],
          [
            2.10857,
            42.714598,
            1165.92
          ],
          [
            2.108738,
            42.714702,
            1164.58
          ],
          [
            2.108763,
            42.714731,
            1164.42
          ],
          [
            2.108805,
            42.714819,
            1164.23
          ],
          [
            2.108915,
            42.7151,
            1162.41
          ],
          [
            2.108959,
            42.715144,
            1161.69
          ],
          [
            2.109053,
            42.715169,
            1160.67
          ],
          [
            2.110099,
            42.715234,
            1149.57
          ],
          [
            2.110278,
            42.715258,
            1147.61
          ],
          [
            2.110501,
            42.715325,
            1145.18
          ],
          [
            2.11072,
            42.715411,
            1143.32
          ],
          [
            2.111489,
            42.715691,
            1138.15
          ],
          [
            2.11168,
            42.715774,
            1136.2
          ],
          [
            2.111766,
            42.71583,
            1134.6
          ],
          [
            2.111884,
            42.715939,
            1133.23
          ],
          [
            2.111926,
            42.71576,
            1130.99
          ],
          [
            2.112021,
            42.715661,
            1128.88
          ],
          [
            2.112244,
            42.7155,
            1126.06
          ],
          [
            2.112341,
            42.715378,
            1124.36
          ],
          [
            2.112397,
            42.715337,
            1123.59
          ],
          [
            2.112489,
            42.71533,
            1122.68
          ],
          [
            2.112723,
            42.715391,
            1120.16
          ],
          [
            2.112949,
            42.715402,
            1118.08
          ],
          [
            2.113068,
            42.71539,
            1117.03
          ],
          [
            2.113208,
            42.715348,
            1115.71
          ],
          [
            2.113294,
            42.715278,
            1114.5
          ],
          [
            2.113409,
            42.715147,
            1112.31
          ],
          [
            2.113427,
            42.715048,
            1110.95
          ],
          [
            2.113814,
            42.714671,
            1104.49
          ],
          [
            2.11411,
            42.714433,
            1100.25
          ],
          [
            2.114353,
            42.714268,
            1097.08
          ],
          [
            2.114776,
            42.713839,
            1090.7
          ],
          [
            2.114965,
            42.71372,
            1088.28
          ],
          [
            2.115342,
            42.713667,
            1084.51
          ],
          [
            2.11572,
            42.713568,
            1081.78
          ],
          [
            2.115981,
            42.713449,
            1080.27
          ],
          [
            2.116268,
            42.71333,
            1078.46
          ],
          [
            2.116574,
            42.713271,
            1076.84
          ],
          [
            2.116916,
            42.713376,
            1074.97
          ],
          [
            2.117185,
            42.713548,
            1072.36
          ],
          [
            2.117437,
            42.713621,
            1069.41
          ],
          [
            2.117617,
            42.713568,
            1067.17
          ],
          [
            2.11786,
            42.713416,
            1063.53
          ],
          [
            2.118058,
            42.713257,
            1060.68
          ],
          [
            2.118146,
            42.713055,
            1059.88
          ],
          [
            2.11832,
            42.71285,
            1059.04
          ],
          [
            2.118497,
            42.712763,
            1058.02
          ],
          [
            2.118774,
            42.712708,
            1056.88
          ],
          [
            2.119036,
            42.712576,
            1055.5
          ],
          [
            2.119455,
            42.712279,
            1053.94
          ],
          [
            2.119522,
            42.712176,
            1053.91
          ],
          [
            2.119586,
            42.711989,
            1054.35
          ],
          [
            2.119675,
            42.71193,
            1054.74
          ],
          [
            2.119763,
            42.711961,
            1055.13
          ],
          [
            2.119811,
            42.712048,
            1055.72
          ],
          [
            2.119876,
            42.712208,
            1056.93
          ],
          [
            2.120007,
            42.712342,
            1058.47
          ],
          [
            2.120064,
            42.71243,
            1059.43
          ],
          [
            2.120072,
            42.712685,
            1061.92
          ],
          [
            2.120031,
            42.712821,
            1063.28
          ],
          [
            2.120048,
            42.712929,
            1064.3
          ],
          [
            2.120259,
            42.713434,
            1068.71
          ],
          [
            2.120284,
            42.713554,
            1069.9
          ],
          [
            2.120211,
            42.713832,
            1072.67
          ],
          [
            2.120224,
            42.713936,
            1073.68
          ],
          [
            2.120334,
            42.714062,
            1075.04
          ],
          [
            2.120568,
            42.714529,
            1078.97
          ],
          [
            2.120694,
            42.714659,
            1079.9
          ],
          [
            2.12104,
            42.715122,
            1081.35
          ],
          [
            2.121161,
            42.715195,
            1081.72
          ],
          [
            2.121799,
            42.715407,
            1086.18
          ],
          [
            2.122294,
            42.715525,
            1090.43
          ],
          [
            2.122563,
            42.715552,
            1092.85
          ],
          [
            2.123256,
            42.715413,
            1099.37
          ],
          [
            2.123328,
            42.715347,
            1100.19
          ],
          [
            2.12331,
            42.715274,
            1100.85
          ],
          [
            2.123139,
            42.715182,
            1102.11
          ],
          [
            2.12286,
            42.71499,
            1103.86
          ],
          [
            2.122743,
            42.714838,
            1104.56
          ],
          [
            2.122725,
            42.714693,
            1104.88
          ],
          [
            2.122797,
            42.714449,
            1105.33
          ],
          [
            2.122842,
            42.714092,
            1106.26
          ],
          [
            2.122941,
            42.713927,
            1106.83
          ],
          [
            2.122977,
            42.713768,
            1107.37
          ],
          [
            2.122977,
            42.71353,
            1108.31
          ],
          [
            2.122851,
            42.713035,
            1110.87
          ],
          [
            2.122662,
            42.712084,
            1116.61
          ],
          [
            2.122662,
            42.711866,
            1118.19
          ],
          [
            2.122734,
            42.7117,
            1119.33
          ],
          [
            2.123085,
            42.711304,
            1121.56
          ],
          [
            2.123175,
            42.710994,
            1122.04
          ],
          [
            2.123463,
            42.710756,
            1119.95
          ],
          [
            2.123525,
            42.710637,
            1118.39
          ],
          [
            2.123517,
            42.710564,
            1117.44
          ],
          [
            2.1234,
            42.710571,
            1116.33
          ],
          [
            2.123094,
            42.710656,
            1113.45
          ],
          [
            2.122878,
            42.71065,
            1111.64
          ],
          [
            2.122707,
            42.710551,
            1110.08
          ],
          [
            2.122644,
            42.710452,
            1109.26
          ],
          [
            2.122285,
            42.71026,
            1108.99
          ],
          [
            2.122114,
            42.709963,
            1112.31
          ],
          [
            2.122069,
            42.709824,
            1114.24
          ],
          [
            2.122195,
            42.709513,
            1117.61
          ],
          [
            2.122195,
            42.709256,
            1119.1
          ],
          [
            2.122123,
            42.709144,
            1119.54
          ],
          [
            2.122123,
            42.709144,
            1119.54
          ],
          [
            2.122195,
            42.709256,
            1119.1
          ],
          [
            2.122195,
            42.709513,
            1117.61
          ],
          [
            2.122069,
            42.709824,
            1114.24
          ],
          [
            2.122114,
            42.709963,
            1112.31
          ],
          [
            2.122285,
            42.71026,
            1108.99
          ],
          [
            2.122644,
            42.710452,
            1109.26
          ],
          [
            2.122707,
            42.710551,
            1110.08
          ],
          [
            2.122878,
            42.71065,
            1111.64
          ],
          [
            2.123094,
            42.710656,
            1113.45
          ],
          [
            2.1234,
            42.710571,
            1116.33
          ],
          [
            2.123517,
            42.710564,
            1117.44
          ],
          [
            2.123525,
            42.710637,
            1118.39
          ],
          [
            2.123463,
            42.710756,
            1119.95
          ],
          [
            2.123175,
            42.710994,
            1122.04
          ],
          [
            2.123085,
            42.711304,
            1121.56
          ],
          [
            2.122734,
            42.7117,
            1119.33
          ],
          [
            2.122662,
            42.711866,
            1118.19
          ],
          [
            2.122662,
            42.712084,
            1116.61
          ],
          [
            2.122851,
            42.713035,
            1110.87
          ],
          [
            2.122977,
            42.71353,
            1108.31
          ],
          [
            2.122977,
            42.713768,
            1107.37
          ],
          [
            2.122941,
            42.713927,
            1106.83
          ],
          [
            2.122842,
            42.714092,
            1106.26
          ],
          [
            2.122797,
            42.714449,
            1105.33
          ],
          [
            2.122725,
            42.714693,
            1104.88
          ],
          [
            2.122743,
            42.714838,
            1104.56
          ],
          [
            2.12286,
            42.71499,
            1103.86
          ],
          [
            2.123139,
            42.715182,
            1102.11
          ],
          [
            2.12331,
            42.715274,
            1100.85
          ],
          [
            2.123328,
            42.715347,
            1100.19
          ],
          [
            2.123256,
            42.715413,
            1099.37
          ],
          [
            2.122563,
            42.715552,
            1092.85
          ],
          [
            2.122294,
            42.715525,
            1090.43
          ],
          [
            2.121799,
            42.715407,
            1086.18
          ],
          [
            2.121161,
            42.715195,
            1081.72
          ],
          [
            2.12104,
            42.715122,
            1081.35
          ],
          [
            2.120694,
            42.714659,
            1079.9
          ],
          [
            2.120568,
            42.714529,
            1078.97
          ],
          [
            2.120334,
            42.714062,
            1075.04
          ],
          [
            2.120224,
            42.713936,
            1073.68
          ],
          [
            2.120211,
            42.713832,
            1072.67
          ],
          [
            2.120284,
            42.713554,
            1069.9
          ],
          [
            2.120259,
            42.713434,
            1068.71
          ],
          [
            2.120048,
            42.712929,
            1064.3
          ],
          [
            2.120031,
            42.712821,
            1063.28
          ],
          [
            2.120072,
            42.712685,
            1061.92
          ],
          [
            2.120064,
            42.71243,
            1059.43
          ],
          [
            2.120007,
            42.712342,
            1058.47
          ],
          [
            2.119876,
            42.712208,
            1056.93
          ],
          [
            2.119811,
            42.712048,
            1055.72
          ],
          [
            2.119763,
            42.711961,
            1055.13
          ],
          [
            2.119675,
            42.71193,
            1054.74
          ],
          [
            2.119586,
            42.711989,
            1054.35
          ],
          [
            2.119522,
            42.712176,
            1053.91
          ],
          [
            2.119455,
            42.712279,
            1053.94
          ],
          [
            2.119036,
            42.712576,
            1055.5
          ],
          [
            2.118774,
            42.712708,
            1056.88
          ],
          [
            2.118497,
            42.712763,
            1058.02
          ],
          [
            2.11832,
            42.71285,
            1059.04
          ],
          [
            2.118146,
            42.713055,
            1059.88
          ],
          [
            2.118058,
            42.713257,
            1060.68
          ],
          [
            2.11786,
            42.713416,
            1063.53
          ],
          [
            2.117617,
            42.713568,
            1067.17
          ],
          [
            2.117437,
            42.713621,
            1069.41
          ],
          [
            2.117185,
            42.713548,
            1072.36
          ],
          [
            2.116916,
            42.713376,
            1074.97
          ],
          [
            2.116574,
            42.713271,
            1076.84
          ],
          [
            2.116268,
            42.71333,
            1078.46
          ],
          [
            2.115981,
            42.713449,
            1080.27
          ],
          [
            2.11572,
            42.713568,
            1081.78
          ],
          [
            2.115342,
            42.713667,
            1084.51
          ],
          [
            2.114965,
            42.71372,
            1088.28
          ],
          [
            2.114776,
            42.713839,
            1090.7
          ],
          [
            2.114353,
            42.714268,
            1097.08
          ],
          [
            2.11411,
            42.714433,
            1100.25
          ],
          [
            2.113814,
            42.714671,
            1104.49
          ],
          [
            2.113427,
            42.715048,
            1110.95
          ],
          [
            2.113409,
            42.715147,
            1112.31
          ],
          [
            2.113294,
            42.715278,
            1114.5
          ],
          [
            2.113208,
            42.715348,
            1115.71
          ],
          [
            2.113068,
            42.71539,
            1117.03
          ],
          [
            2.112949,
            42.715402,
            1118.08
          ],
          [
            2.112723,
            42.715391,
            1120.16
          ],
          [
            2.112489,
            42.71533,
            1122.68
          ],
          [
            2.112397,
            42.715337,
            1123.59
          ],
          [
            2.112341,
            42.715378,
            1124.36
          ],
          [
            2.112244,
            42.7155,
            1126.06
          ],
          [
            2.112021,
            42.715661,
            1128.88
          ],
          [
            2.111926,
            42.71576,
            1130.99
          ],
          [
            2.111884,
            42.715939,
            1133.23
          ],
          [
            2.112299,
            42.716457,
            1126.53
          ],
          [
            2.112566,
            42.716843,
            1121.31
          ],
          [
            2.112628,
            42.716961,
            1119.81
          ],
          [
            2.112643,
            42.717031,
            1118.98
          ],
          [
            2.112639,
            42.718024,
            1107.52
          ],
          [
            2.112594,
            42.718128,
            1106.16
          ],
          [
            2.112474,
            42.718317,
            1103.34
          ],
          [
            2.112379,
            42.718437,
            1101.39
          ],
          [
            2.112287,
            42.718586,
            1099.02
          ],
          [
            2.112278,
            42.718665,
            1097.86
          ],
          [
            2.112311,
            42.718752,
            1096.53
          ],
          [
            2.112776,
            42.719221,
            1087.63
          ],
          [
            2.113256,
            42.719865,
            1077.82
          ],
          [
            2.113453,
            42.720048,
            1075.15
          ],
          [
            2.113644,
            42.720203,
            1072.7
          ],
          [
            2.113844,
            42.7203,
            1070.6
          ],
          [
            2.114179,
            42.720434,
            1066.22
          ],
          [
            2.114409,
            42.720565,
            1063.32
          ],
          [
            2.114589,
            42.720757,
            1060.22
          ],
          [
            2.114668,
            42.720903,
            1058.37
          ],
          [
            2.114683,
            42.720979,
            1057.43
          ],
          [
            2.114673,
            42.721068,
            1056.34
          ],
          [
            2.114625,
            42.721196,
            1054.78
          ],
          [
            2.114553,
            42.721266,
            1053.8
          ],
          [
            2.114428,
            42.721335,
            1052.52
          ],
          [
            2.114355,
            42.721402,
            1051.55
          ],
          [
            2.11435,
            42.721432,
            1051.2
          ],
          [
            2.114371,
            42.721468,
            1050.74
          ],
          [
            2.114421,
            42.721487,
            1050.25
          ],
          [
            2.114461,
            42.721488,
            1049.91
          ],
          [
            2.114507,
            42.721476,
            1049.49
          ],
          [
            2.114654,
            42.721377,
            1047.78
          ],
          [
            2.114859,
            42.721283,
            1045.69
          ],
          [
            2.115175,
            42.721178,
            1042.23
          ],
          [
            2.115345,
            42.721105,
            1040.39
          ],
          [
            2.115759,
            42.720815,
            1034.43
          ],
          [
            2.115949,
            42.720701,
            1031.51
          ],
          [
            2.116141,
            42.720632,
            1029.05
          ],
          [
            2.116326,
            42.720602,
            1027.1
          ],
          [
            2.116449,
            42.720572,
            1025.88
          ],
          [
            2.116537,
            42.720534,
            1025.01
          ],
          [
            2.116645,
            42.720428,
            1023.62
          ],
          [
            2.116686,
            42.720322,
            1022.47
          ],
          [
            2.116632,
            42.719997,
            1019.31
          ],
          [
            2.116649,
            42.719949,
            1019.33
          ],
          [
            2.116697,
            42.719916,
            1019.37
          ],
          [
            2.116785,
            42.719878,
            1019.45
          ],
          [
            2.11687,
            42.719878,
            1019.51
          ],
          [
            2.116957,
            42.71989,
            1019.1
          ],
          [
            2.117099,
            42.719948,
            1017.7
          ],
          [
            2.117526,
            42.720163,
            1012.19
          ],
          [
            2.11819,
            42.720363,
            1004.29
          ],
          [
            2.118271,
            42.720365,
            1003.43
          ],
          [
            2.118309,
            42.720354,
            1003.01
          ],
          [
            2.118333,
            42.720335,
            1002.66
          ],
          [
            2.11845,
            42.720076,
            998.99
          ],
          [
            2.118799,
            42.719593,
            992.39
          ],
          [
            2.118893,
            42.71943,
            990.53
          ],
          [
            2.118918,
            42.719301,
            989.19
          ],
          [
            2.118887,
            42.719127,
            987.4
          ],
          [
            2.118806,
            42.71892,
            985.06
          ],
          [
            2.118584,
            42.718513,
            980.14
          ],
          [
            2.118556,
            42.718383,
            978.9
          ],
          [
            2.118563,
            42.718212,
            977.57
          ],
          [
            2.118597,
            42.718108,
            976.69
          ],
          [
            2.118662,
            42.717964,
            975.42
          ],
          [
            2.118711,
            42.717907,
            974.86
          ],
          [
            2.11879,
            42.717878,
            974.32
          ],
          [
            2.118872,
            42.717873,
            973.83
          ],
          [
            2.118933,
            42.717885,
            973.45
          ],
          [
            2.118976,
            42.717931,
            973.01
          ],
          [
            2.118975,
            42.718045,
            972.14
          ],
          [
            2.118999,
            42.718086,
            971.82
          ],
          [
            2.119045,
            42.718137,
            971.4
          ],
          [
            2.119356,
            42.718308,
            969.26
          ],
          [
            2.11981,
            42.718588,
            964.9
          ],
          [
            2.120417,
            42.718977,
            957.75
          ],
          [
            2.12058,
            42.719061,
            955.35
          ],
          [
            2.120856,
            42.719111,
            951.97
          ],
          [
            2.120969,
            42.719181,
            950.18
          ],
          [
            2.121045,
            42.719196,
            949.23
          ],
          [
            2.121144,
            42.7192,
            948.07
          ],
          [
            2.121249,
            42.719181,
            946.81
          ],
          [
            2.12151,
            42.719083,
            943.83
          ],
          [
            2.121708,
            42.718999,
            941.64
          ],
          [
            2.12197,
            42.718863,
            938.4
          ],
          [
            2.122403,
            42.718712,
            934.47
          ],
          [
            2.122513,
            42.718681,
            933.56
          ],
          [
            2.122579,
            42.71868,
            933.06
          ],
          [
            2.122612,
            42.718703,
            932.7
          ],
          [
            2.122619,
            42.718733,
            932.38
          ],
          [
            2.122594,
            42.718761,
            932.02
          ],
          [
            2.122528,
            42.718798,
            931.36
          ],
          [
            2.121568,
            42.719206,
            922.98
          ],
          [
            2.121436,
            42.719294,
            922.24
          ],
          [
            2.121281,
            42.719423,
            920.88
          ],
          [
            2.121224,
            42.719455,
            920.43
          ],
          [
            2.121157,
            42.719473,
            919.96
          ],
          [
            2.121072,
            42.719472,
            919.38
          ],
          [
            2.120814,
            42.71942,
            917.74
          ],
          [
            2.12073,
            42.719419,
            917.32
          ],
          [
            2.120627,
            42.719456,
            916.85
          ],
          [
            2.120289,
            42.719679,
            915.32
          ],
          [
            2.119957,
            42.719952,
            912.19
          ],
          [
            2.119928,
            42.720009,
            911.84
          ],
          [
            2.119919,
            42.720086,
            911.42
          ],
          [
            2.119968,
            42.720217,
            910.69
          ],
          [
            2.120016,
            42.720316,
            910.19
          ],
          [
            2.12005,
            42.720333,
            910.03
          ],
          [
            2.120108,
            42.720332,
            909.79
          ],
          [
            2.120127,
            42.720315,
            909.66
          ],
          [
            2.120132,
            42.720294,
            909.54
          ],
          [
            2.120057,
            42.7202,
            908.86
          ],
          [
            2.120039,
            42.720078,
            907.91
          ],
          [
            2.120072,
            42.720011,
            907.25
          ],
          [
            2.120352,
            42.719764,
            904.9
          ],
          [
            2.12046,
            42.7197,
            904.41
          ],
          [
            2.120522,
            42.719683,
            904.17
          ],
          [
            2.120611,
            42.719676,
            903.35
          ],
          [
            2.120657,
            42.71969,
            902.6
          ],
          [
            2.120775,
            42.719815,
            904.17
          ],
          [
            2.120852,
            42.719795,
            904.72
          ],
          [
            2.121154,
            42.719772,
            907.51
          ],
          [
            2.121246,
            42.719752,
            908.11
          ],
          [
            2.121364,
            42.719705,
            908.44
          ],
          [
            2.121789,
            42.719488,
            909.02
          ],
          [
            2.122,
            42.719405,
            909.41
          ],
          [
            2.122284,
            42.719311,
            909.38
          ],
          [
            2.122858,
            42.719089,
            909.83
          ],
          [
            2.12324,
            42.718904,
            910.8
          ],
          [
            2.123383,
            42.718869,
            911.13
          ],
          [
            2.123551,
            42.718841,
            911.57
          ],
          [
            2.12366,
            42.718846,
            911.88
          ],
          [
            2.12389,
            42.718888,
            912.63
          ],
          [
            2.123981,
            42.718922,
            912.99
          ],
          [
            2.124044,
            42.718957,
            913.27
          ],
          [
            2.124095,
            42.719009,
            913.6
          ],
          [
            2.124432,
            42.71946,
            916.69
          ],
          [
            2.124506,
            42.719516,
            917.35
          ],
          [
            2.124582,
            42.719558,
            917.97
          ],
          [
            2.12487,
            42.719636,
            920.07
          ],
          [
            2.124996,
            42.719645,
            920.88
          ],
          [
            2.125105,
            42.719634,
            921.54
          ],
          [
            2.125237,
            42.7196,
            922.4
          ],
          [
            2.125393,
            42.719503,
            923.71
          ],
          [
            2.125481,
            42.719407,
            924.71
          ],
          [
            2.125593,
            42.719147,
            926.92
          ],
          [
            2.125646,
            42.718932,
            927.82
          ],
          [
            2.125691,
            42.718576,
            928.88
          ],
          [
            2.125731,
            42.718482,
            929.22
          ],
          [
            2.125803,
            42.718402,
            929.57
          ],
          [
            2.125889,
            42.718326,
            929.93
          ],
          [
            2.126021,
            42.718268,
            930.33
          ],
          [
            2.126554,
            42.718112,
            932.02
          ],
          [
            2.126683,
            42.718067,
            932.69
          ],
          [
            2.1269,
            42.717917,
            934.19
          ],
          [
            2.127008,
            42.717812,
            935.06
          ],
          [
            2.127084,
            42.717682,
            935.93
          ],
          [
            2.127104,
            42.717565,
            936.65
          ],
          [
            2.127133,
            42.717181,
            938.75
          ],
          [
            2.127184,
            42.717078,
            939.34
          ],
          [
            2.127331,
            42.716939,
            940.1
          ],
          [
            2.127606,
            42.716751,
            941.35
          ],
          [
            2.127705,
            42.7167,
            941.73
          ],
          [
            2.127855,
            42.716648,
            942.24
          ],
          [
            2.128323,
            42.71652,
            943.72
          ],
          [
            2.128962,
            42.716363,
            945.79
          ],
          [
            2.129135,
            42.716328,
            946.31
          ],
          [
            2.129574,
            42.716309,
            947.55
          ],
          [
            2.129746,
            42.716271,
            948.28
          ],
          [
            2.129908,
            42.716208,
            949.5
          ],
          [
            2.130562,
            42.715898,
            951.32
          ],
          [
            2.130371,
            42.71606,
            954.79
          ],
          [
            2.130227,
            42.716262,
            960.58
          ],
          [
            2.129524,
            42.716746,
            977.64
          ],
          [
            2.128965,
            42.71705,
            988.87
          ],
          [
            2.128555,
            42.717309,
            993.41
          ],
          [
            2.128346,
            42.717518,
            993.07
          ],
          [
            2.128271,
            42.717688,
            992.38
          ],
          [
            2.128101,
            42.717945,
            991.04
          ],
          [
            2.128064,
            42.71841,
            990.33
          ],
          [
            2.128097,
            42.718879,
            993.02
          ],
          [
            2.128068,
            42.719026,
            993.95
          ],
          [
            2.128021,
            42.719082,
            994.33
          ],
          [
            2.127899,
            42.7191,
            994.82
          ],
          [
            2.127617,
            42.719053,
            995.8
          ],
          [
            2.127517,
            42.71906,
            996.06
          ],
          [
            2.127414,
            42.719109,
            996.38
          ],
          [
            2.12721,
            42.719279,
            997.54
          ],
          [
            2.127077,
            42.719424,
            998.75
          ],
          [
            2.127009,
            42.719564,
            999.69
          ],
          [
            2.126928,
            42.719854,
            1001.36
          ],
          [
            2.126801,
            42.719974,
            1002.21
          ],
          [
            2.12663,
            42.720157,
            1003.46
          ],
          [
            2.1265,
            42.720427,
            1005.01
          ],
          [
            2.126033,
            42.72092,
            1009.08
          ],
          [
            2.126015,
            42.721001,
            1011.17
          ],
          [
            2.126342,
            42.720786,
            1013.04
          ],
          [
            2.126725,
            42.72061,
            1018.52
          ],
          [
            2.12681,
            42.720601,
            1019.18
          ],
          [
            2.127107,
            42.720655,
            1021.27
          ],
          [
            2.127187,
            42.720636,
            1021.77
          ],
          [
            2.12736,
            42.72049,
            1022.85
          ],
          [
            2.127701,
            42.720119,
            1022.43
          ],
          [
            2.127899,
            42.719974,
            1021.53
          ],
          [
            2.128096,
            42.719942,
            1021.22
          ],
          [
            2.128415,
            42.720047,
            1021.54
          ],
          [
            2.129491,
            42.720264,
            1032.51
          ],
          [
            2.129843,
            42.720232,
            1038.18
          ],
          [
            2.130359,
            42.7202,
            1046.89
          ],
          [
            2.13071,
            42.720208,
            1053.47
          ],
          [
            2.130831,
            42.720264,
            1055.32
          ],
          [
            2.130923,
            42.720444,
            1059.39
          ],
          [
            2.131159,
            42.720492,
            1062.04
          ],
          [
            2.131592,
            42.720563,
            1066.73
          ],
          [
            2.132034,
            42.72067,
            1071.11
          ],
          [
            2.132903,
            42.720749,
            1078.46
          ],
          [
            2.133558,
            42.72086,
            1085.09
          ],
          [
            2.134292,
            42.721292,
            1097.38
          ],
          [
            2.134726,
            42.721489,
            1104.82
          ],
          [
            2.135167,
            42.721664,
            1110.44
          ],
          [
            2.135386,
            42.72167,
            1112.52
          ],
          [
            2.135931,
            42.721467,
            1117.6
          ],
          [
            2.136971,
            42.7213,
            1126.3
          ],
          [
            2.137459,
            42.721249,
            1131.57
          ],
          [
            2.137659,
            42.72133,
            1134.45
          ],
          [
            2.137738,
            42.721394,
            1136.37
          ],
          [
            2.137768,
            42.721568,
            1140.32
          ],
          [
            2.137595,
            42.721712,
            1141.25
          ],
          [
            2.137383,
            42.721836,
            1142.13
          ],
          [
            2.136834,
            42.722077,
            1144.72
          ],
          [
            2.136194,
            42.722419,
            1148.19
          ],
          [
            2.135717,
            42.722699,
            1152.0
          ]
        ]
      }
    },
    {
      "type": "Feature",
      "properties": {
        "source": "Crêtes_Nord.gpx",
        "type": "route"
      },
      "geometry": {
        "type": "LineString",
        "coordinates": [
          [
            2.113696,
            42.700675
          ],
          [
            2.0983,
            42.698381
          ],
          [
            2.098542,
            42.699297
          ],
          [
            2.098384,
            42.699361
          ],
          [
            2.098522,
            42.700294
          ],
          [
            2.108294,
            42.713869
          ],
          [
            2.108295,
            42.714517
          ],
          [
            2.111884,
            42.715939
          ],
          [
            2.122123,
            42.709144
          ],
          [
            2.122123,
            42.709144
          ],
          [
            2.111884,
            42.715939
          ],
          [
            2.120775,
            42.719815
          ],
          [
            2.130562,
            42.715898
          ],
          [
            2.126015,
            42.721001
          ],
          [
            2.130923,
            42.720444
          ],
          [
            2.137768,
            42.721568
          ],
          [
            2.135717,
            42.722699
          ]
        ]
      }
    }
  ]
}