{
  "type": "FeatureCollection",
  "features": [
    {
      "type": "Feature",
      "properties": {
        "name": "GraphHopper Track",
        "source": "Gorges_de_Galamus.gpx",
        "type": "track"
      },
      "geometry": {
        "type": "LineString",
        "coordinates": [
          [
            2.485329,
            42.852305,
            744.35
          ],
          [
            2.485213,
            42.85236,
            743.53
          ],
          [
            2.485065,
            42.852368,
            742.82
          ],
          [
            2.484715,
            42.852364,
            741.49
          ],
          [
            2.483763,
            42.852203,
            735.75
          ],
          [
            2.483681,
            42.852203,
            735.26
          ],
          [
            2.483709,
            42.852287,
            734.56
          ],
          [
            2.484141,
            42.852428,
            731.61
          ],
          [
            2.4846,
            42.852592,
            728.21
          ],
          [
            2.484857,
            42.852737,
            726.55
          ],
          [
            2.484852,
            42.852781,
            726.21
          ],
          [
            2.484775,
            42.852753,
            725.72
          ],
          [
            2.484267,
            42.852604,
            722.16
          ],
          [
            2.484113,
            42.852584,
            720.89
          ],
          [
            2.48361,
            42.85246,
            717.13
          ],
          [
            2.483528,
            42.852476,
            716.53
          ],
          [
            2.483626,
            42.852544,
            715.52
          ],
          [
            2.484053,
            42.852709,
            711.85
          ],
          [
            2.484305,
            42.852857,
            709.34
          ],
          [
            2.484272,
            42.853078,
            707.53
          ],
          [
            2.48436,
            42.853178,
            706.46
          ],
          [
            2.484535,
            42.853342,
            704.47
          ],
          [
            2.485104,
            42.853727,
            699.64
          ],
          [
            2.485323,
            42.8538,
            698.54
          ],
          [
            2.485377,
            42.853856,
            698.11
          ],
          [
            2.485312,
            42.853892,
            697.72
          ],
          [
            2.485158,
            42.853832,
            696.91
          ],
          [
            2.484939,
            42.853727,
            695.77
          ],
          [
            2.484803,
            42.853643,
            695.03
          ],
          [
            2.483949,
            42.853378,
            691.32
          ],
          [
            2.483873,
            42.853346,
            690.83
          ],
          [
            2.483873,
            42.85329,
            690.4
          ],
          [
            2.483823,
            42.853098,
            688.83
          ],
          [
            2.483796,
            42.853057,
            688.46
          ],
          [
            2.483687,
            42.853001,
            687.64
          ],
          [
            2.482926,
            42.852777,
            682.54
          ],
          [
            2.482477,
            42.852616,
            679.68
          ],
          [
            2.482127,
            42.852536,
            677.41
          ],
          [
            2.481722,
            42.85238,
            674.55
          ],
          [
            2.481618,
            42.852316,
            673.76
          ],
          [
            2.481547,
            42.852308,
            673.35
          ],
          [
            2.481487,
            42.852356,
            672.85
          ],
          [
            2.481575,
            42.852432,
            672.11
          ],
          [
            2.482056,
            42.852644,
            668.86
          ],
          [
            2.482384,
            42.852769,
            667.43
          ],
          [
            2.482734,
            42.852945,
            666.1
          ],
          [
            2.48303,
            42.85311,
            665.18
          ],
          [
            2.48315,
            42.85323,
            664.71
          ],
          [
            2.483157,
            42.853373,
            662.65
          ],
          [
            2.483124,
            42.853305,
            662.42
          ],
          [
            2.48298,
            42.853186,
            661.78
          ],
          [
            2.482707,
            42.853032,
            660.72
          ],
          [
            2.482238,
            42.852852,
            658.57
          ],
          [
            2.481771,
            42.852756,
            656.52
          ],
          [
            2.481554,
            42.852681,
            655.42
          ],
          [
            2.480895,
            42.852344,
            651.55
          ],
          [
            2.480432,
            42.852234,
            648.9
          ],
          [
            2.480098,
            42.852164,
            646.89
          ],
          [
            2.47991,
            42.852138,
            645.75
          ],
          [
            2.479703,
            42.852137,
            644.54
          ],
          [
            2.478839,
            42.852272,
            640.03
          ],
          [
            2.478575,
            42.852287,
            639.02
          ],
          [
            2.478211,
            42.852267,
            637.75
          ],
          [
            2.47772,
            42.852204,
            636.71
          ],
          [
            2.477479,
            42.852142,
            636.55
          ],
          [
            2.477314,
            42.852076,
            636.56
          ],
          [
            2.477098,
            42.851966,
            636.87
          ],
          [
            2.476913,
            42.851849,
            637.44
          ],
          [
            2.476735,
            42.851702,
            638.36
          ],
          [
            2.476683,
            42.851641,
            638.75
          ],
          [
            2.476666,
            42.851563,
            639.15
          ],
          [
            2.476672,
            42.8515,
            639.47
          ],
          [
            2.476832,
            42.851036,
            642.18
          ],
          [
            2.476901,
            42.850861,
            641.43
          ],
          [
            2.477298,
            42.850863,
            638.17
          ],
          [
            2.477359,
            42.850839,
            637.44
          ],
          [
            2.477578,
            42.85083,
            635.51
          ],
          [
            2.478069,
            42.850974,
            631.78
          ],
          [
            2.47841,
            42.851057,
            629.99
          ],
          [
            2.478705,
            42.851103,
            629.19
          ],
          [
            2.47907,
            42.851171,
            628.66
          ],
          [
            2.479476,
            42.851138,
            628.93
          ],
          [
            2.47976,
            42.850996,
            629.2
          ],
          [
            2.479915,
            42.850962,
            629.29
          ],
          [
            2.480008,
            42.850909,
            629.36
          ],
          [
            2.480081,
            42.850837,
            629.49
          ],
          [
            2.4802,
            42.850784,
            629.72
          ],
          [
            2.480365,
            42.850731,
            630.14
          ],
          [
            2.480686,
            42.850568,
            631.17
          ],
          [
            2.481053,
            42.850321,
            633.14
          ],
          [
            2.481157,
            42.850231,
            633.96
          ],
          [
            2.481343,
            42.850117,
            635.34
          ],
          [
            2.48142,
            42.850033,
            636.07
          ],
          [
            2.481431,
            42.849722,
            638.29
          ],
          [
            2.481488,
            42.849601,
            639.52
          ],
          [
            2.481467,
            42.849389,
            641.7
          ],
          [
            2.481503,
            42.84934,
            642.26
          ],
          [
            2.481762,
            42.849233,
            644.83
          ],
          [
            2.481927,
            42.849207,
            646.49
          ],
          [
            2.482217,
            42.849093,
            649.77
          ],
          [
            2.482398,
            42.849048,
            651.74
          ],
          [
            2.482589,
            42.848972,
            653.8
          ],
          [
            2.48293,
            42.848771,
            657.85
          ],
          [
            2.483214,
            42.848562,
            659.97
          ],
          [
            2.483466,
            42.848449,
            662.87
          ],
          [
            2.483536,
            42.848395,
            664.9
          ],
          [
            2.483616,
            42.848382,
            667.09
          ],
          [
            2.483669,
            42.848342,
            668.89
          ],
          [
            2.483701,
            42.848287,
            670.4
          ],
          [
            2.483773,
            42.848295,
            671.85
          ],
          [
            2.483805,
            42.848333,
            673.14
          ],
          [
            2.483816,
            42.848389,
            674.62
          ],
          [
            2.483843,
            42.848435,
            675.85
          ],
          [
            2.483917,
            42.848435,
            677.08
          ],
          [
            2.48399,
            42.848417,
            678.17
          ],
          [
            2.484045,
            42.848393,
            678.94
          ],
          [
            2.484108,
            42.848395,
            679.58
          ],
          [
            2.484432,
            42.84849,
            683.34
          ],
          [
            2.484484,
            42.848523,
            683.8
          ],
          [
            2.484601,
            42.84857,
            684.45
          ],
          [
            2.484681,
            42.848576,
            684.72
          ],
          [
            2.484752,
            42.848599,
            684.82
          ],
          [
            2.484822,
            42.848601,
            684.8
          ],
          [
            2.484882,
            42.848583,
            684.7
          ],
          [
            2.484906,
            42.848548,
            684.57
          ],
          [
            2.484994,
            42.8485,
            684.18
          ],
          [
            2.485201,
            42.848464,
            682.84
          ],
          [
            2.485351,
            42.848447,
            681.38
          ],
          [
            2.485452,
            42.848426,
            680.11
          ],
          [
            2.485531,
            42.848435,
            679.04
          ],
          [
            2.485605,
            42.848434,
            677.97
          ],
          [
            2.485708,
            42.848399,
            676.26
          ],
          [
            2.485803,
            42.848355,
            674.46
          ],
          [
            2.486045,
            42.848303,
            670.06
          ],
          [
            2.486169,
            42.848336,
            667.78
          ],
          [
            2.486243,
            42.848419,
            665.49
          ],
          [
            2.486406,
            42.848436,
            662.87
          ],
          [
            2.486537,
            42.848385,
            660.71
          ],
          [
            2.486688,
            42.848384,
            658.47
          ],
          [
            2.486774,
            42.848371,
            657.2
          ],
          [
            2.486923,
            42.848132,
            652.4
          ],
          [
            2.48692,
            42.848014,
            650.62
          ],
          [
            2.487035,
            42.84769,
            646.93
          ],
          [
            2.48709,
            42.847647,
            646.45
          ],
          [
            2.487284,
            42.847568,
            645.24
          ],
          [
            2.487489,
            42.84753,
            644.12
          ],
          [
            2.487642,
            42.847455,
            643.14
          ],
          [
            2.487869,
            42.847251,
            641.27
          ],
          [
            2.488066,
            42.847096,
            640.06
          ],
          [
            2.488176,
            42.846946,
            638.97
          ],
          [
            2.488213,
            42.846838,
            637.91
          ],
          [
            2.488359,
            42.846736,
            635.81
          ],
          [
            2.488376,
            42.846614,
            633.36
          ],
          [
            2.488388,
            42.846173,
            629.44
          ],
          [
            2.488324,
            42.845994,
            627.08
          ],
          [
            2.488229,
            42.845815,
            624.42
          ],
          [
            2.488139,
            42.845721,
            622.81
          ],
          [
            2.487912,
            42.845599,
            619.59
          ],
          [
            2.487997,
            42.845508,
            617.72
          ],
          [
            2.487934,
            42.845354,
            614.94
          ],
          [
            2.487775,
            42.845262,
            612.54
          ],
          [
            2.487851,
            42.845165,
            610.86
          ],
          [
            2.487744,
            42.845022,
            608.62
          ],
          [
            2.487791,
            42.844962,
            607.74
          ],
          [
            2.487969,
            42.844991,
            606.13
          ],
          [
            2.488036,
            42.844891,
            604.87
          ],
          [
            2.487998,
            42.844782,
            603.69
          ],
          [
            2.487826,
            42.844612,
            601.74
          ],
          [
            2.48768,
            42.844572,
            600.82
          ],
          [
            2.487567,
            42.844583,
            600.15
          ],
          [
            2.487512,
            42.844535,
            599.67
          ],
          [
            2.487451,
            42.844367,
            598.4
          ],
          [
            2.487368,
            42.844295,
            597.69
          ],
          [
            2.487378,
            42.844166,
            596.61
          ],
          [
            2.487357,
            42.844056,
            595.58
          ],
          [
            2.487383,
            42.843993,
            595.02
          ],
          [
            2.487481,
            42.843889,
            594.06
          ],
          [
            2.487507,
            42.843842,
            593.67
          ],
          [
            2.487505,
            42.84373,
            592.76
          ],
          [
            2.487481,
            42.843665,
            592.19
          ],
          [
            2.487262,
            42.843491,
            589.92
          ],
          [
            2.487233,
            42.843409,
            589.08
          ],
          [
            2.487153,
            42.843336,
            588.14
          ],
          [
            2.486967,
            42.843226,
            586.41
          ],
          [
            2.486807,
            42.843142,
            585.12
          ],
          [
            2.486742,
            42.843095,
            584.62
          ],
          [
            2.486698,
            42.84303,
            584.19
          ],
          [
            2.486675,
            42.842964,
            583.89
          ],
          [
            2.486688,
            42.842926,
            583.72
          ],
          [
            2.486897,
            42.842668,
            582.17
          ],
          [
            2.487057,
            42.842511,
            581.37
          ],
          [
            2.487218,
            42.842444,
            581.12
          ],
          [
            2.487308,
            42.842382,
            581.07
          ],
          [
            2.487466,
            42.842215,
            581.11
          ],
          [
            2.487644,
            42.842077,
            581.42
          ],
          [
            2.487802,
            42.841984,
            581.71
          ],
          [
            2.487985,
            42.841902,
            581.92
          ],
          [
            2.488045,
            42.841852,
            582.02
          ],
          [
            2.488206,
            42.841749,
            582.47
          ],
          [
            2.488265,
            42.841679,
            582.73
          ],
          [
            2.488279,
            42.841628,
            582.9
          ],
          [
            2.488276,
            42.841569,
            583.08
          ],
          [
            2.488252,
            42.841486,
            583.26
          ],
          [
            2.488193,
            42.841408,
            583.31
          ],
          [
            2.488128,
            42.841361,
            583.26
          ],
          [
            2.488025,
            42.84133,
            583.1
          ],
          [
            2.487968,
            42.841304,
            582.95
          ],
          [
            2.48795,
            42.84126,
            582.75
          ],
          [
            2.487965,
            42.841114,
            581.83
          ],
          [
            2.48803,
            42.841044,
            581.07
          ],
          [
            2.48803,
            42.840999,
            580.61
          ],
          [
            2.487999,
            42.840896,
            579.38
          ],
          [
            2.487996,
            42.840481,
            573.48
          ],
          [
            2.487983,
            42.840421,
            572.51
          ],
          [
            2.488017,
            42.840335,
            571.06
          ],
          [
            2.488009,
            42.840265,
            569.92
          ],
          [
            2.488059,
            42.840111,
            567.4
          ],
          [
            2.488062,
            42.840003,
            565.69
          ],
          [
            2.488035,
            42.83992,
            564.33
          ],
          [
            2.488035,
            42.839883,
            563.73
          ],
          [
            2.488088,
            42.839778,
            561.9
          ],
          [
            2.488162,
            42.839689,
            560.24
          ],
          [
            2.488359,
            42.839553,
            557.04
          ],
          [
            2.488441,
            42.839509,
            555.77
          ],
          [
            2.488523,
            42.839495,
            554.71
          ],
          [
            2.488564,
            42.839472,
            554.05
          ],
          [
            2.488568,
            42.839436,
            553.42
          ],
          [
            2.488536,
            42.839398,
            552.65
          ],
          [
            2.488441,
            42.839354,
            551.22
          ],
          [
            2.487954,
            42.839038,
            542.21
          ],
          [
            2.487874,
            42.839,
            540.81
          ],
          [
            2.48768,
            42.838952,
            537.85
          ],
          [
            2.487439,
            42.838842,
            533.7
          ],
          [
            2.487256,
            42.838708,
            529.92
          ],
          [
            2.487106,
            42.838561,
            526.09
          ],
          [
            2.48681,
            42.838234,
            517.99
          ],
          [
            2.486674,
            42.838038,
            513.71
          ],
          [
            2.486583,
            42.837963,
            511.81
          ],
          [
            2.486385,
            42.837888,
            508.62
          ],
          [
            2.486126,
            42.837767,
            504.49
          ],
          [
            2.485873,
            42.837625,
            500.63
          ],
          [
            2.485735,
            42.837558,
            498.42
          ],
          [
            2.48541,
            42.837474,
            499.74
          ],
          [
            2.485254,
            42.837477,
            498.43
          ],
          [
            2.485005,
            42.837432,
            495.11
          ],
          [
            2.484933,
            42.837399,
            494.09
          ],
          [
            2.484851,
            42.837411,
            493.27
          ],
          [
            2.484753,
            42.837408,
            492.44
          ],
          [
            2.484619,
            42.837351,
            490.88
          ],
          [
            2.484525,
            42.837348,
            489.74
          ],
          [
            2.484447,
            42.837384,
            488.51
          ],
          [
            2.484358,
            42.837356,
            487.13
          ],
          [
            2.484273,
            42.837399,
            485.66
          ],
          [
            2.484191,
            42.837407,
            484.48
          ],
          [
            2.484132,
            42.837369,
            483.35
          ],
          [
            2.484061,
            42.83738,
            482.27
          ],
          [
            2.484061,
            42.837438,
            481.07
          ],
          [
            2.483986,
            42.837466,
            479.76
          ],
          [
            2.483959,
            42.837499,
            478.93
          ],
          [
            2.483924,
            42.837513,
            478.3
          ],
          [
            2.483892,
            42.837583,
            476.67
          ],
          [
            2.483752,
            42.837617,
            474.21
          ],
          [
            2.483591,
            42.837582,
            471.2
          ],
          [
            2.483449,
            42.837509,
            467.84
          ],
          [
            2.483372,
            42.837497,
            466.19
          ],
          [
            2.483241,
            42.837523,
            463.37
          ],
          [
            2.483196,
            42.837558,
            461.96
          ],
          [
            2.483074,
            42.837565,
            459.31
          ],
          [
            2.483029,
            42.837647,
            456.65
          ],
          [
            2.482908,
            42.83765,
            453.81
          ],
          [
            2.482877,
            42.837718,
            451.39
          ],
          [
            2.48283,
            42.837746,
            449.88
          ],
          [
            2.482816,
            42.8378,
            447.96
          ],
          [
            2.482779,
            42.837812,
            446.9
          ],
          [
            2.482573,
            42.83775,
            441.16
          ],
          [
            2.482474,
            42.837773,
            438.44
          ],
          [
            2.482387,
            42.837751,
            436.03
          ],
          [
            2.482334,
            42.83778,
            434.34
          ],
          [
            2.482202,
            42.837752,
            430.85
          ],
          [
            2.482197,
            42.837783,
            429.71
          ],
          [
            2.482008,
            42.837757,
            423.89
          ],
          [
            2.481924,
            42.837782,
            421.11
          ],
          [
            2.481853,
            42.837691,
            416.95
          ],
          [
            2.48163,
            42.837711,
            409.92
          ],
          [
            2.481558,
            42.838013,
            392.97
          ],
          [
            2.481502,
            42.838134,
            390.79
          ],
          [
            2.481442,
            42.838186,
            389.09
          ],
          [
            2.481253,
            42.838293,
            389.82
          ],
          [
            2.481065,
            42.838385,
            389.95
          ],
          [
            2.48102,
            42.838398,
            389.94
          ],
          [
            2.480842,
            42.838416,
            389.55
          ],
          [
            2.480683,
            42.838391,
            390.85
          ],
          [
            2.480544,
            42.838346,
            392.7
          ],
          [
            2.480416,
            42.838325,
            393.12
          ],
          [
            2.480286,
            42.838319,
            393.56
          ],
          [
            2.48022,
            42.838391,
            393.73
          ],
          [
            2.480172,
            42.838411,
            393.72
          ],
          [
            2.480109,
            42.838416,
            393.61
          ],
          [
            2.480076,
            42.838408,
            393.51
          ],
          [
            2.480047,
            42.838425,
            393.4
          ],
          [
            2.48003,
            42.838461,
            393.28
          ],
          [
            2.479917,
            42.838488,
            393.23
          ],
          [
            2.479859,
            42.838516,
            393.33
          ],
          [
            2.479815,
            42.838569,
            393.44
          ],
          [
            2.479805,
            42.838595,
            393.5
          ],
          [
            2.479805,
            42.838691,
            393.63
          ],
          [
            2.479768,
            42.838865,
            393.18
          ],
          [
            2.479763,
            42.838954,
            391.75
          ],
          [
            2.479773,
            42.838975,
            391.31
          ],
          [
            2.479803,
            42.838998,
            390.68
          ],
          [
            2.479905,
            42.839044,
            389.13
          ],
          [
            2.479927,
            42.839062,
            388.86
          ],
          [
            2.479938,
            42.839092,
            388.59
          ],
          [
            2.479812,
            42.839377,
            387.34
          ],
          [
            2.479767,
            42.839437,
            387.19
          ],
          [
            2.479665,
            42.839539,
            387.54
          ],
          [
            2.479655,
            42.83957,
            387.64
          ],
          [
            2.479651,
            42.839657,
            387.99
          ],
          [
            2.47962,
            42.839745,
            388.45
          ],
          [
            2.479557,
            42.83988,
            388.36
          ],
          [
            2.479497,
            42.83996,
            388.06
          ],
          [
            2.479491,
            42.840023,
            388.1
          ],
          [
            2.479504,
            42.84008,
            388.35
          ],
          [
            2.479495,
            42.840111,
            388.6
          ],
          [
            2.479441,
            42.840195,
            389.9
          ],
          [
            2.479431,
            42.840227,
            390.44
          ],
          [
            2.479416,
            42.840342,
            391.53
          ],
          [
            2.479402,
            42.840369,
            391.67
          ],
          [
            2.479376,
            42.84039,
            391.74
          ],
          [
            2.479283,
            42.840428,
            391.51
          ],
          [
            2.479249,
            42.840458,
            391.25
          ],
          [
            2.479243,
            42.840528,
            390.82
          ],
          [
            2.479298,
            42.840625,
            391.09
          ],
          [
            2.479358,
            42.841048,
            397.46
          ],
          [
            2.479398,
            42.841067,
            397.9
          ],
          [
            2.479516,
            42.841084,
            399.09
          ],
          [
            2.479637,
            42.841144,
            400.09
          ],
          [
            2.479746,
            42.841221,
            400.39
          ],
          [
            2.479855,
            42.841344,
            399.87
          ],
          [
            2.47999,
            42.841795,
            402.15
          ],
          [
            2.47999,
            42.841795,
            402.15
          ],
          [
            2.479855,
            42.841344,
            399.87
          ],
          [
            2.479746,
            42.841221,
            400.39
          ],
          [
            2.479637,
            42.841144,
            400.09
          ],
          [
            2.479516,
            42.841084,
            399.09
          ],
          [
            2.479398,
            42.841067,
            397.9
          ],
          [
            2.479358,
            42.841048,
            397.46
          ],
          [
            2.479298,
            42.840625,
            391.09
          ],
          [
            2.479243,
            42.840528,
            390.82
          ],
          [
            2.479249,
            42.840458,
            391.25
          ],
          [
            2.479283,
            42.840428,
            391.51
          ],
          [
            2.479376,
            42.84039,
            391.74
          ],
          [
            2.479402,
            42.840369,
            391.67
          ],
          [
            2.479416,
            42.840342,
            391.53
          ],
          [
            2.479431,
            42.840227,
            390.44
          ],
          [
            2.479441,
            42.840195,
            389.9
          ],
          [
            2.479495,
            42.840111,
            388.6
          ],
          [
            2.479504,
            42.84008,
            388.35
          ],
          [
            2.479491,
            42.840023,
            388.1
          ],
          [
            2.479497,
            42.83996,
            388.06
          ],
          [
            2.479557,
            42.83988,
            388.36
          ],
          [
            2.47962,
            42.839745,
            388.45
          ],
          [
            2.479651,
            42.839657,
            387.99
          ],
          [
            2.479655,
            42.83957,
            387.64
          ],
          [
            2.479665,
            42.839539,
            387.54
          ],
          [
            2.479767,
            42.839437,
            387.19
          ],
          [
            2.479812,
            42.839377,
            387.34
          ],
          [
            2.479938,
            42.839092,
            388.59
          ],
          [
            2.479927,
            42.839062,
            388.86
          ],
          [
            2.479905,
            42.839044,
            389.13
          ],
          [
            2.479803,
            42.838998,
            390.68
          ],
          [
            2.479773,
            42.838975,
            391.31
          ],
          [
            2.479763,
            42.838954,
            391.75
          ],
          [
            2.479768,
            42.838865,
            393.18
          ],
          [
            2.479805,
            42.838691,
            393.63
          ],
          [
            2.479805,
            42.838595,
            393.5
          ],
          [
            2.479815,
            42.838569,
            393.44
          ],
          [
            2.479859,
            42.838516,
            393.33
          ],
          [
            2.479917,
            42.838488,
            393.23
          ],
          [
            2.48003,
            42.838461,
            393.28
          ],
          [
            2.480047,
            42.838425,
            393.4
          ],
          [
            2.480076,
            42.838408,
            393.51
          ],
          [
            2.480109,
            42.838416,
            393.61
          ],
          [
            2.480172,
            42.838411,
            393.72
          ],
          [
            2.48022,
            42.838391,
            393.73
          ],
          [
            2.480286,
            42.838319,
            393.56
          ],
          [
            2.480416,
            42.838325,
            393.12
          ],
          [
            2.480544,
            42.838346,
            392.7
          ],
          [
            2.480683,
            42.838391,
            390.85
          ],
          [
            2.480842,
            42.838416,
            389.55
          ],
          [
            2.48102,
            42.838398,
            389.94
          ],
          [
            2.481065,
            42.838385,
            389.95
          ],
          [
            2.481253,
            42.838293,
            389.82
          ],
          [
            2.481442,
            42.838186,
            389.09
          ],
          [
            2.481502,
            42.838134,
            390.79
          ],
          [
            2.481558,
            42.838013,
            392.97
          ],
          [
            2.48163,
            42.837711,
            409.92
          ],
          [
            2.481665,
            42.837581,
            404.07
          ],
          [
            2.481717,
            42.837291,
            394.9
          ],
          [
            2.481733,
            42.837251,
            394.27
          ],
          [
            2.481868,
            42.837025,
            392.24
          ],
          [
            2.481892,
            42.836965,
            392.05
          ],
          [
            2.481906,
            42.836874,
            391.35
          ],
          [
            2.481882,
            42.836795,
            390.7
          ],
          [
            2.481755,
            42.836631,
            389.85
          ],
          [
            2.481658,
            42.83644,
            389.4
          ],
          [
            2.481575,
            42.836336,
            389.2
          ],
          [
            2.481437,
            42.8362,
            388.93
          ],
          [
            2.481247,
            42.836084,
            388.8
          ],
          [
            2.481006,
            42.83597,
            388.26
          ],
          [
            2.480692,
            42.835859,
            387.85
          ],
          [
            2.480603,
            42.835811,
            388.18
          ],
          [
            2.480522,
            42.835748,
            388.74
          ],
          [
            2.480472,
            42.835678,
            389.6
          ],
          [
            2.480451,
            42.835584,
            390.05
          ],
          [
            2.480459,
            42.8355,
            389.94
          ],
          [
            2.480491,
            42.835431,
            389.96
          ],
          [
            2.480923,
            42.835003,
            390.44
          ],
          [
            2.480965,
            42.834945,
            390.57
          ],
          [
            2.481022,
            42.834799,
            390.83
          ],
          [
            2.481035,
            42.834686,
            390.87
          ],
          [
            2.480998,
            42.83458,
            390.82
          ],
          [
            2.480821,
            42.83438,
            390.68
          ],
          [
            2.480772,
            42.834301,
            390.54
          ],
          [
            2.480764,
            42.834224,
            390.35
          ],
          [
            2.480802,
            42.834153,
            390.17
          ],
          [
            2.480874,
            42.8341,
            390.02
          ],
          [
            2.480998,
            42.834059,
            389.85
          ],
          [
            2.481228,
            42.834002,
            389.63
          ],
          [
            2.481416,
            42.833928,
            388.8
          ],
          [
            2.481488,
            42.833909,
            388.68
          ],
          [
            2.481557,
            42.833902,
            388.46
          ],
          [
            2.482048,
            42.833904,
            387.5
          ],
          [
            2.482106,
            42.833862,
            385.29
          ],
          [
            2.482234,
            42.833831,
            383.4
          ],
          [
            2.48234,
            42.833791,
            381.65
          ],
          [
            2.482239,
            42.833758,
            379.88
          ],
          [
            2.481991,
            42.833731,
            375.69
          ],
          [
            2.482061,
            42.833647,
            373.71
          ],
          [
            2.482213,
            42.833581,
            371.32
          ],
          [
            2.482512,
            42.833534,
            367.12
          ],
          [
            2.482713,
            42.833532,
            364.4
          ],
          [
            2.482944,
            42.833546,
            361.21
          ],
          [
            2.483252,
            42.833597,
            356.96
          ],
          [
            2.483261,
            42.833571,
            356.42
          ],
          [
            2.4832,
            42.833517,
            354.93
          ],
          [
            2.483103,
            42.833471,
            353.06
          ],
          [
            2.483054,
            42.833433,
            351.97
          ],
          [
            2.482915,
            42.833376,
            349.68
          ],
          [
            2.482924,
            42.833354,
            349.2
          ],
          [
            2.482993,
            42.83335,
            348.03
          ],
          [
            2.483089,
            42.833359,
            346.36
          ],
          [
            2.483249,
            42.833344,
            343.11
          ],
          [
            2.483268,
            42.833324,
            342.4
          ],
          [
            2.483288,
            42.833215,
            338.37
          ],
          [
            2.483241,
            42.833149,
            335.63
          ],
          [
            2.483259,
            42.833089,
            333.25
          ],
          [
            2.483327,
            42.833051,
            331.0
          ],
          [
            2.483369,
            42.833013,
            329.57
          ],
          [
            2.483506,
            42.832964,
            326.67
          ],
          [
            2.483487,
            42.832922,
            325.59
          ],
          [
            2.483413,
            42.832878,
            324.19
          ],
          [
            2.483377,
            42.832844,
            323.25
          ],
          [
            2.483398,
            42.832804,
            322.31
          ],
          [
            2.483518,
            42.8328,
            320.16
          ],
          [
            2.483622,
            42.832824,
            318.24
          ],
          [
            2.483723,
            42.83281,
            316.58
          ],
          [
            2.483831,
            42.832806,
            314.85
          ],
          [
            2.483929,
            42.832821,
            313.13
          ],
          [
            2.484008,
            42.832824,
            311.52
          ],
          [
            2.484037,
            42.832778,
            310.01
          ],
          [
            2.484011,
            42.83274,
            308.73
          ],
          [
            2.484084,
            42.832497,
            304.97
          ],
          [
            2.484101,
            42.832407,
            304.52
          ],
          [
            2.484104,
            42.83233,
            303.85
          ],
          [
            2.484066,
            42.832063,
            300.59
          ],
          [
            2.484182,
            42.831663,
            295.87
          ],
          [
            2.484238,
            42.831557,
            294.26
          ],
          [
            2.484294,
            42.831484,
            292.98
          ],
          [
            2.484377,
            42.831455,
            291.89
          ],
          [
            2.484466,
            42.831406,
            290.56
          ],
          [
            2.484495,
            42.831313,
            289.03
          ],
          [
            2.484544,
            42.831258,
            287.99
          ],
          [
            2.484573,
            42.831187,
            286.81
          ],
          [
            2.484592,
            42.831095,
            285.24
          ],
          [
            2.484629,
            42.831063,
            284.52
          ],
          [
            2.484672,
            42.830985,
            283.06
          ],
          [
            2.484717,
            42.830957,
            282.29
          ],
          [
            2.484741,
            42.830915,
            281.46
          ],
          [
            2.484844,
            42.830705,
            276.9
          ],
          [
            2.484832,
            42.830658,
            275.94
          ],
          [
            2.484895,
            42.830596,
            274.62
          ],
          [
            2.484951,
            42.830456,
            271.71
          ],
          [
            2.484986,
            42.830402,
            270.78
          ],
          [
            2.484867,
            42.830415,
            271.41
          ],
          [
            2.484694,
            42.830408,
            271.98
          ],
          [
            2.484564,
            42.830416,
            272.23
          ],
          [
            2.484367,
            42.830497,
            272.46
          ],
          [
            2.484199,
            42.830615,
            272.62
          ],
          [
            2.483779,
            42.830788,
            272.79
          ],
          [
            2.48353,
            42.830874,
            272.77
          ],
          [
            2.48311,
            42.831152,
            272.35
          ],
          [
            2.482887,
            42.831275,
            272.42
          ],
          [
            2.482337,
            42.831479,
            277.59
          ]
        ]
      }
    },
    {
      "type": "Feature",
      "properties": {
        "source": "Gorges_de_Galamus.gpx",
        "type": "route"
      },
      "geometry": {
        "type": "LineString",
        "coordinates": [
          [
            2.485329,
            42.852305
          ],
          [
            2.483157,
            42.853373
          ],
          [
            2.476901,
            42.850861
          ],
          [
            2.485735,
            42.837558
          ],
          [
            2.48163,
            42.837711
          ],
          [
            2.47999,
            42.841795
          ],
          [
            2.47999,
            42.841795
          ],
          [
            2.482048,
            42.833904
          ],
          [
            2.483259,
            42.833089
          ],
          [
            2.484986,
            42.830402
          ],
          [
            2.482337,
            42.831479
          ]
        ]
      }
    }
  ]
}