{
  "type": "FeatureCollection",
  "features": [
    {
      "type": "Feature",
      "properties": {
        "name": "GraphHopper Track",
        "source": "Riols__Mons.gpx",
        "type": "track"
      },
      "geometry": {
        "type": "LineString",
        "coordinates": [
          [
            2.825442,
            43.504451,
            362.08
          ],
          [
            2.825723,
            43.504278,
            364.29
          ],
          [
            2.827047,
            43.503225,
            373.21
          ],
          [
            2.827205,
            43.503158,
            374.28
          ],
          [
            2.827462,
            43.503082,
            376.06
          ],
          [
            2.827736,
            43.503043,
            377.79
          ],
          [
            2.828218,
            43.503016,
            380.54
          ],
          [
            2.828702,
            43.503058,
            382.91
          ],
          [
            2.828959,
            43.503054,
            383.74
          ],
          [
            2.829272,
            43.503021,
            384.67
          ],
          [
            2.829431,
            43.502968,
            385.29
          ],
          [
            2.829508,
            43.50289,
            385.78
          ],
          [
            2.829617,
            43.502635,
            387.28
          ],
          [
            2.829677,
            43.502603,
            387.63
          ],
          [
            2.829742,
            43.502605,
            387.94
          ],
          [
            2.829808,
            43.502646,
            388.38
          ],
          [
            2.829964,
            43.502928,
            390.71
          ],
          [
            2.83006,
            43.502981,
            391.38
          ],
          [
            2.830675,
            43.503096,
            395.38
          ],
          [
            2.831302,
            43.503281,
            396.8
          ],
          [
            2.831451,
            43.503363,
            397.61
          ],
          [
            2.831737,
            43.503553,
            399.12
          ],
          [
            2.831955,
            43.503625,
            399.97
          ],
          [
            2.832873,
            43.503856,
            403.08
          ],
          [
            2.833181,
            43.503912,
            403.91
          ],
          [
            2.833518,
            43.503931,
            404.75
          ],
          [
            2.833953,
            43.503934,
            405.51
          ],
          [
            2.833999,
            43.50397,
            404.0
          ],
          [
            2.834022,
            43.504043,
            404.17
          ],
          [
            2.833985,
            43.504095,
            404.38
          ],
          [
            2.833923,
            43.504126,
            404.72
          ],
          [
            2.83325,
            43.504231,
            406.56
          ],
          [
            2.832903,
            43.504252,
            408.47
          ],
          [
            2.832815,
            43.504293,
            409.07
          ],
          [
            2.832813,
            43.504323,
            409.32
          ],
          [
            2.832833,
            43.504353,
            409.6
          ],
          [
            2.833037,
            43.504334,
            410.92
          ],
          [
            2.834342,
            43.504393,
            420.54
          ],
          [
            2.834516,
            43.504366,
            421.72
          ],
          [
            2.835321,
            43.504098,
            427.39
          ],
          [
            2.835622,
            43.504047,
            429.28
          ],
          [
            2.835937,
            43.504023,
            431.38
          ],
          [
            2.836293,
            43.504026,
            433.93
          ],
          [
            2.837658,
            43.504208,
            445.06
          ],
          [
            2.837976,
            43.5043,
            447.64
          ],
          [
            2.838425,
            43.504352,
            450.84
          ],
          [
            2.838888,
            43.504437,
            453.92
          ],
          [
            2.839723,
            43.504641,
            459.23
          ],
          [
            2.839742,
            43.504668,
            459.86
          ],
          [
            2.839723,
            43.504697,
            461.08
          ],
          [
            2.838852,
            43.504716,
            467.77
          ],
          [
            2.838304,
            43.504769,
            471.91
          ],
          [
            2.838275,
            43.504798,
            473.03
          ],
          [
            2.838305,
            43.504826,
            474.41
          ],
          [
            2.838538,
            43.50483,
            474.86
          ],
          [
            2.838726,
            43.504856,
            475.83
          ],
          [
            2.839556,
            43.505055,
            481.41
          ],
          [
            2.839775,
            43.50513,
            483.23
          ],
          [
            2.83985,
            43.50517,
            484.24
          ],
          [
            2.839685,
            43.505169,
            485.11
          ],
          [
            2.83957,
            43.505154,
            485.86
          ],
          [
            2.839323,
            43.505162,
            487.72
          ],
          [
            2.837848,
            43.505301,
            497.58
          ],
          [
            2.837781,
            43.505293,
            497.56
          ],
          [
            2.837415,
            43.505282,
            501.13
          ],
          [
            2.837155,
            43.505311,
            503.54
          ],
          [
            2.836656,
            43.505433,
            508.51
          ],
          [
            2.836213,
            43.505603,
            513.4
          ],
          [
            2.835916,
            43.505803,
            517.65
          ],
          [
            2.836144,
            43.505801,
            520.12
          ],
          [
            2.836484,
            43.50584,
            523.93
          ],
          [
            2.836779,
            43.505924,
            527.58
          ],
          [
            2.836176,
            43.506287,
            535.21
          ],
          [
            2.83612,
            43.506357,
            535.98
          ],
          [
            2.836128,
            43.506459,
            536.81
          ],
          [
            2.836173,
            43.506552,
            537.47
          ],
          [
            2.836366,
            43.506745,
            538.44
          ],
          [
            2.836938,
            43.50727,
            536.94
          ],
          [
            2.837455,
            43.507665,
            534.27
          ],
          [
            2.838483,
            43.508207,
            529.21
          ],
          [
            2.838877,
            43.508454,
            526.58
          ],
          [
            2.839319,
            43.508842,
            523.97
          ],
          [
            2.840022,
            43.509285,
            522.5
          ],
          [
            2.840462,
            43.509606,
            522.14
          ],
          [
            2.840921,
            43.509855,
            521.45
          ],
          [
            2.841307,
            43.510114,
            520.85
          ],
          [
            2.84194,
            43.510707,
            520.45
          ],
          [
            2.842219,
            43.510849,
            522.99
          ],
          [
            2.842299,
            43.511008,
            522.2
          ],
          [
            2.842368,
            43.511015,
            522.94
          ],
          [
            2.842655,
            43.51109,
            523.82
          ],
          [
            2.842862,
            43.511122,
            523.18
          ],
          [
            2.843056,
            43.511107,
            522.85
          ],
          [
            2.843396,
            43.511061,
            522.42
          ],
          [
            2.843998,
            43.510907,
            521.11
          ],
          [
            2.84423,
            43.510814,
            520.48
          ],
          [
            2.844372,
            43.510729,
            519.99
          ],
          [
            2.844492,
            43.510717,
            519.67
          ],
          [
            2.844737,
            43.510754,
            518.93
          ],
          [
            2.845076,
            43.510738,
            517.83
          ],
          [
            2.845373,
            43.510695,
            516.87
          ],
          [
            2.845739,
            43.510623,
            515.2
          ],
          [
            2.845966,
            43.510566,
            514.11
          ],
          [
            2.846091,
            43.510518,
            513.46
          ],
          [
            2.84617,
            43.510501,
            513.07
          ],
          [
            2.846236,
            43.510513,
            512.74
          ],
          [
            2.846365,
            43.510571,
            512.02
          ],
          [
            2.846625,
            43.510642,
            510.75
          ],
          [
            2.846826,
            43.510673,
            509.72
          ],
          [
            2.847172,
            43.510704,
            507.89
          ],
          [
            2.847366,
            43.510731,
            506.83
          ],
          [
            2.847745,
            43.510836,
            504.83
          ],
          [
            2.847857,
            43.510886,
            503.87
          ],
          [
            2.847943,
            43.510967,
            503.34
          ],
          [
            2.847991,
            43.511081,
            501.27
          ],
          [
            2.848188,
            43.511289,
            501.56
          ],
          [
            2.848145,
            43.511312,
            500.78
          ],
          [
            2.848145,
            43.511358,
            500.45
          ],
          [
            2.848196,
            43.511445,
            500.12
          ],
          [
            2.848292,
            43.511521,
            500.07
          ],
          [
            2.848424,
            43.511585,
            499.8
          ],
          [
            2.848654,
            43.511667,
            499.18
          ],
          [
            2.848821,
            43.511752,
            498.65
          ],
          [
            2.849069,
            43.511899,
            498.06
          ],
          [
            2.849339,
            43.51208,
            497.28
          ],
          [
            2.849501,
            43.512176,
            496.82
          ],
          [
            2.850255,
            43.512504,
            494.96
          ],
          [
            2.850431,
            43.512617,
            494.48
          ],
          [
            2.850716,
            43.51283,
            493.51
          ],
          [
            2.850819,
            43.512884,
            493.16
          ],
          [
            2.850966,
            43.512936,
            492.66
          ],
          [
            2.851124,
            43.512978,
            492.11
          ],
          [
            2.851294,
            43.513005,
            491.43
          ],
          [
            2.852028,
            43.513049,
            487.86
          ],
          [
            2.852152,
            43.513066,
            486.65
          ],
          [
            2.852221,
            43.513095,
            485.48
          ],
          [
            2.852244,
            43.513139,
            484.41
          ],
          [
            2.852216,
            43.513185,
            483.51
          ],
          [
            2.852146,
            43.513222,
            482.95
          ],
          [
            2.851527,
            43.513441,
            479.39
          ],
          [
            2.851415,
            43.513504,
            478.54
          ],
          [
            2.851335,
            43.513573,
            477.9
          ],
          [
            2.851268,
            43.513665,
            477.23
          ],
          [
            2.85115,
            43.513974,
            475.5
          ],
          [
            2.851142,
            43.514116,
            474.93
          ],
          [
            2.851185,
            43.514385,
            474.35
          ],
          [
            2.851205,
            43.514611,
            474.33
          ],
          [
            2.851248,
            43.514815,
            474.63
          ],
          [
            2.851427,
            43.515387,
            474.72
          ],
          [
            2.851424,
            43.515461,
            474.56
          ],
          [
            2.851401,
            43.515529,
            474.35
          ],
          [
            2.851335,
            43.515611,
            474.03
          ],
          [
            2.851081,
            43.515853,
            472.65
          ],
          [
            2.850975,
            43.515928,
            471.99
          ],
          [
            2.850825,
            43.516018,
            470.87
          ],
          [
            2.850385,
            43.51622,
            467.18
          ],
          [
            2.850315,
            43.516283,
            466.39
          ],
          [
            2.85029,
            43.516342,
            465.79
          ],
          [
            2.850281,
            43.516423,
            464.99
          ],
          [
            2.850367,
            43.516749,
            461.79
          ],
          [
            2.850462,
            43.517243,
            458.15
          ],
          [
            2.850482,
            43.517548,
            457.03
          ],
          [
            2.850497,
            43.517609,
            456.84
          ],
          [
            2.850543,
            43.517678,
            456.61
          ],
          [
            2.850661,
            43.517824,
            456.14
          ],
          [
            2.850877,
            43.518043,
            455.46
          ],
          [
            2.851271,
            43.518335,
            454.02
          ],
          [
            2.851614,
            43.518638,
            451.9
          ],
          [
            2.851746,
            43.518782,
            450.83
          ],
          [
            2.852077,
            43.519225,
            447.24
          ],
          [
            2.852167,
            43.519315,
            446.28
          ],
          [
            2.852259,
            43.519392,
            445.39
          ],
          [
            2.852527,
            43.519588,
            442.74
          ],
          [
            2.852757,
            43.51977,
            440.31
          ],
          [
            2.85286,
            43.519884,
            438.9
          ],
          [
            2.852927,
            43.520008,
            437.59
          ],
          [
            2.852944,
            43.52011,
            436.61
          ],
          [
            2.852933,
            43.520266,
            435.13
          ],
          [
            2.852907,
            43.520402,
            433.88
          ],
          [
            2.852858,
            43.52054,
            432.61
          ],
          [
            2.852837,
            43.520644,
            431.68
          ],
          [
            2.852832,
            43.520897,
            429.38
          ],
          [
            2.852812,
            43.521041,
            428.01
          ],
          [
            2.852812,
            43.521137,
            427.15
          ],
          [
            2.852832,
            43.521327,
            425.27
          ],
          [
            2.85282,
            43.52144,
            424.13
          ],
          [
            2.852658,
            43.521909,
            419.53
          ],
          [
            2.852583,
            43.522011,
            418.43
          ],
          [
            2.852452,
            43.522132,
            417.12
          ],
          [
            2.852326,
            43.522221,
            416.2
          ],
          [
            2.852057,
            43.522354,
            414.56
          ],
          [
            2.852004,
            43.522407,
            414.15
          ],
          [
            2.851895,
            43.522655,
            412.72
          ],
          [
            2.851878,
            43.522726,
            412.33
          ],
          [
            2.851911,
            43.522788,
            411.88
          ],
          [
            2.852069,
            43.522952,
            410.09
          ],
          [
            2.852106,
            43.523013,
            409.53
          ],
          [
            2.852146,
            43.523121,
            408.65
          ],
          [
            2.85221,
            43.523194,
            407.96
          ],
          [
            2.852288,
            43.523249,
            407.29
          ],
          [
            2.852411,
            43.523292,
            406.39
          ],
          [
            2.852693,
            43.52337,
            404.34
          ],
          [
            2.852826,
            43.523395,
            403.35
          ],
          [
            2.853001,
            43.523407,
            402.13
          ],
          [
            2.853094,
            43.523424,
            401.5
          ],
          [
            2.853137,
            43.523447,
            401.15
          ],
          [
            2.853157,
            43.523491,
            400.74
          ],
          [
            2.853134,
            43.523532,
            400.34
          ],
          [
            2.853053,
            43.523568,
            399.7
          ],
          [
            2.852639,
            43.523654,
            396.88
          ],
          [
            2.852452,
            43.523662,
            395.75
          ],
          [
            2.852221,
            43.523643,
            394.42
          ],
          [
            2.85204,
            43.523606,
            393.29
          ],
          [
            2.851833,
            43.523528,
            391.94
          ],
          [
            2.851738,
            43.523463,
            391.19
          ],
          [
            2.851651,
            43.523376,
            390.32
          ],
          [
            2.851594,
            43.523365,
            389.97
          ],
          [
            2.851545,
            43.52339,
            389.62
          ],
          [
            2.851539,
            43.523436,
            389.25
          ],
          [
            2.851585,
            43.523505,
            388.65
          ],
          [
            2.851807,
            43.523706,
            386.61
          ],
          [
            2.852092,
            43.523879,
            384.36
          ],
          [
            2.852397,
            43.524004,
            382.54
          ],
          [
            2.85265,
            43.524067,
            381.1
          ],
          [
            2.853042,
            43.524144,
            378.83
          ],
          [
            2.853183,
            43.524198,
            377.95
          ],
          [
            2.853433,
            43.524328,
            376.27
          ],
          [
            2.853589,
            43.52438,
            375.29
          ],
          [
            2.85379,
            43.524434,
            373.9
          ],
          [
            2.854096,
            43.524484,
            371.71
          ],
          [
            2.854185,
            43.524476,
            371.07
          ],
          [
            2.854251,
            43.524449,
            370.54
          ],
          [
            2.854343,
            43.524397,
            369.74
          ],
          [
            2.854421,
            43.524382,
            369.21
          ],
          [
            2.85449,
            43.524403,
            368.72
          ],
          [
            2.854522,
            43.524447,
            368.29
          ],
          [
            2.854522,
            43.524509,
            367.74
          ],
          [
            2.854484,
            43.524647,
            366.54
          ],
          [
            2.854432,
            43.524706,
            365.94
          ],
          [
            2.854297,
            43.524793,
            364.79
          ],
          [
            2.853793,
            43.525084,
            361.31
          ],
          [
            2.853667,
            43.525119,
            360.63
          ],
          [
            2.8535,
            43.525125,
            359.84
          ],
          [
            2.853246,
            43.525117,
            358.63
          ],
          [
            2.852898,
            43.525084,
            356.76
          ],
          [
            2.852843,
            43.525106,
            356.37
          ],
          [
            2.852685,
            43.525221,
            354.94
          ],
          [
            2.852388,
            43.525353,
            352.45
          ],
          [
            2.852293,
            43.525428,
            351.39
          ],
          [
            2.852241,
            43.525501,
            350.54
          ],
          [
            2.852224,
            43.525589,
            349.63
          ],
          [
            2.852241,
            43.525676,
            348.69
          ],
          [
            2.852299,
            43.525764,
            347.63
          ],
          [
            2.852483,
            43.525983,
            344.76
          ],
          [
            2.852835,
            43.526457,
            339.29
          ],
          [
            2.852956,
            43.526584,
            337.77
          ],
          [
            2.853148,
            43.52672,
            335.88
          ],
          [
            2.853347,
            43.526803,
            334.36
          ],
          [
            2.853465,
            43.526818,
            333.61
          ],
          [
            2.853638,
            43.526803,
            332.59
          ],
          [
            2.853903,
            43.526758,
            330.73
          ],
          [
            2.854156,
            43.526685,
            328.86
          ],
          [
            2.854332,
            43.52662,
            327.53
          ],
          [
            2.854427,
            43.526555,
            326.64
          ],
          [
            2.854505,
            43.526537,
            326.07
          ],
          [
            2.854571,
            43.526543,
            325.6
          ],
          [
            2.854611,
            43.526583,
            325.12
          ],
          [
            2.854589,
            43.526622,
            324.71
          ],
          [
            2.854485,
            43.526706,
            323.59
          ],
          [
            2.853895,
            43.527259,
            315.78
          ],
          [
            2.853777,
            43.527344,
            314.42
          ],
          [
            2.853584,
            43.52743,
            312.63
          ],
          [
            2.853417,
            43.527468,
            311.26
          ],
          [
            2.853204,
            43.527482,
            309.62
          ],
          [
            2.852982,
            43.527465,
            308.0
          ],
          [
            2.852766,
            43.527415,
            306.49
          ],
          [
            2.852475,
            43.527307,
            304.56
          ],
          [
            2.852265,
            43.52719,
            303.2
          ],
          [
            2.852049,
            43.527038,
            301.49
          ],
          [
            2.851868,
            43.526868,
            299.69
          ],
          [
            2.851695,
            43.526691,
            297.84
          ],
          [
            2.85164,
            43.52667,
            297.43
          ],
          [
            2.851594,
            43.526677,
            297.11
          ],
          [
            2.851565,
            43.526712,
            296.72
          ],
          [
            2.851574,
            43.526754,
            296.31
          ],
          [
            2.851701,
            43.526933,
            294.17
          ],
          [
            2.851957,
            43.527357,
            288.72
          ],
          [
            2.852075,
            43.527516,
            286.73
          ],
          [
            2.852228,
            43.527656,
            284.72
          ],
          [
            2.852421,
            43.527816,
            282.32
          ],
          [
            2.852625,
            43.527946,
            280.23
          ],
          [
            2.852919,
            43.528104,
            277.52
          ],
          [
            2.853184,
            43.528205,
            275.37
          ],
          [
            2.853428,
            43.528275,
            273.5
          ],
          [
            2.853791,
            43.528361,
            270.79
          ],
          [
            2.854281,
            43.528445,
            267.4
          ],
          [
            2.854338,
            43.528468,
            266.51
          ],
          [
            2.854499,
            43.528478,
            265.76
          ],
          [
            2.854783,
            43.528456,
            264.53
          ],
          [
            2.854999,
            43.528426,
            263.81
          ],
          [
            2.855147,
            43.528381,
            262.77
          ],
          [
            2.85522,
            43.528313,
            262.03
          ],
          [
            2.855279,
            43.528202,
            261.07
          ],
          [
            2.855319,
            43.528179,
            260.77
          ],
          [
            2.855376,
            43.528198,
            260.39
          ],
          [
            2.85539,
            43.528242,
            259.99
          ],
          [
            2.855361,
            43.528439,
            258.2
          ],
          [
            2.85532,
            43.528578,
            256.92
          ],
          [
            2.855246,
            43.528673,
            255.9
          ],
          [
            2.855148,
            43.52875,
            254.83
          ],
          [
            2.854974,
            43.528817,
            253.34
          ],
          [
            2.854769,
            43.528856,
            251.86
          ],
          [
            2.854361,
            43.528889,
            249.05
          ],
          [
            2.853885,
            43.528916,
            245.81
          ],
          [
            2.853831,
            43.528923,
            245.44
          ],
          [
            2.8538,
            43.52895,
            245.1
          ],
          [
            2.853811,
            43.528985,
            244.73
          ],
          [
            2.853849,
            43.529006,
            244.36
          ],
          [
            2.85401,
            43.529022,
            243.09
          ],
          [
            2.854109,
            43.529058,
            242.21
          ],
          [
            2.854236,
            43.52914,
            241.11
          ],
          [
            2.854361,
            43.529184,
            239.93
          ],
          [
            2.854479,
            43.529205,
            238.76
          ],
          [
            2.854595,
            43.529239,
            237.9
          ],
          [
            2.854786,
            43.529329,
            235.99
          ],
          [
            2.854948,
            43.529427,
            234.45
          ],
          [
            2.855156,
            43.529578,
            232.32
          ],
          [
            2.855246,
            43.529628,
            231.36
          ],
          [
            2.855396,
            43.52967,
            230.0
          ],
          [
            2.855469,
            43.529709,
            229.25
          ],
          [
            2.855507,
            43.529776,
            228.45
          ],
          [
            2.855518,
            43.529893,
            227.19
          ],
          [
            2.85551,
            43.530034,
            225.72
          ],
          [
            2.855463,
            43.530076,
            225.15
          ],
          [
            2.855387,
            43.530091,
            224.51
          ],
          [
            2.854905,
            43.530018,
            220.47
          ],
          [
            2.85467,
            43.53001,
            219.4
          ],
          [
            2.854482,
            43.530038,
            217.61
          ],
          [
            2.85442,
            43.530078,
            216.71
          ],
          [
            2.854399,
            43.530152,
            215.11
          ],
          [
            2.854318,
            43.530875,
            218.05
          ],
          [
            2.854677,
            43.530897,
            217.33
          ],
          [
            2.854834,
            43.530928,
            216.99
          ],
          [
            2.85488,
            43.530947,
            216.88
          ],
          [
            2.854897,
            43.530972,
            216.88
          ],
          [
            2.854889,
            43.531005,
            217.25
          ],
          [
            2.855246,
            43.531094,
            217.48
          ],
          [
            2.855243,
            43.531242,
            219.19
          ],
          [
            2.855257,
            43.531306,
            219.49
          ],
          [
            2.855296,
            43.531355,
            219.59
          ],
          [
            2.855352,
            43.5314,
            219.6
          ],
          [
            2.85544,
            43.531447,
            219.85
          ],
          [
            2.855746,
            43.531521,
            218.97
          ],
          [
            2.855808,
            43.531553,
            218.99
          ],
          [
            2.855859,
            43.53161,
            218.86
          ],
          [
            2.855903,
            43.531694,
            218.7
          ],
          [
            2.855904,
            43.53177,
            218.65
          ],
          [
            2.856078,
            43.531875,
            216.29
          ],
          [
            2.85611,
            43.531913,
            215.97
          ],
          [
            2.856103,
            43.531968,
            215.32
          ],
          [
            2.856071,
            43.532052,
            214.82
          ],
          [
            2.856071,
            43.53212,
            214.91
          ],
          [
            2.856142,
            43.53218,
            215.54
          ],
          [
            2.856504,
            43.532379,
            220.6
          ],
          [
            2.856462,
            43.532452,
            221.8
          ],
          [
            2.856389,
            43.532667,
            225.94
          ],
          [
            2.856498,
            43.532786,
            226.88
          ],
          [
            2.85651,
            43.532851,
            227.29
          ],
          [
            2.856498,
            43.532905,
            227.71
          ],
          [
            2.856441,
            43.53297,
            228.83
          ],
          [
            2.856484,
            43.533165,
            230.12
          ],
          [
            2.856477,
            43.533189,
            230.59
          ],
          [
            2.856457,
            43.533206,
            231.33
          ],
          [
            2.856747,
            43.533408,
            229.62
          ],
          [
            2.856724,
            43.533423,
            230.11
          ],
          [
            2.856718,
            43.533461,
            230.66
          ],
          [
            2.856744,
            43.533504,
            231.11
          ],
          [
            2.856829,
            43.533603,
            231.56
          ],
          [
            2.857304,
            43.53394,
            232.03
          ],
          [
            2.857488,
            43.534131,
            232.76
          ],
          [
            2.857516,
            43.534218,
            233.82
          ],
          [
            2.857545,
            43.53425,
            233.94
          ],
          [
            2.857804,
            43.534445,
            234.3
          ],
          [
            2.858009,
            43.534613,
            234.31
          ],
          [
            2.858656,
            43.535334,
            234.73
          ],
          [
            2.858808,
            43.535616,
            234.09
          ],
          [
            2.858976,
            43.535829,
            233.05
          ],
          [
            2.859147,
            43.536029,
            230.38
          ],
          [
            2.859397,
            43.536174,
            230.01
          ],
          [
            2.859467,
            43.536224,
            229.91
          ],
          [
            2.859516,
            43.536311,
            229.65
          ],
          [
            2.859613,
            43.536647,
            229.19
          ],
          [
            2.859654,
            43.536853,
            229.54
          ],
          [
            2.859676,
            43.537058,
            229.71
          ],
          [
            2.85967,
            43.537351,
            230.26
          ],
          [
            2.859622,
            43.537632,
            230.58
          ],
          [
            2.859426,
            43.538451,
            229.4
          ],
          [
            2.859388,
            43.538699,
            228.44
          ],
          [
            2.859378,
            43.539006,
            227.3
          ],
          [
            2.859426,
            43.539275,
            226.48
          ],
          [
            2.859514,
            43.539598,
            225.8
          ],
          [
            2.859636,
            43.539874,
            225.5
          ],
          [
            2.859961,
            43.540333,
            225.29
          ],
          [
            2.860322,
            43.54067,
            225.48
          ],
          [
            2.861278,
            43.541481,
            224.36
          ],
          [
            2.862716,
            43.542658,
            218.12
          ],
          [
            2.863343,
            43.54311,
            225.29
          ],
          [
            2.86475,
            43.543935,
            223.54
          ],
          [
            2.865495,
            43.544381,
            215.25
          ],
          [
            2.866219,
            43.544698,
            212.69
          ],
          [
            2.866538,
            43.544787,
            212.47
          ],
          [
            2.866906,
            43.54488,
            212.03
          ],
          [
            2.867216,
            43.544928,
            211.81
          ],
          [
            2.867599,
            43.544967,
            211.49
          ],
          [
            2.867989,
            43.544971,
            211.13
          ],
          [
            2.868375,
            43.544951,
            211.13
          ],
          [
            2.868875,
            43.544866,
            211.06
          ],
          [
            2.869193,
            43.544794,
            211.76
          ],
          [
            2.86967,
            43.544629,
            212.42
          ],
          [
            2.870178,
            43.544378,
            210.11
          ],
          [
            2.870646,
            43.544066,
            211.22
          ],
          [
            2.870679,
            43.544071,
            211.85
          ],
          [
            2.870713,
            43.544112,
            212.72
          ],
          [
            2.870765,
            43.544145,
            213.48
          ],
          [
            2.871462,
            43.54366,
            222.16
          ],
          [
            2.871576,
            43.543656,
            224.16
          ],
          [
            2.872321,
            43.543485,
            232.57
          ],
          [
            2.872738,
            43.543362,
            233.94
          ],
          [
            2.872971,
            43.543321,
            234.47
          ],
          [
            2.873276,
            43.543202,
            235.58
          ],
          [
            2.873412,
            43.543165,
            236.12
          ],
          [
            2.873535,
            43.543152,
            236.62
          ],
          [
            2.873663,
            43.543165,
            237.16
          ],
          [
            2.873805,
            43.543212,
            237.85
          ],
          [
            2.873954,
            43.54329,
            238.73
          ],
          [
            2.874036,
            43.54336,
            239.39
          ],
          [
            2.874157,
            43.543655,
            241.74
          ],
          [
            2.874327,
            43.543898,
            243.99
          ],
          [
            2.874639,
            43.544236,
            247.12
          ],
          [
            2.875454,
            43.545211,
            253.47
          ],
          [
            2.875622,
            43.545348,
            253.36
          ],
          [
            2.875949,
            43.54557,
            253.56
          ],
          [
            2.876647,
            43.545982,
            252.3
          ],
          [
            2.87694,
            43.5461,
            251.21
          ],
          [
            2.877287,
            43.546307,
            248.85
          ],
          [
            2.877547,
            43.546442,
            246.86
          ],
          [
            2.87771,
            43.546499,
            245.76
          ],
          [
            2.877792,
            43.546577,
            244.94
          ],
          [
            2.87788,
            43.546771,
            243.25
          ],
          [
            2.877992,
            43.546958,
            241.47
          ],
          [
            2.878137,
            43.547088,
            239.99
          ],
          [
            2.878557,
            43.547274,
            236.94
          ],
          [
            2.879081,
            43.547456,
            233.48
          ],
          [
            2.879271,
            43.547458,
            232.45
          ],
          [
            2.879437,
            43.547438,
            231.58
          ],
          [
            2.879752,
            43.547463,
            229.89
          ],
          [
            2.880302,
            43.547569,
            228.18
          ],
          [
            2.880407,
            43.547627,
            227.28
          ],
          [
            2.88044,
            43.547743,
            226.43
          ],
          [
            2.880497,
            43.547774,
            226.05
          ],
          [
            2.880694,
            43.547764,
            225.42
          ],
          [
            2.880934,
            43.547773,
            225.4
          ],
          [
            2.881234,
            43.547818,
            224.03
          ],
          [
            2.881489,
            43.547892,
            222.74
          ],
          [
            2.882181,
            43.54795,
            220.28
          ],
          [
            2.882428,
            43.548003,
            219.35
          ],
          [
            2.882782,
            43.548062,
            218.09
          ],
          [
            2.883175,
            43.548166,
            216.67
          ],
          [
            2.883441,
            43.548257,
            215.29
          ],
          [
            2.883721,
            43.548399,
            213.56
          ],
          [
            2.883798,
            43.548474,
            212.81
          ],
          [
            2.883811,
            43.548612,
            210.61
          ],
          [
            2.883846,
            43.548659,
            211.01
          ],
          [
            2.884042,
            43.548725,
            210.71
          ],
          [
            2.884109,
            43.548732,
            210.55
          ],
          [
            2.884234,
            43.548672,
            208.19
          ],
          [
            2.884461,
            43.548617,
            206.44
          ],
          [
            2.8852,
            43.548504,
            199.71
          ],
          [
            2.885298,
            43.548505,
            199.06
          ],
          [
            2.885531,
            43.548571,
            198.86
          ],
          [
            2.885841,
            43.54864,
            197.44
          ],
          [
            2.886123,
            43.548686,
            196.09
          ],
          [
            2.886489,
            43.548668,
            197.79
          ],
          [
            2.886649,
            43.548673,
            198.0
          ],
          [
            2.886883,
            43.548735,
            197.93
          ],
          [
            2.887331,
            43.548808,
            197.57
          ],
          [
            2.888916,
            43.548857,
            197.0
          ],
          [
            2.891835,
            43.548922,
            193.41
          ],
          [
            2.892295,
            43.548919,
            193.07
          ],
          [
            2.892953,
            43.548868,
            193.34
          ],
          [
            2.893451,
            43.548819,
            194.57
          ],
          [
            2.894099,
            43.548692,
            193.8
          ],
          [
            2.894335,
            43.548644,
            193.63
          ],
          [
            2.895827,
            43.548284,
            185.64
          ],
          [
            2.896333,
            43.548164,
            195.34
          ],
          [
            2.896696,
            43.548119,
            194.73
          ],
          [
            2.897201,
            43.548095,
            192.99
          ],
          [
            2.897825,
            43.548109,
            189.12
          ],
          [
            2.898007,
            43.548139,
            183.5
          ],
          [
            2.89844,
            43.548222,
            184.29
          ],
          [
            2.898791,
            43.548328,
            184.94
          ],
          [
            2.899152,
            43.548469,
            185.64
          ],
          [
            2.899538,
            43.548671,
            187.42
          ],
          [
            2.899915,
            43.548915,
            188.79
          ],
          [
            2.900466,
            43.549307,
            190.05
          ],
          [
            2.900989,
            43.549654,
            190.49
          ],
          [
            2.901279,
            43.549798,
            190.47
          ],
          [
            2.901599,
            43.549927,
            190.64
          ],
          [
            2.902007,
            43.550062,
            191.09
          ],
          [
            2.902387,
            43.550144,
            191.14
          ],
          [
            2.902775,
            43.550196,
            191.47
          ],
          [
            2.903412,
            43.550261,
            192.29
          ],
          [
            2.904144,
            43.550345,
            192.71
          ],
          [
            2.904619,
            43.550461,
            191.77
          ],
          [
            2.905109,
            43.550637,
            191.25
          ],
          [
            2.905511,
            43.550822,
            191.78
          ],
          [
            2.906597,
            43.551522,
            191.66
          ],
          [
            2.9071,
            43.551767,
            189.63
          ],
          [
            2.907655,
            43.551958,
            187.99
          ],
          [
            2.908619,
            43.552188,
            186.25
          ],
          [
            2.90931,
            43.552416,
            185.09
          ],
          [
            2.909644,
            43.552561,
            184.47
          ],
          [
            2.910045,
            43.552822,
            184.14
          ],
          [
            2.910388,
            43.5531,
            182.97
          ],
          [
            2.910634,
            43.553339,
            182.99
          ],
          [
            2.910889,
            43.553692,
            183.06
          ],
          [
            2.911343,
            43.554401,
            184.41
          ],
          [
            2.911602,
            43.554677,
            184.97
          ],
          [
            2.911605,
            43.554736,
            183.75
          ],
          [
            2.911707,
            43.554809,
            183.92
          ],
          [
            2.912297,
            43.555234,
            184.95
          ],
          [
            2.912575,
            43.555371,
            185.66
          ],
          [
            2.912831,
            43.555485,
            184.89
          ],
          [
            2.91323,
            43.555605,
            184.15
          ],
          [
            2.913594,
            43.555706,
            183.24
          ],
          [
            2.913914,
            43.555782,
            183.22
          ],
          [
            2.914099,
            43.555805,
            183.28
          ],
          [
            2.914199,
            43.55587,
            183.28
          ],
          [
            2.914987,
            43.556027,
            182.0
          ],
          [
            2.915846,
            43.556232,
            182.0
          ],
          [
            2.915973,
            43.556284,
            182.34
          ],
          [
            2.915965,
            43.556247,
            182.14
          ],
          [
            2.916243,
            43.556319,
            182.04
          ],
          [
            2.916568,
            43.556384,
            182.0
          ],
          [
            2.916817,
            43.55637,
            181.96
          ],
          [
            2.917208,
            43.556443,
            181.84
          ],
          [
            2.917714,
            43.556579,
            181.45
          ],
          [
            2.918241,
            43.556733,
            180.7
          ],
          [
            2.918493,
            43.556814,
            179.58
          ],
          [
            2.919676,
            43.55723,
            177.23
          ],
          [
            2.920629,
            43.557578,
            176.79
          ],
          [
            2.920922,
            43.557678,
            180.24
          ],
          [
            2.921217,
            43.557752,
            180.26
          ],
          [
            2.921625,
            43.557819,
            179.84
          ],
          [
            2.922012,
            43.55787,
            179.18
          ],
          [
            2.923182,
            43.557998,
            176.32
          ],
          [
            2.923899,
            43.558101,
            177.6
          ],
          [
            2.924414,
            43.558196,
            176.94
          ],
          [
            2.925806,
            43.558614,
            175.41
          ],
          [
            2.926496,
            43.558845,
            174.73
          ],
          [
            2.92713,
            43.55902,
            174.04
          ],
          [
            2.927718,
            43.559142,
            173.55
          ],
          [
            2.928513,
            43.559269,
            173.42
          ],
          [
            2.929154,
            43.559385,
            173.1
          ],
          [
            2.929697,
            43.55951,
            172.62
          ],
          [
            2.930157,
            43.559648,
            172.13
          ],
          [
            2.930845,
            43.559916,
            171.28
          ],
          [
            2.931419,
            43.56022,
            170.77
          ],
          [
            2.932436,
            43.560907,
            169.34
          ],
          [
            2.932926,
            43.561262,
            170.03
          ],
          [
            2.933001,
            43.561329,
            169.58
          ],
          [
            2.933374,
            43.561556,
            165.46
          ],
          [
            2.933826,
            43.561884,
            167.0
          ],
          [
            2.934301,
            43.562243,
            169.98
          ],
          [
            2.934562,
            43.562489,
            170.64
          ],
          [
            2.935002,
            43.562982,
            170.84
          ],
          [
            2.935505,
            43.563602,
            169.77
          ],
          [
            2.935719,
            43.563811,
            169.21
          ],
          [
            2.936045,
            43.564076,
            168.36
          ],
          [
            2.936248,
            43.5642,
            168.52
          ],
          [
            2.936323,
            43.56423,
            168.35
          ],
          [
            2.936402,
            43.564276,
            168.31
          ],
          [
            2.936701,
            43.564421,
            166.25
          ],
          [
            2.936994,
            43.564532,
            165.72
          ],
          [
            2.937428,
            43.564666,
            165.09
          ],
          [
            2.937818,
            43.564749,
            164.5
          ],
          [
            2.93788,
            43.564882,
            165.46
          ],
          [
            2.938129,
            43.564695,
            162.58
          ],
          [
            2.938221,
            43.564651,
            162.4
          ],
          [
            2.938347,
            43.56463,
            162.33
          ],
          [
            2.938449,
            43.56464,
            162.33
          ],
          [
            2.939623,
            43.564897,
            162.06
          ],
          [
            2.93982,
            43.564974,
            161.61
          ],
          [
            2.940034,
            43.565044,
            159.62
          ],
          [
            2.94057,
            43.565159,
            160.98
          ],
          [
            2.940817,
            43.565173,
            161.84
          ],
          [
            2.940989,
            43.56514,
            162.37
          ],
          [
            2.941091,
            43.565084,
            162.84
          ],
          [
            2.941179,
            43.564996,
            163.24
          ],
          [
            2.941253,
            43.564884,
            163.67
          ],
          [
            2.941309,
            43.564739,
            164.0
          ],
          [
            2.941371,
            43.56474,
            164.1
          ],
          [
            2.941436,
            43.564731,
            164.13
          ],
          [
            2.941509,
            43.564694,
            164.22
          ],
          [
            2.941792,
            43.564414,
            165.4
          ],
          [
            2.941829,
            43.564382,
            165.64
          ],
          [
            2.941866,
            43.564363,
            165.83
          ],
          [
            2.941968,
            43.564344,
            166.31
          ],
          [
            2.942041,
            43.564365,
            166.63
          ],
          [
            2.942067,
            43.564383,
            166.76
          ],
          [
            2.942102,
            43.564439,
            167.1
          ],
          [
            2.942111,
            43.564473,
            167.29
          ],
          [
            2.942112,
            43.56458,
            167.94
          ],
          [
            2.94204,
            43.565562,
            171.15
          ],
          [
            2.942019,
            43.566087,
            178.18
          ],
          [
            2.942035,
            43.566413,
            180.66
          ],
          [
            2.942148,
            43.566631,
            182.22
          ],
          [
            2.942618,
            43.567465,
            187.96
          ],
          [
            2.942747,
            43.567824,
            191.96
          ],
          [
            2.942781,
            43.567962,
            193.25
          ],
          [
            2.942825,
            43.568053,
            193.99
          ],
          [
            2.942899,
            43.568142,
            195.33
          ],
          [
            2.942972,
            43.568187,
            196.11
          ],
          [
            2.94305,
            43.568215,
            196.81
          ],
          [
            2.943736,
            43.568345,
            201.81
          ],
          [
            2.943876,
            43.568399,
            202.93
          ],
          [
            2.94392,
            43.568432,
            203.38
          ],
          [
            2.944003,
            43.568559,
            204.77
          ],
          [
            2.944003,
            43.568559,
            204.77
          ],
          [
            2.944005,
            43.56866,
            205.77
          ],
          [
            2.943981,
            43.568758,
            206.67
          ],
          [
            2.943899,
            43.568922,
            208.14
          ],
          [
            2.943758,
            43.569148,
            210.52
          ],
          [
            2.943715,
            43.569266,
            211.66
          ],
          [
            2.943751,
            43.569343,
            212.25
          ],
          [
            2.943817,
            43.569418,
            212.37
          ],
          [
            2.943923,
            43.569491,
            212.48
          ],
          [
            2.944041,
            43.569528,
            212.69
          ],
          [
            2.944161,
            43.569545,
            213.01
          ],
          [
            2.944545,
            43.569561,
            215.05
          ],
          [
            2.944684,
            43.569573,
            215.95
          ],
          [
            2.944831,
            43.569605,
            216.77
          ],
          [
            2.944922,
            43.56964,
            217.26
          ],
          [
            2.945056,
            43.569706,
            218.1
          ],
          [
            2.945289,
            43.569891,
            220.06
          ],
          [
            2.945379,
            43.569936,
            220.7
          ],
          [
            2.945483,
            43.569957,
            221.31
          ],
          [
            2.945611,
            43.569942,
            222.02
          ],
          [
            2.946078,
            43.569793,
            224.56
          ],
          [
            2.9462,
            43.569769,
            225.1
          ],
          [
            2.946311,
            43.569764,
            225.63
          ],
          [
            2.946626,
            43.569794,
            227.35
          ],
          [
            2.946771,
            43.569784,
            228.07
          ],
          [
            2.947037,
            43.569709,
            229.26
          ],
          [
            2.947157,
            43.569696,
            229.75
          ],
          [
            2.947284,
            43.569716,
            230.71
          ],
          [
            2.947427,
            43.56978,
            232.6
          ],
          [
            2.94759,
            43.56992,
            234.05
          ],
          [
            2.947906,
            43.570286,
            237.31
          ],
          [
            2.948189,
            43.57051,
            239.27
          ],
          [
            2.948278,
            43.57059,
            239.94
          ],
          [
            2.948602,
            43.571022,
            242.85
          ],
          [
            2.948669,
            43.57107,
            243.33
          ],
          [
            2.948804,
            43.571132,
            244.15
          ],
          [
            2.948878,
            43.571143,
            244.52
          ],
          [
            2.948975,
            43.571129,
            244.99
          ],
          [
            2.949057,
            43.571095,
            245.42
          ],
          [
            2.949197,
            43.571,
            246.24
          ],
          [
            2.949315,
            43.57096,
            246.76
          ],
          [
            2.94945,
            43.570944,
            247.3
          ],
          [
            2.949633,
            43.570958,
            248.28
          ],
          [
            2.950047,
            43.571015,
            250.1
          ],
          [
            2.950454,
            43.57105,
            252.08
          ],
          [
            2.950854,
            43.570979,
            249.97
          ],
          [
            2.951105,
            43.57097,
            249.16
          ],
          [
            2.951243,
            43.570991,
            248.92
          ],
          [
            2.951382,
            43.571051,
            248.75
          ],
          [
            2.951449,
            43.571132,
            248.54
          ],
          [
            2.951658,
            43.571703,
            248.49
          ],
          [
            2.951735,
            43.571782,
            248.71
          ],
          [
            2.951795,
            43.571813,
            248.84
          ],
          [
            2.951906,
            43.571804,
            249.06
          ],
          [
            2.952013,
            43.571763,
            249.32
          ],
          [
            2.952126,
            43.571677,
            249.76
          ],
          [
            2.952266,
            43.571627,
            250.12
          ],
          [
            2.952643,
            43.571576,
            251.41
          ],
          [
            2.952894,
            43.571514,
            252.53
          ],
          [
            2.953047,
            43.571491,
            254.23
          ],
          [
            2.953176,
            43.571499,
            254.79
          ],
          [
            2.953323,
            43.571546,
            255.45
          ],
          [
            2.953692,
            43.571764,
            257.18
          ],
          [
            2.953809,
            43.57181,
            257.68
          ],
          [
            2.954104,
            43.571886,
            258.18
          ],
          [
            2.954245,
            43.571944,
            258.38
          ],
          [
            2.954402,
            43.57203,
            261.13
          ],
          [
            2.954462,
            43.572044,
            262.45
          ],
          [
            2.954463,
            43.572128,
            265.63
          ],
          [
            2.954482,
            43.572178,
            266.16
          ],
          [
            2.954523,
            43.572199,
            266.57
          ],
          [
            2.954593,
            43.572204,
            267.19
          ],
          [
            2.95467,
            43.572142,
            268.03
          ],
          [
            2.954848,
            43.571957,
            269.12
          ],
          [
            2.954882,
            43.571947,
            269.7
          ],
          [
            2.954858,
            43.572204,
            274.57
          ],
          [
            2.954894,
            43.572385,
            278.28
          ],
          [
            2.954909,
            43.572628,
            283.26
          ],
          [
            2.954867,
            43.572948,
            288.97
          ],
          [
            2.954889,
            43.573069,
            291.41
          ],
          [
            2.954863,
            43.573177,
            293.75
          ],
          [
            2.954972,
            43.573186,
            295.94
          ],
          [
            2.955021,
            43.5732,
            296.87
          ],
          [
            2.955116,
            43.5732,
            298.42
          ],
          [
            2.955143,
            43.573208,
            298.94
          ],
          [
            2.955147,
            43.573227,
            299.37
          ],
          [
            2.955117,
            43.573331,
            301.38
          ],
          [
            2.955051,
            43.573375,
            301.78
          ],
          [
            2.955028,
            43.57352,
            305.25
          ],
          [
            2.955025,
            43.5736,
            307.46
          ],
          [
            2.955033,
            43.573636,
            308.67
          ],
          [
            2.955084,
            43.573651,
            310.6
          ],
          [
            2.955067,
            43.573681,
            310.93
          ],
          [
            2.955058,
            43.57375,
            312.21
          ],
          [
            2.955013,
            43.573884,
            315.21
          ],
          [
            2.95502,
            43.574023,
            318.96
          ],
          [
            2.95501,
            43.574109,
            321.29
          ],
          [
            2.955109,
            43.574417,
            331.91
          ],
          [
            2.955117,
            43.574647,
            339.0
          ],
          [
            2.955056,
            43.574757,
            342.02
          ],
          [
            2.955058,
            43.57478,
            342.89
          ],
          [
            2.955106,
            43.574801,
            344.61
          ],
          [
            2.955116,
            43.574827,
            345.65
          ],
          [
            2.955162,
            43.574859,
            347.75
          ],
          [
            2.955255,
            43.57488,
            350.58
          ],
          [
            2.955342,
            43.57491,
            353.39
          ],
          [
            2.955355,
            43.574939,
            354.6
          ],
          [
            2.955351,
            43.574969,
            355.66
          ],
          [
            2.955366,
            43.575004,
            356.7
          ],
          [
            2.955417,
            43.57503,
            358.56
          ],
          [
            2.955517,
            43.575102,
            363.4
          ],
          [
            2.955528,
            43.575217,
            367.98
          ],
          [
            2.955587,
            43.575247,
            370.43
          ],
          [
            2.955564,
            43.57534,
            372.91
          ],
          [
            2.955556,
            43.575517,
            377.61
          ]
        ]
      }
    },
    {
      "type": "Feature",
      "properties": {
        "source": "Riols__Mons.gpx",
        "type": "route"
      },
      "geometry": {
        "type": "LineString",
        "coordinates": [
          [
            2.825442,
            43.504451
          ],
          [
            2.838275,
            43.504798
          ],
          [
            2.83985,
            43.50517
          ],
          [
            2.837781,
            43.505293
          ],
          [
            2.842299,
            43.511008
          ],
          [
            2.848188,
            43.511289
          ],
          [
            2.852244,
            43.513139
          ],
          [
            2.854318,
            43.530875
          ],
          [
            2.854889,
            43.531005
          ],
          [
            2.855246,
            43.531094
          ],
          [
            2.855904,
            43.53177
          ],
          [
            2.856504,
            43.532379
          ],
          [
            2.856441,
            43.53297
          ],
          [
            2.856457,
            43.533206
          ],
          [
            2.856747,
            43.533408
          ],
          [
            2.869193,
            43.544794
          ],
          [
            2.894099,
            43.548692
          ],
          [
            2.911605,
            43.554736
          ],
          [
            2.911707,
            43.554809
          ],
          [
            2.915973,
            43.556284
          ],
          [
            2.915965,
            43.556247
          ],
          [
            2.937818,
            43.564749
          ],
          [
            2.93788,
            43.564882
          ],
          [
            2.941309,
            43.564739
          ],
          [
            2.944003,
            43.568559
          ],
          [
            2.944003,
            43.568559
          ],
          [
            2.954462,
            43.572044
          ],
          [
            2.954882,
            43.571947
          ],
          [
            2.954863,
            43.573177
          ],
          [
            2.955084,
            43.573651
          ],
          [
            2.955058,
            43.57478
          ],
          [
            2.955587,
            43.575247
          ],
          [
            2.955556,
            43.575517
          ]
        ]
      }
    }
  ]
}