{
  "type": "FeatureCollection",
  "features": [
    {
      "type": "Feature",
      "properties": {
        "name": "GraphHopper Track",
        "source": "Sentier_de_la_Négrette.gpx",
        "type": "track"
      },
      "geometry": {
        "type": "LineString",
        "coordinates": [
          [
            1.389843,
            43.84154,
            148.56
          ],
          [
            1.390003,
            43.841401,
            149.0
          ],
          [
            1.390218,
            43.841566,
            148.05
          ],
          [
            1.390321,
            43.841671,
            147.1
          ],
          [
            1.390566,
            43.842155,
            142.39
          ],
          [
            1.390707,
            43.842465,
            138.38
          ],
          [
            1.390891,
            43.842907,
            134.0
          ],
          [
            1.391182,
            43.843699,
            129.61
          ],
          [
            1.391234,
            43.843905,
            128.83
          ],
          [
            1.391224,
            43.844248,
            128.04
          ],
          [
            1.391166,
            43.844859,
            127.0
          ],
          [
            1.39119,
            43.845042,
            126.94
          ],
          [
            1.391269,
            43.845227,
            126.75
          ],
          [
            1.391462,
            43.845437,
            126.57
          ],
          [
            1.391619,
            43.845556,
            126.35
          ],
          [
            1.391802,
            43.845619,
            126.39
          ],
          [
            1.392417,
            43.845795,
            126.74
          ],
          [
            1.392815,
            43.845948,
            127.83
          ],
          [
            1.392799,
            43.846002,
            127.43
          ],
          [
            1.392719,
            43.846128,
            126.7
          ],
          [
            1.392572,
            43.84621,
            126.29
          ],
          [
            1.391791,
            43.846519,
            125.09
          ],
          [
            1.391301,
            43.84669,
            125.04
          ],
          [
            1.391419,
            43.846878,
            125.28
          ],
          [
            1.391521,
            43.847089,
            125.63
          ],
          [
            1.391489,
            43.847236,
            126.11
          ],
          [
            1.391497,
            43.847297,
            126.23
          ],
          [
            1.391576,
            43.847496,
            126.6
          ],
          [
            1.391589,
            43.847617,
            126.84
          ],
          [
            1.39158,
            43.847677,
            126.94
          ],
          [
            1.391536,
            43.847794,
            127.11
          ],
          [
            1.391487,
            43.847886,
            127.19
          ],
          [
            1.391445,
            43.847926,
            127.28
          ],
          [
            1.391388,
            43.847957,
            127.52
          ],
          [
            1.39132,
            43.847982,
            127.9
          ],
          [
            1.39111,
            43.847983,
            128.1
          ],
          [
            1.390795,
            43.848037,
            128.73
          ],
          [
            1.390678,
            43.84813,
            129.0
          ],
          [
            1.390564,
            43.848151,
            129.0
          ],
          [
            1.39041,
            43.84815,
            129.05
          ],
          [
            1.390327,
            43.848142,
            129.14
          ],
          [
            1.390255,
            43.848304,
            129.0
          ],
          [
            1.389902,
            43.848234,
            129.57
          ],
          [
            1.389902,
            43.848234,
            129.57
          ],
          [
            1.390255,
            43.848304,
            129.0
          ],
          [
            1.390327,
            43.848142,
            129.14
          ],
          [
            1.39041,
            43.84815,
            129.05
          ],
          [
            1.390564,
            43.848151,
            129.0
          ],
          [
            1.390678,
            43.84813,
            129.0
          ],
          [
            1.390795,
            43.848037,
            128.73
          ],
          [
            1.39111,
            43.847983,
            128.1
          ],
          [
            1.39132,
            43.847982,
            127.9
          ],
          [
            1.391388,
            43.847957,
            127.52
          ],
          [
            1.391445,
            43.847926,
            127.28
          ],
          [
            1.391487,
            43.847886,
            127.19
          ],
          [
            1.391536,
            43.847794,
            127.11
          ],
          [
            1.39158,
            43.847677,
            126.94
          ],
          [
            1.391589,
            43.847617,
            126.84
          ],
          [
            1.391576,
            43.847496,
            126.6
          ],
          [
            1.391497,
            43.847297,
            126.23
          ],
          [
            1.391489,
            43.847236,
            126.11
          ],
          [
            1.391521,
            43.847089,
            125.63
          ],
          [
            1.391419,
            43.846878,
            125.28
          ],
          [
            1.391301,
            43.84669,
            125.04
          ],
          [
            1.391791,
            43.846519,
            125.09
          ],
          [
            1.392572,
            43.84621,
            126.29
          ],
          [
            1.392719,
            43.846128,
            126.7
          ],
          [
            1.392799,
            43.846002,
            127.43
          ],
          [
            1.392815,
            43.845948,
            127.83
          ],
          [
            1.392417,
            43.845795,
            126.74
          ],
          [
            1.391802,
            43.845619,
            126.39
          ],
          [
            1.391619,
            43.845556,
            126.35
          ],
          [
            1.391462,
            43.845437,
            126.57
          ],
          [
            1.391269,
            43.845227,
            126.75
          ],
          [
            1.39119,
            43.845042,
            126.94
          ],
          [
            1.391166,
            43.844859,
            127.0
          ],
          [
            1.391224,
            43.844248,
            128.04
          ],
          [
            1.391234,
            43.843905,
            128.83
          ],
          [
            1.391182,
            43.843699,
            129.61
          ],
          [
            1.390891,
            43.842907,
            134.0
          ],
          [
            1.390707,
            43.842465,
            138.38
          ],
          [
            1.390566,
            43.842155,
            142.39
          ],
          [
            1.390321,
            43.841671,
            147.1
          ],
          [
            1.390218,
            43.841566,
            148.05
          ],
          [
            1.390003,
            43.841401,
            149.0
          ],
          [
            1.389843,
            43.84154,
            148.56
          ]
        ]
      }
    },
    {
      "type": "Feature",
      "properties": {
        "source": "Sentier_de_la_Négrette.gpx",
        "type": "route"
      },
      "geometry": {
        "type": "LineString",
        "coordinates": [
          [
            1.389843,
            43.84154
          ],
          [
            1.390003,
            43.841401
          ],
          [
            1.392815,
            43.845948
          ],
          [
            1.391301,
            43.84669
          ],
          [
            1.391521,
            43.847089
          ],
          [
            1.390327,
            43.848142
          ],
          [
            1.390255,
            43.848304
          ],
          [
            1.389902,
            43.848234
          ],
          [
            1.389902,
            43.848234
          ],
          [
            1.390255,
            43.848304
          ],
          [
            1.390327,
            43.848142
          ],
          [
            1.39132,
            43.847982
          ],
          [
            1.391521,
            43.847089
          ],
          [
            1.391301,
            43.84669
          ],
          [
            1.392815,
            43.845948
          ],
          [
            1.390003,
            43.841401
          ],
          [
            1.389843,
            43.84154
          ]
        ]
      }
    }
  ]
}