{
  "type": "FeatureCollection",
  "features": [
    {
      "type": "Feature",
      "properties": {
        "name": "GraphHopper Track",
        "source": "Balcons_de_lAude.gpx",
        "type": "track"
      },
      "geometry": {
        "type": "LineString",
        "coordinates": [
          [
            2.681125,
            43.19914,
            101.11
          ],
          [
            2.681726,
            43.199073,
            106.66
          ],
          [
            2.681927,
            43.199005,
            108.88
          ],
          [
            2.68212,
            43.19896,
            110.05
          ],
          [
            2.682453,
            43.198911,
            110.62
          ],
          [
            2.682783,
            43.198881,
            111.59
          ],
          [
            2.683055,
            43.198754,
            112.78
          ],
          [
            2.683045,
            43.198638,
            115.21
          ],
          [
            2.682896,
            43.198428,
            116.9
          ],
          [
            2.682678,
            43.198082,
            117.27
          ],
          [
            2.682689,
            43.197777,
            121.98
          ],
          [
            2.681991,
            43.196979,
            132.96
          ],
          [
            2.681573,
            43.19669,
            135.68
          ],
          [
            2.681281,
            43.196564,
            134.6
          ],
          [
            2.680892,
            43.196447,
            134.02
          ],
          [
            2.680326,
            43.196203,
            133.36
          ],
          [
            2.68015,
            43.196051,
            133.14
          ],
          [
            2.679962,
            43.195978,
            132.79
          ],
          [
            2.67987,
            43.195916,
            132.04
          ],
          [
            2.678995,
            43.195573,
            127.46
          ],
          [
            2.67866,
            43.195479,
            125.94
          ],
          [
            2.678137,
            43.195427,
            123.91
          ],
          [
            2.678038,
            43.195424,
            123.63
          ],
          [
            2.677846,
            43.19544,
            123.21
          ],
          [
            2.67769,
            43.195472,
            123.0
          ],
          [
            2.677422,
            43.195544,
            122.66
          ],
          [
            2.677257,
            43.195566,
            122.42
          ],
          [
            2.676757,
            43.195539,
            122.21
          ],
          [
            2.67646,
            43.195533,
            121.18
          ],
          [
            2.675941,
            43.195464,
            120.79
          ],
          [
            2.675617,
            43.195412,
            120.41
          ],
          [
            2.675071,
            43.195307,
            119.86
          ],
          [
            2.674747,
            43.195184,
            119.55
          ],
          [
            2.674343,
            43.194973,
            119.42
          ],
          [
            2.673845,
            43.194673,
            119.17
          ],
          [
            2.67341,
            43.194357,
            118.89
          ],
          [
            2.672968,
            43.193919,
            117.76
          ],
          [
            2.672243,
            43.19333,
            115.33
          ],
          [
            2.672048,
            43.193217,
            114.51
          ],
          [
            2.671338,
            43.192953,
            111.46
          ],
          [
            2.671194,
            43.192917,
            110.73
          ],
          [
            2.671113,
            43.192846,
            110.81
          ],
          [
            2.671025,
            43.192676,
            110.1
          ],
          [
            2.67097,
            43.192492,
            109.03
          ],
          [
            2.670975,
            43.192395,
            108.33
          ],
          [
            2.670955,
            43.192347,
            108.03
          ],
          [
            2.6709,
            43.192312,
            107.48
          ],
          [
            2.670653,
            43.192196,
            105.4
          ],
          [
            2.670622,
            43.192157,
            105.3
          ],
          [
            2.670615,
            43.192083,
            105.31
          ],
          [
            2.670646,
            43.191968,
            105.5
          ],
          [
            2.670638,
            43.191914,
            105.63
          ],
          [
            2.670542,
            43.191794,
            105.74
          ],
          [
            2.670516,
            43.191724,
            105.73
          ],
          [
            2.670505,
            43.191254,
            106.65
          ],
          [
            2.670567,
            43.190873,
            107.43
          ],
          [
            2.670788,
            43.190562,
            107.82
          ],
          [
            2.670885,
            43.190471,
            108.68
          ],
          [
            2.670834,
            43.190422,
            107.86
          ],
          [
            2.670819,
            43.190306,
            107.18
          ],
          [
            2.67079,
            43.190258,
            107.12
          ],
          [
            2.67069,
            43.190235,
            107.07
          ],
          [
            2.670578,
            43.190252,
            107.39
          ],
          [
            2.67038,
            43.190349,
            107.98
          ],
          [
            2.670299,
            43.190363,
            108.13
          ],
          [
            2.670228,
            43.190343,
            108.35
          ],
          [
            2.670137,
            43.190285,
            108.84
          ],
          [
            2.670073,
            43.190209,
            109.6
          ],
          [
            2.670012,
            43.190092,
            109.94
          ],
          [
            2.669949,
            43.190084,
            109.38
          ],
          [
            2.669697,
            43.190131,
            110.28
          ],
          [
            2.669543,
            43.190143,
            111.17
          ],
          [
            2.669374,
            43.190145,
            111.85
          ],
          [
            2.669226,
            43.190168,
            113.09
          ],
          [
            2.669045,
            43.190212,
            114.69
          ],
          [
            2.668886,
            43.190212,
            115.99
          ],
          [
            2.66869,
            43.190237,
            117.85
          ],
          [
            2.668629,
            43.190228,
            118.48
          ],
          [
            2.668603,
            43.190186,
            119.11
          ],
          [
            2.668627,
            43.190154,
            119.61
          ],
          [
            2.668667,
            43.190135,
            120.09
          ],
          [
            2.668684,
            43.190108,
            120.52
          ],
          [
            2.668665,
            43.190064,
            121.19
          ],
          [
            2.668616,
            43.190007,
            122.24
          ],
          [
            2.668572,
            43.18991,
            123.93
          ],
          [
            2.668405,
            43.189701,
            128.03
          ],
          [
            2.668354,
            43.189683,
            128.66
          ],
          [
            2.668295,
            43.189684,
            129.41
          ],
          [
            2.668242,
            43.189709,
            130.27
          ],
          [
            2.668183,
            43.189713,
            131.1
          ],
          [
            2.668128,
            43.189706,
            131.87
          ],
          [
            2.668092,
            43.189672,
            132.68
          ],
          [
            2.668082,
            43.189547,
            134.72
          ],
          [
            2.668088,
            43.189481,
            135.7
          ],
          [
            2.668054,
            43.189421,
            136.6
          ],
          [
            2.668004,
            43.189402,
            137.19
          ],
          [
            2.667915,
            43.18939,
            138.26
          ],
          [
            2.667851,
            43.189357,
            138.8
          ],
          [
            2.667859,
            43.189273,
            139.1
          ],
          [
            2.667948,
            43.189166,
            139.85
          ],
          [
            2.66824,
            43.18904,
            141.41
          ],
          [
            2.668535,
            43.188976,
            142.87
          ],
          [
            2.668771,
            43.188855,
            144.33
          ],
          [
            2.668814,
            43.188731,
            145.31
          ],
          [
            2.668924,
            43.188606,
            146.52
          ],
          [
            2.668924,
            43.188544,
            147.03
          ],
          [
            2.668878,
            43.188469,
            147.7
          ],
          [
            2.668881,
            43.188383,
            148.44
          ],
          [
            2.668905,
            43.188315,
            149.05
          ],
          [
            2.668881,
            43.188248,
            149.66
          ],
          [
            2.668793,
            43.188203,
            150.32
          ],
          [
            2.668769,
            43.188166,
            150.65
          ],
          [
            2.668766,
            43.187963,
            152.11
          ],
          [
            2.668803,
            43.187896,
            152.54
          ],
          [
            2.668793,
            43.187832,
            152.89
          ],
          [
            2.668894,
            43.187693,
            153.81
          ],
          [
            2.668948,
            43.187669,
            154.1
          ],
          [
            2.669101,
            43.187519,
            155.19
          ],
          [
            2.669179,
            43.187513,
            155.45
          ],
          [
            2.669233,
            43.187579,
            155.71
          ],
          [
            2.669286,
            43.187585,
            155.78
          ],
          [
            2.669334,
            43.187513,
            155.86
          ],
          [
            2.669324,
            43.187464,
            155.9
          ],
          [
            2.669173,
            43.187345,
            157.23
          ],
          [
            2.66911,
            43.187211,
            158.79
          ],
          [
            2.668867,
            43.187242,
            159.24
          ],
          [
            2.668753,
            43.187202,
            160.19
          ],
          [
            2.668685,
            43.18719,
            160.63
          ],
          [
            2.668635,
            43.187196,
            160.91
          ],
          [
            2.66859,
            43.187219,
            161.03
          ],
          [
            2.668565,
            43.187148,
            161.75
          ],
          [
            2.668565,
            43.187099,
            162.42
          ],
          [
            2.668601,
            43.18702,
            163.29
          ],
          [
            2.668702,
            43.186923,
            164.01
          ],
          [
            2.668951,
            43.186791,
            164.51
          ],
          [
            2.669386,
            43.186632,
            165.23
          ],
          [
            2.669636,
            43.186531,
            165.52
          ],
          [
            2.669754,
            43.186503,
            165.62
          ],
          [
            2.669813,
            43.18647,
            165.68
          ],
          [
            2.669883,
            43.186406,
            165.77
          ],
          [
            2.669942,
            43.186378,
            165.82
          ],
          [
            2.670012,
            43.186375,
            165.88
          ],
          [
            2.670134,
            43.186383,
            165.97
          ],
          [
            2.670723,
            43.18633,
            166.58
          ],
          [
            2.670806,
            43.18631,
            166.62
          ],
          [
            2.671055,
            43.186152,
            166.88
          ],
          [
            2.671127,
            43.186133,
            166.99
          ],
          [
            2.671366,
            43.186105,
            167.41
          ],
          [
            2.671465,
            43.18607,
            167.58
          ],
          [
            2.671571,
            43.185996,
            167.72
          ],
          [
            2.671638,
            43.185972,
            167.79
          ],
          [
            2.671949,
            43.185948,
            168.31
          ],
          [
            2.672016,
            43.185918,
            168.5
          ],
          [
            2.672103,
            43.185831,
            168.92
          ],
          [
            2.672126,
            43.185771,
            169.17
          ],
          [
            2.672153,
            43.185736,
            169.34
          ],
          [
            2.672377,
            43.185643,
            170.31
          ],
          [
            2.672806,
            43.185512,
            171.88
          ],
          [
            2.672806,
            43.185512,
            171.88
          ],
          [
            2.672377,
            43.185643,
            170.31
          ],
          [
            2.672153,
            43.185736,
            169.34
          ],
          [
            2.672126,
            43.185771,
            169.17
          ],
          [
            2.672103,
            43.185831,
            168.92
          ],
          [
            2.672016,
            43.185918,
            168.5
          ],
          [
            2.671949,
            43.185948,
            168.31
          ],
          [
            2.671638,
            43.185972,
            167.79
          ],
          [
            2.671571,
            43.185996,
            167.72
          ],
          [
            2.671465,
            43.18607,
            167.58
          ],
          [
            2.671366,
            43.186105,
            167.41
          ],
          [
            2.671127,
            43.186133,
            166.99
          ],
          [
            2.671055,
            43.186152,
            166.88
          ],
          [
            2.670806,
            43.18631,
            166.62
          ],
          [
            2.670723,
            43.18633,
            166.58
          ],
          [
            2.670134,
            43.186383,
            165.97
          ],
          [
            2.670012,
            43.186375,
            165.88
          ],
          [
            2.669942,
            43.186378,
            165.82
          ],
          [
            2.669883,
            43.186406,
            165.77
          ],
          [
            2.669813,
            43.18647,
            165.68
          ],
          [
            2.669754,
            43.186503,
            165.62
          ],
          [
            2.669636,
            43.186531,
            165.52
          ],
          [
            2.669386,
            43.186632,
            165.23
          ],
          [
            2.668951,
            43.186791,
            164.51
          ],
          [
            2.668702,
            43.186923,
            164.01
          ],
          [
            2.668601,
            43.18702,
            163.29
          ],
          [
            2.668565,
            43.187099,
            162.42
          ],
          [
            2.668565,
            43.187148,
            161.75
          ],
          [
            2.668477,
            43.187216,
            161.59
          ],
          [
            2.668438,
            43.187283,
            161.22
          ],
          [
            2.66828,
            43.187418,
            160.05
          ],
          [
            2.668173,
            43.187575,
            158.68
          ],
          [
            2.66814,
            43.187738,
            157.26
          ],
          [
            2.668079,
            43.187919,
            155.25
          ],
          [
            2.668041,
            43.187955,
            154.88
          ],
          [
            2.667965,
            43.188026,
            153.57
          ],
          [
            2.667925,
            43.188141,
            152.44
          ],
          [
            2.66791,
            43.188349,
            150.46
          ],
          [
            2.667893,
            43.188414,
            149.69
          ],
          [
            2.667859,
            43.188466,
            148.98
          ],
          [
            2.667545,
            43.188851,
            143.56
          ],
          [
            2.667467,
            43.188959,
            142.36
          ],
          [
            2.667427,
            43.189116,
            142.29
          ],
          [
            2.667427,
            43.189253,
            141.91
          ],
          [
            2.667448,
            43.189387,
            141.38
          ],
          [
            2.66748,
            43.189439,
            141.1
          ],
          [
            2.66757,
            43.18947,
            140.32
          ],
          [
            2.667665,
            43.189482,
            139.67
          ],
          [
            2.667765,
            43.189466,
            139.08
          ],
          [
            2.667915,
            43.18939,
            138.26
          ],
          [
            2.668004,
            43.189402,
            137.19
          ],
          [
            2.668054,
            43.189421,
            136.6
          ],
          [
            2.668088,
            43.189481,
            135.7
          ],
          [
            2.668082,
            43.189547,
            134.72
          ],
          [
            2.668092,
            43.189672,
            132.68
          ],
          [
            2.668128,
            43.189706,
            131.87
          ],
          [
            2.668183,
            43.189713,
            131.1
          ],
          [
            2.668242,
            43.189709,
            130.27
          ],
          [
            2.668295,
            43.189684,
            129.41
          ],
          [
            2.668354,
            43.189683,
            128.66
          ],
          [
            2.668405,
            43.189701,
            128.03
          ],
          [
            2.668572,
            43.18991,
            123.93
          ],
          [
            2.668616,
            43.190007,
            122.24
          ],
          [
            2.668665,
            43.190064,
            121.19
          ],
          [
            2.668684,
            43.190108,
            120.52
          ],
          [
            2.668667,
            43.190135,
            120.09
          ],
          [
            2.668627,
            43.190154,
            119.61
          ],
          [
            2.668603,
            43.190186,
            119.11
          ],
          [
            2.668629,
            43.190228,
            118.48
          ],
          [
            2.66869,
            43.190237,
            117.85
          ],
          [
            2.668886,
            43.190212,
            115.99
          ],
          [
            2.669045,
            43.190212,
            114.69
          ],
          [
            2.669226,
            43.190168,
            113.09
          ],
          [
            2.669374,
            43.190145,
            111.85
          ],
          [
            2.669543,
            43.190143,
            111.17
          ],
          [
            2.669697,
            43.190131,
            110.28
          ],
          [
            2.669949,
            43.190084,
            109.38
          ],
          [
            2.670012,
            43.190092,
            109.94
          ],
          [
            2.670073,
            43.190209,
            109.6
          ],
          [
            2.670137,
            43.190285,
            108.84
          ],
          [
            2.670228,
            43.190343,
            108.35
          ],
          [
            2.670299,
            43.190363,
            108.13
          ],
          [
            2.67038,
            43.190349,
            107.98
          ],
          [
            2.670578,
            43.190252,
            107.39
          ],
          [
            2.67069,
            43.190235,
            107.07
          ],
          [
            2.67079,
            43.190258,
            107.12
          ],
          [
            2.670819,
            43.190306,
            107.18
          ],
          [
            2.670834,
            43.190422,
            107.86
          ],
          [
            2.670885,
            43.190471,
            108.68
          ],
          [
            2.670788,
            43.190562,
            107.82
          ],
          [
            2.670567,
            43.190873,
            107.43
          ],
          [
            2.670505,
            43.191254,
            106.65
          ],
          [
            2.670516,
            43.191724,
            105.73
          ],
          [
            2.670542,
            43.191794,
            105.74
          ],
          [
            2.670638,
            43.191914,
            105.63
          ],
          [
            2.670646,
            43.191968,
            105.5
          ],
          [
            2.670615,
            43.192083,
            105.31
          ],
          [
            2.670622,
            43.192157,
            105.3
          ],
          [
            2.670653,
            43.192196,
            105.4
          ],
          [
            2.6709,
            43.192312,
            107.48
          ],
          [
            2.670955,
            43.192347,
            108.03
          ],
          [
            2.670975,
            43.192395,
            108.33
          ],
          [
            2.67097,
            43.192492,
            109.03
          ],
          [
            2.671025,
            43.192676,
            110.1
          ],
          [
            2.671113,
            43.192846,
            110.81
          ],
          [
            2.671194,
            43.192917,
            110.73
          ],
          [
            2.671338,
            43.192953,
            111.46
          ],
          [
            2.672048,
            43.193217,
            114.51
          ],
          [
            2.672243,
            43.19333,
            115.33
          ],
          [
            2.672968,
            43.193919,
            117.76
          ],
          [
            2.67341,
            43.194357,
            118.89
          ],
          [
            2.673845,
            43.194673,
            119.17
          ],
          [
            2.674343,
            43.194973,
            119.42
          ],
          [
            2.674747,
            43.195184,
            119.55
          ],
          [
            2.675071,
            43.195307,
            119.86
          ],
          [
            2.675617,
            43.195412,
            120.41
          ],
          [
            2.675941,
            43.195464,
            120.79
          ],
          [
            2.67646,
            43.195533,
            121.18
          ],
          [
            2.676757,
            43.195539,
            122.21
          ],
          [
            2.677257,
            43.195566,
            122.42
          ],
          [
            2.677422,
            43.195544,
            122.66
          ],
          [
            2.67769,
            43.195472,
            123.0
          ],
          [
            2.677846,
            43.19544,
            123.21
          ],
          [
            2.678038,
            43.195424,
            123.63
          ],
          [
            2.678137,
            43.195427,
            123.91
          ],
          [
            2.67866,
            43.195479,
            125.94
          ],
          [
            2.678995,
            43.195573,
            127.46
          ],
          [
            2.67987,
            43.195916,
            132.04
          ],
          [
            2.679962,
            43.195978,
            132.79
          ],
          [
            2.68015,
            43.196051,
            133.14
          ],
          [
            2.680448,
            43.196166,
            131.87
          ],
          [
            2.680808,
            43.19625,
            130.59
          ],
          [
            2.681613,
            43.19626,
            127.23
          ],
          [
            2.682206,
            43.196254,
            125.56
          ],
          [
            2.682313,
            43.196264,
            125.29
          ],
          [
            2.682478,
            43.196315,
            124.83
          ],
          [
            2.682908,
            43.196481,
            123.8
          ],
          [
            2.68316,
            43.196627,
            123.32
          ],
          [
            2.683556,
            43.196906,
            122.62
          ],
          [
            2.684026,
            43.197202,
            122.51
          ],
          [
            2.684197,
            43.197241,
            122.13
          ],
          [
            2.684262,
            43.197118,
            120.58
          ],
          [
            2.684363,
            43.197054,
            120.15
          ],
          [
            2.684517,
            43.19698,
            119.79
          ],
          [
            2.684633,
            43.196948,
            119.55
          ],
          [
            2.68487,
            43.196975,
            119.0
          ],
          [
            2.685506,
            43.197105,
            117.67
          ],
          [
            2.68551,
            43.197086,
            117.76
          ],
          [
            2.686072,
            43.197122,
            116.62
          ]
        ]
      }
    },
    {
      "type": "Feature",
      "properties": {
        "source": "Balcons_de_lAude.gpx",
        "type": "route"
      },
      "geometry": {
        "type": "LineString",
        "coordinates": [
          [
            2.681125,
            43.19914
          ],
          [
            2.681726,
            43.199073
          ],
          [
            2.682678,
            43.198082
          ],
          [
            2.67987,
            43.195916
          ],
          [
            2.67646,
            43.195533
          ],
          [
            2.671194,
            43.192917
          ],
          [
            2.670975,
            43.192395
          ],
          [
            2.670885,
            43.190471
          ],
          [
            2.669949,
            43.190084
          ],
          [
            2.667915,
            43.18939
          ],
          [
            2.66911,
            43.187211
          ],
          [
            2.66859,
            43.187219
          ],
          [
            2.672806,
            43.185512
          ],
          [
            2.672806,
            43.185512
          ],
          [
            2.668565,
            43.187148
          ],
          [
            2.668041,
            43.187955
          ],
          [
            2.66748,
            43.189439
          ],
          [
            2.667915,
            43.18939
          ],
          [
            2.669949,
            43.190084
          ],
          [
            2.670885,
            43.190471
          ],
          [
            2.67987,
            43.195916
          ],
          [
            2.68015,
            43.196051
          ],
          [
            2.684197,
            43.197241
          ],
          [
            2.685506,
            43.197105
          ],
          [
            2.68551,
            43.197086
          ],
          [
            2.686072,
            43.197122
          ]
        ]
      }
    }
  ]
}