{
  "type": "FeatureCollection",
  "features": [
    {
      "type": "Feature",
      "properties": {
        "name": "GraphHopper Track",
        "source": "Canal_de_la_Neste.gpx",
        "type": "track"
      },
      "geometry": {
        "type": "LineString",
        "coordinates": [
          [
            0.378444,
            42.960822,
            636.46
          ],
          [
            0.379288,
            42.960894,
            634.03
          ],
          [
            0.379331,
            42.96089,
            633.79
          ],
          [
            0.379356,
            42.961653,
            633.22
          ],
          [
            0.379249,
            42.961661,
            633.94
          ],
          [
            0.379206,
            42.961701,
            634.01
          ],
          [
            0.379182,
            42.961989,
            633.4
          ],
          [
            0.379225,
            42.962017,
            633.24
          ],
          [
            0.379319,
            42.962047,
            633.0
          ],
          [
            0.379299,
            42.962124,
            632.9
          ],
          [
            0.379215,
            42.962341,
            632.05
          ],
          [
            0.378804,
            42.963128,
            629.99
          ],
          [
            0.378884,
            42.963133,
            629.94
          ],
          [
            0.378902,
            42.963198,
            629.49
          ],
          [
            0.378854,
            42.963548,
            627.82
          ],
          [
            0.378768,
            42.963932,
            626.35
          ],
          [
            0.378664,
            42.964155,
            625.33
          ],
          [
            0.378452,
            42.964743,
            624.33
          ],
          [
            0.378251,
            42.965138,
            624.01
          ],
          [
            0.378049,
            42.965445,
            625.01
          ],
          [
            0.378108,
            42.965682,
            624.91
          ],
          [
            0.378084,
            42.965795,
            625.15
          ],
          [
            0.378014,
            42.965989,
            625.05
          ],
          [
            0.378027,
            42.966016,
            625.02
          ],
          [
            0.378031,
            42.966102,
            624.89
          ],
          [
            0.378007,
            42.966244,
            624.35
          ],
          [
            0.378047,
            42.966298,
            623.83
          ],
          [
            0.378042,
            42.966339,
            623.59
          ],
          [
            0.377931,
            42.966565,
            622.72
          ],
          [
            0.377896,
            42.96672,
            622.12
          ],
          [
            0.378287,
            42.96685,
            622.88
          ],
          [
            0.378315,
            42.966819,
            623.08
          ],
          [
            0.378377,
            42.966801,
            623.55
          ],
          [
            0.378461,
            42.966795,
            623.83
          ],
          [
            0.378559,
            42.9668,
            624.09
          ],
          [
            0.378743,
            42.966833,
            624.77
          ],
          [
            0.378849,
            42.966824,
            625.05
          ],
          [
            0.378966,
            42.966777,
            625.24
          ],
          [
            0.37917,
            42.966606,
            626.01
          ],
          [
            0.379241,
            42.966509,
            626.22
          ],
          [
            0.379378,
            42.966276,
            626.43
          ],
          [
            0.379783,
            42.965681,
            626.77
          ],
          [
            0.379951,
            42.965539,
            627.29
          ],
          [
            0.380178,
            42.965398,
            627.7
          ],
          [
            0.380386,
            42.965244,
            627.83
          ],
          [
            0.380639,
            42.965013,
            628.21
          ],
          [
            0.381091,
            42.964441,
            628.48
          ],
          [
            0.381192,
            42.964353,
            628.29
          ],
          [
            0.381537,
            42.964185,
            629.97
          ],
          [
            0.382009,
            42.963995,
            630.83
          ],
          [
            0.38211,
            42.963965,
            630.98
          ],
          [
            0.382279,
            42.963938,
            631.24
          ],
          [
            0.382239,
            42.963804,
            630.14
          ],
          [
            0.382094,
            42.963635,
            630.92
          ],
          [
            0.382079,
            42.963594,
            631.12
          ],
          [
            0.382068,
            42.963503,
            631.36
          ],
          [
            0.382012,
            42.963257,
            632.04
          ],
          [
            0.381947,
            42.963058,
            633.29
          ],
          [
            0.381938,
            42.962916,
            633.35
          ],
          [
            0.382192,
            42.9629,
            635.92
          ],
          [
            0.382256,
            42.96288,
            636.81
          ],
          [
            0.382356,
            42.962861,
            637.96
          ],
          [
            0.382491,
            42.962851,
            639.14
          ],
          [
            0.382651,
            42.962801,
            641.55
          ],
          [
            0.382722,
            42.962767,
            643.13
          ],
          [
            0.382943,
            42.962757,
            645.9
          ],
          [
            0.382993,
            42.962766,
            647.73
          ],
          [
            0.382991,
            42.962566,
            647.38
          ],
          [
            0.382913,
            42.962321,
            645.32
          ],
          [
            0.382301,
            42.961338,
            642.35
          ],
          [
            0.381612,
            42.960401,
            643.12
          ],
          [
            0.38144,
            42.960136,
            643.66
          ],
          [
            0.381361,
            42.959962,
            644.13
          ],
          [
            0.381317,
            42.959765,
            644.77
          ],
          [
            0.381281,
            42.959535,
            645.96
          ],
          [
            0.381229,
            42.959375,
            647.03
          ],
          [
            0.381191,
            42.959155,
            647.86
          ],
          [
            0.381257,
            42.958938,
            651.42
          ],
          [
            0.381494,
            42.958447,
            658.56
          ],
          [
            0.381649,
            42.958016,
            664.67
          ],
          [
            0.381782,
            42.957794,
            668.31
          ],
          [
            0.381879,
            42.957681,
            670.5
          ],
          [
            0.381995,
            42.957523,
            673.68
          ],
          [
            0.382059,
            42.957101,
            682.16
          ],
          [
            0.382125,
            42.956885,
            686.99
          ],
          [
            0.382247,
            42.956576,
            693.17
          ],
          [
            0.382347,
            42.956423,
            696.28
          ],
          [
            0.382405,
            42.956236,
            699.6
          ],
          [
            0.382398,
            42.95603,
            703.01
          ],
          [
            0.382411,
            42.955825,
            706.22
          ],
          [
            0.382356,
            42.95553,
            710.69
          ],
          [
            0.38232,
            42.954863,
            720.28
          ],
          [
            0.382165,
            42.954514,
            722.73
          ],
          [
            0.382092,
            42.95438,
            721.69
          ],
          [
            0.382133,
            42.954302,
            724.83
          ],
          [
            0.382129,
            42.954115,
            729.45
          ],
          [
            0.382105,
            42.953993,
            732.99
          ],
          [
            0.38216,
            42.953792,
            740.26
          ],
          [
            0.382156,
            42.953668,
            744.77
          ],
          [
            0.382184,
            42.953589,
            747.33
          ],
          [
            0.382271,
            42.953525,
            750.54
          ],
          [
            0.382617,
            42.95347,
            761.53
          ],
          [
            0.382757,
            42.953436,
            766.23
          ],
          [
            0.382882,
            42.95343,
            769.29
          ],
          [
            0.382959,
            42.95348,
            771.61
          ],
          [
            0.382999,
            42.953552,
            773.79
          ],
          [
            0.383124,
            42.953498,
            776.06
          ],
          [
            0.383269,
            42.953555,
            780.59
          ],
          [
            0.383364,
            42.9537,
            786.08
          ],
          [
            0.384148,
            42.953815,
            804.71
          ],
          [
            0.384398,
            42.953788,
            810.17
          ],
          [
            0.384603,
            42.9538,
            814.53
          ],
          [
            0.385091,
            42.954081,
            827.36
          ],
          [
            0.385771,
            42.954336,
            844.96
          ],
          [
            0.385871,
            42.954512,
            851.32
          ],
          [
            0.386024,
            42.95469,
            858.55
          ],
          [
            0.386286,
            42.954584,
            865.75
          ],
          [
            0.386279,
            42.954592,
            865.68
          ],
          [
            0.386202,
            42.954673,
            865.13
          ],
          [
            0.386024,
            42.954963,
            865.44
          ],
          [
            0.385943,
            42.955228,
            863.38
          ],
          [
            0.385843,
            42.955465,
            860.75
          ],
          [
            0.385705,
            42.955607,
            858.07
          ],
          [
            0.385705,
            42.955607,
            858.07
          ],
          [
            0.385843,
            42.955465,
            860.75
          ],
          [
            0.385943,
            42.955228,
            863.38
          ],
          [
            0.386024,
            42.954963,
            865.44
          ],
          [
            0.386202,
            42.954673,
            865.13
          ],
          [
            0.386286,
            42.954584,
            865.75
          ],
          [
            0.386024,
            42.95469,
            858.55
          ],
          [
            0.385871,
            42.954512,
            851.32
          ],
          [
            0.385771,
            42.954336,
            844.96
          ],
          [
            0.385091,
            42.954081,
            827.36
          ],
          [
            0.384603,
            42.9538,
            814.53
          ],
          [
            0.384398,
            42.953788,
            810.17
          ],
          [
            0.384148,
            42.953815,
            804.71
          ],
          [
            0.383364,
            42.9537,
            786.08
          ],
          [
            0.383269,
            42.953555,
            780.59
          ],
          [
            0.383124,
            42.953498,
            776.06
          ],
          [
            0.382999,
            42.953552,
            773.79
          ],
          [
            0.382959,
            42.95348,
            771.61
          ],
          [
            0.382882,
            42.95343,
            769.29
          ],
          [
            0.382757,
            42.953436,
            766.23
          ],
          [
            0.382617,
            42.95347,
            761.53
          ],
          [
            0.382271,
            42.953525,
            750.54
          ],
          [
            0.382184,
            42.953589,
            747.33
          ],
          [
            0.382156,
            42.953668,
            744.77
          ],
          [
            0.38216,
            42.953792,
            740.26
          ],
          [
            0.382105,
            42.953993,
            732.99
          ],
          [
            0.382129,
            42.954115,
            729.45
          ],
          [
            0.382133,
            42.954302,
            724.83
          ],
          [
            0.382092,
            42.95438,
            721.69
          ],
          [
            0.382165,
            42.954514,
            722.73
          ],
          [
            0.38232,
            42.954863,
            720.28
          ],
          [
            0.382356,
            42.95553,
            710.69
          ],
          [
            0.382411,
            42.955825,
            706.22
          ],
          [
            0.382398,
            42.95603,
            703.01
          ],
          [
            0.382405,
            42.956236,
            699.6
          ],
          [
            0.382347,
            42.956423,
            696.28
          ],
          [
            0.382247,
            42.956576,
            693.17
          ],
          [
            0.382125,
            42.956885,
            686.99
          ],
          [
            0.382059,
            42.957101,
            682.16
          ],
          [
            0.381995,
            42.957523,
            673.68
          ],
          [
            0.381879,
            42.957681,
            670.5
          ],
          [
            0.381782,
            42.957794,
            668.31
          ],
          [
            0.381649,
            42.958016,
            664.67
          ],
          [
            0.381494,
            42.958447,
            658.56
          ],
          [
            0.381257,
            42.958938,
            651.42
          ],
          [
            0.381191,
            42.959155,
            647.86
          ],
          [
            0.381229,
            42.959375,
            647.03
          ],
          [
            0.381281,
            42.959535,
            645.96
          ],
          [
            0.381317,
            42.959765,
            644.77
          ],
          [
            0.381361,
            42.959962,
            644.13
          ],
          [
            0.38144,
            42.960136,
            643.66
          ],
          [
            0.381612,
            42.960401,
            643.12
          ],
          [
            0.382301,
            42.961338,
            642.35
          ],
          [
            0.382913,
            42.962321,
            645.32
          ],
          [
            0.382991,
            42.962566,
            647.38
          ],
          [
            0.382993,
            42.962766,
            647.73
          ],
          [
            0.382943,
            42.962757,
            645.9
          ],
          [
            0.382722,
            42.962767,
            643.13
          ],
          [
            0.382651,
            42.962801,
            641.55
          ],
          [
            0.382491,
            42.962851,
            639.14
          ],
          [
            0.382356,
            42.962861,
            637.96
          ],
          [
            0.382256,
            42.96288,
            636.81
          ],
          [
            0.382192,
            42.9629,
            635.92
          ],
          [
            0.381938,
            42.962916,
            633.35
          ],
          [
            0.381947,
            42.963058,
            633.29
          ],
          [
            0.382012,
            42.963257,
            632.04
          ],
          [
            0.382068,
            42.963503,
            631.36
          ],
          [
            0.382079,
            42.963594,
            631.12
          ],
          [
            0.382094,
            42.963635,
            630.92
          ],
          [
            0.382239,
            42.963804,
            630.14
          ],
          [
            0.382279,
            42.963938,
            631.24
          ],
          [
            0.38211,
            42.963965,
            630.98
          ],
          [
            0.382009,
            42.963995,
            630.83
          ],
          [
            0.381537,
            42.964185,
            629.97
          ],
          [
            0.381192,
            42.964353,
            628.29
          ],
          [
            0.381091,
            42.964441,
            628.48
          ],
          [
            0.380639,
            42.965013,
            628.21
          ],
          [
            0.380386,
            42.965244,
            627.83
          ],
          [
            0.380178,
            42.965398,
            627.7
          ],
          [
            0.379951,
            42.965539,
            627.29
          ],
          [
            0.379783,
            42.965681,
            626.77
          ],
          [
            0.379378,
            42.966276,
            626.43
          ],
          [
            0.379241,
            42.966509,
            626.22
          ],
          [
            0.37917,
            42.966606,
            626.01
          ],
          [
            0.378966,
            42.966777,
            625.24
          ],
          [
            0.378849,
            42.966824,
            625.05
          ],
          [
            0.378743,
            42.966833,
            624.77
          ],
          [
            0.378559,
            42.9668,
            624.09
          ],
          [
            0.378461,
            42.966795,
            623.83
          ],
          [
            0.378377,
            42.966801,
            623.55
          ],
          [
            0.378315,
            42.966819,
            623.08
          ],
          [
            0.378287,
            42.96685,
            622.88
          ],
          [
            0.378263,
            42.96693,
            623.42
          ],
          [
            0.378272,
            42.966962,
            623.64
          ],
          [
            0.378429,
            42.967043,
            624.36
          ],
          [
            0.378762,
            42.967186,
            626.14
          ],
          [
            0.37894,
            42.967234,
            627.12
          ],
          [
            0.379454,
            42.967326,
            629.85
          ],
          [
            0.37942,
            42.967547,
            629.34
          ],
          [
            0.379204,
            42.968293,
            631.0
          ],
          [
            0.379077,
            42.968676,
            631.61
          ],
          [
            0.379061,
            42.968833,
            631.74
          ],
          [
            0.379117,
            42.969051,
            631.9
          ],
          [
            0.378715,
            42.970449,
            629.95
          ]
        ]
      }
    },
    {
      "type": "Feature",
      "properties": {
        "source": "Canal_de_la_Neste.gpx",
        "type": "route"
      },
      "geometry": {
        "type": "LineString",
        "coordinates": [
          [
            0.378444,
            42.960822
          ],
          [
            0.379331,
            42.96089
          ],
          [
            0.378804,
            42.963128
          ],
          [
            0.378049,
            42.965445
          ],
          [
            0.378014,
            42.965989
          ],
          [
            0.377896,
            42.96672
          ],
          [
            0.378287,
            42.96685
          ],
          [
            0.382279,
            42.963938
          ],
          [
            0.381938,
            42.962916
          ],
          [
            0.382192,
            42.9629
          ],
          [
            0.382491,
            42.962851
          ],
          [
            0.382722,
            42.962767
          ],
          [
            0.382993,
            42.962766
          ],
          [
            0.381191,
            42.959155
          ],
          [
            0.382092,
            42.95438
          ],
          [
            0.382882,
            42.95343
          ],
          [
            0.382999,
            42.953552
          ],
          [
            0.383124,
            42.953498
          ],
          [
            0.386286,
            42.954584
          ],
          [
            0.386279,
            42.954592
          ],
          [
            0.385705,
            42.955607
          ],
          [
            0.385705,
            42.955607
          ],
          [
            0.386286,
            42.954584
          ],
          [
            0.383124,
            42.953498
          ],
          [
            0.382999,
            42.953552
          ],
          [
            0.382092,
            42.95438
          ],
          [
            0.381191,
            42.959155
          ],
          [
            0.382993,
            42.962766
          ],
          [
            0.382722,
            42.962767
          ],
          [
            0.382192,
            42.9629
          ],
          [
            0.381938,
            42.962916
          ],
          [
            0.382279,
            42.963938
          ],
          [
            0.378287,
            42.96685
          ],
          [
            0.379454,
            42.967326
          ],
          [
            0.378715,
            42.970449
          ]
        ]
      }
    }
  ]
}