{
  "type": "FeatureCollection",
  "features": [
    {
      "type": "Feature",
      "properties": {
        "name": "GraphHopper Track",
        "source": "Patrimoine_et_nature.gpx",
        "type": "track"
      },
      "geometry": {
        "type": "LineString",
        "coordinates": [
          [
            0.073819,
            43.236811,
            306.0
          ],
          [
            0.074024,
            43.236815,
            306.0
          ],
          [
            0.074086,
            43.236093,
            306.89
          ],
          [
            0.074079,
            43.235768,
            307.01
          ],
          [
            0.074063,
            43.235768,
            307.02
          ],
          [
            0.074053,
            43.235663,
            307.4
          ],
          [
            0.074069,
            43.235662,
            307.35
          ],
          [
            0.073996,
            43.235224,
            307.94
          ],
          [
            0.073921,
            43.235021,
            308.03
          ],
          [
            0.073887,
            43.235002,
            308.16
          ],
          [
            0.073781,
            43.2348,
            309.0
          ],
          [
            0.073742,
            43.234678,
            309.0
          ],
          [
            0.073821,
            43.234655,
            309.0
          ],
          [
            0.07356,
            43.234077,
            309.0
          ],
          [
            0.073491,
            43.233843,
            309.0
          ],
          [
            0.073423,
            43.233854,
            309.0
          ],
          [
            0.073365,
            43.233725,
            309.16
          ],
          [
            0.073279,
            43.233702,
            309.5
          ],
          [
            0.073279,
            43.233702,
            309.5
          ],
          [
            0.073365,
            43.233725,
            309.16
          ],
          [
            0.073423,
            43.233854,
            309.0
          ],
          [
            0.073491,
            43.233843,
            309.0
          ],
          [
            0.07356,
            43.234077,
            309.0
          ],
          [
            0.073821,
            43.234655,
            309.0
          ],
          [
            0.073742,
            43.234678,
            309.0
          ],
          [
            0.073781,
            43.2348,
            309.0
          ],
          [
            0.073887,
            43.235002,
            308.16
          ],
          [
            0.073921,
            43.235021,
            308.03
          ],
          [
            0.073996,
            43.235224,
            307.94
          ],
          [
            0.074069,
            43.235662,
            307.35
          ],
          [
            0.074053,
            43.235663,
            307.4
          ],
          [
            0.074063,
            43.235768,
            307.02
          ],
          [
            0.074079,
            43.235768,
            307.01
          ],
          [
            0.074086,
            43.236093,
            306.89
          ],
          [
            0.074024,
            43.236815,
            306.0
          ],
          [
            0.073819,
            43.236811,
            306.0
          ]
        ]
      }
    },
    {
      "type": "Feature",
      "properties": {
        "source": "Patrimoine_et_nature.gpx",
        "type": "route"
      },
      "geometry": {
        "type": "LineString",
        "coordinates": [
          [
            0.073819,
            43.236811
          ],
          [
            0.074024,
            43.236815
          ],
          [
            0.074063,
            43.235768
          ],
          [
            0.074053,
            43.235663
          ],
          [
            0.073742,
            43.234678
          ],
          [
            0.073821,
            43.234655
          ],
          [
            0.073491,
            43.233843
          ],
          [
            0.073423,
            43.233854
          ],
          [
            0.073365,
            43.233725
          ],
          [
            0.073279,
            43.233702
          ],
          [
            0.073279,
            43.233702
          ],
          [
            0.073365,
            43.233725
          ],
          [
            0.073423,
            43.233854
          ],
          [
            0.073491,
            43.233843
          ],
          [
            0.073821,
            43.234655
          ],
          [
            0.073742,
            43.234678
          ],
          [
            0.074053,
            43.235663
          ],
          [
            0.074063,
            43.235768
          ],
          [
            0.074024,
            43.236815
          ],
          [
            0.073819,
            43.236811
          ]
        ]
      }
    }
  ]
}