{
  "type": "FeatureCollection",
  "features": [
    {
      "type": "Feature",
      "properties": {
        "name": "GraphHopper Track",
        "source": "Boucle_Cier-Rivière.gpx",
        "type": "track"
      },
      "geometry": {
        "type": "LineString",
        "coordinates": [
          [
            0.568466,
            43.085603,
            466.0
          ],
          [
            0.568505,
            43.085663,
            466.0
          ],
          [
            0.568753,
            43.085574,
            466.0
          ],
          [
            0.56882,
            43.085672,
            465.91
          ],
          [
            0.568927,
            43.085686,
            465.46
          ],
          [
            0.569393,
            43.085537,
            465.05
          ],
          [
            0.571364,
            43.084798,
            460.66
          ],
          [
            0.571025,
            43.084264,
            460.01
          ],
          [
            0.570933,
            43.084175,
            459.86
          ],
          [
            0.57118,
            43.084033,
            456.95
          ],
          [
            0.571406,
            43.083927,
            453.35
          ],
          [
            0.571797,
            43.083787,
            446.86
          ],
          [
            0.571969,
            43.083714,
            442.14
          ],
          [
            0.572284,
            43.083734,
            438.85
          ],
          [
            0.572585,
            43.083791,
            435.44
          ],
          [
            0.572948,
            43.084059,
            430.42
          ],
          [
            0.573166,
            43.084175,
            427.81
          ],
          [
            0.573404,
            43.084259,
            425.4
          ],
          [
            0.573609,
            43.084309,
            423.55
          ],
          [
            0.573987,
            43.084353,
            420.18
          ],
          [
            0.574072,
            43.08438,
            419.68
          ],
          [
            0.574107,
            43.084408,
            419.65
          ],
          [
            0.574233,
            43.084356,
            419.05
          ],
          [
            0.574336,
            43.084292,
            418.49
          ],
          [
            0.574418,
            43.084228,
            418.03
          ],
          [
            0.575044,
            43.083525,
            417.0
          ],
          [
            0.575118,
            43.08343,
            416.43
          ],
          [
            0.575136,
            43.083386,
            415.8
          ],
          [
            0.575225,
            43.08241,
            414.6
          ],
          [
            0.575241,
            43.082317,
            415.45
          ],
          [
            0.575265,
            43.082248,
            415.79
          ],
          [
            0.575375,
            43.082105,
            415.15
          ],
          [
            0.57558,
            43.081938,
            414.88
          ],
          [
            0.577616,
            43.080712,
            413.37
          ],
          [
            0.578602,
            43.080134,
            413.85
          ],
          [
            0.578776,
            43.080008,
            413.88
          ],
          [
            0.579162,
            43.079774,
            414.02
          ],
          [
            0.579282,
            43.079715,
            414.05
          ],
          [
            0.580519,
            43.07899,
            415.53
          ],
          [
            0.580711,
            43.078836,
            415.71
          ],
          [
            0.580994,
            43.078673,
            415.92
          ],
          [
            0.581149,
            43.078607,
            416.05
          ],
          [
            0.581523,
            43.078376,
            416.47
          ],
          [
            0.581861,
            43.078145,
            417.1
          ],
          [
            0.582205,
            43.077966,
            417.91
          ],
          [
            0.582718,
            43.077639,
            419.7
          ],
          [
            0.582976,
            43.077498,
            422.03
          ],
          [
            0.583032,
            43.077476,
            422.31
          ],
          [
            0.583102,
            43.077456,
            422.62
          ],
          [
            0.583692,
            43.077361,
            425.0
          ],
          [
            0.583703,
            43.077392,
            425.0
          ],
          [
            0.583739,
            43.077432,
            425.06
          ],
          [
            0.583788,
            43.077458,
            425.16
          ],
          [
            0.584286,
            43.077652,
            425.51
          ],
          [
            0.584395,
            43.077715,
            425.41
          ],
          [
            0.584546,
            43.077821,
            425.43
          ],
          [
            0.584621,
            43.077876,
            425.36
          ],
          [
            0.584698,
            43.077919,
            425.05
          ],
          [
            0.584769,
            43.077935,
            424.77
          ],
          [
            0.584885,
            43.077938,
            424.54
          ],
          [
            0.584986,
            43.077911,
            424.45
          ],
          [
            0.585677,
            43.077611,
            424.36
          ],
          [
            0.585906,
            43.077528,
            424.49
          ],
          [
            0.586688,
            43.077303,
            424.43
          ],
          [
            0.58681,
            43.077283,
            424.37
          ],
          [
            0.588474,
            43.077219,
            424.21
          ],
          [
            0.588821,
            43.077243,
            424.55
          ],
          [
            0.589047,
            43.077281,
            424.99
          ],
          [
            0.590944,
            43.077686,
            422.06
          ],
          [
            0.591308,
            43.077902,
            421.99
          ],
          [
            0.592552,
            43.078466,
            421.54
          ],
          [
            0.592921,
            43.078568,
            421.84
          ],
          [
            0.593237,
            43.078616,
            421.88
          ],
          [
            0.593735,
            43.078622,
            424.04
          ],
          [
            0.594168,
            43.078852,
            423.01
          ],
          [
            0.59431,
            43.078891,
            423.47
          ],
          [
            0.594458,
            43.07892,
            423.88
          ],
          [
            0.594588,
            43.078922,
            424.0
          ],
          [
            0.594683,
            43.078901,
            424.16
          ],
          [
            0.594774,
            43.078858,
            424.54
          ],
          [
            0.595023,
            43.078629,
            425.87
          ],
          [
            0.595109,
            43.078602,
            426.24
          ],
          [
            0.595174,
            43.078597,
            426.28
          ],
          [
            0.59529,
            43.078623,
            426.41
          ],
          [
            0.595352,
            43.07866,
            426.35
          ],
          [
            0.595404,
            43.078713,
            426.23
          ],
          [
            0.59546,
            43.07886,
            425.58
          ],
          [
            0.595517,
            43.078933,
            425.27
          ],
          [
            0.595579,
            43.078975,
            425.02
          ],
          [
            0.595784,
            43.079033,
            424.11
          ],
          [
            0.59594,
            43.079064,
            423.19
          ],
          [
            0.596178,
            43.079094,
            421.86
          ],
          [
            0.596866,
            43.079136,
            420.74
          ],
          [
            0.59725,
            43.079151,
            420.74
          ],
          [
            0.597523,
            43.079154,
            421.6
          ],
          [
            0.597569,
            43.079101,
            422.37
          ],
          [
            0.598774,
            43.07798,
            425.0
          ],
          [
            0.599096,
            43.077838,
            424.74
          ],
          [
            0.599874,
            43.077265,
            423.39
          ],
          [
            0.600241,
            43.07705,
            423.13
          ],
          [
            0.600617,
            43.076772,
            423.19
          ],
          [
            0.601252,
            43.076028,
            424.0
          ],
          [
            0.601401,
            43.07589,
            423.85
          ],
          [
            0.601552,
            43.075965,
            423.92
          ],
          [
            0.605271,
            43.076445,
            421.85
          ],
          [
            0.605271,
            43.076445,
            421.85
          ],
          [
            0.601552,
            43.075965,
            423.92
          ],
          [
            0.601401,
            43.07589,
            423.85
          ],
          [
            0.601481,
            43.075824,
            423.2
          ],
          [
            0.601983,
            43.075491,
            423.04
          ],
          [
            0.602118,
            43.07539,
            423.05
          ],
          [
            0.602408,
            43.075134,
            423.02
          ],
          [
            0.604505,
            43.072962,
            422.97
          ],
          [
            0.604889,
            43.072548,
            422.71
          ],
          [
            0.605251,
            43.072109,
            422.0
          ],
          [
            0.605936,
            43.071643,
            421.42
          ],
          [
            0.606409,
            43.071087,
            422.0
          ],
          [
            0.606711,
            43.07081,
            423.0
          ],
          [
            0.606923,
            43.070628,
            423.87
          ],
          [
            0.607222,
            43.070452,
            424.67
          ],
          [
            0.607564,
            43.070317,
            425.59
          ],
          [
            0.609365,
            43.069706,
            426.86
          ],
          [
            0.611344,
            43.069047,
            423.9
          ],
          [
            0.611648,
            43.06893,
            423.03
          ],
          [
            0.611935,
            43.068804,
            422.63
          ],
          [
            0.612728,
            43.068363,
            422.33
          ],
          [
            0.61306,
            43.068155,
            423.0
          ],
          [
            0.61434,
            43.067409,
            421.47
          ],
          [
            0.614644,
            43.067304,
            421.3
          ],
          [
            0.615312,
            43.067203,
            421.12
          ],
          [
            0.616983,
            43.066895,
            420.68
          ],
          [
            0.617633,
            43.066752,
            420.32
          ],
          [
            0.618303,
            43.066634,
            420.0
          ],
          [
            0.618432,
            43.066595,
            420.0
          ],
          [
            0.618555,
            43.066548,
            420.0
          ],
          [
            0.618718,
            43.066467,
            420.0
          ],
          [
            0.618854,
            43.066349,
            420.0
          ],
          [
            0.618984,
            43.06626,
            420.0
          ],
          [
            0.619176,
            43.066177,
            420.0
          ],
          [
            0.619364,
            43.066125,
            420.0
          ],
          [
            0.619614,
            43.066093,
            420.0
          ],
          [
            0.621301,
            43.065944,
            419.68
          ],
          [
            0.62223,
            43.06591,
            419.21
          ],
          [
            0.622653,
            43.065871,
            419.04
          ],
          [
            0.623041,
            43.065817,
            418.94
          ],
          [
            0.62334,
            43.065754,
            418.92
          ],
          [
            0.623757,
            43.06565,
            418.9
          ],
          [
            0.624202,
            43.065523,
            418.95
          ],
          [
            0.624391,
            43.065454,
            419.0
          ],
          [
            0.624572,
            43.065347,
            419.0
          ],
          [
            0.624992,
            43.065059,
            419.0
          ],
          [
            0.625194,
            43.064948,
            419.45
          ],
          [
            0.625393,
            43.06487,
            419.96
          ],
          [
            0.625556,
            43.064828,
            420.3
          ],
          [
            0.625817,
            43.064788,
            420.76
          ],
          [
            0.62601,
            43.064779,
            421.15
          ],
          [
            0.626099,
            43.064706,
            422.72
          ],
          [
            0.626526,
            43.06464,
            425.47
          ],
          [
            0.627301,
            43.064477,
            430.65
          ],
          [
            0.627817,
            43.064354,
            434.4
          ],
          [
            0.628168,
            43.064161,
            438.49
          ]
        ]
      }
    },
    {
      "type": "Feature",
      "properties": {
        "source": "Boucle_Cier-Rivière.gpx",
        "type": "route"
      },
      "geometry": {
        "type": "LineString",
        "coordinates": [
          [
            0.568466,
            43.085603
          ],
          [
            0.568505,
            43.085663
          ],
          [
            0.568753,
            43.085574
          ],
          [
            0.56882,
            43.085672
          ],
          [
            0.571025,
            43.084264
          ],
          [
            0.570933,
            43.084175
          ],
          [
            0.571969,
            43.083714
          ],
          [
            0.574107,
            43.084408
          ],
          [
            0.583692,
            43.077361
          ],
          [
            0.584546,
            43.077821
          ],
          [
            0.593735,
            43.078622
          ],
          [
            0.597523,
            43.079154
          ],
          [
            0.601401,
            43.07589
          ],
          [
            0.605271,
            43.076445
          ],
          [
            0.605271,
            43.076445
          ],
          [
            0.601401,
            43.07589
          ],
          [
            0.605251,
            43.072109
          ],
          [
            0.62601,
            43.064779
          ],
          [
            0.627817,
            43.064354
          ],
          [
            0.628168,
            43.064161
          ]
        ]
      }
    }
  ]
}