{
  "type": "FeatureCollection",
  "features": [
    {
      "type": "Feature",
      "properties": {
        "name": "GraphHopper Track",
        "source": "Cap_de_Pouy.gpx",
        "type": "track"
      },
      "geometry": {
        "type": "LineString",
        "coordinates": [
          [
            0.646086,
            43.080731,
            401.7
          ],
          [
            0.64695,
            43.081032,
            400.93
          ],
          [
            0.647215,
            43.081147,
            400.72
          ],
          [
            0.648328,
            43.081514,
            400.14
          ],
          [
            0.648952,
            43.081732,
            399.99
          ],
          [
            0.6494,
            43.08191,
            400.0
          ],
          [
            0.649443,
            43.081867,
            400.0
          ],
          [
            0.649472,
            43.081806,
            399.99
          ],
          [
            0.649642,
            43.081826,
            399.86
          ],
          [
            0.650033,
            43.082,
            399.0
          ],
          [
            0.650155,
            43.08191,
            399.0
          ],
          [
            0.65067,
            43.080974,
            399.0
          ],
          [
            0.65072,
            43.080905,
            399.0
          ],
          [
            0.651212,
            43.08055,
            399.01
          ],
          [
            0.651995,
            43.079871,
            399.05
          ],
          [
            0.652805,
            43.079252,
            399.0
          ],
          [
            0.653383,
            43.078766,
            399.0
          ],
          [
            0.653935,
            43.078371,
            399.0
          ],
          [
            0.656035,
            43.076958,
            400.46
          ],
          [
            0.656319,
            43.076715,
            401.47
          ],
          [
            0.656428,
            43.07657,
            402.01
          ],
          [
            0.656461,
            43.076432,
            402.46
          ],
          [
            0.656392,
            43.075726,
            404.19
          ],
          [
            0.656401,
            43.075678,
            404.33
          ],
          [
            0.655766,
            43.075549,
            404.78
          ],
          [
            0.655509,
            43.075481,
            404.67
          ],
          [
            0.655509,
            43.075481,
            404.67
          ],
          [
            0.655766,
            43.075549,
            404.78
          ],
          [
            0.656401,
            43.075678,
            404.33
          ],
          [
            0.656392,
            43.075726,
            404.19
          ],
          [
            0.656461,
            43.076432,
            402.46
          ],
          [
            0.656428,
            43.07657,
            402.01
          ],
          [
            0.656319,
            43.076715,
            401.47
          ],
          [
            0.656035,
            43.076958,
            400.46
          ],
          [
            0.653935,
            43.078371,
            399.0
          ],
          [
            0.653383,
            43.078766,
            399.0
          ],
          [
            0.652805,
            43.079252,
            399.0
          ],
          [
            0.651995,
            43.079871,
            399.05
          ],
          [
            0.651212,
            43.08055,
            399.01
          ],
          [
            0.65072,
            43.080905,
            399.0
          ],
          [
            0.65067,
            43.080974,
            399.0
          ],
          [
            0.650155,
            43.08191,
            399.0
          ],
          [
            0.650033,
            43.082,
            399.0
          ],
          [
            0.649642,
            43.081826,
            399.86
          ],
          [
            0.649472,
            43.081806,
            399.99
          ],
          [
            0.649443,
            43.081867,
            400.0
          ],
          [
            0.6494,
            43.08191,
            400.0
          ],
          [
            0.648952,
            43.081732,
            399.99
          ],
          [
            0.648328,
            43.081514,
            400.14
          ],
          [
            0.647215,
            43.081147,
            400.72
          ],
          [
            0.64695,
            43.081032,
            400.93
          ],
          [
            0.646086,
            43.080731,
            401.7
          ]
        ]
      }
    },
    {
      "type": "Feature",
      "properties": {
        "source": "Cap_de_Pouy.gpx",
        "type": "route"
      },
      "geometry": {
        "type": "LineString",
        "coordinates": [
          [
            0.646086,
            43.080731
          ],
          [
            0.6494,
            43.08191
          ],
          [
            0.649472,
            43.081806
          ],
          [
            0.650033,
            43.082
          ],
          [
            0.656401,
            43.075678
          ],
          [
            0.655509,
            43.075481
          ],
          [
            0.655509,
            43.075481
          ],
          [
            0.656401,
            43.075678
          ],
          [
            0.650033,
            43.082
          ],
          [
            0.649472,
            43.081806
          ],
          [
            0.6494,
            43.08191
          ],
          [
            0.646086,
            43.080731
          ]
        ]
      }
    }
  ]
}