{
  "type": "FeatureCollection",
  "features": [
    {
      "type": "Feature",
      "properties": {
        "name": "GraphHopper Track",
        "source": "Tour_Frontignes.gpx",
        "type": "track"
      },
      "geometry": {
        "type": "LineString",
        "coordinates": [
          [
            0.670097,
            42.98495,
            602.82
          ],
          [
            0.669959,
            42.984865,
            602.71
          ],
          [
            0.669979,
            42.98472,
            602.6
          ],
          [
            0.66961,
            42.984449,
            602.14
          ],
          [
            0.669435,
            42.984451,
            601.24
          ],
          [
            0.66897,
            42.98437,
            599.47
          ],
          [
            0.668586,
            42.984205,
            597.71
          ],
          [
            0.66841,
            42.984091,
            596.33
          ],
          [
            0.667981,
            42.984128,
            591.2
          ],
          [
            0.668032,
            42.983888,
            588.93
          ],
          [
            0.667937,
            42.983681,
            585.4
          ],
          [
            0.667637,
            42.983384,
            580.72
          ],
          [
            0.667675,
            42.983011,
            578.36
          ],
          [
            0.667635,
            42.982889,
            577.84
          ],
          [
            0.667219,
            42.982458,
            576.97
          ],
          [
            0.666915,
            42.982086,
            576.39
          ],
          [
            0.66678,
            42.981713,
            575.74
          ],
          [
            0.666864,
            42.981401,
            576.02
          ],
          [
            0.666799,
            42.981347,
            575.6
          ],
          [
            0.666765,
            42.981338,
            575.24
          ],
          [
            0.666715,
            42.981295,
            574.85
          ],
          [
            0.666202,
            42.980821,
            574.89
          ],
          [
            0.666192,
            42.980726,
            575.41
          ],
          [
            0.666106,
            42.980683,
            575.25
          ],
          [
            0.666115,
            42.980641,
            575.63
          ],
          [
            0.665946,
            42.980027,
            580.54
          ],
          [
            0.665849,
            42.979816,
            581.83
          ],
          [
            0.665777,
            42.97958,
            583.92
          ],
          [
            0.665773,
            42.979323,
            585.65
          ],
          [
            0.66581,
            42.979143,
            586.84
          ],
          [
            0.665941,
            42.978836,
            588.75
          ],
          [
            0.666095,
            42.978672,
            589.74
          ],
          [
            0.666222,
            42.978586,
            590.32
          ],
          [
            0.666272,
            42.978484,
            590.8
          ],
          [
            0.66628,
            42.978132,
            592.29
          ],
          [
            0.666252,
            42.978037,
            592.66
          ],
          [
            0.666198,
            42.977985,
            592.88
          ],
          [
            0.665898,
            42.977773,
            593.65
          ],
          [
            0.665737,
            42.977621,
            595.08
          ],
          [
            0.665601,
            42.977439,
            595.7
          ],
          [
            0.665371,
            42.97717,
            595.86
          ],
          [
            0.664911,
            42.976766,
            595.75
          ],
          [
            0.664611,
            42.97646,
            596.04
          ],
          [
            0.664687,
            42.976426,
            596.15
          ],
          [
            0.664658,
            42.976389,
            596.33
          ],
          [
            0.664864,
            42.976079,
            596.47
          ],
          [
            0.664947,
            42.975876,
            596.45
          ],
          [
            0.665178,
            42.975475,
            596.16
          ],
          [
            0.665333,
            42.975239,
            596.42
          ],
          [
            0.665525,
            42.974879,
            596.61
          ],
          [
            0.665943,
            42.974281,
            594.8
          ],
          [
            0.665943,
            42.974281,
            594.8
          ],
          [
            0.665525,
            42.974879,
            596.61
          ],
          [
            0.665333,
            42.975239,
            596.42
          ],
          [
            0.665178,
            42.975475,
            596.16
          ],
          [
            0.664947,
            42.975876,
            596.45
          ],
          [
            0.664864,
            42.976079,
            596.47
          ],
          [
            0.664658,
            42.976389,
            596.33
          ],
          [
            0.664687,
            42.976426,
            596.15
          ],
          [
            0.664611,
            42.97646,
            596.04
          ],
          [
            0.664911,
            42.976766,
            595.75
          ],
          [
            0.665371,
            42.97717,
            595.86
          ],
          [
            0.665601,
            42.977439,
            595.7
          ],
          [
            0.665737,
            42.977621,
            595.08
          ],
          [
            0.665898,
            42.977773,
            593.65
          ],
          [
            0.666198,
            42.977985,
            592.88
          ],
          [
            0.666252,
            42.978037,
            592.66
          ],
          [
            0.66628,
            42.978132,
            592.29
          ],
          [
            0.666272,
            42.978484,
            590.8
          ],
          [
            0.666222,
            42.978586,
            590.32
          ],
          [
            0.666095,
            42.978672,
            589.74
          ],
          [
            0.665941,
            42.978836,
            588.75
          ],
          [
            0.66581,
            42.979143,
            586.84
          ],
          [
            0.665773,
            42.979323,
            585.65
          ],
          [
            0.665777,
            42.97958,
            583.92
          ],
          [
            0.665849,
            42.979816,
            581.83
          ],
          [
            0.665946,
            42.980027,
            580.54
          ],
          [
            0.666115,
            42.980641,
            575.63
          ],
          [
            0.666106,
            42.980683,
            575.25
          ],
          [
            0.666192,
            42.980726,
            575.41
          ],
          [
            0.666202,
            42.980821,
            574.89
          ],
          [
            0.666715,
            42.981295,
            574.85
          ],
          [
            0.666765,
            42.981338,
            575.24
          ],
          [
            0.666799,
            42.981347,
            575.6
          ],
          [
            0.666864,
            42.981401,
            576.02
          ],
          [
            0.66678,
            42.981713,
            575.74
          ],
          [
            0.666915,
            42.982086,
            576.39
          ],
          [
            0.667219,
            42.982458,
            576.97
          ],
          [
            0.667635,
            42.982889,
            577.84
          ],
          [
            0.667675,
            42.983011,
            578.36
          ],
          [
            0.667637,
            42.983384,
            580.72
          ],
          [
            0.667937,
            42.983681,
            585.4
          ],
          [
            0.668032,
            42.983888,
            588.93
          ],
          [
            0.667981,
            42.984128,
            591.2
          ],
          [
            0.66841,
            42.984091,
            596.33
          ],
          [
            0.668586,
            42.984205,
            597.71
          ],
          [
            0.66897,
            42.98437,
            599.47
          ],
          [
            0.669435,
            42.984451,
            601.24
          ],
          [
            0.66961,
            42.984449,
            602.14
          ],
          [
            0.669979,
            42.98472,
            602.6
          ],
          [
            0.669959,
            42.984865,
            602.71
          ],
          [
            0.670097,
            42.98495,
            602.82
          ]
        ]
      }
    },
    {
      "type": "Feature",
      "properties": {
        "source": "Tour_Frontignes.gpx",
        "type": "route"
      },
      "geometry": {
        "type": "LineString",
        "coordinates": [
          [
            0.670097,
            42.98495
          ],
          [
            0.66961,
            42.984449
          ],
          [
            0.66841,
            42.984091
          ],
          [
            0.667981,
            42.984128
          ],
          [
            0.668032,
            42.983888
          ],
          [
            0.666192,
            42.980726
          ],
          [
            0.666106,
            42.980683
          ],
          [
            0.664611,
            42.97646
          ],
          [
            0.664687,
            42.976426
          ],
          [
            0.665943,
            42.974281
          ],
          [
            0.665943,
            42.974281
          ],
          [
            0.664687,
            42.976426
          ],
          [
            0.664611,
            42.97646
          ],
          [
            0.666106,
            42.980683
          ],
          [
            0.666192,
            42.980726
          ],
          [
            0.666799,
            42.981347
          ],
          [
            0.668032,
            42.983888
          ],
          [
            0.667981,
            42.984128
          ],
          [
            0.66841,
            42.984091
          ],
          [
            0.66961,
            42.984449
          ],
          [
            0.670097,
            42.98495
          ]
        ]
      }
    }
  ]
}