{
  "type": "FeatureCollection",
  "features": [
    {
      "type": "Feature",
      "properties": {
        "name": "GraphHopper Track",
        "source": "Forêt_de_Corbières.gpx",
        "type": "track"
      },
      "geometry": {
        "type": "LineString",
        "coordinates": [
          [
            2.557733,
            43.129494,
            198.39
          ],
          [
            2.557635,
            43.129733,
            199.49
          ],
          [
            2.55834,
            43.130092,
            200.28
          ],
          [
            2.559006,
            43.129841,
            196.0
          ],
          [
            2.559352,
            43.130181,
            195.81
          ],
          [
            2.559794,
            43.130549,
            194.96
          ],
          [
            2.560356,
            43.130914,
            193.98
          ],
          [
            2.560853,
            43.130796,
            193.19
          ],
          [
            2.561641,
            43.130597,
            192.41
          ],
          [
            2.562286,
            43.130483,
            192.02
          ],
          [
            2.562601,
            43.130391,
            191.84
          ],
          [
            2.56281,
            43.130351,
            191.49
          ],
          [
            2.563118,
            43.130335,
            191.23
          ],
          [
            2.563415,
            43.130381,
            190.89
          ],
          [
            2.563668,
            43.130464,
            190.66
          ],
          [
            2.563941,
            43.130609,
            190.26
          ],
          [
            2.564471,
            43.131002,
            190.12
          ],
          [
            2.56522,
            43.131539,
            190.0
          ],
          [
            2.565431,
            43.131648,
            190.0
          ],
          [
            2.565754,
            43.131705,
            189.97
          ],
          [
            2.566088,
            43.131812,
            189.94
          ],
          [
            2.566374,
            43.131855,
            189.89
          ],
          [
            2.566717,
            43.131875,
            189.55
          ],
          [
            2.56694,
            43.131901,
            189.45
          ],
          [
            2.567115,
            43.131975,
            189.26
          ],
          [
            2.567467,
            43.132244,
            189.09
          ],
          [
            2.567668,
            43.132379,
            188.94
          ],
          [
            2.567787,
            43.132444,
            188.87
          ],
          [
            2.567938,
            43.132491,
            188.79
          ],
          [
            2.568973,
            43.132717,
            188.21
          ],
          [
            2.570282,
            43.133036,
            187.62
          ],
          [
            2.570498,
            43.133059,
            187.51
          ],
          [
            2.570679,
            43.133046,
            187.43
          ],
          [
            2.57147,
            43.132917,
            187.32
          ],
          [
            2.571763,
            43.132828,
            187.28
          ],
          [
            2.571933,
            43.132791,
            187.29
          ],
          [
            2.57209,
            43.132787,
            187.32
          ],
          [
            2.572403,
            43.132884,
            187.48
          ],
          [
            2.573134,
            43.133168,
            188.31
          ],
          [
            2.574068,
            43.133621,
            191.05
          ],
          [
            2.574186,
            43.133655,
            191.39
          ],
          [
            2.57431,
            43.133666,
            191.7
          ],
          [
            2.575101,
            43.13362,
            192.97
          ],
          [
            2.57576,
            43.133552,
            192.93
          ],
          [
            2.576509,
            43.133516,
            191.9
          ],
          [
            2.577396,
            43.133561,
            191.51
          ],
          [
            2.577705,
            43.133549,
            191.53
          ],
          [
            2.579518,
            43.133268,
            191.37
          ],
          [
            2.580717,
            43.133109,
            188.19
          ],
          [
            2.580968,
            43.133096,
            187.58
          ],
          [
            2.581225,
            43.1331,
            187.03
          ],
          [
            2.582568,
            43.13316,
            184.52
          ],
          [
            2.584756,
            43.133271,
            181.75
          ],
          [
            2.585502,
            43.133291,
            181.0
          ],
          [
            2.585502,
            43.133376,
            181.46
          ],
          [
            2.585814,
            43.13368,
            182.93
          ],
          [
            2.585781,
            43.133913,
            184.65
          ],
          [
            2.585789,
            43.134079,
            185.56
          ],
          [
            2.585841,
            43.134276,
            186.48
          ],
          [
            2.585833,
            43.134313,
            186.65
          ],
          [
            2.585801,
            43.134346,
            186.8
          ],
          [
            2.585451,
            43.134444,
            186.94
          ],
          [
            2.585451,
            43.134444,
            186.94
          ],
          [
            2.585801,
            43.134346,
            186.8
          ],
          [
            2.585833,
            43.134313,
            186.65
          ],
          [
            2.585841,
            43.134276,
            186.48
          ],
          [
            2.585789,
            43.134079,
            185.56
          ],
          [
            2.585781,
            43.133913,
            184.65
          ],
          [
            2.585814,
            43.13368,
            182.93
          ],
          [
            2.585502,
            43.133376,
            181.46
          ],
          [
            2.585502,
            43.133291,
            181.0
          ],
          [
            2.584756,
            43.133271,
            181.75
          ],
          [
            2.582568,
            43.13316,
            184.52
          ],
          [
            2.581225,
            43.1331,
            187.03
          ],
          [
            2.580968,
            43.133096,
            187.58
          ],
          [
            2.580717,
            43.133109,
            188.19
          ],
          [
            2.579518,
            43.133268,
            191.37
          ],
          [
            2.577705,
            43.133549,
            191.53
          ],
          [
            2.577396,
            43.133561,
            191.51
          ],
          [
            2.576509,
            43.133516,
            191.9
          ],
          [
            2.57576,
            43.133552,
            192.93
          ],
          [
            2.575101,
            43.13362,
            192.97
          ],
          [
            2.57431,
            43.133666,
            191.7
          ],
          [
            2.574186,
            43.133655,
            191.39
          ],
          [
            2.574068,
            43.133621,
            191.05
          ],
          [
            2.573134,
            43.133168,
            188.31
          ],
          [
            2.572403,
            43.132884,
            187.48
          ],
          [
            2.57209,
            43.132787,
            187.32
          ],
          [
            2.571933,
            43.132791,
            187.29
          ],
          [
            2.571763,
            43.132828,
            187.28
          ],
          [
            2.57147,
            43.132917,
            187.32
          ],
          [
            2.570679,
            43.133046,
            187.43
          ],
          [
            2.570498,
            43.133059,
            187.51
          ],
          [
            2.570282,
            43.133036,
            187.62
          ],
          [
            2.568973,
            43.132717,
            188.21
          ],
          [
            2.567938,
            43.132491,
            188.79
          ],
          [
            2.567787,
            43.132444,
            188.87
          ],
          [
            2.567668,
            43.132379,
            188.94
          ],
          [
            2.567467,
            43.132244,
            189.09
          ],
          [
            2.567115,
            43.131975,
            189.26
          ],
          [
            2.56694,
            43.131901,
            189.45
          ],
          [
            2.566717,
            43.131875,
            189.55
          ],
          [
            2.566374,
            43.131855,
            189.89
          ],
          [
            2.566088,
            43.131812,
            189.94
          ],
          [
            2.565754,
            43.131705,
            189.97
          ],
          [
            2.565431,
            43.131648,
            190.0
          ],
          [
            2.56522,
            43.131539,
            190.0
          ],
          [
            2.564471,
            43.131002,
            190.12
          ],
          [
            2.563941,
            43.130609,
            190.26
          ],
          [
            2.563668,
            43.130464,
            190.66
          ],
          [
            2.563415,
            43.130381,
            190.89
          ],
          [
            2.563118,
            43.130335,
            191.23
          ],
          [
            2.56281,
            43.130351,
            191.49
          ],
          [
            2.562601,
            43.130391,
            191.84
          ],
          [
            2.562286,
            43.130483,
            192.02
          ],
          [
            2.561641,
            43.130597,
            192.41
          ],
          [
            2.560853,
            43.130796,
            193.19
          ],
          [
            2.560356,
            43.130914,
            193.98
          ],
          [
            2.559794,
            43.130549,
            194.96
          ],
          [
            2.559352,
            43.130181,
            195.81
          ],
          [
            2.559006,
            43.129841,
            196.0
          ],
          [
            2.558895,
            43.129688,
            196.0
          ],
          [
            2.558812,
            43.129601,
            196.0
          ],
          [
            2.558367,
            43.12978,
            197.33
          ],
          [
            2.558282,
            43.129717,
            197.64
          ],
          [
            2.558239,
            43.129756,
            197.79
          ],
          [
            2.558043,
            43.129625,
            198.26
          ],
          [
            2.558012,
            43.129639,
            198.45
          ],
          [
            2.557807,
            43.129821,
            200.32
          ],
          [
            2.557635,
            43.129733,
            199.49
          ],
          [
            2.557733,
            43.129494,
            198.39
          ]
        ]
      }
    },
    {
      "type": "Feature",
      "properties": {
        "source": "Forêt_de_Corbières.gpx",
        "type": "route"
      },
      "geometry": {
        "type": "LineString",
        "coordinates": [
          [
            2.557733,
            43.129494
          ],
          [
            2.557635,
            43.129733
          ],
          [
            2.559006,
            43.129841
          ],
          [
            2.560356,
            43.130914
          ],
          [
            2.585502,
            43.133291
          ],
          [
            2.585814,
            43.13368
          ],
          [
            2.585451,
            43.134444
          ],
          [
            2.585451,
            43.134444
          ],
          [
            2.585814,
            43.13368
          ],
          [
            2.585502,
            43.133291
          ],
          [
            2.560356,
            43.130914
          ],
          [
            2.558812,
            43.129601
          ],
          [
            2.558043,
            43.129625
          ],
          [
            2.557807,
            43.129821
          ],
          [
            2.557635,
            43.129733
          ],
          [
            2.557733,
            43.129494
          ]
        ]
      }
    }
  ]
}