{
  "type": "FeatureCollection",
  "features": [
    {
      "type": "Feature",
      "properties": {
        "name": "GraphHopper Track",
        "source": "Vers_Fleurance.gpx",
        "type": "track"
      },
      "geometry": {
        "type": "LineString",
        "coordinates": [
          [
            0.77002,
            43.892574,
            157.76
          ],
          [
            0.769741,
            43.892165,
            159.0
          ],
          [
            0.769476,
            43.891721,
            160.0
          ],
          [
            0.768973,
            43.890955,
            159.01
          ],
          [
            0.76888,
            43.890782,
            158.19
          ],
          [
            0.768844,
            43.890687,
            157.76
          ],
          [
            0.768801,
            43.890526,
            156.93
          ],
          [
            0.768792,
            43.890452,
            156.79
          ],
          [
            0.768802,
            43.89025,
            156.85
          ],
          [
            0.767541,
            43.88995,
            157.47
          ],
          [
            0.767443,
            43.889918,
            157.86
          ],
          [
            0.76734,
            43.889871,
            158.0
          ],
          [
            0.767271,
            43.889895,
            158.0
          ],
          [
            0.767198,
            43.88991,
            158.0
          ],
          [
            0.767123,
            43.889916,
            158.0
          ],
          [
            0.767131,
            43.889871,
            158.0
          ],
          [
            0.765381,
            43.889768,
            159.02
          ],
          [
            0.765485,
            43.889623,
            159.39
          ],
          [
            0.765498,
            43.88958,
            159.63
          ],
          [
            0.765496,
            43.889469,
            160.14
          ],
          [
            0.765472,
            43.889391,
            160.53
          ],
          [
            0.765442,
            43.889338,
            160.7
          ],
          [
            0.765474,
            43.889256,
            161.18
          ],
          [
            0.765128,
            43.888818,
            163.85
          ],
          [
            0.76519,
            43.888716,
            164.03
          ],
          [
            0.765106,
            43.888607,
            164.9
          ],
          [
            0.765113,
            43.888557,
            165.13
          ],
          [
            0.764251,
            43.888413,
            166.22
          ],
          [
            0.764003,
            43.888364,
            166.63
          ],
          [
            0.763658,
            43.888268,
            167.06
          ],
          [
            0.76369,
            43.888204,
            167.15
          ],
          [
            0.763395,
            43.888133,
            168.0
          ],
          [
            0.763426,
            43.888068,
            168.15
          ],
          [
            0.762136,
            43.887771,
            165.09
          ],
          [
            0.76186,
            43.887701,
            164.49
          ],
          [
            0.76183,
            43.887758,
            164.48
          ],
          [
            0.761466,
            43.887671,
            164.2
          ],
          [
            0.76112,
            43.887609,
            164.81
          ],
          [
            0.760771,
            43.887578,
            165.4
          ],
          [
            0.760577,
            43.887567,
            166.06
          ],
          [
            0.760391,
            43.887573,
            166.33
          ],
          [
            0.759999,
            43.887608,
            166.83
          ],
          [
            0.75961,
            43.887616,
            167.4
          ],
          [
            0.759444,
            43.887603,
            167.63
          ],
          [
            0.759263,
            43.887576,
            168.17
          ],
          [
            0.75901,
            43.887512,
            169.0
          ],
          [
            0.758642,
            43.887366,
            170.22
          ],
          [
            0.758031,
            43.887107,
            172.78
          ],
          [
            0.755837,
            43.885992,
            179.39
          ],
          [
            0.755719,
            43.885956,
            179.53
          ],
          [
            0.755622,
            43.885939,
            179.54
          ],
          [
            0.755503,
            43.885936,
            179.43
          ],
          [
            0.75524,
            43.885985,
            178.9
          ],
          [
            0.753392,
            43.886544,
            176.06
          ],
          [
            0.753047,
            43.886639,
            176.54
          ],
          [
            0.752074,
            43.886878,
            176.86
          ],
          [
            0.75171,
            43.886942,
            175.98
          ],
          [
            0.751247,
            43.886979,
            174.05
          ],
          [
            0.750294,
            43.887072,
            173.83
          ],
          [
            0.749489,
            43.887196,
            174.17
          ],
          [
            0.749059,
            43.887274,
            173.56
          ],
          [
            0.748897,
            43.887285,
            173.07
          ],
          [
            0.748744,
            43.887249,
            173.0
          ],
          [
            0.748656,
            43.887196,
            172.33
          ],
          [
            0.748591,
            43.887141,
            171.68
          ],
          [
            0.747887,
            43.886151,
            162.13
          ],
          [
            0.747813,
            43.886064,
            161.27
          ],
          [
            0.747704,
            43.885989,
            160.18
          ],
          [
            0.747572,
            43.885937,
            159.72
          ],
          [
            0.747386,
            43.885911,
            159.1
          ],
          [
            0.744883,
            43.885892,
            150.37
          ],
          [
            0.744692,
            43.885862,
            149.55
          ],
          [
            0.744497,
            43.885795,
            148.58
          ],
          [
            0.744341,
            43.885703,
            147.63
          ],
          [
            0.744209,
            43.885577,
            146.64
          ],
          [
            0.744134,
            43.885452,
            145.82
          ],
          [
            0.744097,
            43.885312,
            145.08
          ],
          [
            0.744098,
            43.885201,
            144.53
          ],
          [
            0.744474,
            43.88454,
            139.9
          ],
          [
            0.744683,
            43.884026,
            135.39
          ],
          [
            0.744707,
            43.883899,
            134.25
          ],
          [
            0.744685,
            43.883769,
            133.17
          ],
          [
            0.744606,
            43.883636,
            132.14
          ],
          [
            0.744488,
            43.883516,
            131.32
          ],
          [
            0.744347,
            43.883417,
            130.74
          ],
          [
            0.744144,
            43.883322,
            130.28
          ],
          [
            0.744034,
            43.883287,
            130.18
          ],
          [
            0.743397,
            43.883174,
            130.8
          ],
          [
            0.743125,
            43.883117,
            131.23
          ],
          [
            0.742847,
            43.88301,
            131.96
          ],
          [
            0.742588,
            43.882879,
            132.75
          ],
          [
            0.741711,
            43.882354,
            137.98
          ],
          [
            0.740752,
            43.881698,
            148.99
          ],
          [
            0.740569,
            43.881613,
            150.4
          ],
          [
            0.74037,
            43.881551,
            151.56
          ],
          [
            0.740132,
            43.881505,
            152.49
          ],
          [
            0.739621,
            43.881458,
            153.3
          ],
          [
            0.739403,
            43.881397,
            153.29
          ],
          [
            0.73927,
            43.881341,
            153.41
          ],
          [
            0.739114,
            43.881236,
            154.38
          ],
          [
            0.739028,
            43.881228,
            154.55
          ],
          [
            0.738785,
            43.881246,
            154.57
          ],
          [
            0.738518,
            43.881331,
            155.13
          ],
          [
            0.738105,
            43.881539,
            157.11
          ],
          [
            0.737636,
            43.881735,
            158.7
          ],
          [
            0.737257,
            43.881876,
            159.98
          ],
          [
            0.737016,
            43.881944,
            160.56
          ],
          [
            0.73633,
            43.882022,
            161.11
          ],
          [
            0.735325,
            43.882241,
            165.27
          ],
          [
            0.73419,
            43.882459,
            168.84
          ],
          [
            0.733536,
            43.882548,
            169.57
          ],
          [
            0.732498,
            43.882641,
            168.1
          ],
          [
            0.731209,
            43.882715,
            162.28
          ],
          [
            0.730655,
            43.882695,
            159.76
          ],
          [
            0.730424,
            43.882639,
            159.35
          ],
          [
            0.730232,
            43.882567,
            159.26
          ],
          [
            0.729564,
            43.88202,
            159.82
          ],
          [
            0.729384,
            43.881763,
            160.32
          ],
          [
            0.729281,
            43.881725,
            160.48
          ],
          [
            0.729082,
            43.881733,
            160.77
          ],
          [
            0.728937,
            43.881684,
            161.05
          ],
          [
            0.728567,
            43.881301,
            162.19
          ],
          [
            0.728486,
            43.881057,
            163.01
          ],
          [
            0.728574,
            43.879931,
            161.09
          ],
          [
            0.728323,
            43.880087,
            161.83
          ],
          [
            0.727078,
            43.88098,
            171.29
          ],
          [
            0.727029,
            43.880989,
            171.63
          ],
          [
            0.726992,
            43.880987,
            171.79
          ],
          [
            0.726941,
            43.880974,
            171.92
          ],
          [
            0.726803,
            43.88087,
            172.11
          ],
          [
            0.725812,
            43.879934,
            173.76
          ],
          [
            0.72519,
            43.879297,
            177.26
          ],
          [
            0.724949,
            43.879035,
            178.27
          ],
          [
            0.724345,
            43.878147,
            177.63
          ],
          [
            0.724238,
            43.877939,
            179.05
          ],
          [
            0.724145,
            43.877818,
            180.41
          ],
          [
            0.723971,
            43.877746,
            182.22
          ],
          [
            0.723897,
            43.877702,
            183.03
          ],
          [
            0.723688,
            43.877513,
            185.24
          ],
          [
            0.723524,
            43.877404,
            186.69
          ],
          [
            0.722367,
            43.876984,
            194.14
          ],
          [
            0.721259,
            43.876768,
            196.47
          ],
          [
            0.721206,
            43.876745,
            196.38
          ],
          [
            0.721172,
            43.876703,
            196.13
          ],
          [
            0.72117,
            43.876654,
            196.05
          ],
          [
            0.721457,
            43.876258,
            191.79
          ],
          [
            0.721519,
            43.876151,
            190.27
          ],
          [
            0.721577,
            43.876008,
            188.42
          ],
          [
            0.721597,
            43.875899,
            187.54
          ],
          [
            0.721592,
            43.875173,
            183.13
          ],
          [
            0.72164,
            43.874913,
            181.68
          ],
          [
            0.721729,
            43.874598,
            179.09
          ],
          [
            0.721667,
            43.874505,
            179.35
          ],
          [
            0.721595,
            43.874473,
            179.74
          ],
          [
            0.721479,
            43.874469,
            180.25
          ],
          [
            0.718465,
            43.874848,
            189.58
          ],
          [
            0.717797,
            43.874966,
            190.0
          ],
          [
            0.717731,
            43.874972,
            190.0
          ],
          [
            0.717677,
            43.874965,
            189.99
          ],
          [
            0.717624,
            43.874911,
            190.0
          ],
          [
            0.717573,
            43.874698,
            189.95
          ],
          [
            0.717551,
            43.87468,
            189.93
          ],
          [
            0.717507,
            43.874672,
            189.89
          ],
          [
            0.717115,
            43.874676,
            189.47
          ],
          [
            0.716881,
            43.874628,
            188.99
          ],
          [
            0.716874,
            43.87484,
            187.69
          ],
          [
            0.716854,
            43.874952,
            186.71
          ],
          [
            0.716733,
            43.875294,
            185.09
          ],
          [
            0.716726,
            43.87552,
            184.59
          ],
          [
            0.716726,
            43.87552,
            184.59
          ],
          [
            0.716793,
            43.876116,
            185.5
          ],
          [
            0.716784,
            43.876238,
            185.96
          ],
          [
            0.716739,
            43.876321,
            186.31
          ],
          [
            0.716669,
            43.876388,
            186.66
          ],
          [
            0.716588,
            43.876436,
            186.97
          ],
          [
            0.716017,
            43.876603,
            188.82
          ],
          [
            0.715816,
            43.876682,
            189.55
          ],
          [
            0.715634,
            43.876773,
            190.38
          ],
          [
            0.715466,
            43.876884,
            191.26
          ],
          [
            0.71534,
            43.876981,
            192.0
          ],
          [
            0.715234,
            43.877113,
            193.0
          ],
          [
            0.714977,
            43.877546,
            195.73
          ],
          [
            0.714804,
            43.877735,
            195.59
          ],
          [
            0.714283,
            43.878132,
            193.71
          ],
          [
            0.714189,
            43.878254,
            193.03
          ],
          [
            0.714153,
            43.878391,
            192.33
          ],
          [
            0.714121,
            43.878695,
            190.77
          ],
          [
            0.71407,
            43.878832,
            189.98
          ],
          [
            0.713853,
            43.879239,
            188.0
          ],
          [
            0.713791,
            43.879317,
            187.86
          ],
          [
            0.713685,
            43.879382,
            187.71
          ],
          [
            0.713118,
            43.879557,
            186.92
          ],
          [
            0.712317,
            43.879786,
            185.68
          ],
          [
            0.712121,
            43.879804,
            185.74
          ],
          [
            0.711952,
            43.8798,
            185.8
          ],
          [
            0.710847,
            43.879686,
            187.54
          ],
          [
            0.710693,
            43.879694,
            187.72
          ],
          [
            0.710497,
            43.879731,
            187.52
          ],
          [
            0.710359,
            43.879772,
            187.15
          ],
          [
            0.709143,
            43.880326,
            183.23
          ],
          [
            0.708503,
            43.880482,
            183.0
          ],
          [
            0.707827,
            43.88063,
            185.25
          ],
          [
            0.707595,
            43.880691,
            186.03
          ],
          [
            0.70734,
            43.880778,
            186.99
          ],
          [
            0.707165,
            43.880857,
            187.73
          ],
          [
            0.706298,
            43.88135,
            190.25
          ],
          [
            0.706168,
            43.881464,
            190.71
          ],
          [
            0.705846,
            43.881789,
            192.09
          ],
          [
            0.705528,
            43.882242,
            196.72
          ],
          [
            0.705431,
            43.882334,
            197.48
          ],
          [
            0.704842,
            43.881708,
            194.42
          ],
          [
            0.704205,
            43.88109,
            189.45
          ],
          [
            0.703924,
            43.880802,
            186.86
          ],
          [
            0.703851,
            43.880708,
            186.1
          ],
          [
            0.703789,
            43.880606,
            185.55
          ],
          [
            0.703711,
            43.880567,
            185.21
          ],
          [
            0.70364,
            43.880515,
            185.14
          ],
          [
            0.703586,
            43.880497,
            185.21
          ],
          [
            0.703165,
            43.880531,
            185.72
          ],
          [
            0.703116,
            43.880528,
            185.75
          ],
          [
            0.703074,
            43.880509,
            185.82
          ],
          [
            0.702975,
            43.880242,
            186.22
          ],
          [
            0.702883,
            43.880123,
            185.65
          ],
          [
            0.702835,
            43.880097,
            185.45
          ],
          [
            0.702599,
            43.880014,
            184.77
          ],
          [
            0.701762,
            43.87973,
            177.64
          ],
          [
            0.701634,
            43.879662,
            176.18
          ],
          [
            0.700963,
            43.879113,
            165.68
          ],
          [
            0.700518,
            43.878691,
            157.78
          ],
          [
            0.700113,
            43.878276,
            151.39
          ],
          [
            0.699743,
            43.877868,
            147.2
          ],
          [
            0.699381,
            43.877338,
            143.35
          ],
          [
            0.699271,
            43.877046,
            140.15
          ],
          [
            0.699171,
            43.87688,
            137.66
          ],
          [
            0.69831,
            43.875652,
            115.47
          ],
          [
            0.697755,
            43.87495,
            109.03
          ],
          [
            0.697747,
            43.874923,
            109.0
          ],
          [
            0.697834,
            43.874881,
            109.09
          ],
          [
            0.697687,
            43.874779,
            109.46
          ],
          [
            0.697585,
            43.874676,
            109.58
          ],
          [
            0.697464,
            43.874495,
            109.77
          ],
          [
            0.6974,
            43.874335,
            110.05
          ],
          [
            0.697244,
            43.87383,
            111.29
          ],
          [
            0.697231,
            43.873694,
            111.77
          ],
          [
            0.697258,
            43.873551,
            112.31
          ],
          [
            0.697514,
            43.873134,
            114.38
          ],
          [
            0.697561,
            43.873021,
            114.98
          ],
          [
            0.697581,
            43.872922,
            115.48
          ],
          [
            0.69755,
            43.872797,
            116.13
          ],
          [
            0.697422,
            43.872607,
            117.13
          ],
          [
            0.697228,
            43.872368,
            119.35
          ],
          [
            0.697134,
            43.872225,
            120.49
          ],
          [
            0.69708,
            43.872092,
            121.53
          ],
          [
            0.69705,
            43.871876,
            123.18
          ],
          [
            0.697213,
            43.870869,
            132.24
          ],
          [
            0.697216,
            43.870709,
            133.91
          ],
          [
            0.697161,
            43.870553,
            135.64
          ],
          [
            0.697025,
            43.870378,
            137.86
          ],
          [
            0.696802,
            43.870188,
            140.67
          ],
          [
            0.695922,
            43.869552,
            149.46
          ],
          [
            0.695762,
            43.869417,
            150.16
          ],
          [
            0.695677,
            43.869273,
            149.44
          ],
          [
            0.695392,
            43.868721,
            148.45
          ],
          [
            0.695293,
            43.868574,
            148.38
          ],
          [
            0.695182,
            43.868444,
            149.0
          ],
          [
            0.695074,
            43.868335,
            150.09
          ],
          [
            0.69494,
            43.868228,
            151.58
          ],
          [
            0.694488,
            43.867985,
            156.44
          ],
          [
            0.694341,
            43.867883,
            158.07
          ],
          [
            0.692915,
            43.866028,
            130.84
          ],
          [
            0.692754,
            43.865872,
            130.0
          ],
          [
            0.692643,
            43.86579,
            129.84
          ],
          [
            0.692517,
            43.865719,
            129.16
          ],
          [
            0.692251,
            43.865593,
            127.41
          ],
          [
            0.690877,
            43.865131,
            121.48
          ],
          [
            0.689934,
            43.864762,
            120.13
          ],
          [
            0.689052,
            43.864389,
            119.13
          ],
          [
            0.688347,
            43.864013,
            112.11
          ],
          [
            0.68708,
            43.863362,
            100.89
          ],
          [
            0.686589,
            43.86303,
            99.0
          ],
          [
            0.685974,
            43.862509,
            99.83
          ],
          [
            0.685272,
            43.861792,
            104.19
          ],
          [
            0.684926,
            43.861475,
            106.79
          ],
          [
            0.684257,
            43.861017,
            111.7
          ],
          [
            0.684143,
            43.860925,
            112.31
          ],
          [
            0.684028,
            43.860772,
            113.03
          ],
          [
            0.683856,
            43.86065,
            114.11
          ],
          [
            0.68368,
            43.860494,
            115.3
          ],
          [
            0.681383,
            43.858265,
            124.41
          ],
          [
            0.680396,
            43.856967,
            118.98
          ],
          [
            0.68024,
            43.856797,
            117.86
          ],
          [
            0.680011,
            43.856581,
            116.36
          ],
          [
            0.679283,
            43.856163,
            111.64
          ],
          [
            0.678961,
            43.855952,
            109.35
          ],
          [
            0.678651,
            43.855725,
            107.26
          ],
          [
            0.678394,
            43.855491,
            105.4
          ],
          [
            0.67806,
            43.855165,
            103.08
          ],
          [
            0.677637,
            43.854722,
            100.65
          ],
          [
            0.677464,
            43.85448,
            99.82
          ],
          [
            0.677374,
            43.854302,
            99.29
          ],
          [
            0.677322,
            43.854158,
            98.47
          ],
          [
            0.677289,
            43.853909,
            97.69
          ],
          [
            0.677188,
            43.852119,
            92.04
          ],
          [
            0.67698,
            43.850263,
            92.99
          ],
          [
            0.676914,
            43.849337,
            92.68
          ],
          [
            0.676863,
            43.849079,
            92.79
          ],
          [
            0.676863,
            43.848856,
            92.66
          ],
          [
            0.676483,
            43.848826,
            91.76
          ],
          [
            0.67198,
            43.848184,
            93.0
          ],
          [
            0.670453,
            43.847979,
            93.0
          ],
          [
            0.670468,
            43.847925,
            93.0
          ],
          [
            0.668869,
            43.847687,
            91.93
          ],
          [
            0.668769,
            43.847765,
            91.82
          ],
          [
            0.668579,
            43.847772,
            92.0
          ],
          [
            0.668545,
            43.847788,
            92.0
          ],
          [
            0.66847,
            43.847806,
            92.0
          ],
          [
            0.66843,
            43.847809,
            92.0
          ],
          [
            0.668351,
            43.8478,
            92.0
          ],
          [
            0.668277,
            43.847771,
            92.0
          ],
          [
            0.66822,
            43.847727,
            92.0
          ],
          [
            0.668201,
            43.8477,
            92.0
          ],
          [
            0.668181,
            43.84762,
            92.0
          ],
          [
            0.668038,
            43.847609,
            92.0
          ],
          [
            0.666011,
            43.84858,
            94.0
          ],
          [
            0.665575,
            43.848676,
            93.64
          ]
        ]
      }
    },
    {
      "type": "Feature",
      "properties": {
        "source": "Vers_Fleurance.gpx",
        "type": "route"
      },
      "geometry": {
        "type": "LineString",
        "coordinates": [
          [
            0.77002,
            43.892574
          ],
          [
            0.769476,
            43.891721
          ],
          [
            0.768802,
            43.89025
          ],
          [
            0.76734,
            43.889871
          ],
          [
            0.767123,
            43.889916
          ],
          [
            0.765381,
            43.889768
          ],
          [
            0.765442,
            43.889338
          ],
          [
            0.765474,
            43.889256
          ],
          [
            0.76519,
            43.888716
          ],
          [
            0.765113,
            43.888557
          ],
          [
            0.763658,
            43.888268
          ],
          [
            0.76369,
            43.888204
          ],
          [
            0.763395,
            43.888133
          ],
          [
            0.763426,
            43.888068
          ],
          [
            0.76186,
            43.887701
          ],
          [
            0.76183,
            43.887758
          ],
          [
            0.748897,
            43.887285
          ],
          [
            0.748744,
            43.887249
          ],
          [
            0.747704,
            43.885989
          ],
          [
            0.739114,
            43.881236
          ],
          [
            0.737636,
            43.881735
          ],
          [
            0.735325,
            43.882241
          ],
          [
            0.728574,
            43.879931
          ],
          [
            0.727078,
            43.88098
          ],
          [
            0.724345,
            43.878147
          ],
          [
            0.721729,
            43.874598
          ],
          [
            0.716881,
            43.874628
          ],
          [
            0.716726,
            43.87552
          ],
          [
            0.716726,
            43.87552
          ],
          [
            0.705431,
            43.882334
          ],
          [
            0.703789,
            43.880606
          ],
          [
            0.702599,
            43.880014
          ],
          [
            0.697747,
            43.874923
          ],
          [
            0.697834,
            43.874881
          ],
          [
            0.684028,
            43.860772
          ],
          [
            0.676863,
            43.848856
          ],
          [
            0.670453,
            43.847979
          ],
          [
            0.670468,
            43.847925
          ],
          [
            0.668869,
            43.847687
          ],
          [
            0.668769,
            43.847765
          ],
          [
            0.668579,
            43.847772
          ],
          [
            0.665575,
            43.848676
          ]
        ]
      }
    }
  ]
}