{
  "type": "FeatureCollection",
  "features": [
    {
      "type": "Feature",
      "properties": {
        "name": "GraphHopper Track",
        "source": "Bords_de_lAriège.gpx",
        "type": "track"
      },
      "geometry": {
        "type": "LineString",
        "coordinates": [
          [
            1.47544,
            43.352733,
            182.03
          ],
          [
            1.47549,
            43.352741,
            182.16
          ],
          [
            1.475674,
            43.35284,
            183.0
          ],
          [
            1.475869,
            43.35295,
            183.65
          ],
          [
            1.476077,
            43.353147,
            184.09
          ],
          [
            1.476145,
            43.353248,
            184.37
          ],
          [
            1.476293,
            43.353505,
            184.67
          ],
          [
            1.476632,
            43.353689,
            186.4
          ],
          [
            1.476833,
            43.353781,
            188.5
          ],
          [
            1.476917,
            43.3538,
            189.08
          ],
          [
            1.477013,
            43.353796,
            189.83
          ],
          [
            1.477178,
            43.353885,
            190.35
          ],
          [
            1.477244,
            43.353905,
            190.46
          ],
          [
            1.477414,
            43.353939,
            190.19
          ],
          [
            1.477496,
            43.353898,
            190.73
          ],
          [
            1.477799,
            43.353912,
            190.3
          ],
          [
            1.478168,
            43.35394,
            190.17
          ],
          [
            1.478636,
            43.354003,
            191.19
          ],
          [
            1.479024,
            43.354045,
            192.25
          ],
          [
            1.479139,
            43.35405,
            192.59
          ],
          [
            1.479249,
            43.354035,
            192.9
          ],
          [
            1.479339,
            43.35401,
            193.15
          ],
          [
            1.479557,
            43.35393,
            194.0
          ],
          [
            1.479803,
            43.353829,
            194.9
          ],
          [
            1.480192,
            43.353762,
            194.96
          ],
          [
            1.480288,
            43.353742,
            195.38
          ],
          [
            1.480377,
            43.353711,
            195.96
          ],
          [
            1.480543,
            43.353702,
            196.72
          ],
          [
            1.480763,
            43.353706,
            196.92
          ],
          [
            1.481023,
            43.353728,
            197.0
          ],
          [
            1.481106,
            43.353752,
            197.0
          ],
          [
            1.481394,
            43.353863,
            197.0
          ],
          [
            1.481827,
            43.354072,
            197.37
          ],
          [
            1.481951,
            43.354158,
            197.54
          ],
          [
            1.482403,
            43.354562,
            198.0
          ],
          [
            1.482552,
            43.354539,
            198.03
          ],
          [
            1.482762,
            43.354478,
            198.33
          ],
          [
            1.482859,
            43.354437,
            198.49
          ],
          [
            1.483422,
            43.354123,
            199.0
          ],
          [
            1.483483,
            43.354166,
            199.03
          ],
          [
            1.483281,
            43.354268,
            199.01
          ],
          [
            1.483118,
            43.354395,
            199.0
          ],
          [
            1.482872,
            43.35451,
            198.71
          ],
          [
            1.482515,
            43.354647,
            198.24
          ],
          [
            1.48207,
            43.3548,
            198.1
          ],
          [
            1.481989,
            43.354857,
            198.05
          ],
          [
            1.481939,
            43.354925,
            198.05
          ],
          [
            1.481968,
            43.355036,
            198.14
          ],
          [
            1.482251,
            43.355499,
            199.48
          ],
          [
            1.482312,
            43.355578,
            199.8
          ],
          [
            1.482312,
            43.355578,
            199.8
          ],
          [
            1.482251,
            43.355499,
            199.48
          ],
          [
            1.481968,
            43.355036,
            198.14
          ],
          [
            1.481939,
            43.354925,
            198.05
          ],
          [
            1.481989,
            43.354857,
            198.05
          ],
          [
            1.48207,
            43.3548,
            198.1
          ],
          [
            1.482515,
            43.354647,
            198.24
          ],
          [
            1.482872,
            43.35451,
            198.71
          ],
          [
            1.483118,
            43.354395,
            199.0
          ],
          [
            1.483281,
            43.354268,
            199.01
          ],
          [
            1.483483,
            43.354166,
            199.03
          ],
          [
            1.483422,
            43.354123,
            199.0
          ],
          [
            1.482859,
            43.354437,
            198.49
          ],
          [
            1.482762,
            43.354478,
            198.33
          ],
          [
            1.482552,
            43.354539,
            198.03
          ],
          [
            1.482403,
            43.354562,
            198.0
          ],
          [
            1.481951,
            43.354158,
            197.54
          ],
          [
            1.481827,
            43.354072,
            197.37
          ],
          [
            1.481394,
            43.353863,
            197.0
          ],
          [
            1.481106,
            43.353752,
            197.0
          ],
          [
            1.481023,
            43.353728,
            197.0
          ],
          [
            1.480763,
            43.353706,
            196.92
          ],
          [
            1.480543,
            43.353702,
            196.72
          ],
          [
            1.480377,
            43.353711,
            195.96
          ],
          [
            1.480288,
            43.353742,
            195.38
          ],
          [
            1.480192,
            43.353762,
            194.96
          ],
          [
            1.479803,
            43.353829,
            194.9
          ],
          [
            1.479557,
            43.35393,
            194.0
          ],
          [
            1.479339,
            43.35401,
            193.15
          ],
          [
            1.479249,
            43.354035,
            192.9
          ],
          [
            1.479139,
            43.35405,
            192.59
          ],
          [
            1.479024,
            43.354045,
            192.25
          ],
          [
            1.478636,
            43.354003,
            191.19
          ],
          [
            1.478168,
            43.35394,
            190.17
          ],
          [
            1.477799,
            43.353912,
            190.3
          ],
          [
            1.477496,
            43.353898,
            190.73
          ],
          [
            1.477414,
            43.353939,
            190.19
          ],
          [
            1.477244,
            43.353905,
            190.46
          ],
          [
            1.477178,
            43.353885,
            190.35
          ],
          [
            1.477013,
            43.353796,
            189.83
          ],
          [
            1.476917,
            43.3538,
            189.08
          ],
          [
            1.476833,
            43.353781,
            188.5
          ],
          [
            1.476632,
            43.353689,
            186.4
          ],
          [
            1.476293,
            43.353505,
            184.67
          ],
          [
            1.476145,
            43.353248,
            184.37
          ],
          [
            1.476077,
            43.353147,
            184.09
          ],
          [
            1.475869,
            43.35295,
            183.65
          ],
          [
            1.475674,
            43.35284,
            183.0
          ],
          [
            1.47549,
            43.352741,
            182.16
          ],
          [
            1.47544,
            43.352733,
            182.03
          ]
        ]
      }
    },
    {
      "type": "Feature",
      "properties": {
        "source": "Bords_de_lAriège.gpx",
        "type": "route"
      },
      "geometry": {
        "type": "LineString",
        "coordinates": [
          [
            1.47544,
            43.352733
          ],
          [
            1.475674,
            43.35284
          ],
          [
            1.477013,
            43.353796
          ],
          [
            1.477414,
            43.353939
          ],
          [
            1.477496,
            43.353898
          ],
          [
            1.480377,
            43.353711
          ],
          [
            1.482403,
            43.354562
          ],
          [
            1.483422,
            43.354123
          ],
          [
            1.483483,
            43.354166
          ],
          [
            1.482312,
            43.355578
          ],
          [
            1.482312,
            43.355578
          ],
          [
            1.483483,
            43.354166
          ],
          [
            1.483422,
            43.354123
          ],
          [
            1.482403,
            43.354562
          ],
          [
            1.480377,
            43.353711
          ],
          [
            1.477496,
            43.353898
          ],
          [
            1.477414,
            43.353939
          ],
          [
            1.477013,
            43.353796
          ],
          [
            1.475674,
            43.35284
          ],
          [
            1.47544,
            43.352733
          ]
        ]
      }
    }
  ]
}