{
  "type": "FeatureCollection",
  "features": [
    {
      "type": "Feature",
      "properties": {
        "name": "GraphHopper Track",
        "source": "Ayguesvives__Belber..gpx",
        "type": "track"
      },
      "geometry": {
        "type": "LineString",
        "coordinates": [
          [
            1.595509,
            43.438513,
            177.89
          ],
          [
            1.595546,
            43.4385,
            177.38
          ],
          [
            1.595587,
            43.438517,
            177.01
          ],
          [
            1.595616,
            43.438519,
            176.76
          ],
          [
            1.595978,
            43.43847,
            173.92
          ],
          [
            1.595954,
            43.438555,
            173.97
          ],
          [
            1.595932,
            43.43875,
            173.49
          ],
          [
            1.595938,
            43.438782,
            173.32
          ],
          [
            1.595952,
            43.4388,
            173.13
          ],
          [
            1.595873,
            43.438862,
            173.19
          ],
          [
            1.595837,
            43.438932,
            173.1
          ],
          [
            1.595847,
            43.439156,
            173.05
          ],
          [
            1.595818,
            43.439429,
            173.18
          ],
          [
            1.59576,
            43.43949,
            173.45
          ],
          [
            1.595437,
            43.439766,
            174.34
          ],
          [
            1.594947,
            43.440151,
            176.14
          ],
          [
            1.594034,
            43.440921,
            181.94
          ],
          [
            1.593722,
            43.44125,
            183.57
          ],
          [
            1.593424,
            43.441597,
            185.51
          ],
          [
            1.593077,
            43.441927,
            187.19
          ],
          [
            1.592753,
            43.441744,
            187.0
          ],
          [
            1.592261,
            43.442096,
            188.66
          ],
          [
            1.592188,
            43.442115,
            188.84
          ],
          [
            1.59214,
            43.442115,
            188.94
          ],
          [
            1.592111,
            43.442108,
            188.99
          ],
          [
            1.59204,
            43.442053,
            189.02
          ],
          [
            1.591642,
            43.442273,
            190.24
          ],
          [
            1.591328,
            43.442501,
            191.54
          ],
          [
            1.59119,
            43.442569,
            192.09
          ],
          [
            1.590803,
            43.442812,
            192.13
          ],
          [
            1.590384,
            43.443058,
            192.46
          ],
          [
            1.590022,
            43.443286,
            193.0
          ],
          [
            1.589601,
            43.443537,
            192.13
          ],
          [
            1.589366,
            43.443687,
            192.04
          ],
          [
            1.589244,
            43.443808,
            191.91
          ],
          [
            1.589148,
            43.44388,
            191.6
          ],
          [
            1.588955,
            43.444004,
            191.05
          ],
          [
            1.588771,
            43.44411,
            190.63
          ],
          [
            1.588517,
            43.444238,
            190.14
          ],
          [
            1.586828,
            43.445005,
            187.11
          ],
          [
            1.585301,
            43.445811,
            182.59
          ],
          [
            1.585186,
            43.44589,
            182.19
          ],
          [
            1.585159,
            43.445924,
            182.05
          ],
          [
            1.585143,
            43.445968,
            181.89
          ],
          [
            1.58516,
            43.446121,
            181.42
          ],
          [
            1.585151,
            43.446166,
            181.28
          ],
          [
            1.585091,
            43.446242,
            181.01
          ],
          [
            1.584976,
            43.446309,
            180.67
          ],
          [
            1.584689,
            43.446424,
            179.83
          ],
          [
            1.584605,
            43.446469,
            179.55
          ],
          [
            1.584534,
            43.446516,
            179.29
          ],
          [
            1.584367,
            43.44666,
            178.47
          ],
          [
            1.584203,
            43.446779,
            177.74
          ],
          [
            1.583782,
            43.447029,
            176.23
          ],
          [
            1.583622,
            43.447135,
            175.63
          ],
          [
            1.5835,
            43.447249,
            175.11
          ],
          [
            1.583457,
            43.447311,
            174.87
          ],
          [
            1.583183,
            43.447785,
            173.64
          ],
          [
            1.583087,
            43.447888,
            173.24
          ],
          [
            1.583001,
            43.447929,
            173.35
          ],
          [
            1.582346,
            43.448133,
            176.21
          ],
          [
            1.581602,
            43.448387,
            182.19
          ],
          [
            1.58147,
            43.448447,
            183.45
          ],
          [
            1.58128,
            43.448557,
            185.49
          ],
          [
            1.580968,
            43.448773,
            189.63
          ],
          [
            1.580343,
            43.449239,
            197.76
          ],
          [
            1.580075,
            43.449422,
            200.24
          ],
          [
            1.579645,
            43.449698,
            202.75
          ],
          [
            1.579352,
            43.449868,
            203.68
          ],
          [
            1.578996,
            43.450088,
            204.52
          ],
          [
            1.578179,
            43.450643,
            205.14
          ],
          [
            1.578343,
            43.45079,
            204.18
          ],
          [
            1.578504,
            43.450954,
            203.35
          ],
          [
            1.578715,
            43.451208,
            201.97
          ],
          [
            1.578929,
            43.451499,
            200.07
          ],
          [
            1.579258,
            43.452017,
            197.06
          ],
          [
            1.579326,
            43.452163,
            196.05
          ],
          [
            1.57935,
            43.452257,
            195.61
          ],
          [
            1.579376,
            43.452462,
            194.3
          ],
          [
            1.579376,
            43.452462,
            194.3
          ],
          [
            1.57941,
            43.452877,
            191.3
          ],
          [
            1.579502,
            43.453367,
            187.95
          ],
          [
            1.579756,
            43.454251,
            180.79
          ],
          [
            1.57984,
            43.454661,
            177.29
          ],
          [
            1.579894,
            43.454802,
            176.15
          ],
          [
            1.580095,
            43.45517,
            172.62
          ],
          [
            1.580362,
            43.455609,
            167.84
          ],
          [
            1.5808,
            43.456183,
            160.29
          ],
          [
            1.580697,
            43.456234,
            161.1
          ],
          [
            1.58022,
            43.456426,
            162.41
          ],
          [
            1.580164,
            43.456565,
            161.16
          ],
          [
            1.579916,
            43.456685,
            161.3
          ],
          [
            1.579799,
            43.456765,
            161.3
          ],
          [
            1.579764,
            43.456815,
            161.0
          ],
          [
            1.579726,
            43.456806,
            161.0
          ],
          [
            1.579664,
            43.456806,
            161.16
          ],
          [
            1.579561,
            43.456836,
            161.4
          ],
          [
            1.579384,
            43.456907,
            161.67
          ],
          [
            1.577241,
            43.457847,
            172.73
          ],
          [
            1.57668,
            43.458071,
            177.01
          ],
          [
            1.576226,
            43.458229,
            180.18
          ],
          [
            1.575344,
            43.458501,
            185.88
          ],
          [
            1.575233,
            43.458546,
            185.97
          ],
          [
            1.574901,
            43.458713,
            185.9
          ],
          [
            1.573417,
            43.459547,
            182.68
          ],
          [
            1.573241,
            43.459611,
            182.57
          ],
          [
            1.573095,
            43.459643,
            182.29
          ],
          [
            1.572954,
            43.459636,
            182.25
          ],
          [
            1.572844,
            43.459611,
            182.38
          ],
          [
            1.572519,
            43.459489,
            183.07
          ],
          [
            1.572453,
            43.459587,
            182.12
          ],
          [
            1.572338,
            43.459714,
            180.78
          ],
          [
            1.572107,
            43.460028,
            177.84
          ],
          [
            1.571902,
            43.46034,
            175.06
          ],
          [
            1.57125,
            43.461285,
            166.46
          ],
          [
            1.570905,
            43.461758,
            161.27
          ],
          [
            1.570819,
            43.461878,
            160.39
          ],
          [
            1.570728,
            43.462101,
            159.85
          ],
          [
            1.57069,
            43.462131,
            159.95
          ],
          [
            1.57074,
            43.462166,
            159.61
          ],
          [
            1.570789,
            43.462181,
            159.33
          ],
          [
            1.570814,
            43.462244,
            159.03
          ],
          [
            1.570828,
            43.462432,
            157.98
          ],
          [
            1.570733,
            43.462663,
            157.57
          ],
          [
            1.5706,
            43.462827,
            157.61
          ],
          [
            1.570558,
            43.462852,
            157.72
          ],
          [
            1.570507,
            43.462863,
            158.0
          ],
          [
            1.570224,
            43.463213,
            156.33
          ],
          [
            1.570223,
            43.463237,
            156.15
          ],
          [
            1.570299,
            43.46327,
            155.22
          ],
          [
            1.570263,
            43.463312,
            155.16
          ],
          [
            1.570414,
            43.46338,
            154.91
          ],
          [
            1.570454,
            43.463333,
            154.84
          ],
          [
            1.570486,
            43.463348,
            154.76
          ],
          [
            1.570581,
            43.463242,
            156.11
          ],
          [
            1.57066,
            43.463169,
            156.47
          ],
          [
            1.570747,
            43.463047,
            156.95
          ],
          [
            1.570792,
            43.463021,
            156.99
          ],
          [
            1.57085,
            43.463005,
            157.0
          ],
          [
            1.570731,
            43.463243,
            156.17
          ],
          [
            1.570651,
            43.463372,
            155.82
          ],
          [
            1.570354,
            43.463736,
            155.21
          ],
          [
            1.5701,
            43.463981,
            155.09
          ],
          [
            1.56976,
            43.464315,
            156.78
          ],
          [
            1.569674,
            43.464385,
            157.25
          ],
          [
            1.569579,
            43.464444,
            157.06
          ],
          [
            1.569657,
            43.464498,
            158.0
          ],
          [
            1.570038,
            43.46482,
            156.36
          ],
          [
            1.570303,
            43.465061,
            155.9
          ],
          [
            1.570594,
            43.465422,
            155.86
          ],
          [
            1.570982,
            43.466007,
            158.28
          ],
          [
            1.571166,
            43.466402,
            159.09
          ],
          [
            1.571495,
            43.467181,
            159.83
          ],
          [
            1.57161,
            43.467484,
            158.24
          ],
          [
            1.572019,
            43.468201,
            155.25
          ],
          [
            1.572341,
            43.468708,
            154.65
          ],
          [
            1.572468,
            43.469009,
            154.41
          ],
          [
            1.572846,
            43.470174,
            154.03
          ],
          [
            1.572924,
            43.470535,
            154.11
          ],
          [
            1.572985,
            43.470758,
            154.58
          ],
          [
            1.573075,
            43.470985,
            154.79
          ],
          [
            1.573883,
            43.472466,
            154.97
          ],
          [
            1.574716,
            43.47403,
            155.45
          ],
          [
            1.57533,
            43.474686,
            155.9
          ],
          [
            1.577222,
            43.476905,
            157.52
          ],
          [
            1.577659,
            43.477366,
            158.42
          ],
          [
            1.577789,
            43.477447,
            158.52
          ],
          [
            1.577717,
            43.477511,
            158.09
          ],
          [
            1.576928,
            43.478111,
            160.54
          ],
          [
            1.576052,
            43.478756,
            162.21
          ],
          [
            1.575902,
            43.478876,
            162.94
          ],
          [
            1.572451,
            43.481452,
            167.0
          ],
          [
            1.572263,
            43.481603,
            167.0
          ],
          [
            1.571974,
            43.48186,
            166.93
          ],
          [
            1.571769,
            43.482156,
            167.37
          ],
          [
            1.571278,
            43.483002,
            168.48
          ],
          [
            1.570239,
            43.484873,
            170.94
          ],
          [
            1.57001,
            43.485327,
            171.06
          ],
          [
            1.569639,
            43.486735,
            168.95
          ],
          [
            1.57065,
            43.487237,
            171.78
          ],
          [
            1.570754,
            43.487238,
            171.99
          ],
          [
            1.570839,
            43.48716,
            172.05
          ],
          [
            1.571041,
            43.487147,
            172.94
          ],
          [
            1.571112,
            43.487158,
            173.2
          ],
          [
            1.571228,
            43.487226,
            173.35
          ],
          [
            1.571371,
            43.487451,
            172.77
          ],
          [
            1.57135,
            43.487515,
            172.51
          ],
          [
            1.571276,
            43.48763,
            171.94
          ],
          [
            1.571174,
            43.487731,
            171.11
          ],
          [
            1.57118,
            43.48784,
            171.03
          ],
          [
            1.571226,
            43.487974,
            170.68
          ],
          [
            1.571211,
            43.488021,
            170.49
          ],
          [
            1.57117,
            43.488076,
            170.28
          ],
          [
            1.570832,
            43.488247,
            169.0
          ],
          [
            1.571137,
            43.488564,
            168.44
          ],
          [
            1.571718,
            43.489362,
            169.03
          ],
          [
            1.571953,
            43.489642,
            169.4
          ],
          [
            1.572245,
            43.490027,
            170.1
          ],
          [
            1.57283,
            43.490767,
            169.94
          ],
          [
            1.573281,
            43.491276,
            168.7
          ],
          [
            1.573495,
            43.491504,
            167.76
          ],
          [
            1.573743,
            43.491633,
            166.91
          ],
          [
            1.573905,
            43.491699,
            166.36
          ],
          [
            1.574075,
            43.491734,
            166.03
          ],
          [
            1.573959,
            43.491958,
            165.24
          ],
          [
            1.573681,
            43.492378,
            164.0
          ],
          [
            1.573406,
            43.493248,
            164.22
          ],
          [
            1.573411,
            43.493408,
            164.33
          ],
          [
            1.573744,
            43.494142,
            165.19
          ],
          [
            1.573783,
            43.494302,
            165.38
          ],
          [
            1.573784,
            43.494487,
            165.57
          ],
          [
            1.573732,
            43.49508,
            166.04
          ],
          [
            1.573733,
            43.49521,
            166.06
          ],
          [
            1.573791,
            43.495372,
            166.17
          ],
          [
            1.574119,
            43.495665,
            166.32
          ],
          [
            1.57414,
            43.495738,
            166.23
          ],
          [
            1.574099,
            43.495869,
            166.0
          ],
          [
            1.57401,
            43.49605,
            166.61
          ],
          [
            1.573989,
            43.496408,
            168.94
          ],
          [
            1.574004,
            43.496779,
            173.44
          ],
          [
            1.573967,
            43.496892,
            175.01
          ],
          [
            1.573822,
            43.497202,
            179.53
          ],
          [
            1.573708,
            43.497401,
            182.11
          ],
          [
            1.573549,
            43.498011,
            186.51
          ],
          [
            1.573404,
            43.498321,
            188.3
          ],
          [
            1.573232,
            43.498637,
            188.98
          ],
          [
            1.573155,
            43.498737,
            189.0
          ],
          [
            1.573406,
            43.499053,
            189.0
          ],
          [
            1.573718,
            43.499347,
            189.47
          ],
          [
            1.574613,
            43.500097,
            193.14
          ],
          [
            1.57558,
            43.500815,
            199.26
          ],
          [
            1.575805,
            43.501015,
            200.0
          ],
          [
            1.576026,
            43.501238,
            198.3
          ],
          [
            1.576124,
            43.501504,
            195.99
          ],
          [
            1.576196,
            43.50177,
            193.66
          ],
          [
            1.576301,
            43.501881,
            192.8
          ],
          [
            1.575658,
            43.501391,
            197.34
          ]
        ]
      }
    },
    {
      "type": "Feature",
      "properties": {
        "source": "Ayguesvives__Belber..gpx",
        "type": "route"
      },
      "geometry": {
        "type": "LineString",
        "coordinates": [
          [
            1.595509,
            43.438513
          ],
          [
            1.595546,
            43.4385
          ],
          [
            1.595978,
            43.43847
          ],
          [
            1.595952,
            43.4388
          ],
          [
            1.593077,
            43.441927
          ],
          [
            1.59119,
            43.442569
          ],
          [
            1.578179,
            43.450643
          ],
          [
            1.579376,
            43.452462
          ],
          [
            1.579376,
            43.452462
          ],
          [
            1.5808,
            43.456183
          ],
          [
            1.579764,
            43.456815
          ],
          [
            1.572519,
            43.459489
          ],
          [
            1.570905,
            43.461758
          ],
          [
            1.570728,
            43.462101
          ],
          [
            1.57069,
            43.462131
          ],
          [
            1.570507,
            43.462863
          ],
          [
            1.57085,
            43.463005
          ],
          [
            1.5701,
            43.463981
          ],
          [
            1.569579,
            43.464444
          ],
          [
            1.577789,
            43.477447
          ],
          [
            1.569639,
            43.486735
          ],
          [
            1.570839,
            43.48716
          ],
          [
            1.571174,
            43.487731
          ],
          [
            1.570832,
            43.488247
          ],
          [
            1.571137,
            43.488564
          ],
          [
            1.574075,
            43.491734
          ],
          [
            1.573155,
            43.498737
          ],
          [
            1.576301,
            43.501881
          ],
          [
            1.575658,
            43.501391
          ]
        ]
      }
    }
  ]
}