{
  "type": "FeatureCollection",
  "features": [
    {
      "type": "Feature",
      "properties": {
        "name": "GraphHopper Track",
        "source": "Sentiers_Familles.gpx",
        "type": "track"
      },
      "geometry": {
        "type": "LineString",
        "coordinates": [
          [
            2.804228,
            43.654229,
            792.88
          ],
          [
            2.804198,
            43.654179,
            793.3
          ],
          [
            2.804127,
            43.6542,
            792.27
          ],
          [
            2.804033,
            43.65417,
            791.35
          ],
          [
            2.803907,
            43.654112,
            790.65
          ],
          [
            2.803816,
            43.654022,
            789.94
          ],
          [
            2.803646,
            43.653804,
            788.34
          ],
          [
            2.80357,
            43.653756,
            787.13
          ],
          [
            2.803398,
            43.654107,
            782.66
          ],
          [
            2.803359,
            43.654327,
            780.92
          ],
          [
            2.803455,
            43.654523,
            779.04
          ],
          [
            2.803454,
            43.654614,
            778.45
          ],
          [
            2.803392,
            43.654682,
            777.92
          ],
          [
            2.803387,
            43.654964,
            776.27
          ],
          [
            2.803425,
            43.65522,
            776.5
          ],
          [
            2.803416,
            43.655768,
            777.54
          ],
          [
            2.803299,
            43.657789,
            780.14
          ],
          [
            2.80293,
            43.658982,
            778.42
          ],
          [
            2.80291,
            43.659137,
            778.35
          ],
          [
            2.802913,
            43.659237,
            779.01
          ],
          [
            2.802798,
            43.659492,
            778.67
          ],
          [
            2.80277,
            43.659635,
            778.69
          ],
          [
            2.802764,
            43.659737,
            778.81
          ],
          [
            2.802862,
            43.660625,
            779.95
          ],
          [
            2.802454,
            43.660656,
            777.0
          ],
          [
            2.800959,
            43.66064,
            777.19
          ],
          [
            2.800773,
            43.660626,
            777.34
          ],
          [
            2.800597,
            43.660583,
            777.54
          ],
          [
            2.799621,
            43.660252,
            779.69
          ],
          [
            2.799536,
            43.660219,
            780.23
          ],
          [
            2.799509,
            43.660191,
            780.53
          ],
          [
            2.799444,
            43.660225,
            780.71
          ],
          [
            2.799074,
            43.660535,
            781.72
          ],
          [
            2.798763,
            43.660804,
            782.56
          ],
          [
            2.798645,
            43.66092,
            782.93
          ],
          [
            2.798528,
            43.661281,
            784.02
          ],
          [
            2.798523,
            43.662101,
            787.17
          ],
          [
            2.798424,
            43.662496,
            788.75
          ],
          [
            2.798283,
            43.6627,
            789.52
          ],
          [
            2.798029,
            43.662949,
            790.49
          ],
          [
            2.797479,
            43.663357,
            792.28
          ],
          [
            2.79744,
            43.663401,
            792.42
          ],
          [
            2.797407,
            43.663263,
            793.69
          ],
          [
            2.797488,
            43.66313,
            794.0
          ],
          [
            2.797662,
            43.663037,
            794.35
          ],
          [
            2.797777,
            43.66289,
            794.8
          ],
          [
            2.798003,
            43.662541,
            796.76
          ],
          [
            2.798032,
            43.662322,
            798.3
          ],
          [
            2.797924,
            43.661951,
            801.62
          ],
          [
            2.797693,
            43.661537,
            806.04
          ],
          [
            2.7976,
            43.661178,
            809.03
          ],
          [
            2.79756,
            43.660704,
            811.68
          ],
          [
            2.797718,
            43.660277,
            813.26
          ],
          [
            2.797753,
            43.65968,
            815.72
          ],
          [
            2.797691,
            43.658888,
            820.33
          ],
          [
            2.79781,
            43.658383,
            823.31
          ],
          [
            2.797887,
            43.657758,
            827.17
          ],
          [
            2.797885,
            43.657064,
            831.81
          ],
          [
            2.798043,
            43.656782,
            833.79
          ],
          [
            2.798209,
            43.656713,
            834.62
          ],
          [
            2.798514,
            43.656653,
            835.84
          ],
          [
            2.799274,
            43.656623,
            838.54
          ],
          [
            2.799596,
            43.656539,
            839.58
          ],
          [
            2.799801,
            43.656386,
            840.56
          ],
          [
            2.79991,
            43.656249,
            841.35
          ],
          [
            2.799997,
            43.655992,
            842.9
          ],
          [
            2.800054,
            43.655693,
            844.86
          ],
          [
            2.800034,
            43.655462,
            846.39
          ],
          [
            2.799954,
            43.655255,
            847.92
          ],
          [
            2.799683,
            43.654934,
            850.37
          ],
          [
            2.799551,
            43.654812,
            851.3
          ],
          [
            2.79933,
            43.65465,
            853.18
          ],
          [
            2.798891,
            43.654463,
            856.03
          ],
          [
            2.798727,
            43.654423,
            856.88
          ],
          [
            2.798532,
            43.65441,
            857.82
          ],
          [
            2.798343,
            43.654419,
            858.69
          ],
          [
            2.798078,
            43.654508,
            859.82
          ],
          [
            2.797606,
            43.654784,
            861.97
          ],
          [
            2.796949,
            43.655381,
            867.01
          ],
          [
            2.796824,
            43.655595,
            868.13
          ],
          [
            2.796782,
            43.655806,
            869.26
          ],
          [
            2.796786,
            43.656293,
            869.64
          ],
          [
            2.796739,
            43.656327,
            870.25
          ],
          [
            2.796676,
            43.65635,
            871.97
          ],
          [
            2.796587,
            43.656332,
            874.36
          ],
          [
            2.79654,
            43.656296,
            875.01
          ],
          [
            2.796539,
            43.656229,
            875.77
          ],
          [
            2.796565,
            43.656148,
            875.23
          ],
          [
            2.796546,
            43.656003,
            876.36
          ],
          [
            2.796358,
            43.655768,
            878.35
          ],
          [
            2.796127,
            43.655566,
            879.7
          ],
          [
            2.795968,
            43.655469,
            880.71
          ],
          [
            2.795852,
            43.655434,
            881.3
          ],
          [
            2.795716,
            43.655418,
            881.91
          ],
          [
            2.795369,
            43.655432,
            883.55
          ],
          [
            2.79467,
            43.655419,
            888.29
          ],
          [
            2.794501,
            43.655397,
            889.49
          ],
          [
            2.794374,
            43.655354,
            890.44
          ],
          [
            2.794221,
            43.655171,
            892.34
          ],
          [
            2.794154,
            43.654931,
            894.33
          ],
          [
            2.794122,
            43.654436,
            897.0
          ],
          [
            2.794022,
            43.654252,
            897.52
          ],
          [
            2.793848,
            43.654184,
            897.55
          ],
          [
            2.793658,
            43.654169,
            897.5
          ],
          [
            2.793347,
            43.654316,
            899.8
          ],
          [
            2.793205,
            43.654469,
            901.61
          ],
          [
            2.792958,
            43.654857,
            905.32
          ],
          [
            2.792604,
            43.655268,
            908.92
          ],
          [
            2.792164,
            43.655617,
            912.04
          ],
          [
            2.791853,
            43.655998,
            914.53
          ],
          [
            2.791488,
            43.656363,
            917.14
          ],
          [
            2.791584,
            43.6564,
            917.57
          ],
          [
            2.791731,
            43.656252,
            918.46
          ],
          [
            2.792194,
            43.65604,
            920.81
          ],
          [
            2.792475,
            43.655973,
            922.1
          ],
          [
            2.792661,
            43.656019,
            923.02
          ],
          [
            2.792939,
            43.656296,
            925.34
          ],
          [
            2.793184,
            43.656409,
            925.32
          ],
          [
            2.794085,
            43.656704,
            923.64
          ],
          [
            2.794675,
            43.656875,
            921.88
          ],
          [
            2.794879,
            43.657059,
            921.1
          ],
          [
            2.794953,
            43.657249,
            920.65
          ],
          [
            2.794943,
            43.657387,
            920.4
          ],
          [
            2.794833,
            43.657884,
            919.59
          ],
          [
            2.794844,
            43.65822,
            918.92
          ],
          [
            2.794893,
            43.658548,
            917.36
          ],
          [
            2.794893,
            43.658548,
            917.36
          ],
          [
            2.794844,
            43.65822,
            918.92
          ],
          [
            2.794833,
            43.657884,
            919.59
          ],
          [
            2.794943,
            43.657387,
            920.4
          ],
          [
            2.794953,
            43.657249,
            920.65
          ],
          [
            2.794879,
            43.657059,
            921.1
          ],
          [
            2.794675,
            43.656875,
            921.88
          ],
          [
            2.794085,
            43.656704,
            923.64
          ],
          [
            2.793184,
            43.656409,
            925.32
          ],
          [
            2.792939,
            43.656296,
            925.34
          ],
          [
            2.792661,
            43.656019,
            923.02
          ],
          [
            2.792475,
            43.655973,
            922.1
          ],
          [
            2.792194,
            43.65604,
            920.81
          ],
          [
            2.791731,
            43.656252,
            918.46
          ],
          [
            2.791584,
            43.6564,
            917.57
          ],
          [
            2.791488,
            43.656363,
            917.14
          ],
          [
            2.791853,
            43.655998,
            914.53
          ],
          [
            2.792164,
            43.655617,
            912.04
          ],
          [
            2.792604,
            43.655268,
            908.92
          ],
          [
            2.792958,
            43.654857,
            905.32
          ],
          [
            2.793205,
            43.654469,
            901.61
          ],
          [
            2.793347,
            43.654316,
            899.8
          ],
          [
            2.793658,
            43.654169,
            897.5
          ],
          [
            2.793848,
            43.654184,
            897.55
          ],
          [
            2.794022,
            43.654252,
            897.52
          ],
          [
            2.794122,
            43.654436,
            897.0
          ],
          [
            2.794154,
            43.654931,
            894.33
          ],
          [
            2.794221,
            43.655171,
            892.34
          ],
          [
            2.794374,
            43.655354,
            890.44
          ],
          [
            2.794501,
            43.655397,
            889.49
          ],
          [
            2.79467,
            43.655419,
            888.29
          ],
          [
            2.795369,
            43.655432,
            883.55
          ],
          [
            2.795716,
            43.655418,
            881.91
          ],
          [
            2.795852,
            43.655434,
            881.3
          ],
          [
            2.795968,
            43.655469,
            880.71
          ],
          [
            2.796127,
            43.655566,
            879.7
          ],
          [
            2.796358,
            43.655768,
            878.35
          ],
          [
            2.796546,
            43.656003,
            876.36
          ],
          [
            2.796565,
            43.656148,
            875.23
          ],
          [
            2.796539,
            43.656229,
            875.77
          ],
          [
            2.79654,
            43.656296,
            875.01
          ],
          [
            2.796587,
            43.656332,
            874.36
          ],
          [
            2.796676,
            43.65635,
            871.97
          ],
          [
            2.796739,
            43.656327,
            870.25
          ],
          [
            2.796786,
            43.656293,
            869.64
          ],
          [
            2.796782,
            43.655806,
            869.26
          ],
          [
            2.796824,
            43.655595,
            868.13
          ],
          [
            2.796949,
            43.655381,
            867.01
          ],
          [
            2.797606,
            43.654784,
            861.97
          ],
          [
            2.798078,
            43.654508,
            859.82
          ],
          [
            2.798343,
            43.654419,
            858.69
          ],
          [
            2.798532,
            43.65441,
            857.82
          ],
          [
            2.798727,
            43.654423,
            856.88
          ],
          [
            2.798891,
            43.654463,
            856.03
          ],
          [
            2.79933,
            43.65465,
            853.18
          ],
          [
            2.799551,
            43.654812,
            851.3
          ],
          [
            2.799683,
            43.654934,
            850.37
          ],
          [
            2.799924,
            43.655001,
            846.4
          ],
          [
            2.800168,
            43.655201,
            843.0
          ],
          [
            2.800293,
            43.655387,
            840.23
          ],
          [
            2.800395,
            43.655683,
            836.8
          ],
          [
            2.800435,
            43.655867,
            835.08
          ],
          [
            2.80043,
            43.656043,
            833.46
          ],
          [
            2.800375,
            43.656218,
            831.81
          ],
          [
            2.800257,
            43.656445,
            829.65
          ],
          [
            2.800104,
            43.656666,
            827.46
          ],
          [
            2.799965,
            43.656803,
            825.96
          ],
          [
            2.799572,
            43.656984,
            822.83
          ],
          [
            2.799291,
            43.657037,
            820.67
          ],
          [
            2.798994,
            43.657064,
            818.54
          ],
          [
            2.798894,
            43.657089,
            817.82
          ],
          [
            2.798872,
            43.657126,
            817.44
          ],
          [
            2.798888,
            43.657156,
            817.15
          ],
          [
            2.798979,
            43.657188,
            816.47
          ],
          [
            2.799401,
            43.657207,
            813.7
          ],
          [
            2.79988,
            43.657292,
            810.58
          ],
          [
            2.800299,
            43.657292,
            808.8
          ],
          [
            2.800869,
            43.657043,
            806.39
          ],
          [
            2.801173,
            43.656844,
            804.74
          ],
          [
            2.801296,
            43.656791,
            803.99
          ],
          [
            2.801393,
            43.656777,
            803.41
          ],
          [
            2.801432,
            43.656783,
            803.15
          ],
          [
            2.801449,
            43.6568,
            802.96
          ],
          [
            2.801432,
            43.656839,
            802.57
          ],
          [
            2.801362,
            43.656911,
            801.68
          ],
          [
            2.801309,
            43.657006,
            800.59
          ],
          [
            2.801204,
            43.657316,
            797.06
          ],
          [
            2.801131,
            43.657478,
            795.32
          ],
          [
            2.801075,
            43.657566,
            794.37
          ],
          [
            2.801011,
            43.657643,
            793.48
          ],
          [
            2.800941,
            43.657692,
            792.8
          ],
          [
            2.800814,
            43.657741,
            791.78
          ],
          [
            2.800787,
            43.657768,
            791.46
          ],
          [
            2.800797,
            43.657796,
            791.18
          ],
          [
            2.800846,
            43.657813,
            790.81
          ],
          [
            2.800942,
            43.657805,
            790.16
          ],
          [
            2.801161,
            43.657749,
            788.72
          ],
          [
            2.801416,
            43.657649,
            787.04
          ],
          [
            2.801473,
            43.657645,
            786.69
          ],
          [
            2.801515,
            43.65767,
            786.4
          ],
          [
            2.801515,
            43.657712,
            786.07
          ],
          [
            2.801479,
            43.657765,
            785.55
          ],
          [
            2.801182,
            43.658032,
            782.17
          ],
          [
            2.800834,
            43.658401,
            779.08
          ],
          [
            2.800848,
            43.658504,
            778.57
          ],
          [
            2.800387,
            43.658749,
            779.24
          ],
          [
            2.80026,
            43.658833,
            779.44
          ],
          [
            2.800137,
            43.658924,
            779.65
          ],
          [
            2.800049,
            43.659031,
            779.84
          ],
          [
            2.799967,
            43.659183,
            780.06
          ],
          [
            2.799508,
            43.660155,
            780.54
          ],
          [
            2.799509,
            43.660191,
            780.53
          ],
          [
            2.799536,
            43.660219,
            780.23
          ],
          [
            2.799621,
            43.660252,
            779.69
          ],
          [
            2.800597,
            43.660583,
            777.54
          ],
          [
            2.800773,
            43.660626,
            777.34
          ],
          [
            2.800959,
            43.66064,
            777.19
          ],
          [
            2.802454,
            43.660656,
            777.0
          ],
          [
            2.802862,
            43.660625,
            779.95
          ],
          [
            2.802764,
            43.659737,
            778.81
          ],
          [
            2.80277,
            43.659635,
            778.69
          ],
          [
            2.802798,
            43.659492,
            778.67
          ],
          [
            2.803424,
            43.658149,
            785.02
          ],
          [
            2.803625,
            43.657657,
            787.01
          ],
          [
            2.80387,
            43.657036,
            788.57
          ],
          [
            2.804177,
            43.656125,
            790.69
          ],
          [
            2.804241,
            43.655901,
            791.22
          ],
          [
            2.804271,
            43.655674,
            791.76
          ],
          [
            2.804336,
            43.65468,
            792.35
          ],
          [
            2.80433,
            43.654477,
            791.96
          ],
          [
            2.80429,
            43.654336,
            791.98
          ],
          [
            2.804228,
            43.654229,
            792.88
          ]
        ]
      }
    },
    {
      "type": "Feature",
      "properties": {
        "source": "Sentiers_Familles.gpx",
        "type": "route"
      },
      "geometry": {
        "type": "LineString",
        "coordinates": [
          [
            2.804228,
            43.654229
          ],
          [
            2.804198,
            43.654179
          ],
          [
            2.80357,
            43.653756
          ],
          [
            2.802913,
            43.659237
          ],
          [
            2.802862,
            43.660625
          ],
          [
            2.799509,
            43.660191
          ],
          [
            2.79744,
            43.663401
          ],
          [
            2.796676,
            43.65635
          ],
          [
            2.793658,
            43.654169
          ],
          [
            2.794893,
            43.658548
          ],
          [
            2.794893,
            43.658548
          ],
          [
            2.793658,
            43.654169
          ],
          [
            2.796676,
            43.65635
          ],
          [
            2.799683,
            43.654934
          ],
          [
            2.800848,
            43.658504
          ],
          [
            2.802862,
            43.660625
          ],
          [
            2.804228,
            43.654229
          ]
        ]
      }
    }
  ]
}