{
  "type": "FeatureCollection",
  "features": [
    {
      "type": "Feature",
      "properties": {
        "name": "GraphHopper Track",
        "source": "St-Nicolas__Golfech.gpx",
        "type": "track"
      },
      "geometry": {
        "type": "LineString",
        "coordinates": [
          [
            1.081479,
            44.102496,
            70.41
          ],
          [
            1.081356,
            44.102807,
            71.0
          ],
          [
            1.082334,
            44.10306,
            72.0
          ],
          [
            1.083121,
            44.103209,
            73.0
          ],
          [
            1.083577,
            44.103315,
            73.33
          ],
          [
            1.083995,
            44.10344,
            73.35
          ],
          [
            1.084149,
            44.103518,
            73.99
          ],
          [
            1.084814,
            44.103823,
            74.0
          ],
          [
            1.084866,
            44.103879,
            74.0
          ],
          [
            1.084663,
            44.104672,
            74.99
          ],
          [
            1.084679,
            44.104706,
            75.0
          ],
          [
            1.084713,
            44.104732,
            75.0
          ],
          [
            1.084745,
            44.104772,
            75.0
          ],
          [
            1.084774,
            44.10484,
            75.0
          ],
          [
            1.084788,
            44.104952,
            75.0
          ],
          [
            1.084852,
            44.104957,
            75.0
          ],
          [
            1.08483,
            44.105081,
            75.0
          ],
          [
            1.085134,
            44.105163,
            75.0
          ],
          [
            1.085269,
            44.105218,
            75.0
          ],
          [
            1.08551,
            44.105338,
            74.9
          ],
          [
            1.085485,
            44.105369,
            74.94
          ],
          [
            1.085741,
            44.105492,
            74.46
          ],
          [
            1.086168,
            44.105573,
            74.0
          ],
          [
            1.086168,
            44.105573,
            74.0
          ],
          [
            1.085741,
            44.105492,
            74.46
          ],
          [
            1.085485,
            44.105369,
            74.94
          ],
          [
            1.08551,
            44.105338,
            74.9
          ],
          [
            1.085269,
            44.105218,
            75.0
          ],
          [
            1.085134,
            44.105163,
            75.0
          ],
          [
            1.08483,
            44.105081,
            75.0
          ],
          [
            1.084852,
            44.104957,
            75.0
          ],
          [
            1.084788,
            44.104952,
            75.0
          ],
          [
            1.084774,
            44.10484,
            75.0
          ],
          [
            1.084745,
            44.104772,
            75.0
          ],
          [
            1.084713,
            44.104732,
            75.0
          ],
          [
            1.084679,
            44.104706,
            75.0
          ],
          [
            1.084663,
            44.104672,
            74.99
          ],
          [
            1.084866,
            44.103879,
            74.0
          ],
          [
            1.084814,
            44.103823,
            74.0
          ],
          [
            1.084149,
            44.103518,
            73.99
          ],
          [
            1.083995,
            44.10344,
            73.35
          ],
          [
            1.083577,
            44.103315,
            73.33
          ],
          [
            1.083121,
            44.103209,
            73.0
          ],
          [
            1.082597,
            44.103114,
            72.79
          ],
          [
            1.082253,
            44.103041,
            72.0
          ],
          [
            1.082271,
            44.10291,
            72.0
          ],
          [
            1.082452,
            44.102532,
            72.0
          ],
          [
            1.081735,
            44.102335,
            70.26
          ],
          [
            1.080089,
            44.10186,
            69.7
          ],
          [
            1.077997,
            44.10127,
            69.93
          ],
          [
            1.077951,
            44.101265,
            69.9
          ],
          [
            1.077885,
            44.101284,
            69.85
          ],
          [
            1.077839,
            44.101352,
            69.58
          ],
          [
            1.077763,
            44.101405,
            69.12
          ],
          [
            1.077763,
            44.10134,
            69.65
          ],
          [
            1.077911,
            44.101063,
            71.87
          ],
          [
            1.077938,
            44.100949,
            71.82
          ],
          [
            1.077895,
            44.100932,
            71.9
          ],
          [
            1.077879,
            44.100919,
            71.79
          ],
          [
            1.077802,
            44.10091,
            71.39
          ],
          [
            1.077646,
            44.100848,
            70.81
          ],
          [
            1.077524,
            44.10089,
            70.23
          ],
          [
            1.077097,
            44.100846,
            69.9
          ],
          [
            1.074259,
            44.10085,
            69.67
          ],
          [
            1.074059,
            44.10084,
            69.76
          ],
          [
            1.073984,
            44.100805,
            69.98
          ],
          [
            1.073737,
            44.100834,
            69.82
          ],
          [
            1.073506,
            44.100828,
            69.85
          ],
          [
            1.073254,
            44.100808,
            69.8
          ],
          [
            1.072637,
            44.100722,
            69.59
          ],
          [
            1.072169,
            44.100631,
            69.55
          ],
          [
            1.071534,
            44.100459,
            69.56
          ],
          [
            1.071186,
            44.100339,
            69.67
          ],
          [
            1.068906,
            44.099458,
            69.29
          ],
          [
            1.067984,
            44.09909,
            69.39
          ],
          [
            1.067397,
            44.098777,
            69.39
          ],
          [
            1.066914,
            44.098492,
            69.26
          ],
          [
            1.064219,
            44.096675,
            69.0
          ],
          [
            1.063784,
            44.096392,
            68.91
          ],
          [
            1.063454,
            44.096208,
            68.93
          ],
          [
            1.062993,
            44.095998,
            68.94
          ],
          [
            1.06265,
            44.095863,
            69.04
          ],
          [
            1.062233,
            44.09573,
            69.17
          ],
          [
            1.061692,
            44.095615,
            69.17
          ],
          [
            1.061286,
            44.095538,
            69.18
          ],
          [
            1.060491,
            44.095457,
            69.01
          ],
          [
            1.057053,
            44.095166,
            68.93
          ],
          [
            1.056532,
            44.095099,
            68.94
          ],
          [
            1.055652,
            44.094938,
            69.0
          ],
          [
            1.054992,
            44.094779,
            69.0
          ],
          [
            1.054559,
            44.094657,
            69.0
          ],
          [
            1.05404,
            44.094494,
            69.0
          ],
          [
            1.053733,
            44.094379,
            69.0
          ],
          [
            1.053147,
            44.094141,
            69.0
          ],
          [
            1.052362,
            44.093762,
            69.0
          ],
          [
            1.051549,
            44.093342,
            69.0
          ],
          [
            1.051378,
            44.093236,
            69.14
          ],
          [
            1.051321,
            44.093177,
            69.42
          ],
          [
            1.051069,
            44.093056,
            69.65
          ],
          [
            1.050954,
            44.092982,
            68.71
          ],
          [
            1.050796,
            44.092927,
            68.39
          ],
          [
            1.047114,
            44.090996,
            68.27
          ],
          [
            1.046806,
            44.090845,
            68.2
          ],
          [
            1.046448,
            44.090706,
            68.12
          ],
          [
            1.046101,
            44.090594,
            68.05
          ],
          [
            1.045559,
            44.09046,
            68.02
          ],
          [
            1.045257,
            44.090408,
            68.02
          ],
          [
            1.042139,
            44.089948,
            68.01
          ],
          [
            1.041871,
            44.089924,
            68.01
          ],
          [
            1.041645,
            44.089915,
            68.02
          ],
          [
            1.041238,
            44.089913,
            68.08
          ],
          [
            1.040936,
            44.089948,
            68.13
          ],
          [
            1.040662,
            44.089995,
            68.22
          ],
          [
            1.040258,
            44.09011,
            68.5
          ],
          [
            1.037129,
            44.091358,
            67.91
          ],
          [
            1.035413,
            44.091853,
            67.99
          ],
          [
            1.033443,
            44.092194,
            67.99
          ],
          [
            1.031525,
            44.092386,
            67.94
          ],
          [
            1.030345,
            44.09261,
            67.97
          ],
          [
            1.02921,
            44.092924,
            68.0
          ],
          [
            1.027084,
            44.093555,
            67.92
          ],
          [
            1.026018,
            44.093787,
            68.0
          ],
          [
            1.024938,
            44.093923,
            68.0
          ],
          [
            1.023847,
            44.093918,
            68.0
          ],
          [
            1.023133,
            44.093864,
            68.0
          ],
          [
            1.022146,
            44.093712,
            68.0
          ],
          [
            1.021563,
            44.093569,
            68.0
          ],
          [
            1.020689,
            44.093283,
            67.99
          ],
          [
            1.017384,
            44.091958,
            67.99
          ],
          [
            1.016479,
            44.09166,
            67.99
          ],
          [
            1.015442,
            44.091418,
            67.98
          ],
          [
            1.014415,
            44.091273,
            67.88
          ],
          [
            1.013645,
            44.091223,
            67.96
          ],
          [
            1.009439,
            44.091118,
            67.74
          ],
          [
            1.008412,
            44.091186,
            67.88
          ],
          [
            1.006292,
            44.091477,
            68.0
          ],
          [
            1.005904,
            44.091478,
            67.83
          ],
          [
            1.005681,
            44.091503,
            67.34
          ],
          [
            1.005305,
            44.091575,
            65.8
          ],
          [
            1.004711,
            44.091608,
            65.51
          ],
          [
            1.004569,
            44.091607,
            65.45
          ],
          [
            0.994515,
            44.090355,
            65.7
          ],
          [
            0.993668,
            44.090161,
            65.97
          ],
          [
            0.993098,
            44.090018,
            65.86
          ],
          [
            0.991809,
            44.08947,
            65.62
          ],
          [
            0.98501,
            44.084357,
            65.19
          ],
          [
            0.984482,
            44.084024,
            65.42
          ],
          [
            0.984177,
            44.083886,
            65.9
          ],
          [
            0.983952,
            44.083805,
            66.01
          ],
          [
            0.982904,
            44.0836,
            65.98
          ],
          [
            0.98188,
            44.083436,
            65.86
          ],
          [
            0.981405,
            44.083421,
            65.85
          ],
          [
            0.98093,
            44.083454,
            65.89
          ],
          [
            0.980233,
            44.08359,
            66.15
          ],
          [
            0.97988,
            44.083622,
            66.86
          ],
          [
            0.97948,
            44.083702,
            67.57
          ],
          [
            0.978188,
            44.083919,
            64.19
          ],
          [
            0.977879,
            44.083993,
            63.7
          ],
          [
            0.977088,
            44.084252,
            63.13
          ],
          [
            0.976831,
            44.084364,
            63.15
          ],
          [
            0.976361,
            44.084594,
            63.48
          ],
          [
            0.97593,
            44.084856,
            64.64
          ],
          [
            0.975192,
            44.085353,
            65.76
          ],
          [
            0.973426,
            44.0865,
            66.04
          ],
          [
            0.972861,
            44.086858,
            66.66
          ],
          [
            0.972425,
            44.087123,
            66.16
          ],
          [
            0.971784,
            44.087403,
            65.7
          ],
          [
            0.971295,
            44.087581,
            65.41
          ],
          [
            0.969933,
            44.088002,
            65.48
          ],
          [
            0.969636,
            44.088082,
            66.44
          ],
          [
            0.969433,
            44.088112,
            67.01
          ],
          [
            0.969302,
            44.088149,
            67.06
          ],
          [
            0.969042,
            44.088239,
            66.29
          ],
          [
            0.968918,
            44.088308,
            65.61
          ],
          [
            0.968884,
            44.088393,
            65.06
          ],
          [
            0.964472,
            44.089627,
            65.19
          ],
          [
            0.964199,
            44.089602,
            65.19
          ],
          [
            0.964147,
            44.089603,
            65.19
          ],
          [
            0.9641,
            44.089612,
            65.19
          ],
          [
            0.964027,
            44.08965,
            65.18
          ],
          [
            0.96396,
            44.089711,
            65.16
          ],
          [
            0.963912,
            44.089777,
            65.14
          ],
          [
            0.953732,
            44.092646,
            64.18
          ],
          [
            0.95033,
            44.093551,
            66.08
          ],
          [
            0.949148,
            44.093899,
            65.03
          ],
          [
            0.94186,
            44.095441,
            63.75
          ],
          [
            0.934465,
            44.096974,
            63.0
          ],
          [
            0.928059,
            44.098282,
            62.74
          ],
          [
            0.924234,
            44.099055,
            62.56
          ],
          [
            0.921484,
            44.09941,
            60.75
          ],
          [
            0.921449,
            44.099299,
            61.11
          ],
          [
            0.919035,
            44.099625,
            61.0
          ],
          [
            0.917653,
            44.099804,
            61.0
          ],
          [
            0.91687,
            44.099896,
            61.06
          ],
          [
            0.916349,
            44.100034,
            61.24
          ],
          [
            0.91602,
            44.100046,
            62.9
          ],
          [
            0.915905,
            44.100061,
            62.85
          ],
          [
            0.915481,
            44.100177,
            61.61
          ],
          [
            0.914718,
            44.100316,
            61.01
          ],
          [
            0.914142,
            44.100448,
            60.96
          ],
          [
            0.908493,
            44.101821,
            60.86
          ],
          [
            0.900982,
            44.103665,
            59.94
          ],
          [
            0.900727,
            44.103666,
            59.85
          ],
          [
            0.899116,
            44.104028,
            59.22
          ],
          [
            0.898327,
            44.10412,
            59.08
          ],
          [
            0.897625,
            44.104148,
            59.11
          ],
          [
            0.893799,
            44.104157,
            59.75
          ],
          [
            0.893619,
            44.104134,
            59.94
          ],
          [
            0.893475,
            44.104099,
            60.11
          ],
          [
            0.893076,
            44.104098,
            60.68
          ],
          [
            0.892908,
            44.104109,
            61.38
          ],
          [
            0.892758,
            44.104158,
            60.77
          ],
          [
            0.892614,
            44.104171,
            60.19
          ],
          [
            0.892456,
            44.104162,
            59.88
          ],
          [
            0.892209,
            44.104105,
            59.52
          ],
          [
            0.892069,
            44.104114,
            59.41
          ],
          [
            0.891883,
            44.104157,
            59.2
          ],
          [
            0.891169,
            44.104161,
            58.75
          ],
          [
            0.890644,
            44.104183,
            58.63
          ],
          [
            0.890137,
            44.104261,
            58.55
          ],
          [
            0.889734,
            44.104359,
            58.49
          ],
          [
            0.88935,
            44.104479,
            58.46
          ],
          [
            0.887961,
            44.105054,
            58.76
          ],
          [
            0.887099,
            44.105376,
            58.97
          ],
          [
            0.886703,
            44.10551,
            60.15
          ],
          [
            0.886713,
            44.105449,
            60.13
          ],
          [
            0.886783,
            44.105333,
            60.0
          ],
          [
            0.886661,
            44.105349,
            60.07
          ],
          [
            0.886399,
            44.105349,
            60.57
          ],
          [
            0.886189,
            44.105378,
            60.95
          ],
          [
            0.886027,
            44.105452,
            60.92
          ],
          [
            0.885961,
            44.105418,
            60.11
          ],
          [
            0.8858,
            44.105403,
            59.04
          ],
          [
            0.885589,
            44.105429,
            58.0
          ],
          [
            0.885567,
            44.105475,
            58.0
          ],
          [
            0.88561,
            44.105529,
            58.0
          ],
          [
            0.885685,
            44.10556,
            58.0
          ],
          [
            0.885833,
            44.105666,
            58.54
          ],
          [
            0.885905,
            44.105758,
            59.05
          ],
          [
            0.885932,
            44.105872,
            58.91
          ],
          [
            0.885892,
            44.105916,
            58.6
          ],
          [
            0.872482,
            44.111474,
            59.04
          ],
          [
            0.872254,
            44.111611,
            59.07
          ],
          [
            0.871881,
            44.111907,
            59.23
          ],
          [
            0.871812,
            44.11202,
            59.3
          ],
          [
            0.871704,
            44.112348,
            59.55
          ],
          [
            0.871686,
            44.112471,
            59.56
          ],
          [
            0.871685,
            44.112585,
            59.56
          ],
          [
            0.871746,
            44.112781,
            59.49
          ],
          [
            0.871805,
            44.112835,
            59.48
          ],
          [
            0.871818,
            44.112972,
            59.43
          ],
          [
            0.871776,
            44.11304,
            59.39
          ],
          [
            0.871776,
            44.113252,
            59.23
          ],
          [
            0.871681,
            44.113667,
            59.0
          ],
          [
            0.871531,
            44.113974,
            59.27
          ],
          [
            0.871253,
            44.114297,
            59.38
          ],
          [
            0.871274,
            44.114357,
            59.38
          ],
          [
            0.871279,
            44.114409,
            59.38
          ],
          [
            0.871159,
            44.114544,
            59.38
          ],
          [
            0.871075,
            44.114578,
            59.38
          ],
          [
            0.870998,
            44.114592,
            59.37
          ],
          [
            0.870406,
            44.114903,
            59.1
          ],
          [
            0.870121,
            44.115004,
            58.92
          ],
          [
            0.869654,
            44.115129,
            58.76
          ],
          [
            0.869233,
            44.115194,
            58.7
          ],
          [
            0.867626,
            44.115382,
            58.81
          ],
          [
            0.865148,
            44.11569,
            58.23
          ],
          [
            0.864907,
            44.115736,
            58.43
          ],
          [
            0.864802,
            44.115532,
            58.55
          ],
          [
            0.864653,
            44.115406,
            58.42
          ],
          [
            0.864498,
            44.115296,
            58.23
          ],
          [
            0.864209,
            44.115129,
            58.01
          ],
          [
            0.864128,
            44.115096,
            58.0
          ],
          [
            0.864044,
            44.115074,
            58.0
          ],
          [
            0.863878,
            44.115085,
            58.0
          ],
          [
            0.863332,
            44.114795,
            58.59
          ],
          [
            0.863158,
            44.114267,
            58.0
          ],
          [
            0.86304,
            44.11428,
            57.97
          ],
          [
            0.862885,
            44.114336,
            57.79
          ],
          [
            0.862701,
            44.11444,
            57.59
          ],
          [
            0.862502,
            44.114566,
            57.41
          ],
          [
            0.862357,
            44.114624,
            57.33
          ],
          [
            0.86053,
            44.114927,
            57.27
          ],
          [
            0.859935,
            44.114985,
            57.28
          ],
          [
            0.859662,
            44.115042,
            57.3
          ],
          [
            0.859316,
            44.115144,
            57.26
          ],
          [
            0.859144,
            44.115175,
            57.27
          ],
          [
            0.858761,
            44.115205,
            57.27
          ],
          [
            0.858222,
            44.115303,
            57.17
          ],
          [
            0.858101,
            44.115298,
            57.16
          ],
          [
            0.85798,
            44.115276,
            57.1
          ],
          [
            0.857883,
            44.115223,
            57.41
          ],
          [
            0.857655,
            44.115371,
            57.97
          ],
          [
            0.857579,
            44.115412,
            57.99
          ],
          [
            0.857478,
            44.115443,
            58.02
          ],
          [
            0.856831,
            44.115551,
            58.19
          ],
          [
            0.856563,
            44.115545,
            57.97
          ],
          [
            0.85638,
            44.115518,
            57.93
          ],
          [
            0.856198,
            44.115474,
            57.75
          ],
          [
            0.855651,
            44.11527,
            57.33
          ],
          [
            0.855443,
            44.115178,
            57.21
          ],
          [
            0.855336,
            44.115119,
            57.15
          ],
          [
            0.855,
            44.114893,
            57.03
          ],
          [
            0.854625,
            44.114569,
            57.09
          ],
          [
            0.854574,
            44.114587,
            57.18
          ],
          [
            0.854505,
            44.114546,
            57.57
          ],
          [
            0.854429,
            44.114463,
            57.83
          ],
          [
            0.854337,
            44.114428,
            57.88
          ],
          [
            0.854234,
            44.114415,
            57.99
          ],
          [
            0.854113,
            44.114374,
            58.0
          ],
          [
            0.854066,
            44.114368,
            58.0
          ],
          [
            0.853979,
            44.114386,
            58.0
          ],
          [
            0.853999,
            44.114361,
            58.0
          ],
          [
            0.853024,
            44.113966,
            58.0
          ],
          [
            0.852768,
            44.113854,
            58.05
          ],
          [
            0.852355,
            44.113655,
            58.66
          ]
        ]
      }
    },
    {
      "type": "Feature",
      "properties": {
        "source": "St-Nicolas__Golfech.gpx",
        "type": "route"
      },
      "geometry": {
        "type": "LineString",
        "coordinates": [
          [
            1.081479,
            44.102496
          ],
          [
            1.081356,
            44.102807
          ],
          [
            1.084866,
            44.103879
          ],
          [
            1.084788,
            44.104952
          ],
          [
            1.084852,
            44.104957
          ],
          [
            1.08483,
            44.105081
          ],
          [
            1.085485,
            44.105369
          ],
          [
            1.086168,
            44.105573
          ],
          [
            1.086168,
            44.105573
          ],
          [
            1.085485,
            44.105369
          ],
          [
            1.08483,
            44.105081
          ],
          [
            1.084852,
            44.104957
          ],
          [
            1.084788,
            44.104952
          ],
          [
            1.084679,
            44.104706
          ],
          [
            1.084866,
            44.103879
          ],
          [
            1.082253,
            44.103041
          ],
          [
            1.082452,
            44.102532
          ],
          [
            1.077763,
            44.101405
          ],
          [
            1.077938,
            44.100949
          ],
          [
            1.077646,
            44.100848
          ],
          [
            1.073984,
            44.100805
          ],
          [
            1.051321,
            44.093177
          ],
          [
            1.050954,
            44.092982
          ],
          [
            1.006292,
            44.091477
          ],
          [
            1.005681,
            44.091503
          ],
          [
            0.969933,
            44.088002
          ],
          [
            0.968884,
            44.088393
          ],
          [
            0.921484,
            44.09941
          ],
          [
            0.921449,
            44.099299
          ],
          [
            0.916349,
            44.100034
          ],
          [
            0.886703,
            44.10551
          ],
          [
            0.886783,
            44.105333
          ],
          [
            0.886027,
            44.105452
          ],
          [
            0.885589,
            44.105429
          ],
          [
            0.864907,
            44.115736
          ],
          [
            0.864802,
            44.115532
          ],
          [
            0.863878,
            44.115085
          ],
          [
            0.863158,
            44.114267
          ],
          [
            0.857883,
            44.115223
          ],
          [
            0.854625,
            44.114569
          ],
          [
            0.854574,
            44.114587
          ],
          [
            0.853979,
            44.114386
          ],
          [
            0.853999,
            44.114361
          ],
          [
            0.852355,
            44.113655
          ]
        ]
      }
    }
  ]
}