{
  "type": "FeatureCollection",
  "features": [
    {
      "type": "Feature",
      "properties": {
        "name": "GraphHopper Track",
        "source": "Mondenard_Hameau.gpx",
        "type": "track"
      },
      "geometry": {
        "type": "LineString",
        "coordinates": [
          [
            1.193693,
            44.241788,
            147.15
          ],
          [
            1.193557,
            44.241559,
            145.9
          ],
          [
            1.193308,
            44.24129,
            144.27
          ],
          [
            1.193003,
            44.240998,
            142.67
          ],
          [
            1.192587,
            44.240689,
            140.88
          ],
          [
            1.192167,
            44.240423,
            139.39
          ],
          [
            1.191915,
            44.240314,
            138.56
          ],
          [
            1.191658,
            44.240222,
            138.65
          ],
          [
            1.191672,
            44.239861,
            140.24
          ],
          [
            1.191667,
            44.23958,
            143.19
          ],
          [
            1.191707,
            44.239458,
            144.3
          ],
          [
            1.191782,
            44.239377,
            145.42
          ],
          [
            1.191852,
            44.239334,
            146.35
          ],
          [
            1.191973,
            44.239282,
            147.79
          ],
          [
            1.192078,
            44.239252,
            148.62
          ],
          [
            1.192188,
            44.239254,
            149.42
          ],
          [
            1.192211,
            44.239244,
            149.57
          ],
          [
            1.192261,
            44.239308,
            149.91
          ],
          [
            1.192351,
            44.239357,
            150.47
          ],
          [
            1.192421,
            44.239383,
            151.02
          ],
          [
            1.192428,
            44.239394,
            151.16
          ],
          [
            1.192785,
            44.239536,
            154.85
          ],
          [
            1.192841,
            44.239536,
            155.33
          ],
          [
            1.192914,
            44.2395,
            155.93
          ],
          [
            1.19301,
            44.239438,
            156.62
          ],
          [
            1.193067,
            44.239369,
            157.52
          ],
          [
            1.193115,
            44.239211,
            159.04
          ],
          [
            1.193107,
            44.239131,
            159.41
          ],
          [
            1.193134,
            44.239008,
            159.89
          ],
          [
            1.1932,
            44.238986,
            160.64
          ],
          [
            1.193188,
            44.239024,
            160.55
          ],
          [
            1.193227,
            44.239267,
            161.14
          ],
          [
            1.193579,
            44.239939,
            164.4
          ],
          [
            1.193696,
            44.240098,
            165.36
          ],
          [
            1.193847,
            44.240207,
            166.23
          ],
          [
            1.194035,
            44.240273,
            167.12
          ],
          [
            1.194727,
            44.240309,
            170.24
          ],
          [
            1.195173,
            44.240373,
            172.32
          ],
          [
            1.196178,
            44.240619,
            177.31
          ],
          [
            1.196471,
            44.240762,
            179.0
          ],
          [
            1.196681,
            44.240971,
            180.64
          ],
          [
            1.196717,
            44.241279,
            182.59
          ],
          [
            1.196637,
            44.241592,
            184.37
          ],
          [
            1.196475,
            44.242042,
            186.32
          ],
          [
            1.196306,
            44.242258,
            187.4
          ],
          [
            1.195877,
            44.242741,
            190.13
          ],
          [
            1.195856,
            44.242914,
            191.04
          ],
          [
            1.195903,
            44.24331,
            193.24
          ],
          [
            1.195855,
            44.243467,
            193.95
          ],
          [
            1.195707,
            44.243626,
            194.13
          ],
          [
            1.195427,
            44.24379,
            194.8
          ],
          [
            1.195194,
            44.244006,
            195.81
          ],
          [
            1.194706,
            44.24465,
            199.71
          ],
          [
            1.194583,
            44.245237,
            205.28
          ],
          [
            1.194273,
            44.245912,
            208.36
          ],
          [
            1.194203,
            44.246362,
            210.96
          ],
          [
            1.194104,
            44.24651,
            211.87
          ],
          [
            1.193964,
            44.246656,
            212.87
          ],
          [
            1.193832,
            44.246831,
            213.92
          ],
          [
            1.193764,
            44.247001,
            214.86
          ],
          [
            1.193819,
            44.247442,
            217.52
          ],
          [
            1.193811,
            44.247588,
            218.49
          ],
          [
            1.193751,
            44.247728,
            219.56
          ],
          [
            1.193628,
            44.247883,
            220.87
          ],
          [
            1.193232,
            44.248155,
            223.59
          ],
          [
            1.193068,
            44.248293,
            224.77
          ],
          [
            1.192858,
            44.248577,
            226.44
          ],
          [
            1.19269,
            44.248691,
            227.03
          ],
          [
            1.192498,
            44.248777,
            227.99
          ],
          [
            1.192153,
            44.24886,
            229.19
          ],
          [
            1.191991,
            44.248916,
            229.67
          ],
          [
            1.191879,
            44.24896,
            229.66
          ],
          [
            1.191625,
            44.249112,
            229.53
          ],
          [
            1.191376,
            44.249318,
            230.29
          ],
          [
            1.190974,
            44.249765,
            232.57
          ],
          [
            1.190788,
            44.249896,
            233.59
          ],
          [
            1.190705,
            44.249926,
            233.86
          ],
          [
            1.190598,
            44.249963,
            234.11
          ],
          [
            1.190419,
            44.249977,
            234.14
          ],
          [
            1.190419,
            44.249977,
            234.14
          ],
          [
            1.190598,
            44.249963,
            234.11
          ],
          [
            1.190705,
            44.249926,
            233.86
          ],
          [
            1.190788,
            44.249896,
            233.59
          ],
          [
            1.190974,
            44.249765,
            232.57
          ],
          [
            1.191376,
            44.249318,
            230.29
          ],
          [
            1.191625,
            44.249112,
            229.53
          ],
          [
            1.191879,
            44.24896,
            229.66
          ],
          [
            1.191991,
            44.248916,
            229.67
          ],
          [
            1.192153,
            44.24886,
            229.19
          ],
          [
            1.192498,
            44.248777,
            227.99
          ],
          [
            1.19269,
            44.248691,
            227.03
          ],
          [
            1.192858,
            44.248577,
            226.44
          ],
          [
            1.193068,
            44.248293,
            224.77
          ],
          [
            1.193232,
            44.248155,
            223.59
          ],
          [
            1.193628,
            44.247883,
            220.87
          ],
          [
            1.193751,
            44.247728,
            219.56
          ],
          [
            1.193811,
            44.247588,
            218.49
          ],
          [
            1.193819,
            44.247442,
            217.52
          ],
          [
            1.193764,
            44.247001,
            214.86
          ],
          [
            1.193832,
            44.246831,
            213.92
          ],
          [
            1.193964,
            44.246656,
            212.87
          ],
          [
            1.194104,
            44.24651,
            211.87
          ],
          [
            1.194203,
            44.246362,
            210.96
          ],
          [
            1.194273,
            44.245912,
            208.36
          ],
          [
            1.194583,
            44.245237,
            205.28
          ],
          [
            1.194706,
            44.24465,
            199.71
          ],
          [
            1.195194,
            44.244006,
            195.81
          ],
          [
            1.195427,
            44.24379,
            194.8
          ],
          [
            1.195707,
            44.243626,
            194.13
          ],
          [
            1.195855,
            44.243467,
            193.95
          ],
          [
            1.195903,
            44.24331,
            193.24
          ],
          [
            1.195856,
            44.242914,
            191.04
          ],
          [
            1.195877,
            44.242741,
            190.13
          ],
          [
            1.196306,
            44.242258,
            187.4
          ],
          [
            1.196475,
            44.242042,
            186.32
          ],
          [
            1.196637,
            44.241592,
            184.37
          ],
          [
            1.196717,
            44.241279,
            182.59
          ],
          [
            1.196681,
            44.240971,
            180.64
          ],
          [
            1.196471,
            44.240762,
            179.0
          ],
          [
            1.196178,
            44.240619,
            177.31
          ],
          [
            1.195173,
            44.240373,
            172.32
          ],
          [
            1.194727,
            44.240309,
            170.24
          ],
          [
            1.194035,
            44.240273,
            167.12
          ],
          [
            1.193847,
            44.240207,
            166.23
          ],
          [
            1.193696,
            44.240098,
            165.36
          ],
          [
            1.193579,
            44.239939,
            164.4
          ],
          [
            1.193227,
            44.239267,
            161.14
          ],
          [
            1.193188,
            44.239024,
            160.55
          ],
          [
            1.1932,
            44.238986,
            160.64
          ],
          [
            1.193134,
            44.239008,
            159.89
          ],
          [
            1.193107,
            44.239131,
            159.41
          ],
          [
            1.193115,
            44.239211,
            159.04
          ],
          [
            1.193067,
            44.239369,
            157.52
          ],
          [
            1.19301,
            44.239438,
            156.62
          ],
          [
            1.192914,
            44.2395,
            155.93
          ],
          [
            1.192841,
            44.239536,
            155.33
          ],
          [
            1.192785,
            44.239536,
            154.85
          ],
          [
            1.192428,
            44.239394,
            151.16
          ],
          [
            1.192421,
            44.239383,
            151.02
          ],
          [
            1.192351,
            44.239357,
            150.47
          ],
          [
            1.192261,
            44.239308,
            149.91
          ],
          [
            1.192211,
            44.239244,
            149.57
          ],
          [
            1.192188,
            44.239254,
            149.42
          ],
          [
            1.192078,
            44.239252,
            148.62
          ],
          [
            1.191973,
            44.239282,
            147.79
          ],
          [
            1.191852,
            44.239334,
            146.35
          ],
          [
            1.191782,
            44.239377,
            145.42
          ],
          [
            1.191707,
            44.239458,
            144.3
          ],
          [
            1.191667,
            44.23958,
            143.19
          ],
          [
            1.191672,
            44.239861,
            140.24
          ],
          [
            1.191658,
            44.240222,
            138.65
          ],
          [
            1.191915,
            44.240314,
            138.56
          ],
          [
            1.192167,
            44.240423,
            139.39
          ],
          [
            1.192587,
            44.240689,
            140.88
          ],
          [
            1.193003,
            44.240998,
            142.67
          ],
          [
            1.193308,
            44.24129,
            144.27
          ],
          [
            1.193557,
            44.241559,
            145.9
          ],
          [
            1.193693,
            44.241788,
            147.15
          ]
        ]
      }
    },
    {
      "type": "Feature",
      "properties": {
        "source": "Mondenard_Hameau.gpx",
        "type": "route"
      },
      "geometry": {
        "type": "LineString",
        "coordinates": [
          [
            1.193693,
            44.241788
          ],
          [
            1.191658,
            44.240222
          ],
          [
            1.192211,
            44.239244
          ],
          [
            1.192421,
            44.239383
          ],
          [
            1.1932,
            44.238986
          ],
          [
            1.190705,
            44.249926
          ],
          [
            1.190419,
            44.249977
          ],
          [
            1.190419,
            44.249977
          ],
          [
            1.190705,
            44.249926
          ],
          [
            1.1932,
            44.238986
          ],
          [
            1.192421,
            44.239383
          ],
          [
            1.192211,
            44.239244
          ],
          [
            1.191658,
            44.240222
          ],
          [
            1.193693,
            44.241788
          ]
        ]
      }
    }
  ]
}