{
  "type": "FeatureCollection",
  "features": [
    {
      "type": "Feature",
      "properties": {
        "name": "GraphHopper Track",
        "source": "Boucle_de_Monteils.gpx",
        "type": "track"
      },
      "geometry": {
        "type": "LineString",
        "coordinates": [
          [
            1.969627,
            44.223001,
            211.39
          ],
          [
            1.969824,
            44.223257,
            213.96
          ],
          [
            1.96986,
            44.223344,
            214.5
          ],
          [
            1.969901,
            44.223499,
            215.19
          ],
          [
            1.969924,
            44.223654,
            215.5
          ],
          [
            1.970018,
            44.223988,
            215.24
          ],
          [
            1.970273,
            44.224738,
            212.8
          ],
          [
            1.970292,
            44.224846,
            212.67
          ],
          [
            1.970281,
            44.224961,
            212.63
          ],
          [
            1.970252,
            44.225082,
            212.65
          ],
          [
            1.970109,
            44.225399,
            213.0
          ],
          [
            1.970101,
            44.225463,
            213.11
          ],
          [
            1.970112,
            44.225539,
            213.27
          ],
          [
            1.970378,
            44.226095,
            213.56
          ],
          [
            1.970485,
            44.226362,
            213.86
          ],
          [
            1.970522,
            44.226426,
            213.98
          ],
          [
            1.970592,
            44.226497,
            214.18
          ],
          [
            1.970799,
            44.226627,
            214.82
          ],
          [
            1.97086,
            44.226695,
            215.14
          ],
          [
            1.970886,
            44.226784,
            215.55
          ],
          [
            1.970901,
            44.226931,
            216.34
          ],
          [
            1.970976,
            44.227108,
            217.69
          ],
          [
            1.97115,
            44.227451,
            220.06
          ],
          [
            1.971168,
            44.227599,
            221.03
          ],
          [
            1.971086,
            44.2279,
            223.02
          ],
          [
            1.97109,
            44.227956,
            223.37
          ],
          [
            1.971141,
            44.228042,
            223.95
          ],
          [
            1.971226,
            44.228131,
            224.62
          ],
          [
            1.971385,
            44.228233,
            225.51
          ],
          [
            1.971515,
            44.228368,
            226.48
          ],
          [
            1.971567,
            44.228515,
            227.53
          ],
          [
            1.971605,
            44.228744,
            229.07
          ],
          [
            1.971689,
            44.228884,
            229.96
          ],
          [
            1.971882,
            44.229039,
            231.16
          ],
          [
            1.972108,
            44.229255,
            233.0
          ],
          [
            1.972258,
            44.22937,
            234.16
          ],
          [
            1.972403,
            44.229418,
            234.95
          ],
          [
            1.972555,
            44.229449,
            235.68
          ],
          [
            1.972676,
            44.229491,
            236.3
          ],
          [
            1.972732,
            44.229551,
            236.77
          ],
          [
            1.972757,
            44.229639,
            237.38
          ],
          [
            1.972714,
            44.229862,
            238.97
          ],
          [
            1.972735,
            44.229943,
            239.56
          ],
          [
            1.972781,
            44.230024,
            240.18
          ],
          [
            1.97306,
            44.23035,
            242.47
          ],
          [
            1.973329,
            44.230698,
            245.24
          ],
          [
            1.973448,
            44.230798,
            246.33
          ],
          [
            1.973523,
            44.23085,
            247.16
          ],
          [
            1.973806,
            44.230977,
            249.07
          ],
          [
            1.974039,
            44.231051,
            250.58
          ],
          [
            1.974162,
            44.231079,
            251.41
          ],
          [
            1.97454,
            44.231111,
            253.58
          ],
          [
            1.974769,
            44.231146,
            254.87
          ],
          [
            1.974868,
            44.231196,
            255.56
          ],
          [
            1.974911,
            44.231238,
            255.97
          ],
          [
            1.974986,
            44.231605,
            258.86
          ],
          [
            1.975032,
            44.231736,
            259.98
          ],
          [
            1.975064,
            44.231796,
            260.53
          ],
          [
            1.975096,
            44.231909,
            261.54
          ],
          [
            1.975181,
            44.232085,
            263.2
          ],
          [
            1.97535,
            44.232382,
            266.07
          ],
          [
            1.975375,
            44.23247,
            266.86
          ],
          [
            1.97547,
            44.2327,
            269.03
          ],
          [
            1.97553,
            44.232781,
            269.89
          ],
          [
            1.975671,
            44.232915,
            271.4
          ],
          [
            1.975872,
            44.233067,
            273.02
          ],
          [
            1.976035,
            44.233162,
            274.06
          ],
          [
            1.976215,
            44.23325,
            275.08
          ],
          [
            1.976441,
            44.233282,
            276.1
          ],
          [
            1.976628,
            44.233321,
            276.88
          ],
          [
            1.976688,
            44.233353,
            277.18
          ],
          [
            1.976723,
            44.233395,
            277.45
          ],
          [
            1.976755,
            44.233469,
            277.88
          ],
          [
            1.976805,
            44.233646,
            278.79
          ],
          [
            1.976829,
            44.23377,
            279.38
          ],
          [
            1.976826,
            44.233858,
            279.78
          ],
          [
            1.976911,
            44.234151,
            281.36
          ],
          [
            1.977041,
            44.234401,
            283.16
          ],
          [
            1.977129,
            44.234536,
            284.35
          ],
          [
            1.977281,
            44.23473,
            286.22
          ],
          [
            1.977588,
            44.235076,
            289.62
          ],
          [
            1.977698,
            44.235178,
            290.78
          ],
          [
            1.977779,
            44.235298,
            291.87
          ],
          [
            1.97797,
            44.235711,
            293.85
          ],
          [
            1.977998,
            44.235824,
            294.27
          ],
          [
            1.977984,
            44.235913,
            294.37
          ],
          [
            1.977942,
            44.236004,
            294.91
          ],
          [
            1.977638,
            44.236326,
            298.42
          ],
          [
            1.977604,
            44.236402,
            299.6
          ],
          [
            1.977455,
            44.236363,
            301.25
          ],
          [
            1.977285,
            44.236342,
            303.34
          ],
          [
            1.977109,
            44.236379,
            305.89
          ],
          [
            1.976859,
            44.236526,
            310.21
          ],
          [
            1.976762,
            44.236644,
            312.78
          ],
          [
            1.976802,
            44.236737,
            314.56
          ],
          [
            1.976802,
            44.236876,
            317.06
          ],
          [
            1.9767,
            44.236973,
            319.22
          ],
          [
            1.97658,
            44.237067,
            321.48
          ],
          [
            1.976438,
            44.237132,
            323.65
          ],
          [
            1.97612,
            44.237181,
            327.65
          ],
          [
            1.97591,
            44.237238,
            330.38
          ],
          [
            1.975768,
            44.237327,
            332.68
          ],
          [
            1.97566,
            44.237372,
            334.19
          ],
          [
            1.975473,
            44.237429,
            336.69
          ],
          [
            1.975331,
            44.237454,
            338.54
          ],
          [
            1.975064,
            44.23747,
            341.89
          ],
          [
            1.974837,
            44.237425,
            344.61
          ],
          [
            1.974519,
            44.237344,
            348.48
          ],
          [
            1.974428,
            44.237299,
            349.83
          ],
          [
            1.974234,
            44.237242,
            352.49
          ],
          [
            1.973962,
            44.237205,
            356.18
          ],
          [
            1.973905,
            44.237368,
            359.28
          ],
          [
            1.973791,
            44.23758,
            363.44
          ],
          [
            1.973712,
            44.237767,
            367.29
          ],
          [
            1.973564,
            44.238414,
            380.71
          ],
          [
            1.97353,
            44.238613,
            384.59
          ],
          [
            1.973496,
            44.239106,
            394.94
          ],
          [
            1.973445,
            44.239277,
            398.76
          ],
          [
            1.973337,
            44.239456,
            402.98
          ],
          [
            1.973297,
            44.239562,
            405.43
          ],
          [
            1.973087,
            44.239639,
            409.45
          ],
          [
            1.972968,
            44.2397,
            411.98
          ],
          [
            1.972797,
            44.239997,
            417.7
          ],
          [
            1.972644,
            44.24018,
            421.39
          ],
          [
            1.972422,
            44.240668,
            428.54
          ],
          [
            1.972207,
            44.240909,
            432.29
          ],
          [
            1.971849,
            44.241173,
            436.57
          ],
          [
            1.971661,
            44.241458,
            439.52
          ],
          [
            1.971576,
            44.241707,
            441.4
          ],
          [
            1.971296,
            44.242225,
            444.4
          ],
          [
            1.97124,
            44.242311,
            445.22
          ],
          [
            1.971208,
            44.24234,
            445.7
          ],
          [
            1.970995,
            44.242294,
            445.88
          ],
          [
            1.970706,
            44.242291,
            447.05
          ],
          [
            1.970156,
            44.242341,
            451.2
          ],
          [
            1.969767,
            44.242345,
            453.99
          ],
          [
            1.969532,
            44.242366,
            455.76
          ],
          [
            1.96873,
            44.24255,
            460.53
          ],
          [
            1.968377,
            44.242606,
            460.24
          ],
          [
            1.968386,
            44.242638,
            460.89
          ],
          [
            1.968375,
            44.242681,
            461.63
          ],
          [
            1.968341,
            44.242716,
            462.13
          ],
          [
            1.968066,
            44.242871,
            464.44
          ],
          [
            1.967238,
            44.243266,
            470.68
          ],
          [
            1.967172,
            44.243332,
            471.0
          ],
          [
            1.966836,
            44.243202,
            471.03
          ],
          [
            1.966451,
            44.243087,
            471.76
          ],
          [
            1.966001,
            44.242973,
            472.92
          ],
          [
            1.965363,
            44.242859,
            474.47
          ],
          [
            1.963329,
            44.242573,
            475.46
          ],
          [
            1.962781,
            44.242506,
            475.11
          ],
          [
            1.962311,
            44.242417,
            474.8
          ],
          [
            1.961975,
            44.242297,
            474.06
          ],
          [
            1.961788,
            44.242204,
            474.55
          ],
          [
            1.959952,
            44.241161,
            476.81
          ],
          [
            1.959794,
            44.241114,
            476.85
          ],
          [
            1.959579,
            44.241099,
            477.0
          ],
          [
            1.959521,
            44.2411,
            476.8
          ],
          [
            1.959283,
            44.241167,
            476.8
          ],
          [
            1.958285,
            44.241563,
            477.65
          ],
          [
            1.957945,
            44.24171,
            478.1
          ],
          [
            1.957723,
            44.241838,
            478.39
          ],
          [
            1.957368,
            44.242106,
            478.76
          ],
          [
            1.957134,
            44.242259,
            478.96
          ],
          [
            1.956741,
            44.24245,
            478.93
          ],
          [
            1.956466,
            44.242558,
            479.04
          ],
          [
            1.95624,
            44.242614,
            479.04
          ],
          [
            1.955996,
            44.242613,
            479.09
          ],
          [
            1.955743,
            44.242533,
            479.38
          ],
          [
            1.955206,
            44.242195,
            480.36
          ],
          [
            1.954625,
            44.2418,
            480.86
          ],
          [
            1.954147,
            44.241445,
            480.52
          ],
          [
            1.953699,
            44.241222,
            480.24
          ],
          [
            1.953515,
            44.241157,
            480.24
          ],
          [
            1.952799,
            44.240969,
            480.72
          ],
          [
            1.952557,
            44.24092,
            480.96
          ],
          [
            1.952014,
            44.240854,
            481.31
          ],
          [
            1.951645,
            44.240783,
            481.54
          ],
          [
            1.950698,
            44.240514,
            482.14
          ],
          [
            1.950338,
            44.240398,
            482.25
          ],
          [
            1.950243,
            44.240355,
            482.16
          ],
          [
            1.950173,
            44.240309,
            482.0
          ],
          [
            1.949869,
            44.240532,
            482.72
          ],
          [
            1.949691,
            44.240698,
            483.28
          ],
          [
            1.949554,
            44.240886,
            483.88
          ],
          [
            1.949412,
            44.241146,
            484.56
          ],
          [
            1.949323,
            44.241374,
            485.2
          ],
          [
            1.949237,
            44.241703,
            485.85
          ],
          [
            1.949208,
            44.24185,
            485.78
          ],
          [
            1.94641,
            44.242295,
            475.2
          ],
          [
            1.945692,
            44.242394,
            474.05
          ],
          [
            1.945516,
            44.242434,
            473.88
          ],
          [
            1.945324,
            44.242493,
            473.42
          ],
          [
            1.945129,
            44.242575,
            472.3
          ],
          [
            1.94432,
            44.24321,
            465.1
          ],
          [
            1.94386,
            44.243485,
            461.59
          ],
          [
            1.942961,
            44.243825,
            454.61
          ],
          [
            1.942515,
            44.24396,
            450.98
          ],
          [
            1.942232,
            44.244012,
            448.9
          ],
          [
            1.941912,
            44.244036,
            446.72
          ],
          [
            1.941591,
            44.244027,
            444.75
          ],
          [
            1.940671,
            44.243845,
            440.2
          ],
          [
            1.939454,
            44.243576,
            436.11
          ],
          [
            1.939294,
            44.243507,
            435.59
          ],
          [
            1.939152,
            44.24339,
            434.93
          ],
          [
            1.938979,
            44.243187,
            433.74
          ],
          [
            1.938904,
            44.243064,
            432.97
          ],
          [
            1.938768,
            44.242626,
            430.11
          ],
          [
            1.93874,
            44.242589,
            429.83
          ],
          [
            1.93874,
            44.242589,
            429.83
          ],
          [
            1.938768,
            44.242626,
            430.11
          ],
          [
            1.938904,
            44.243064,
            432.97
          ],
          [
            1.938979,
            44.243187,
            433.74
          ],
          [
            1.939152,
            44.24339,
            434.93
          ],
          [
            1.939294,
            44.243507,
            435.59
          ],
          [
            1.939454,
            44.243576,
            436.11
          ],
          [
            1.940671,
            44.243845,
            440.2
          ],
          [
            1.941591,
            44.244027,
            444.75
          ],
          [
            1.941912,
            44.244036,
            446.72
          ],
          [
            1.942232,
            44.244012,
            448.9
          ],
          [
            1.942515,
            44.24396,
            450.98
          ],
          [
            1.942961,
            44.243825,
            454.61
          ],
          [
            1.94386,
            44.243485,
            461.59
          ],
          [
            1.94432,
            44.24321,
            465.1
          ],
          [
            1.945129,
            44.242575,
            472.3
          ],
          [
            1.945324,
            44.242493,
            473.42
          ],
          [
            1.945516,
            44.242434,
            473.88
          ],
          [
            1.945692,
            44.242394,
            474.05
          ],
          [
            1.94641,
            44.242295,
            475.2
          ],
          [
            1.949208,
            44.24185,
            485.78
          ],
          [
            1.949237,
            44.241703,
            485.85
          ],
          [
            1.949323,
            44.241374,
            485.2
          ],
          [
            1.949412,
            44.241146,
            484.56
          ],
          [
            1.949554,
            44.240886,
            483.88
          ],
          [
            1.949691,
            44.240698,
            483.28
          ],
          [
            1.949869,
            44.240532,
            482.72
          ],
          [
            1.950173,
            44.240309,
            482.0
          ],
          [
            1.950243,
            44.240355,
            482.16
          ],
          [
            1.950338,
            44.240398,
            482.25
          ],
          [
            1.950698,
            44.240514,
            482.14
          ],
          [
            1.951645,
            44.240783,
            481.54
          ],
          [
            1.952014,
            44.240854,
            481.31
          ],
          [
            1.952557,
            44.24092,
            480.96
          ],
          [
            1.952799,
            44.240969,
            480.72
          ],
          [
            1.953515,
            44.241157,
            480.24
          ],
          [
            1.953699,
            44.241222,
            480.24
          ],
          [
            1.954147,
            44.241445,
            480.52
          ],
          [
            1.954625,
            44.2418,
            480.86
          ],
          [
            1.955206,
            44.242195,
            480.36
          ],
          [
            1.955743,
            44.242533,
            479.38
          ],
          [
            1.955996,
            44.242613,
            479.09
          ],
          [
            1.95624,
            44.242614,
            479.04
          ],
          [
            1.956466,
            44.242558,
            479.04
          ],
          [
            1.956741,
            44.24245,
            478.93
          ],
          [
            1.957134,
            44.242259,
            478.96
          ],
          [
            1.957368,
            44.242106,
            478.76
          ],
          [
            1.957723,
            44.241838,
            478.39
          ],
          [
            1.957945,
            44.24171,
            478.1
          ],
          [
            1.958285,
            44.241563,
            477.65
          ],
          [
            1.959283,
            44.241167,
            476.8
          ],
          [
            1.959521,
            44.2411,
            476.8
          ],
          [
            1.959579,
            44.241099,
            477.0
          ],
          [
            1.959794,
            44.241114,
            476.85
          ],
          [
            1.959952,
            44.241161,
            476.81
          ],
          [
            1.961788,
            44.242204,
            474.55
          ],
          [
            1.961975,
            44.242297,
            474.06
          ],
          [
            1.962311,
            44.242417,
            474.8
          ],
          [
            1.962781,
            44.242506,
            475.11
          ],
          [
            1.963329,
            44.242573,
            475.46
          ],
          [
            1.965363,
            44.242859,
            474.47
          ],
          [
            1.966001,
            44.242973,
            472.92
          ],
          [
            1.966451,
            44.243087,
            471.76
          ],
          [
            1.966836,
            44.243202,
            471.03
          ],
          [
            1.967172,
            44.243332,
            471.0
          ],
          [
            1.967238,
            44.243266,
            470.68
          ],
          [
            1.968066,
            44.242871,
            464.44
          ],
          [
            1.968341,
            44.242716,
            462.13
          ],
          [
            1.968375,
            44.242681,
            461.63
          ],
          [
            1.968386,
            44.242638,
            460.89
          ],
          [
            1.968377,
            44.242606,
            460.24
          ],
          [
            1.96873,
            44.24255,
            460.53
          ],
          [
            1.969532,
            44.242366,
            455.76
          ],
          [
            1.969767,
            44.242345,
            453.99
          ],
          [
            1.970156,
            44.242341,
            451.2
          ],
          [
            1.970706,
            44.242291,
            447.05
          ],
          [
            1.970995,
            44.242294,
            445.88
          ],
          [
            1.971208,
            44.24234,
            445.7
          ],
          [
            1.97124,
            44.242311,
            445.22
          ],
          [
            1.971296,
            44.242225,
            444.4
          ],
          [
            1.971576,
            44.241707,
            441.4
          ],
          [
            1.971661,
            44.241458,
            439.52
          ],
          [
            1.971849,
            44.241173,
            436.57
          ],
          [
            1.972207,
            44.240909,
            432.29
          ],
          [
            1.972422,
            44.240668,
            428.54
          ],
          [
            1.972644,
            44.24018,
            421.39
          ],
          [
            1.972797,
            44.239997,
            417.7
          ],
          [
            1.972968,
            44.2397,
            411.98
          ],
          [
            1.973087,
            44.239639,
            409.45
          ],
          [
            1.973297,
            44.239562,
            405.43
          ],
          [
            1.973337,
            44.239456,
            402.98
          ],
          [
            1.973445,
            44.239277,
            398.76
          ],
          [
            1.973496,
            44.239106,
            394.94
          ],
          [
            1.97353,
            44.238613,
            384.59
          ],
          [
            1.973564,
            44.238414,
            380.71
          ],
          [
            1.973712,
            44.237767,
            367.29
          ],
          [
            1.973791,
            44.23758,
            363.44
          ],
          [
            1.973905,
            44.237368,
            359.28
          ],
          [
            1.973962,
            44.237205,
            356.18
          ],
          [
            1.974234,
            44.237242,
            352.49
          ],
          [
            1.974428,
            44.237299,
            349.83
          ],
          [
            1.974519,
            44.237344,
            348.48
          ],
          [
            1.974837,
            44.237425,
            344.61
          ],
          [
            1.975064,
            44.23747,
            341.89
          ],
          [
            1.975331,
            44.237454,
            338.54
          ],
          [
            1.975473,
            44.237429,
            336.69
          ],
          [
            1.97566,
            44.237372,
            334.19
          ],
          [
            1.975768,
            44.237327,
            332.68
          ],
          [
            1.97591,
            44.237238,
            330.38
          ],
          [
            1.97612,
            44.237181,
            327.65
          ],
          [
            1.976438,
            44.237132,
            323.65
          ],
          [
            1.97658,
            44.237067,
            321.48
          ],
          [
            1.9767,
            44.236973,
            319.22
          ],
          [
            1.976802,
            44.236876,
            317.06
          ],
          [
            1.976802,
            44.236737,
            314.56
          ],
          [
            1.976762,
            44.236644,
            312.78
          ],
          [
            1.976859,
            44.236526,
            310.21
          ],
          [
            1.977109,
            44.236379,
            305.89
          ],
          [
            1.977285,
            44.236342,
            303.34
          ],
          [
            1.977455,
            44.236363,
            301.25
          ],
          [
            1.977604,
            44.236402,
            299.6
          ],
          [
            1.977638,
            44.236326,
            298.42
          ],
          [
            1.977942,
            44.236004,
            294.91
          ],
          [
            1.977984,
            44.235913,
            294.37
          ],
          [
            1.977998,
            44.235824,
            294.27
          ],
          [
            1.97797,
            44.235711,
            293.85
          ],
          [
            1.977779,
            44.235298,
            291.87
          ],
          [
            1.977698,
            44.235178,
            290.78
          ],
          [
            1.977588,
            44.235076,
            289.62
          ],
          [
            1.977281,
            44.23473,
            286.22
          ],
          [
            1.977129,
            44.234536,
            284.35
          ],
          [
            1.977041,
            44.234401,
            283.16
          ],
          [
            1.976911,
            44.234151,
            281.36
          ],
          [
            1.976826,
            44.233858,
            279.78
          ],
          [
            1.976829,
            44.23377,
            279.38
          ],
          [
            1.976805,
            44.233646,
            278.79
          ],
          [
            1.976755,
            44.233469,
            277.88
          ],
          [
            1.976723,
            44.233395,
            277.45
          ],
          [
            1.976688,
            44.233353,
            277.18
          ],
          [
            1.976628,
            44.233321,
            276.88
          ],
          [
            1.976441,
            44.233282,
            276.1
          ],
          [
            1.976215,
            44.23325,
            275.08
          ],
          [
            1.976035,
            44.233162,
            274.06
          ],
          [
            1.975872,
            44.233067,
            273.02
          ],
          [
            1.975671,
            44.232915,
            271.4
          ],
          [
            1.97553,
            44.232781,
            269.89
          ],
          [
            1.97547,
            44.2327,
            269.03
          ],
          [
            1.975375,
            44.23247,
            266.86
          ],
          [
            1.97535,
            44.232382,
            266.07
          ],
          [
            1.975181,
            44.232085,
            263.2
          ],
          [
            1.975096,
            44.231909,
            261.54
          ],
          [
            1.975064,
            44.231796,
            260.53
          ],
          [
            1.975032,
            44.231736,
            259.98
          ],
          [
            1.974986,
            44.231605,
            258.86
          ],
          [
            1.974911,
            44.231238,
            255.97
          ],
          [
            1.974868,
            44.231196,
            255.56
          ],
          [
            1.974769,
            44.231146,
            254.87
          ],
          [
            1.97454,
            44.231111,
            253.58
          ],
          [
            1.974162,
            44.231079,
            251.41
          ],
          [
            1.974039,
            44.231051,
            250.58
          ],
          [
            1.973806,
            44.230977,
            249.07
          ],
          [
            1.973523,
            44.23085,
            247.16
          ],
          [
            1.973448,
            44.230798,
            246.33
          ],
          [
            1.973329,
            44.230698,
            245.24
          ],
          [
            1.97306,
            44.23035,
            242.47
          ],
          [
            1.972781,
            44.230024,
            240.18
          ],
          [
            1.972735,
            44.229943,
            239.56
          ],
          [
            1.972714,
            44.229862,
            238.97
          ],
          [
            1.972757,
            44.229639,
            237.38
          ],
          [
            1.972732,
            44.229551,
            236.77
          ],
          [
            1.972676,
            44.229491,
            236.3
          ],
          [
            1.972555,
            44.229449,
            235.68
          ],
          [
            1.972403,
            44.229418,
            234.95
          ],
          [
            1.972258,
            44.22937,
            234.16
          ],
          [
            1.972108,
            44.229255,
            233.0
          ],
          [
            1.971882,
            44.229039,
            231.16
          ],
          [
            1.971689,
            44.228884,
            229.96
          ],
          [
            1.971605,
            44.228744,
            229.07
          ],
          [
            1.971567,
            44.228515,
            227.53
          ],
          [
            1.971515,
            44.228368,
            226.48
          ],
          [
            1.971385,
            44.228233,
            225.51
          ],
          [
            1.971226,
            44.228131,
            224.62
          ],
          [
            1.971141,
            44.228042,
            223.95
          ],
          [
            1.97109,
            44.227956,
            223.37
          ],
          [
            1.971086,
            44.2279,
            223.02
          ],
          [
            1.971168,
            44.227599,
            221.03
          ],
          [
            1.97115,
            44.227451,
            220.06
          ],
          [
            1.970976,
            44.227108,
            217.69
          ],
          [
            1.970901,
            44.226931,
            216.34
          ],
          [
            1.970886,
            44.226784,
            215.55
          ],
          [
            1.97086,
            44.226695,
            215.14
          ],
          [
            1.970799,
            44.226627,
            214.82
          ],
          [
            1.970592,
            44.226497,
            214.18
          ],
          [
            1.970522,
            44.226426,
            213.98
          ],
          [
            1.970485,
            44.226362,
            213.86
          ],
          [
            1.970378,
            44.226095,
            213.56
          ],
          [
            1.970112,
            44.225539,
            213.27
          ],
          [
            1.970101,
            44.225463,
            213.11
          ],
          [
            1.970109,
            44.225399,
            213.0
          ],
          [
            1.970252,
            44.225082,
            212.65
          ],
          [
            1.970281,
            44.224961,
            212.63
          ],
          [
            1.970292,
            44.224846,
            212.67
          ],
          [
            1.970273,
            44.224738,
            212.8
          ],
          [
            1.970018,
            44.223988,
            215.24
          ],
          [
            1.969924,
            44.223654,
            215.5
          ],
          [
            1.969901,
            44.223499,
            215.19
          ],
          [
            1.96986,
            44.223344,
            214.5
          ],
          [
            1.969824,
            44.223257,
            213.96
          ],
          [
            1.969627,
            44.223001,
            211.39
          ]
        ]
      }
    },
    {
      "type": "Feature",
      "properties": {
        "source": "Boucle_de_Monteils.gpx",
        "type": "route"
      },
      "geometry": {
        "type": "LineString",
        "coordinates": [
          [
            1.969627,
            44.223001
          ],
          [
            1.977604,
            44.236402
          ],
          [
            1.972797,
            44.239997
          ],
          [
            1.971208,
            44.24234
          ],
          [
            1.968377,
            44.242606
          ],
          [
            1.967172,
            44.243332
          ],
          [
            1.950173,
            44.240309
          ],
          [
            1.949208,
            44.24185
          ],
          [
            1.93874,
            44.242589
          ],
          [
            1.93874,
            44.242589
          ],
          [
            1.949208,
            44.24185
          ],
          [
            1.950173,
            44.240309
          ],
          [
            1.967172,
            44.243332
          ],
          [
            1.968377,
            44.242606
          ],
          [
            1.971208,
            44.24234
          ],
          [
            1.972797,
            44.239997
          ],
          [
            1.977604,
            44.236402
          ],
          [
            1.969627,
            44.223001
          ]
        ]
      }
    }
  ]
}