{
  "type": "FeatureCollection",
  "features": [
    {
      "type": "Feature",
      "properties": {
        "name": "GraphHopper Track",
        "source": "Sentier_du_Viaur.gpx",
        "type": "track"
      },
      "geometry": {
        "type": "LineString",
        "coordinates": [
          [
            1.976063,
            44.221749,
            203.99
          ],
          [
            1.976044,
            44.221703,
            204.01
          ],
          [
            1.975865,
            44.221751,
            206.87
          ],
          [
            1.975788,
            44.221679,
            206.62
          ],
          [
            1.975651,
            44.221444,
            205.8
          ],
          [
            1.975515,
            44.221272,
            205.79
          ],
          [
            1.975427,
            44.221219,
            205.75
          ],
          [
            1.975312,
            44.221185,
            205.64
          ],
          [
            1.975176,
            44.221166,
            205.66
          ],
          [
            1.975031,
            44.221159,
            205.83
          ],
          [
            1.974693,
            44.221205,
            206.4
          ],
          [
            1.974257,
            44.221214,
            205.78
          ],
          [
            1.974206,
            44.22121,
            205.56
          ],
          [
            1.974118,
            44.221178,
            204.76
          ],
          [
            1.973851,
            44.221233,
            205.22
          ],
          [
            1.973473,
            44.221272,
            205.67
          ],
          [
            1.972971,
            44.221299,
            203.77
          ],
          [
            1.972623,
            44.221273,
            201.75
          ],
          [
            1.972402,
            44.221248,
            200.31
          ],
          [
            1.972368,
            44.221237,
            200.13
          ],
          [
            1.972396,
            44.221181,
            198.82
          ],
          [
            1.972202,
            44.220539,
            197.44
          ],
          [
            1.972172,
            44.220489,
            199.42
          ],
          [
            1.972286,
            44.220455,
            199.19
          ],
          [
            1.972313,
            44.220424,
            199.81
          ],
          [
            1.972627,
            44.220333,
            202.11
          ],
          [
            1.972714,
            44.220315,
            202.89
          ],
          [
            1.973134,
            44.220209,
            209.49
          ],
          [
            1.973729,
            44.219936,
            222.15
          ],
          [
            1.974327,
            44.219829,
            233.1
          ],
          [
            1.975035,
            44.219621,
            246.27
          ],
          [
            1.975519,
            44.219532,
            254.7
          ],
          [
            1.975815,
            44.219546,
            259.51
          ],
          [
            1.976372,
            44.219557,
            268.23
          ],
          [
            1.976764,
            44.219613,
            274.43
          ],
          [
            1.977436,
            44.219775,
            287.41
          ],
          [
            1.977348,
            44.219682,
            289.09
          ],
          [
            1.977163,
            44.219563,
            291.08
          ],
          [
            1.976674,
            44.219206,
            300.1
          ],
          [
            1.976775,
            44.219213,
            301.93
          ],
          [
            1.976937,
            44.219185,
            305.92
          ],
          [
            1.977364,
            44.219331,
            307.69
          ],
          [
            1.977576,
            44.21942,
            308.2
          ],
          [
            1.977991,
            44.219628,
            310.1
          ],
          [
            1.978485,
            44.219838,
            312.46
          ],
          [
            1.978641,
            44.219897,
            314.0
          ],
          [
            1.97877,
            44.219963,
            315.86
          ],
          [
            1.97877,
            44.219981,
            316.15
          ],
          [
            1.978815,
            44.220028,
            317.25
          ],
          [
            1.978929,
            44.220115,
            319.47
          ],
          [
            1.980342,
            44.220507,
            336.35
          ],
          [
            1.980954,
            44.220557,
            341.36
          ],
          [
            1.980992,
            44.220596,
            341.58
          ],
          [
            1.981455,
            44.220715,
            343.42
          ],
          [
            1.982449,
            44.220829,
            347.3
          ],
          [
            1.982906,
            44.220921,
            349.13
          ],
          [
            1.983143,
            44.220956,
            350.35
          ],
          [
            1.9832,
            44.220932,
            350.79
          ],
          [
            1.983243,
            44.220824,
            351.65
          ],
          [
            1.983254,
            44.220775,
            351.73
          ],
          [
            1.983548,
            44.220806,
            352.81
          ],
          [
            1.983569,
            44.22077,
            352.59
          ],
          [
            1.983633,
            44.220737,
            352.15
          ],
          [
            1.984981,
            44.220491,
            344.08
          ],
          [
            1.985056,
            44.220462,
            343.52
          ],
          [
            1.985113,
            44.220423,
            342.96
          ],
          [
            1.985128,
            44.220377,
            341.92
          ],
          [
            1.985174,
            44.22038,
            342.31
          ],
          [
            1.985341,
            44.220355,
            343.55
          ],
          [
            1.985343,
            44.220283,
            342.22
          ],
          [
            1.985317,
            44.220168,
            339.67
          ],
          [
            1.985313,
            44.220085,
            338.58
          ],
          [
            1.985359,
            44.219952,
            337.63
          ],
          [
            1.985638,
            44.219598,
            335.29
          ],
          [
            1.985961,
            44.21931,
            334.39
          ],
          [
            1.986582,
            44.218891,
            334.42
          ],
          [
            1.987645,
            44.217888,
            340.34
          ],
          [
            1.987998,
            44.21763,
            341.09
          ],
          [
            1.988384,
            44.217512,
            342.17
          ],
          [
            1.988546,
            44.217388,
            342.92
          ],
          [
            1.988647,
            44.217189,
            344.19
          ],
          [
            1.98847,
            44.216677,
            349.85
          ],
          [
            1.988282,
            44.216323,
            353.56
          ],
          [
            1.988295,
            44.216217,
            356.69
          ],
          [
            1.988395,
            44.216044,
            362.39
          ],
          [
            1.988356,
            44.215959,
            365.03
          ],
          [
            1.988371,
            44.215793,
            370.0
          ],
          [
            1.988419,
            44.215758,
            371.54
          ],
          [
            1.988493,
            44.215754,
            373.16
          ],
          [
            1.988551,
            44.215717,
            374.56
          ],
          [
            1.988567,
            44.215667,
            375.85
          ],
          [
            1.988493,
            44.215614,
            377.76
          ],
          [
            1.988398,
            44.215581,
            378.82
          ],
          [
            1.987957,
            44.214767,
            398.53
          ],
          [
            1.988276,
            44.214496,
            404.67
          ],
          [
            1.988576,
            44.214439,
            408.54
          ],
          [
            1.988788,
            44.214374,
            411.48
          ],
          [
            1.989245,
            44.214142,
            418.38
          ],
          [
            1.989471,
            44.214037,
            421.54
          ],
          [
            1.989745,
            44.213887,
            425.48
          ],
          [
            1.990437,
            44.213563,
            433.29
          ],
          [
            1.990455,
            44.21351,
            433.83
          ],
          [
            1.990551,
            44.213403,
            434.1
          ],
          [
            1.990698,
            44.213289,
            434.26
          ],
          [
            1.990912,
            44.213164,
            434.54
          ],
          [
            1.991723,
            44.212881,
            434.94
          ],
          [
            1.992201,
            44.212584,
            435.12
          ],
          [
            1.992283,
            44.212507,
            435.18
          ],
          [
            1.992369,
            44.21235,
            435.73
          ],
          [
            1.992396,
            44.212204,
            435.79
          ],
          [
            1.993188,
            44.212424,
            434.9
          ],
          [
            1.993631,
            44.212515,
            433.59
          ],
          [
            1.993822,
            44.212537,
            432.97
          ],
          [
            1.994187,
            44.212537,
            431.77
          ],
          [
            1.994409,
            44.212518,
            431.1
          ],
          [
            1.994563,
            44.212487,
            430.71
          ],
          [
            1.994951,
            44.212375,
            429.95
          ],
          [
            1.996076,
            44.211991,
            429.78
          ],
          [
            1.996428,
            44.211908,
            429.86
          ],
          [
            1.997035,
            44.211808,
            429.49
          ],
          [
            1.997369,
            44.211737,
            429.0
          ],
          [
            1.997384,
            44.211635,
            428.23
          ],
          [
            1.997451,
            44.211508,
            427.62
          ],
          [
            1.99759,
            44.211357,
            426.86
          ],
          [
            1.997882,
            44.21109,
            425.52
          ],
          [
            1.998508,
            44.21039,
            424.36
          ],
          [
            1.99894,
            44.209924,
            422.48
          ],
          [
            1.999298,
            44.209426,
            419.35
          ],
          [
            2.000389,
            44.208308,
            407.04
          ],
          [
            2.000493,
            44.208224,
            405.96
          ],
          [
            2.000648,
            44.208127,
            404.58
          ],
          [
            2.001113,
            44.207951,
            401.6
          ],
          [
            2.001588,
            44.207823,
            399.69
          ],
          [
            2.002067,
            44.207731,
            398.52
          ],
          [
            2.002267,
            44.207678,
            398.17
          ],
          [
            2.002464,
            44.207597,
            397.91
          ],
          [
            2.003148,
            44.207183,
            397.11
          ],
          [
            2.004418,
            44.206737,
            396.61
          ],
          [
            2.004706,
            44.206607,
            396.63
          ],
          [
            2.004918,
            44.206477,
            396.64
          ],
          [
            2.005231,
            44.206217,
            396.48
          ],
          [
            2.005549,
            44.205931,
            395.77
          ],
          [
            2.006317,
            44.205089,
            391.07
          ],
          [
            2.006521,
            44.204806,
            388.8
          ],
          [
            2.006864,
            44.204155,
            384.0
          ],
          [
            2.007337,
            44.203902,
            382.69
          ],
          [
            2.008,
            44.203611,
            381.97
          ],
          [
            2.008433,
            44.203319,
            381.67
          ],
          [
            2.008848,
            44.203015,
            381.22
          ],
          [
            2.009193,
            44.202781,
            380.84
          ],
          [
            2.00959,
            44.202553,
            380.6
          ],
          [
            2.00982,
            44.202376,
            380.78
          ],
          [
            2.010041,
            44.202097,
            381.46
          ],
          [
            2.011339,
            44.200269,
            380.97
          ],
          [
            2.011971,
            44.199622,
            376.62
          ],
          [
            2.012577,
            44.199126,
            373.1
          ],
          [
            2.013092,
            44.198741,
            369.53
          ],
          [
            2.013585,
            44.198441,
            365.75
          ],
          [
            2.014117,
            44.198195,
            361.33
          ],
          [
            2.015503,
            44.197586,
            346.63
          ],
          [
            2.016013,
            44.197155,
            338.68
          ],
          [
            2.016211,
            44.196855,
            333.27
          ],
          [
            2.016286,
            44.196513,
            327.32
          ],
          [
            2.01627,
            44.195798,
            315.96
          ],
          [
            2.0163,
            44.195698,
            314.33
          ],
          [
            2.016453,
            44.195661,
            312.44
          ],
          [
            2.016632,
            44.1957,
            310.08
          ],
          [
            2.016799,
            44.195898,
            305.33
          ],
          [
            2.016857,
            44.195905,
            304.36
          ],
          [
            2.016894,
            44.195874,
            303.42
          ],
          [
            2.016951,
            44.195635,
            297.58
          ],
          [
            2.017072,
            44.195532,
            294.2
          ],
          [
            2.017375,
            44.195232,
            285.15
          ],
          [
            2.017607,
            44.195032,
            279.44
          ],
          [
            2.017926,
            44.194939,
            275.4
          ],
          [
            2.018409,
            44.194701,
            272.38
          ],
          [
            2.018833,
            44.194589,
            272.31
          ],
          [
            2.019232,
            44.194437,
            274.22
          ],
          [
            2.019261,
            44.194297,
            275.89
          ],
          [
            2.019261,
            44.19416,
            278.89
          ],
          [
            2.01937,
            44.194085,
            279.56
          ],
          [
            2.019864,
            44.194078,
            279.94
          ],
          [
            2.02004,
            44.194157,
            281.01
          ],
          [
            2.020169,
            44.194158,
            281.54
          ],
          [
            2.020737,
            44.193979,
            284.26
          ],
          [
            2.021287,
            44.193657,
            290.02
          ],
          [
            2.022655,
            44.193097,
            300.33
          ],
          [
            2.023296,
            44.192799,
            302.74
          ],
          [
            2.023713,
            44.192714,
            303.43
          ],
          [
            2.024334,
            44.192642,
            304.21
          ],
          [
            2.024467,
            44.19253,
            303.81
          ],
          [
            2.024495,
            44.192378,
            303.89
          ],
          [
            2.024448,
            44.192212,
            304.08
          ],
          [
            2.024308,
            44.192085,
            304.32
          ],
          [
            2.024061,
            44.192013,
            304.78
          ],
          [
            2.023043,
            44.191939,
            309.7
          ],
          [
            2.022349,
            44.191847,
            309.05
          ],
          [
            2.021903,
            44.191952,
            308.48
          ],
          [
            2.021871,
            44.191898,
            309.6
          ],
          [
            2.021975,
            44.191613,
            315.15
          ],
          [
            2.021989,
            44.191424,
            318.08
          ],
          [
            2.021854,
            44.190978,
            324.56
          ],
          [
            2.021699,
            44.190532,
            329.96
          ],
          [
            2.021685,
            44.190288,
            332.46
          ],
          [
            2.021613,
            44.189955,
            335.57
          ],
          [
            2.021645,
            44.18983,
            336.64
          ],
          [
            2.021981,
            44.189215,
            342.04
          ],
          [
            2.022131,
            44.188857,
            344.93
          ],
          [
            2.022278,
            44.18869,
            346.49
          ],
          [
            2.022612,
            44.188374,
            349.56
          ],
          [
            2.022718,
            44.188137,
            351.72
          ],
          [
            2.022798,
            44.188023,
            352.58
          ],
          [
            2.023234,
            44.187156,
            360.47
          ],
          [
            2.023296,
            44.187072,
            361.57
          ],
          [
            2.023306,
            44.186897,
            363.1
          ],
          [
            2.023625,
            44.18643,
            368.51
          ],
          [
            2.023869,
            44.186022,
            373.13
          ],
          [
            2.023941,
            44.185787,
            375.52
          ],
          [
            2.023972,
            44.185537,
            377.99
          ],
          [
            2.023949,
            44.185418,
            379.19
          ],
          [
            2.023854,
            44.185224,
            381.31
          ],
          [
            2.023774,
            44.185128,
            382.52
          ],
          [
            2.023344,
            44.184804,
            387.61
          ],
          [
            2.02287,
            44.184391,
            394.46
          ],
          [
            2.022835,
            44.184312,
            395.26
          ],
          [
            2.022788,
            44.184294,
            395.14
          ],
          [
            2.022808,
            44.184266,
            395.48
          ],
          [
            2.022795,
            44.18422,
            396.05
          ],
          [
            2.022594,
            44.183895,
            399.92
          ],
          [
            2.022545,
            44.183767,
            401.34
          ],
          [
            2.022523,
            44.183591,
            403.23
          ],
          [
            2.022429,
            44.183457,
            404.49
          ],
          [
            2.022384,
            44.183355,
            405.35
          ],
          [
            2.022356,
            44.183239,
            406.15
          ],
          [
            2.022354,
            44.183167,
            406.53
          ],
          [
            2.022369,
            44.183094,
            406.93
          ],
          [
            2.023018,
            44.181579,
            405.62
          ],
          [
            2.023357,
            44.180954,
            403.44
          ],
          [
            2.02341,
            44.180793,
            402.9
          ],
          [
            2.023412,
            44.18065,
            402.21
          ],
          [
            2.02333,
            44.180408,
            401.75
          ],
          [
            2.0233,
            44.180165,
            401.18
          ],
          [
            2.023284,
            44.179863,
            401.03
          ],
          [
            2.023315,
            44.179422,
            401.72
          ],
          [
            2.023292,
            44.179238,
            402.0
          ],
          [
            2.023219,
            44.178972,
            401.92
          ],
          [
            2.023012,
            44.178561,
            400.59
          ],
          [
            2.022821,
            44.178217,
            399.07
          ],
          [
            2.022588,
            44.17787,
            397.44
          ],
          [
            2.022182,
            44.177345,
            395.52
          ],
          [
            2.021959,
            44.177017,
            394.73
          ],
          [
            2.02182,
            44.176705,
            394.18
          ],
          [
            2.021603,
            44.175977,
            392.83
          ],
          [
            2.021546,
            44.175751,
            392.0
          ],
          [
            2.021441,
            44.17541,
            391.07
          ],
          [
            2.021372,
            44.175091,
            391.03
          ],
          [
            2.021393,
            44.174883,
            391.01
          ],
          [
            2.021474,
            44.174629,
            391.06
          ],
          [
            2.021511,
            44.174402,
            391.14
          ],
          [
            2.021474,
            44.173905,
            390.75
          ],
          [
            2.021501,
            44.173686,
            390.19
          ],
          [
            2.021629,
            44.173344,
            388.77
          ],
          [
            2.021726,
            44.172767,
            385.85
          ],
          [
            2.021806,
            44.172463,
            384.13
          ],
          [
            2.022096,
            44.171855,
            380.76
          ],
          [
            2.022234,
            44.17176,
            380.13
          ],
          [
            2.022589,
            44.170572,
            370.73
          ],
          [
            2.022623,
            44.170435,
            370.06
          ],
          [
            2.022694,
            44.170266,
            368.76
          ],
          [
            2.022785,
            44.169471,
            363.28
          ],
          [
            2.022994,
            44.168478,
            351.78
          ],
          [
            2.022989,
            44.168323,
            350.06
          ],
          [
            2.022965,
            44.168186,
            348.55
          ],
          [
            2.022909,
            44.168059,
            347.1
          ],
          [
            2.022622,
            44.167624,
            342.81
          ],
          [
            2.022587,
            44.16752,
            342.17
          ],
          [
            2.022587,
            44.167403,
            341.56
          ],
          [
            2.022619,
            44.167285,
            341.06
          ],
          [
            2.02271,
            44.167145,
            340.6
          ],
          [
            2.023166,
            44.166656,
            340.21
          ],
          [
            2.023365,
            44.166414,
            340.05
          ],
          [
            2.023397,
            44.166312,
            339.97
          ],
          [
            2.023365,
            44.165931,
            339.31
          ],
          [
            2.023273,
            44.165556,
            337.94
          ],
          [
            2.023196,
            44.16484,
            332.67
          ],
          [
            2.023145,
            44.164515,
            329.0
          ],
          [
            2.023067,
            44.16428,
            325.92
          ],
          [
            2.022981,
            44.164105,
            323.37
          ],
          [
            2.022616,
            44.163643,
            315.95
          ],
          [
            2.022308,
            44.163341,
            309.82
          ],
          [
            2.022222,
            44.163213,
            307.28
          ],
          [
            2.022007,
            44.162999,
            303.34
          ],
          [
            2.021479,
            44.162603,
            294.59
          ],
          [
            2.021361,
            44.162551,
            292.92
          ],
          [
            2.021251,
            44.162543,
            291.39
          ],
          [
            2.02109,
            44.162637,
            289.15
          ],
          [
            2.021044,
            44.162647,
            288.56
          ],
          [
            2.021001,
            44.162637,
            287.44
          ],
          [
            2.02098,
            44.162608,
            286.39
          ],
          [
            2.020993,
            44.16256,
            285.48
          ],
          [
            2.021143,
            44.162327,
            281.3
          ],
          [
            2.021291,
            44.161954,
            275.13
          ],
          [
            2.021307,
            44.161841,
            273.34
          ],
          [
            2.021262,
            44.161656,
            270.32
          ],
          [
            2.021269,
            44.161579,
            269.72
          ],
          [
            2.021229,
            44.16151,
            269.0
          ],
          [
            2.021196,
            44.161406,
            268.27
          ],
          [
            2.021187,
            44.160823,
            265.79
          ],
          [
            2.021239,
            44.160616,
            264.07
          ],
          [
            2.021389,
            44.160416,
            261.61
          ],
          [
            2.02236,
            44.159583,
            246.08
          ],
          [
            2.022956,
            44.159204,
            240.84
          ],
          [
            2.023468,
            44.158829,
            236.83
          ],
          [
            2.023915,
            44.15837,
            234.08
          ],
          [
            2.02425,
            44.158121,
            233.07
          ],
          [
            2.024293,
            44.158053,
            232.84
          ],
          [
            2.024261,
            44.158003,
            232.66
          ],
          [
            2.024178,
            44.157966,
            232.44
          ],
          [
            2.024036,
            44.157931,
            232.07
          ],
          [
            2.023247,
            44.157896,
            229.92
          ],
          [
            2.022531,
            44.157845,
            226.44
          ],
          [
            2.022347,
            44.157874,
            225.45
          ],
          [
            2.022217,
            44.157863,
            224.78
          ],
          [
            2.022163,
            44.157837,
            224.46
          ],
          [
            2.022138,
            44.157787,
            224.1
          ],
          [
            2.022178,
            44.157739,
            223.73
          ],
          [
            2.022261,
            44.157712,
            223.3
          ],
          [
            2.022755,
            44.157725,
            220.82
          ],
          [
            2.023131,
            44.157668,
            218.69
          ],
          [
            2.024429,
            44.157358,
            209.67
          ],
          [
            2.024765,
            44.157251,
            206.49
          ],
          [
            2.024887,
            44.157253,
            205.42
          ],
          [
            2.024986,
            44.157302,
            204.37
          ],
          [
            2.025072,
            44.157361,
            203.31
          ],
          [
            2.025193,
            44.157648,
            199.65
          ],
          [
            2.025331,
            44.157846,
            197.23
          ],
          [
            2.025428,
            44.158031,
            195.49
          ],
          [
            2.025436,
            44.158149,
            194.52
          ],
          [
            2.025393,
            44.158312,
            193.19
          ],
          [
            2.02524,
            44.158496,
            191.53
          ],
          [
            2.025036,
            44.158717,
            189.56
          ],
          [
            2.024859,
            44.158998,
            187.36
          ],
          [
            2.024713,
            44.159312,
            185.16
          ],
          [
            2.024692,
            44.159437,
            184.48
          ],
          [
            2.024741,
            44.159548,
            183.94
          ],
          [
            2.024812,
            44.159632,
            183.52
          ],
          [
            2.025066,
            44.159801,
            182.55
          ],
          [
            2.025339,
            44.15996,
            182.19
          ],
          [
            2.025613,
            44.1602,
            181.86
          ],
          [
            2.025544,
            44.160365,
            181.44
          ],
          [
            2.024908,
            44.160487,
            182.17
          ],
          [
            2.024494,
            44.160579,
            183.21
          ],
          [
            2.024494,
            44.160579,
            183.21
          ],
          [
            2.024908,
            44.160487,
            182.17
          ],
          [
            2.025544,
            44.160365,
            181.44
          ],
          [
            2.025613,
            44.1602,
            181.86
          ],
          [
            2.025746,
            44.160235,
            181.18
          ],
          [
            2.025967,
            44.160259,
            180.3
          ],
          [
            2.025996,
            44.160172,
            180.52
          ],
          [
            2.026003,
            44.160097,
            180.64
          ],
          [
            2.025958,
            44.159872,
            180.23
          ],
          [
            2.02597,
            44.159769,
            179.88
          ],
          [
            2.026031,
            44.159592,
            179.19
          ],
          [
            2.026041,
            44.159499,
            178.9
          ],
          [
            2.026015,
            44.159387,
            178.47
          ],
          [
            2.025813,
            44.159049,
            176.74
          ],
          [
            2.025846,
            44.158879,
            175.88
          ],
          [
            2.026168,
            44.158485,
            173.97
          ],
          [
            2.026196,
            44.158343,
            173.39
          ],
          [
            2.026079,
            44.15794,
            171.79
          ],
          [
            2.02601,
            44.15763,
            170.64
          ],
          [
            2.025944,
            44.15744,
            169.79
          ],
          [
            2.025861,
            44.157273,
            168.91
          ],
          [
            2.025653,
            44.156962,
            167.27
          ],
          [
            2.025562,
            44.156852,
            166.76
          ],
          [
            2.02543,
            44.156752,
            166.28
          ],
          [
            2.025055,
            44.156544,
            165.78
          ],
          [
            2.024703,
            44.156472,
            166.18
          ],
          [
            2.024277,
            44.156442,
            167.45
          ],
          [
            2.02387,
            44.15646,
            169.27
          ],
          [
            2.023449,
            44.15641,
            171.42
          ],
          [
            2.022807,
            44.156408,
            173.98
          ],
          [
            2.021778,
            44.156565,
            175.92
          ],
          [
            2.021534,
            44.156596,
            175.96
          ],
          [
            2.02124,
            44.156605,
            175.97
          ],
          [
            2.020716,
            44.156574,
            175.85
          ],
          [
            2.020257,
            44.156535,
            175.7
          ],
          [
            2.019905,
            44.156493,
            175.74
          ],
          [
            2.019147,
            44.156373,
            175.19
          ],
          [
            2.018167,
            44.156177,
            173.02
          ],
          [
            2.017584,
            44.156078,
            171.29
          ],
          [
            2.017208,
            44.156028,
            170.38
          ],
          [
            2.016846,
            44.155969,
            169.61
          ],
          [
            2.016383,
            44.155919,
            168.38
          ],
          [
            2.015967,
            44.155886,
            167.68
          ],
          [
            2.01579,
            44.155842,
            166.56
          ],
          [
            2.015703,
            44.155796,
            165.62
          ],
          [
            2.01561,
            44.155733,
            165.9
          ],
          [
            2.015141,
            44.155339,
            164.53
          ],
          [
            2.014496,
            44.155226,
            164.76
          ],
          [
            2.013605,
            44.15498,
            166.05
          ],
          [
            2.011747,
            44.154501,
            168.14
          ],
          [
            2.010566,
            44.154312,
            168.48
          ],
          [
            2.009256,
            44.15399,
            164.88
          ],
          [
            2.008733,
            44.153875,
            164.38
          ],
          [
            2.008122,
            44.153851,
            164.91
          ],
          [
            2.007723,
            44.153808,
            165.46
          ],
          [
            2.007371,
            44.153802,
            165.85
          ],
          [
            2.007093,
            44.153829,
            166.37
          ],
          [
            2.006653,
            44.153788,
            165.63
          ],
          [
            2.00602,
            44.153627,
            165.85
          ],
          [
            2.005647,
            44.153544,
            166.01
          ],
          [
            2.005094,
            44.153517,
            166.5
          ],
          [
            2.004762,
            44.153452,
            166.69
          ],
          [
            2.00425,
            44.15328,
            167.05
          ],
          [
            2.003794,
            44.153165,
            166.94
          ],
          [
            2.003389,
            44.153176,
            166.54
          ],
          [
            2.003092,
            44.153123,
            166.25
          ],
          [
            2.002814,
            44.15304,
            165.9
          ],
          [
            2.002137,
            44.15296,
            165.56
          ],
          [
            2.00158,
            44.152914,
            166.4
          ],
          [
            2.000889,
            44.152918,
            167.2
          ],
          [
            2.000695,
            44.152887,
            167.21
          ],
          [
            1.9996,
            44.15254,
            164.64
          ],
          [
            1.9972,
            44.151728,
            162.28
          ],
          [
            1.996473,
            44.151523,
            163.32
          ],
          [
            1.996072,
            44.151466,
            163.72
          ],
          [
            1.99397,
            44.15085,
            161.41
          ],
          [
            1.99242,
            44.15053,
            159.2
          ],
          [
            1.989824,
            44.150165,
            160.34
          ],
          [
            1.988776,
            44.150092,
            160.89
          ],
          [
            1.987534,
            44.149869,
            159.6
          ],
          [
            1.987027,
            44.149859,
            159.07
          ],
          [
            1.986706,
            44.149885,
            158.9
          ],
          [
            1.986248,
            44.149971,
            158.88
          ],
          [
            1.985721,
            44.150175,
            159.3
          ],
          [
            1.98537,
            44.150438,
            160.55
          ],
          [
            1.98524,
            44.15066,
            161.89
          ],
          [
            1.98522,
            44.15086,
            163.28
          ],
          [
            1.98533,
            44.15109,
            165.34
          ],
          [
            1.985657,
            44.151399,
            169.28
          ],
          [
            1.985857,
            44.151676,
            169.38
          ],
          [
            1.98655,
            44.15319,
            162.02
          ],
          [
            1.98662,
            44.15351,
            160.49
          ],
          [
            1.98662,
            44.1539,
            160.3
          ],
          [
            1.98688,
            44.15494,
            163.24
          ],
          [
            1.98687,
            44.15548,
            164.07
          ],
          [
            1.98671,
            44.15581,
            164.2
          ],
          [
            1.98625,
            44.15648,
            165.15
          ],
          [
            1.98601,
            44.15667,
            164.34
          ],
          [
            1.98521,
            44.15702,
            161.15
          ],
          [
            1.98472,
            44.15716,
            160.07
          ],
          [
            1.98375,
            44.15721,
            160.84
          ],
          [
            1.98308,
            44.15709,
            161.67
          ],
          [
            1.98238,
            44.15678,
            162.2
          ],
          [
            1.981845,
            44.156426,
            162.56
          ],
          [
            1.981515,
            44.156098,
            161.92
          ],
          [
            1.980704,
            44.155156,
            158.7
          ],
          [
            1.980002,
            44.154194,
            156.58
          ],
          [
            1.97985,
            44.15405,
            156.19
          ],
          [
            1.979471,
            44.153793,
            155.79
          ],
          [
            1.979248,
            44.153547,
            155.86
          ],
          [
            1.97912,
            44.153207,
            155.67
          ],
          [
            1.97902,
            44.152566,
            155.01
          ],
          [
            1.979024,
            44.152201,
            154.46
          ],
          [
            1.979122,
            44.151935,
            153.95
          ],
          [
            1.97939,
            44.15152,
            152.93
          ],
          [
            1.97974,
            44.15094,
            151.93
          ],
          [
            1.97988,
            44.150529,
            152.79
          ],
          [
            1.98004,
            44.14971,
            151.41
          ],
          [
            1.98004,
            44.149423,
            151.18
          ],
          [
            1.980189,
            44.149043,
            150.25
          ],
          [
            1.980211,
            44.148674,
            149.94
          ],
          [
            1.979851,
            44.147885,
            149.45
          ],
          [
            1.979728,
            44.147638,
            149.23
          ],
          [
            1.979609,
            44.147469,
            149.44
          ],
          [
            1.979404,
            44.147222,
            149.15
          ],
          [
            1.97916,
            44.146991,
            149.23
          ],
          [
            1.978232,
            44.146385,
            149.57
          ],
          [
            1.978071,
            44.146287,
            149.17
          ],
          [
            1.977625,
            44.145961,
            149.1
          ],
          [
            1.977075,
            44.14562,
            148.98
          ],
          [
            1.976706,
            44.145411,
            148.89
          ],
          [
            1.976199,
            44.145146,
            148.85
          ],
          [
            1.975591,
            44.144895,
            149.03
          ],
          [
            1.975213,
            44.144709,
            149.27
          ],
          [
            1.975129,
            44.144771,
            151.84
          ],
          [
            1.975043,
            44.144783,
            153.45
          ],
          [
            1.974733,
            44.144771,
            158.67
          ],
          [
            1.974595,
            44.144755,
            159.73
          ],
          [
            1.974315,
            44.144701,
            161.51
          ],
          [
            1.973903,
            44.144655,
            163.01
          ],
          [
            1.973771,
            44.144652,
            162.49
          ],
          [
            1.973572,
            44.144862,
            164.29
          ],
          [
            1.973551,
            44.144874,
            164.22
          ],
          [
            1.973522,
            44.144871,
            164.07
          ],
          [
            1.973006,
            44.144922,
            161.14
          ],
          [
            1.972917,
            44.144921,
            160.68
          ],
          [
            1.972803,
            44.144965,
            160.24
          ],
          [
            1.972726,
            44.144979,
            159.01
          ],
          [
            1.972661,
            44.144951,
            160.14
          ],
          [
            1.971111,
            44.144598,
            156.0
          ],
          [
            1.971107,
            44.144643,
            155.64
          ],
          [
            1.970903,
            44.145238,
            149.9
          ],
          [
            1.970797,
            44.145528,
            155.65
          ],
          [
            1.970714,
            44.145697,
            156.93
          ],
          [
            1.970608,
            44.14582,
            157.13
          ],
          [
            1.970631,
            44.145858,
            157.48
          ],
          [
            1.970634,
            44.145879,
            157.83
          ],
          [
            1.970622,
            44.145901,
            158.11
          ],
          [
            1.970543,
            44.145963,
            158.33
          ],
          [
            1.970465,
            44.145994,
            158.43
          ],
          [
            1.97036,
            44.146016,
            158.73
          ],
          [
            1.970069,
            44.146025,
            162.61
          ],
          [
            1.970009,
            44.146044,
            163.58
          ],
          [
            1.969991,
            44.146063,
            164.05
          ],
          [
            1.969973,
            44.146132,
            165.43
          ],
          [
            1.969964,
            44.146296,
            168.01
          ],
          [
            1.969942,
            44.146379,
            169.53
          ],
          [
            1.969808,
            44.146498,
            173.36
          ],
          [
            1.969782,
            44.146547,
            174.49
          ],
          [
            1.969777,
            44.146705,
            177.61
          ],
          [
            1.969798,
            44.146865,
            180.68
          ],
          [
            1.969863,
            44.147083,
            183.27
          ],
          [
            1.97002,
            44.147416,
            187.61
          ],
          [
            1.970092,
            44.147507,
            188.88
          ],
          [
            1.97016,
            44.147564,
            189.82
          ],
          [
            1.970284,
            44.147704,
            191.83
          ],
          [
            1.970328,
            44.147788,
            193.04
          ],
          [
            1.970377,
            44.147948,
            194.83
          ],
          [
            1.970494,
            44.148607,
            199.56
          ],
          [
            1.970513,
            44.148846,
            201.2
          ],
          [
            1.970496,
            44.148934,
            201.82
          ],
          [
            1.970398,
            44.149063,
            202.91
          ],
          [
            1.970424,
            44.149077,
            203.0
          ],
          [
            1.97048,
            44.14913,
            203.2
          ],
          [
            1.970514,
            44.14919,
            203.32
          ],
          [
            1.970529,
            44.149294,
            203.79
          ],
          [
            1.970569,
            44.150014,
            208.07
          ],
          [
            1.970556,
            44.150126,
            208.67
          ],
          [
            1.970537,
            44.150187,
            209.21
          ],
          [
            1.971116,
            44.15035,
            209.04
          ],
          [
            1.971208,
            44.150367,
            209.0
          ],
          [
            1.971259,
            44.150366,
            209.0
          ],
          [
            1.971361,
            44.150405,
            208.45
          ],
          [
            1.971734,
            44.150513,
            207.04
          ],
          [
            1.971845,
            44.150557,
            206.61
          ],
          [
            1.971982,
            44.150635,
            205.84
          ],
          [
            1.972033,
            44.150685,
            205.53
          ],
          [
            1.97205,
            44.150728,
            205.61
          ],
          [
            1.972041,
            44.150791,
            205.87
          ],
          [
            1.971975,
            44.151,
            206.48
          ],
          [
            1.971714,
            44.1517,
            206.85
          ],
          [
            1.971617,
            44.152061,
            207.87
          ],
          [
            1.971243,
            44.152528,
            209.23
          ],
          [
            1.971129,
            44.152878,
            209.73
          ],
          [
            1.971129,
            44.153356,
            210.21
          ],
          [
            1.970679,
            44.154236,
            213.81
          ],
          [
            1.970594,
            44.154492,
            215.13
          ],
          [
            1.970466,
            44.154801,
            216.94
          ],
          [
            1.970443,
            44.154844,
            217.21
          ],
          [
            1.97032,
            44.154973,
            218.1
          ],
          [
            1.969646,
            44.155574,
            226.42
          ],
          [
            1.969627,
            44.155636,
            227.26
          ],
          [
            1.969639,
            44.155689,
            227.98
          ],
          [
            1.969673,
            44.155725,
            228.57
          ],
          [
            1.969996,
            44.155819,
            232.07
          ],
          [
            1.970194,
            44.155918,
            234.58
          ],
          [
            1.970227,
            44.155965,
            235.33
          ],
          [
            1.970231,
            44.156025,
            236.21
          ],
          [
            1.970142,
            44.156343,
            240.56
          ],
          [
            1.970054,
            44.156481,
            242.42
          ],
          [
            1.969984,
            44.156537,
            243.35
          ],
          [
            1.969956,
            44.15654,
            243.61
          ],
          [
            1.969938,
            44.15653,
            243.81
          ],
          [
            1.969862,
            44.156423,
            245.33
          ],
          [
            1.969814,
            44.156417,
            245.76
          ],
          [
            1.969387,
            44.156556,
            250.02
          ],
          [
            1.969142,
            44.156625,
            252.28
          ],
          [
            1.968638,
            44.156819,
            256.85
          ],
          [
            1.96869,
            44.156884,
            257.12
          ],
          [
            1.968716,
            44.156944,
            256.91
          ],
          [
            1.968724,
            44.157003,
            256.75
          ],
          [
            1.9687,
            44.15711,
            256.12
          ],
          [
            1.968568,
            44.157064,
            258.8
          ],
          [
            1.968516,
            44.157057,
            259.46
          ],
          [
            1.968444,
            44.157072,
            260.25
          ],
          [
            1.968202,
            44.157238,
            263.51
          ],
          [
            1.967871,
            44.157389,
            266.98
          ],
          [
            1.967714,
            44.157442,
            268.52
          ],
          [
            1.967234,
            44.157568,
            273.05
          ],
          [
            1.966426,
            44.157849,
            281.86
          ],
          [
            1.966339,
            44.157897,
            282.98
          ],
          [
            1.965775,
            44.158255,
            290.74
          ],
          [
            1.965358,
            44.158411,
            294.58
          ],
          [
            1.965211,
            44.158429,
            294.96
          ],
          [
            1.965147,
            44.158597,
            296.03
          ],
          [
            1.964771,
            44.159341,
            300.43
          ],
          [
            1.964696,
            44.159454,
            301.11
          ],
          [
            1.964576,
            44.159595,
            301.95
          ],
          [
            1.964344,
            44.159839,
            303.42
          ],
          [
            1.964112,
            44.160064,
            304.64
          ],
          [
            1.963691,
            44.160415,
            306.29
          ],
          [
            1.963099,
            44.160814,
            308.05
          ],
          [
            1.962235,
            44.161368,
            310.64
          ],
          [
            1.960458,
            44.162429,
            316.52
          ],
          [
            1.959897,
            44.162833,
            318.7
          ],
          [
            1.958814,
            44.163546,
            319.12
          ],
          [
            1.958198,
            44.163791,
            317.72
          ],
          [
            1.957809,
            44.163995,
            316.98
          ],
          [
            1.957647,
            44.164198,
            317.03
          ],
          [
            1.957289,
            44.164501,
            317.38
          ],
          [
            1.956964,
            44.164744,
            318.0
          ],
          [
            1.953529,
            44.167454,
            330.93
          ],
          [
            1.951787,
            44.168668,
            331.11
          ],
          [
            1.950699,
            44.169362,
            333.55
          ],
          [
            1.950312,
            44.16969,
            334.71
          ],
          [
            1.949902,
            44.170129,
            337.23
          ],
          [
            1.949731,
            44.170268,
            338.83
          ],
          [
            1.949525,
            44.170368,
            340.42
          ],
          [
            1.946036,
            44.1714,
            346.09
          ],
          [
            1.94586,
            44.171484,
            346.09
          ],
          [
            1.945697,
            44.171651,
            346.45
          ],
          [
            1.945557,
            44.171873,
            346.6
          ],
          [
            1.94548,
            44.172081,
            346.89
          ],
          [
            1.945361,
            44.173207,
            350.43
          ],
          [
            1.945356,
            44.173434,
            351.37
          ],
          [
            1.945382,
            44.173629,
            352.18
          ],
          [
            1.945796,
            44.175295,
            358.56
          ],
          [
            1.945828,
            44.175484,
            359.31
          ],
          [
            1.945892,
            44.176535,
            362.78
          ],
          [
            1.94589,
            44.176934,
            363.99
          ],
          [
            1.94579,
            44.177413,
            365.47
          ],
          [
            1.945653,
            44.177773,
            366.59
          ],
          [
            1.945398,
            44.178232,
            368.02
          ],
          [
            1.945193,
            44.178652,
            369.27
          ],
          [
            1.944783,
            44.180093,
            371.56
          ],
          [
            1.944585,
            44.180849,
            371.43
          ],
          [
            1.944505,
            44.181786,
            371.35
          ],
          [
            1.944422,
            44.181886,
            372.0
          ],
          [
            1.944568,
            44.182465,
            373.12
          ],
          [
            1.944649,
            44.182675,
            373.8
          ],
          [
            1.944816,
            44.183053,
            374.98
          ],
          [
            1.944981,
            44.18372,
            376.77
          ],
          [
            1.945068,
            44.184021,
            377.56
          ],
          [
            1.945153,
            44.184193,
            378.04
          ],
          [
            1.945506,
            44.184695,
            379.85
          ],
          [
            1.945734,
            44.185043,
            381.8
          ],
          [
            1.944729,
            44.18488,
            381.15
          ],
          [
            1.944583,
            44.184938,
            381.04
          ],
          [
            1.944354,
            44.18509,
            380.51
          ],
          [
            1.944249,
            44.185173,
            379.77
          ],
          [
            1.944063,
            44.185267,
            378.52
          ],
          [
            1.943881,
            44.185328,
            377.44
          ],
          [
            1.943624,
            44.185389,
            375.97
          ],
          [
            1.943148,
            44.185446,
            372.9
          ],
          [
            1.943051,
            44.185485,
            372.18
          ],
          [
            1.942942,
            44.18562,
            370.71
          ],
          [
            1.942892,
            44.185709,
            369.91
          ],
          [
            1.942588,
            44.185844,
            367.54
          ],
          [
            1.942543,
            44.185837,
            367.07
          ],
          [
            1.942704,
            44.186125,
            368.68
          ],
          [
            1.942961,
            44.186515,
            370.25
          ],
          [
            1.942992,
            44.186585,
            370.53
          ],
          [
            1.943023,
            44.187184,
            372.32
          ],
          [
            1.943053,
            44.187309,
            372.66
          ],
          [
            1.943169,
            44.187557,
            372.44
          ],
          [
            1.943328,
            44.187926,
            373.02
          ],
          [
            1.943687,
            44.18849,
            375.03
          ],
          [
            1.943751,
            44.18862,
            375.61
          ],
          [
            1.943869,
            44.18917,
            377.85
          ],
          [
            1.943944,
            44.189686,
            380.41
          ],
          [
            1.943926,
            44.190065,
            382.83
          ],
          [
            1.943936,
            44.19027,
            384.57
          ],
          [
            1.943998,
            44.190482,
            386.53
          ],
          [
            1.944121,
            44.19077,
            389.73
          ],
          [
            1.944244,
            44.191021,
            392.0
          ],
          [
            1.943823,
            44.191257,
            392.22
          ],
          [
            1.943571,
            44.19142,
            392.99
          ],
          [
            1.943468,
            44.191524,
            394.12
          ],
          [
            1.943305,
            44.191486,
            395.41
          ],
          [
            1.942735,
            44.191388,
            399.38
          ],
          [
            1.942553,
            44.191288,
            400.37
          ],
          [
            1.942411,
            44.191141,
            401.67
          ],
          [
            1.942248,
            44.191027,
            402.78
          ],
          [
            1.941912,
            44.190915,
            403.99
          ],
          [
            1.941518,
            44.1909,
            406.02
          ],
          [
            1.941435,
            44.190993,
            407.83
          ],
          [
            1.941281,
            44.191104,
            409.61
          ],
          [
            1.941019,
            44.191241,
            412.1
          ],
          [
            1.940466,
            44.191493,
            417.18
          ],
          [
            1.940097,
            44.191644,
            419.99
          ],
          [
            1.939742,
            44.191771,
            422.34
          ],
          [
            1.939549,
            44.191866,
            423.5
          ],
          [
            1.939452,
            44.191942,
            424.14
          ],
          [
            1.939162,
            44.192228,
            426.09
          ],
          [
            1.938629,
            44.192635,
            429.85
          ],
          [
            1.938405,
            44.192727,
            431.33
          ],
          [
            1.938003,
            44.192905,
            434.29
          ],
          [
            1.937739,
            44.193041,
            436.39
          ],
          [
            1.937575,
            44.193161,
            437.83
          ],
          [
            1.937298,
            44.193396,
            440.34
          ],
          [
            1.936425,
            44.194223,
            448.74
          ],
          [
            1.936206,
            44.194409,
            450.85
          ],
          [
            1.935576,
            44.19499,
            456.25
          ],
          [
            1.935194,
            44.19535,
            458.93
          ],
          [
            1.935027,
            44.195533,
            460.27
          ],
          [
            1.934824,
            44.19579,
            462.2
          ],
          [
            1.934503,
            44.196293,
            466.45
          ],
          [
            1.934336,
            44.196632,
            469.51
          ],
          [
            1.934205,
            44.196835,
            471.37
          ],
          [
            1.934048,
            44.197063,
            473.45
          ],
          [
            1.933911,
            44.197216,
            475.11
          ],
          [
            1.93379,
            44.197387,
            477.03
          ],
          [
            1.93373,
            44.197542,
            478.69
          ],
          [
            1.933652,
            44.197685,
            480.28
          ],
          [
            1.933556,
            44.197828,
            481.85
          ],
          [
            1.933283,
            44.198122,
            485.03
          ],
          [
            1.933194,
            44.198239,
            486.11
          ],
          [
            1.932931,
            44.198798,
            489.53
          ],
          [
            1.932833,
            44.199048,
            490.97
          ],
          [
            1.932817,
            44.199187,
            491.82
          ],
          [
            1.932847,
            44.199423,
            493.31
          ],
          [
            1.932851,
            44.199567,
            494.23
          ],
          [
            1.932785,
            44.199981,
            496.41
          ],
          [
            1.932699,
            44.200301,
            497.43
          ],
          [
            1.932703,
            44.200457,
            497.68
          ],
          [
            1.932753,
            44.200873,
            498.37
          ],
          [
            1.932753,
            44.201009,
            498.67
          ],
          [
            1.932705,
            44.201225,
            499.18
          ],
          [
            1.932695,
            44.201418,
            499.58
          ],
          [
            1.932706,
            44.20158,
            499.94
          ],
          [
            1.932752,
            44.201787,
            500.37
          ],
          [
            1.933049,
            44.20251,
            500.92
          ],
          [
            1.933175,
            44.202968,
            500.63
          ],
          [
            1.933224,
            44.203249,
            500.04
          ],
          [
            1.933282,
            44.203482,
            499.34
          ],
          [
            1.933537,
            44.204197,
            496.12
          ],
          [
            1.933658,
            44.20459,
            495.04
          ],
          [
            1.933759,
            44.204773,
            494.84
          ],
          [
            1.934026,
            44.20517,
            495.18
          ],
          [
            1.934306,
            44.205556,
            495.49
          ],
          [
            1.934822,
            44.206352,
            494.07
          ],
          [
            1.93491,
            44.206498,
            493.99
          ],
          [
            1.934904,
            44.206544,
            494.0
          ],
          [
            1.935073,
            44.206673,
            494.0
          ],
          [
            1.935914,
            44.207475,
            493.41
          ],
          [
            1.936251,
            44.207858,
            493.09
          ],
          [
            1.936486,
            44.208141,
            492.8
          ],
          [
            1.935853,
            44.207909,
            490.46
          ],
          [
            1.935664,
            44.207866,
            489.93
          ],
          [
            1.93551,
            44.20785,
            489.5
          ],
          [
            1.935155,
            44.207883,
            488.97
          ],
          [
            1.935004,
            44.207884,
            488.46
          ],
          [
            1.934552,
            44.208133,
            483.44
          ],
          [
            1.934049,
            44.20829,
            476.68
          ],
          [
            1.93392,
            44.208347,
            474.75
          ],
          [
            1.933475,
            44.208495,
            468.1
          ],
          [
            1.933096,
            44.208671,
            461.74
          ],
          [
            1.932757,
            44.208762,
            457.01
          ],
          [
            1.932466,
            44.20891,
            452.89
          ],
          [
            1.931466,
            44.209331,
            442.11
          ],
          [
            1.930784,
            44.20955,
            435.69
          ],
          [
            1.930501,
            44.209628,
            432.93
          ],
          [
            1.930034,
            44.209932,
            428.77
          ],
          [
            1.929919,
            44.210045,
            427.38
          ],
          [
            1.929702,
            44.210059,
            425.99
          ],
          [
            1.929588,
            44.210068,
            425.37
          ],
          [
            1.928318,
            44.210479,
            415.42
          ],
          [
            1.92763,
            44.210679,
            407.0
          ],
          [
            1.927054,
            44.21076,
            399.32
          ],
          [
            1.925884,
            44.210994,
            384.06
          ],
          [
            1.925176,
            44.210961,
            375.79
          ],
          [
            1.925088,
            44.210924,
            374.58
          ],
          [
            1.925048,
            44.210863,
            373.48
          ],
          [
            1.924993,
            44.210656,
            370.24
          ],
          [
            1.924894,
            44.210508,
            367.71
          ],
          [
            1.924756,
            44.210472,
            366.0
          ],
          [
            1.924371,
            44.210492,
            362.39
          ],
          [
            1.924149,
            44.210539,
            361.93
          ],
          [
            1.924043,
            44.210727,
            364.02
          ],
          [
            1.923996,
            44.210914,
            365.06
          ],
          [
            1.924026,
            44.211188,
            366.04
          ],
          [
            1.924053,
            44.211309,
            365.75
          ],
          [
            1.924096,
            44.211393,
            365.14
          ],
          [
            1.924171,
            44.211456,
            364.77
          ],
          [
            1.924764,
            44.211704,
            360.82
          ],
          [
            1.924966,
            44.211822,
            359.27
          ],
          [
            1.925046,
            44.211877,
            358.56
          ],
          [
            1.925097,
            44.211951,
            357.8
          ],
          [
            1.925106,
            44.212024,
            357.13
          ],
          [
            1.925073,
            44.212102,
            356.4
          ],
          [
            1.924987,
            44.212158,
            355.68
          ],
          [
            1.924826,
            44.212206,
            354.7
          ],
          [
            1.924622,
            44.212235,
            353.86
          ],
          [
            1.924443,
            44.212283,
            353.41
          ],
          [
            1.924314,
            44.212355,
            353.2
          ],
          [
            1.924238,
            44.212413,
            353.12
          ],
          [
            1.924189,
            44.212487,
            353.02
          ],
          [
            1.924145,
            44.212669,
            352.81
          ],
          [
            1.924143,
            44.212792,
            352.78
          ],
          [
            1.924248,
            44.213259,
            353.26
          ],
          [
            1.924422,
            44.213745,
            355.42
          ],
          [
            1.924407,
            44.213843,
            355.87
          ],
          [
            1.924325,
            44.213937,
            356.4
          ],
          [
            1.924235,
            44.213998,
            356.96
          ],
          [
            1.924078,
            44.214032,
            358.14
          ],
          [
            1.923911,
            44.214023,
            359.71
          ],
          [
            1.923783,
            44.213996,
            360.48
          ],
          [
            1.923657,
            44.213942,
            360.29
          ],
          [
            1.923584,
            44.213934,
            360.08
          ],
          [
            1.92352,
            44.213962,
            360.82
          ],
          [
            1.923501,
            44.213984,
            361.57
          ],
          [
            1.923317,
            44.21389,
            359.58
          ],
          [
            1.92303,
            44.213824,
            358.5
          ],
          [
            1.92276,
            44.213797,
            357.58
          ],
          [
            1.92247,
            44.21378,
            356.71
          ],
          [
            1.922359,
            44.213779,
            356.56
          ],
          [
            1.922007,
            44.213729,
            354.9
          ],
          [
            1.921899,
            44.213722,
            354.21
          ],
          [
            1.921841,
            44.213745,
            354.16
          ],
          [
            1.921776,
            44.213793,
            353.83
          ],
          [
            1.921697,
            44.213811,
            353.15
          ],
          [
            1.921542,
            44.213807,
            351.93
          ],
          [
            1.921493,
            44.213783,
            351.37
          ],
          [
            1.921477,
            44.213749,
            351.11
          ],
          [
            1.921515,
            44.213669,
            348.94
          ]
        ]
      }
    },
    {
      "type": "Feature",
      "properties": {
        "source": "Sentier_du_Viaur.gpx",
        "type": "route"
      },
      "geometry": {
        "type": "LineString",
        "coordinates": [
          [
            1.976063,
            44.221749
          ],
          [
            1.974118,
            44.221178
          ],
          [
            1.972368,
            44.221237
          ],
          [
            1.972172,
            44.220489
          ],
          [
            1.972286,
            44.220455
          ],
          [
            1.972714,
            44.220315
          ],
          [
            1.977436,
            44.219775
          ],
          [
            1.976674,
            44.219206
          ],
          [
            1.976937,
            44.219185
          ],
          [
            1.97877,
            44.219963
          ],
          [
            1.978929,
            44.220115
          ],
          [
            1.980954,
            44.220557
          ],
          [
            1.983254,
            44.220775
          ],
          [
            1.983548,
            44.220806
          ],
          [
            1.985128,
            44.220377
          ],
          [
            1.985341,
            44.220355
          ],
          [
            1.988493,
            44.215614
          ],
          [
            1.988398,
            44.215581
          ],
          [
            1.987957,
            44.214767
          ],
          [
            1.990437,
            44.213563
          ],
          [
            1.992369,
            44.21235
          ],
          [
            1.992396,
            44.212204
          ],
          [
            1.997369,
            44.211737
          ],
          [
            2.006864,
            44.204155
          ],
          [
            2.014117,
            44.198195
          ],
          [
            2.021903,
            44.191952
          ],
          [
            2.022718,
            44.188137
          ],
          [
            2.023296,
            44.187072
          ],
          [
            2.022835,
            44.184312
          ],
          [
            2.022788,
            44.184294
          ],
          [
            2.022429,
            44.183457
          ],
          [
            2.021546,
            44.175751
          ],
          [
            2.022096,
            44.171855
          ],
          [
            2.022234,
            44.17176
          ],
          [
            2.022623,
            44.170435
          ],
          [
            2.021196,
            44.161406
          ],
          [
            2.021239,
            44.160616
          ],
          [
            2.025613,
            44.1602
          ],
          [
            2.024494,
            44.160579
          ],
          [
            2.024494,
            44.160579
          ],
          [
            2.025613,
            44.1602
          ],
          [
            2.025967,
            44.160259
          ],
          [
            1.985657,
            44.151399
          ],
          [
            1.98004,
            44.149423
          ],
          [
            1.975213,
            44.144709
          ],
          [
            1.973522,
            44.144871
          ],
          [
            1.971111,
            44.144598
          ],
          [
            1.970608,
            44.14582
          ],
          [
            1.970398,
            44.149063
          ],
          [
            1.970537,
            44.150187
          ],
          [
            1.971259,
            44.150366
          ],
          [
            1.968638,
            44.156819
          ],
          [
            1.9687,
            44.15711
          ],
          [
            1.965211,
            44.158429
          ],
          [
            1.957809,
            44.163995
          ],
          [
            1.944422,
            44.181886
          ],
          [
            1.945734,
            44.185043
          ],
          [
            1.944729,
            44.18488
          ],
          [
            1.942543,
            44.185837
          ],
          [
            1.943169,
            44.187557
          ],
          [
            1.944244,
            44.191021
          ],
          [
            1.943468,
            44.191524
          ],
          [
            1.941518,
            44.1909
          ],
          [
            1.934904,
            44.206544
          ],
          [
            1.935073,
            44.206673
          ],
          [
            1.936486,
            44.208141
          ],
          [
            1.935004,
            44.207884
          ],
          [
            1.930501,
            44.209628
          ],
          [
            1.929702,
            44.210059
          ],
          [
            1.924149,
            44.210539
          ],
          [
            1.923501,
            44.213984
          ],
          [
            1.92247,
            44.21378
          ],
          [
            1.921899,
            44.213722
          ],
          [
            1.921515,
            44.213669
          ]
        ]
      }
    }
  ]
}