{
  "type": "FeatureCollection",
  "features": [
    {
      "type": "Feature",
      "properties": {
        "name": "GraphHopper Track",
        "source": "Boucle_de_Camjac.gpx",
        "type": "track"
      },
      "geometry": {
        "type": "LineString",
        "coordinates": [
          [
            2.376543,
            44.175573,
            499.08
          ],
          [
            2.376689,
            44.175455,
            499.04
          ],
          [
            2.376965,
            44.175275,
            499.1
          ],
          [
            2.377854,
            44.174735,
            498.6
          ],
          [
            2.378095,
            44.174621,
            498.49
          ],
          [
            2.378384,
            44.174526,
            498.34
          ],
          [
            2.378904,
            44.174398,
            498.22
          ],
          [
            2.378248,
            44.174044,
            494.33
          ],
          [
            2.377965,
            44.173903,
            492.23
          ],
          [
            2.377637,
            44.173803,
            489.94
          ],
          [
            2.377194,
            44.173711,
            486.75
          ],
          [
            2.376928,
            44.173711,
            484.86
          ],
          [
            2.376269,
            44.173828,
            480.46
          ],
          [
            2.376037,
            44.173759,
            478.95
          ],
          [
            2.376004,
            44.173651,
            478.09
          ],
          [
            2.376069,
            44.173501,
            476.97
          ],
          [
            2.376353,
            44.173132,
            474.65
          ],
          [
            2.376374,
            44.17282,
            472.92
          ],
          [
            2.376348,
            44.172732,
            472.44
          ],
          [
            2.376165,
            44.172624,
            471.57
          ],
          [
            2.375902,
            44.172378,
            469.85
          ],
          [
            2.37564,
            44.172274,
            468.42
          ],
          [
            2.375146,
            44.171754,
            464.12
          ],
          [
            2.375017,
            44.171643,
            463.19
          ],
          [
            2.37417,
            44.171416,
            459.66
          ],
          [
            2.373962,
            44.17137,
            458.7
          ],
          [
            2.373605,
            44.171226,
            456.53
          ],
          [
            2.373379,
            44.171233,
            457.82
          ],
          [
            2.373044,
            44.171385,
            460.18
          ],
          [
            2.372729,
            44.171443,
            462.06
          ],
          [
            2.372225,
            44.171398,
            465.06
          ],
          [
            2.3716,
            44.171404,
            468.7
          ],
          [
            2.370432,
            44.171276,
            475.36
          ],
          [
            2.369601,
            44.171166,
            480.25
          ],
          [
            2.369331,
            44.171104,
            481.94
          ],
          [
            2.369217,
            44.170977,
            483.14
          ],
          [
            2.369261,
            44.170571,
            486.53
          ],
          [
            2.369219,
            44.170435,
            487.32
          ],
          [
            2.369107,
            44.170354,
            487.96
          ],
          [
            2.368553,
            44.170258,
            489.31
          ],
          [
            2.368137,
            44.170173,
            490.75
          ],
          [
            2.367012,
            44.169823,
            496.17
          ],
          [
            2.366434,
            44.169494,
            499.37
          ],
          [
            2.365825,
            44.169176,
            501.07
          ],
          [
            2.365739,
            44.169153,
            501.35
          ],
          [
            2.366095,
            44.168829,
            499.08
          ],
          [
            2.365799,
            44.168395,
            497.28
          ],
          [
            2.365799,
            44.168395,
            497.28
          ],
          [
            2.366095,
            44.168829,
            499.08
          ],
          [
            2.365739,
            44.169153,
            501.35
          ],
          [
            2.365031,
            44.168965,
            500.18
          ],
          [
            2.364205,
            44.168665,
            498.39
          ],
          [
            2.363631,
            44.168599,
            496.43
          ],
          [
            2.362842,
            44.168549,
            492.76
          ],
          [
            2.362587,
            44.168481,
            491.79
          ],
          [
            2.362296,
            44.168277,
            492.68
          ],
          [
            2.362033,
            44.168152,
            493.58
          ],
          [
            2.361491,
            44.16797,
            495.01
          ],
          [
            2.35984,
            44.167539,
            497.86
          ],
          [
            2.359382,
            44.16745,
            497.9
          ],
          [
            2.358842,
            44.167374,
            495.59
          ],
          [
            2.358447,
            44.167293,
            493.79
          ],
          [
            2.358057,
            44.167187,
            491.96
          ],
          [
            2.357919,
            44.167114,
            491.35
          ],
          [
            2.357785,
            44.167024,
            491.0
          ],
          [
            2.357489,
            44.166781,
            491.85
          ],
          [
            2.356812,
            44.166133,
            494.32
          ],
          [
            2.355668,
            44.165214,
            493.64
          ],
          [
            2.355608,
            44.165153,
            493.17
          ],
          [
            2.355558,
            44.165071,
            492.77
          ],
          [
            2.355478,
            44.164838,
            491.97
          ],
          [
            2.355227,
            44.164253,
            490.0
          ],
          [
            2.35453,
            44.16325,
            487.48
          ],
          [
            2.354193,
            44.16281,
            486.81
          ],
          [
            2.353816,
            44.162349,
            486.26
          ],
          [
            2.353024,
            44.161427,
            484.94
          ],
          [
            2.352611,
            44.161002,
            484.0
          ],
          [
            2.352392,
            44.160798,
            483.97
          ],
          [
            2.351866,
            44.160336,
            482.91
          ],
          [
            2.351737,
            44.16026,
            482.61
          ],
          [
            2.351479,
            44.160129,
            481.97
          ],
          [
            2.350928,
            44.159863,
            480.36
          ],
          [
            2.350617,
            44.159735,
            479.59
          ],
          [
            2.350596,
            44.159695,
            479.47
          ],
          [
            2.349523,
            44.159143,
            476.56
          ],
          [
            2.348733,
            44.158638,
            474.07
          ],
          [
            2.347175,
            44.157425,
            469.08
          ],
          [
            2.345962,
            44.156578,
            467.04
          ],
          [
            2.34498,
            44.155872,
            465.78
          ]
        ]
      }
    },
    {
      "type": "Feature",
      "properties": {
        "source": "Boucle_de_Camjac.gpx",
        "type": "route"
      },
      "geometry": {
        "type": "LineString",
        "coordinates": [
          [
            2.376543,
            44.175573
          ],
          [
            2.378904,
            44.174398
          ],
          [
            2.365739,
            44.169153
          ],
          [
            2.366095,
            44.168829
          ],
          [
            2.365799,
            44.168395
          ],
          [
            2.365799,
            44.168395
          ],
          [
            2.366095,
            44.168829
          ],
          [
            2.365739,
            44.169153
          ],
          [
            2.350596,
            44.159695
          ],
          [
            2.349523,
            44.159143
          ],
          [
            2.34498,
            44.155872
          ]
        ]
      }
    }
  ]
}