{
  "type": "FeatureCollection",
  "features": [
    {
      "type": "Feature",
      "properties": {
        "name": "GraphHopper Track",
        "source": "Circuit_du_Ségala.gpx",
        "type": "track"
      },
      "geometry": {
        "type": "LineString",
        "coordinates": [
          [
            2.345775,
            44.196165,
            471.13
          ],
          [
            2.345905,
            44.196141,
            470.62
          ],
          [
            2.346288,
            44.196036,
            469.65
          ],
          [
            2.346278,
            44.196007,
            469.42
          ],
          [
            2.34628,
            44.195978,
            469.26
          ],
          [
            2.346295,
            44.195951,
            469.17
          ],
          [
            2.346321,
            44.195928,
            469.14
          ],
          [
            2.346355,
            44.195912,
            469.28
          ],
          [
            2.346314,
            44.195871,
            469.31
          ],
          [
            2.346009,
            44.195808,
            468.62
          ],
          [
            2.345442,
            44.195673,
            467.92
          ],
          [
            2.344974,
            44.195432,
            467.41
          ],
          [
            2.344645,
            44.195229,
            467.18
          ],
          [
            2.343602,
            44.194802,
            469.13
          ],
          [
            2.342032,
            44.194527,
            466.58
          ],
          [
            2.341997,
            44.194587,
            466.09
          ],
          [
            2.341615,
            44.194678,
            465.16
          ],
          [
            2.341299,
            44.194728,
            464.0
          ],
          [
            2.340487,
            44.194768,
            461.88
          ],
          [
            2.340442,
            44.19478,
            461.73
          ],
          [
            2.340341,
            44.194447,
            464.44
          ],
          [
            2.340122,
            44.19307,
            475.36
          ],
          [
            2.340095,
            44.191988,
            476.31
          ],
          [
            2.340056,
            44.191799,
            476.32
          ],
          [
            2.339914,
            44.191432,
            477.43
          ],
          [
            2.339811,
            44.191195,
            478.04
          ],
          [
            2.33972,
            44.190853,
            478.71
          ],
          [
            2.339621,
            44.190185,
            478.07
          ],
          [
            2.339511,
            44.189944,
            478.02
          ],
          [
            2.339163,
            44.189674,
            478.0
          ],
          [
            2.338791,
            44.189467,
            478.0
          ],
          [
            2.338272,
            44.189163,
            477.81
          ],
          [
            2.337707,
            44.188857,
            477.16
          ],
          [
            2.337241,
            44.188622,
            476.39
          ],
          [
            2.335008,
            44.187295,
            473.17
          ],
          [
            2.334055,
            44.186709,
            473.02
          ],
          [
            2.334055,
            44.186709,
            473.02
          ],
          [
            2.335008,
            44.187295,
            473.17
          ],
          [
            2.337241,
            44.188622,
            476.39
          ],
          [
            2.337707,
            44.188857,
            477.16
          ],
          [
            2.338272,
            44.189163,
            477.81
          ],
          [
            2.338791,
            44.189467,
            478.0
          ],
          [
            2.339163,
            44.189674,
            478.0
          ],
          [
            2.339511,
            44.189944,
            478.02
          ],
          [
            2.339621,
            44.190185,
            478.07
          ],
          [
            2.33972,
            44.190853,
            478.71
          ],
          [
            2.339811,
            44.191195,
            478.04
          ],
          [
            2.339914,
            44.191432,
            477.43
          ],
          [
            2.340056,
            44.191799,
            476.32
          ],
          [
            2.340095,
            44.191988,
            476.31
          ],
          [
            2.340122,
            44.19307,
            475.36
          ],
          [
            2.340341,
            44.194447,
            464.44
          ],
          [
            2.340442,
            44.19478,
            461.73
          ],
          [
            2.340502,
            44.195038,
            462.06
          ],
          [
            2.340478,
            44.195207,
            462.91
          ],
          [
            2.340216,
            44.195799,
            469.7
          ],
          [
            2.340224,
            44.195883,
            470.4
          ],
          [
            2.34025,
            44.195947,
            470.93
          ],
          [
            2.339955,
            44.196024,
            474.31
          ],
          [
            2.339826,
            44.196232,
            478.42
          ],
          [
            2.339646,
            44.196436,
            481.75
          ],
          [
            2.339473,
            44.196566,
            483.2
          ],
          [
            2.339282,
            44.196845,
            485.19
          ],
          [
            2.339161,
            44.196983,
            486.0
          ],
          [
            2.338816,
            44.197307,
            487.43
          ],
          [
            2.3387,
            44.197464,
            487.74
          ],
          [
            2.338504,
            44.198108,
            487.03
          ],
          [
            2.338429,
            44.198267,
            486.73
          ],
          [
            2.338352,
            44.198332,
            486.21
          ],
          [
            2.337936,
            44.198595,
            483.87
          ],
          [
            2.337439,
            44.198867,
            482.0
          ],
          [
            2.336777,
            44.1993,
            483.66
          ]
        ]
      }
    },
    {
      "type": "Feature",
      "properties": {
        "source": "Circuit_du_Ségala.gpx",
        "type": "route"
      },
      "geometry": {
        "type": "LineString",
        "coordinates": [
          [
            2.345775,
            44.196165
          ],
          [
            2.346288,
            44.196036
          ],
          [
            2.342032,
            44.194527
          ],
          [
            2.341997,
            44.194587
          ],
          [
            2.340442,
            44.19478
          ],
          [
            2.339511,
            44.189944
          ],
          [
            2.334055,
            44.186709
          ],
          [
            2.334055,
            44.186709
          ],
          [
            2.339511,
            44.189944
          ],
          [
            2.34025,
            44.195947
          ],
          [
            2.339473,
            44.196566
          ],
          [
            2.336777,
            44.1993
          ]
        ]
      }
    }
  ]
}