{
  "type": "FeatureCollection",
  "features": [
    {
      "type": "Feature",
      "properties": {
        "name": "GraphHopper Track",
        "source": "Boucle_de_Conques.gpx",
        "type": "track"
      },
      "geometry": {
        "type": "LineString",
        "coordinates": [
          [
            2.3979,
            44.598917,
            286.1
          ],
          [
            2.39787,
            44.598919,
            286.06
          ],
          [
            2.397874,
            44.598948,
            286.25
          ],
          [
            2.397802,
            44.598954,
            286.17
          ],
          [
            2.397826,
            44.599111,
            288.07
          ],
          [
            2.397705,
            44.599125,
            287.74
          ],
          [
            2.397689,
            44.599111,
            287.43
          ],
          [
            2.397613,
            44.598827,
            281.68
          ],
          [
            2.39754,
            44.598672,
            276.13
          ],
          [
            2.397216,
            44.5987,
            273.91
          ],
          [
            2.397081,
            44.598704,
            272.93
          ],
          [
            2.397038,
            44.598677,
            272.52
          ],
          [
            2.396992,
            44.598659,
            272.11
          ],
          [
            2.396908,
            44.598656,
            271.27
          ],
          [
            2.396717,
            44.598693,
            270.95
          ],
          [
            2.396676,
            44.598713,
            271.42
          ],
          [
            2.396605,
            44.598732,
            271.68
          ],
          [
            2.396412,
            44.598756,
            272.0
          ],
          [
            2.396251,
            44.598756,
            271.81
          ],
          [
            2.39608,
            44.598778,
            271.63
          ],
          [
            2.395848,
            44.598727,
            270.74
          ],
          [
            2.395754,
            44.598696,
            270.08
          ],
          [
            2.395665,
            44.598679,
            270.2
          ],
          [
            2.395531,
            44.59867,
            271.18
          ],
          [
            2.395401,
            44.598596,
            269.76
          ],
          [
            2.395117,
            44.598463,
            266.4
          ],
          [
            2.39481,
            44.598278,
            261.99
          ],
          [
            2.394701,
            44.598225,
            260.47
          ],
          [
            2.394576,
            44.598206,
            259.0
          ],
          [
            2.394461,
            44.598176,
            257.38
          ],
          [
            2.39412,
            44.598112,
            251.62
          ],
          [
            2.393933,
            44.598108,
            249.18
          ],
          [
            2.393807,
            44.598155,
            249.14
          ],
          [
            2.393696,
            44.598148,
            247.11
          ],
          [
            2.393551,
            44.598175,
            243.03
          ],
          [
            2.393374,
            44.598124,
            236.42
          ],
          [
            2.393082,
            44.598055,
            228.86
          ],
          [
            2.393047,
            44.59809,
            227.86
          ],
          [
            2.39292,
            44.598136,
            225.28
          ],
          [
            2.392788,
            44.59816,
            222.07
          ],
          [
            2.392288,
            44.598228,
            219.35
          ],
          [
            2.392182,
            44.598227,
            221.02
          ],
          [
            2.39187,
            44.598184,
            226.09
          ],
          [
            2.391526,
            44.598087,
            228.32
          ],
          [
            2.39137,
            44.598031,
            229.44
          ],
          [
            2.391258,
            44.597929,
            230.31
          ],
          [
            2.391199,
            44.597822,
            230.9
          ],
          [
            2.391146,
            44.597769,
            231.63
          ],
          [
            2.391117,
            44.597755,
            232.07
          ],
          [
            2.391037,
            44.597745,
            233.09
          ],
          [
            2.390982,
            44.597727,
            233.65
          ],
          [
            2.390906,
            44.597732,
            235.07
          ],
          [
            2.390854,
            44.597766,
            235.12
          ],
          [
            2.390826,
            44.597749,
            235.13
          ],
          [
            2.390925,
            44.59766,
            236.0
          ],
          [
            2.390936,
            44.59762,
            236.59
          ],
          [
            2.390896,
            44.597604,
            237.26
          ],
          [
            2.390787,
            44.597618,
            238.66
          ],
          [
            2.390744,
            44.597614,
            239.08
          ],
          [
            2.390728,
            44.597582,
            239.71
          ],
          [
            2.390738,
            44.597529,
            240.42
          ],
          [
            2.390682,
            44.597527,
            240.86
          ],
          [
            2.39065,
            44.597479,
            241.78
          ],
          [
            2.390743,
            44.597436,
            242.88
          ],
          [
            2.390737,
            44.597415,
            243.22
          ],
          [
            2.390599,
            44.597454,
            244.98
          ],
          [
            2.390568,
            44.597428,
            245.63
          ],
          [
            2.390625,
            44.597361,
            247.39
          ],
          [
            2.390585,
            44.597351,
            248.11
          ],
          [
            2.390414,
            44.59735,
            250.86
          ],
          [
            2.390362,
            44.597326,
            251.88
          ],
          [
            2.390412,
            44.597261,
            253.62
          ],
          [
            2.390335,
            44.597261,
            254.92
          ],
          [
            2.390314,
            44.597298,
            255.82
          ],
          [
            2.390256,
            44.597228,
            257.59
          ],
          [
            2.390142,
            44.597188,
            259.36
          ],
          [
            2.390167,
            44.597102,
            261.35
          ],
          [
            2.390307,
            44.597086,
            263.6
          ],
          [
            2.390416,
            44.597124,
            265.56
          ],
          [
            2.390387,
            44.597081,
            266.77
          ],
          [
            2.39029,
            44.59703,
            269.01
          ],
          [
            2.390212,
            44.597019,
            270.66
          ],
          [
            2.390123,
            44.596963,
            272.81
          ],
          [
            2.390086,
            44.596958,
            273.32
          ],
          [
            2.39003,
            44.596991,
            274.1
          ],
          [
            2.389931,
            44.596952,
            275.66
          ],
          [
            2.3899,
            44.596914,
            276.27
          ],
          [
            2.389772,
            44.596857,
            278.15
          ],
          [
            2.38968,
            44.596891,
            279.98
          ],
          [
            2.389657,
            44.596836,
            281.31
          ],
          [
            2.389612,
            44.596772,
            287.31
          ],
          [
            2.389639,
            44.596728,
            289.82
          ],
          [
            2.389541,
            44.596752,
            291.83
          ],
          [
            2.389593,
            44.596664,
            293.65
          ],
          [
            2.38955,
            44.596681,
            294.91
          ],
          [
            2.389521,
            44.596683,
            295.51
          ],
          [
            2.389506,
            44.596715,
            296.26
          ],
          [
            2.389477,
            44.59673,
            296.69
          ],
          [
            2.389401,
            44.596708,
            297.58
          ],
          [
            2.389389,
            44.596647,
            298.69
          ],
          [
            2.38933,
            44.596642,
            299.39
          ],
          [
            2.389256,
            44.596674,
            300.58
          ],
          [
            2.389169,
            44.59666,
            301.89
          ],
          [
            2.38912,
            44.596694,
            302.98
          ],
          [
            2.389014,
            44.596637,
            305.07
          ],
          [
            2.388912,
            44.596623,
            306.8
          ],
          [
            2.388867,
            44.596671,
            308.11
          ],
          [
            2.388783,
            44.596624,
            309.83
          ],
          [
            2.388585,
            44.596596,
            313.45
          ],
          [
            2.388535,
            44.596522,
            315.29
          ],
          [
            2.388309,
            44.596463,
            319.23
          ],
          [
            2.388215,
            44.596458,
            320.62
          ],
          [
            2.388091,
            44.596416,
            322.52
          ],
          [
            2.388015,
            44.596439,
            323.94
          ],
          [
            2.387931,
            44.596373,
            326.2
          ],
          [
            2.387653,
            44.596287,
            332.08
          ],
          [
            2.387591,
            44.596305,
            333.25
          ],
          [
            2.387566,
            44.596331,
            334.01
          ],
          [
            2.387599,
            44.596381,
            335.31
          ],
          [
            2.387542,
            44.596355,
            336.51
          ],
          [
            2.38746,
            44.596387,
            338.24
          ],
          [
            2.387415,
            44.596364,
            339.23
          ],
          [
            2.387333,
            44.596356,
            340.74
          ],
          [
            2.387331,
            44.596286,
            342.41
          ],
          [
            2.387462,
            44.596159,
            346.07
          ],
          [
            2.387391,
            44.596162,
            347.28
          ],
          [
            2.387257,
            44.596241,
            350.38
          ],
          [
            2.38722,
            44.596244,
            351.15
          ],
          [
            2.387143,
            44.596228,
            352.87
          ],
          [
            2.387094,
            44.596186,
            354.45
          ],
          [
            2.387029,
            44.596213,
            356.08
          ],
          [
            2.387001,
            44.59619,
            357.03
          ],
          [
            2.387023,
            44.596167,
            357.88
          ],
          [
            2.387098,
            44.596157,
            359.53
          ],
          [
            2.387146,
            44.596117,
            361.0
          ],
          [
            2.387143,
            44.596096,
            361.54
          ],
          [
            2.386993,
            44.596095,
            364.12
          ],
          [
            2.386931,
            44.59612,
            365.43
          ],
          [
            2.38688,
            44.596123,
            366.56
          ],
          [
            2.386842,
            44.596102,
            367.53
          ],
          [
            2.38684,
            44.596066,
            368.41
          ],
          [
            2.386872,
            44.596046,
            369.09
          ],
          [
            2.386944,
            44.596038,
            370.54
          ],
          [
            2.387018,
            44.596017,
            372.24
          ],
          [
            2.387038,
            44.595963,
            373.79
          ],
          [
            2.387075,
            44.595911,
            375.05
          ],
          [
            2.387111,
            44.595891,
            376.02
          ],
          [
            2.38717,
            44.595868,
            377.92
          ],
          [
            2.387257,
            44.595873,
            379.0
          ],
          [
            2.387335,
            44.595852,
            380.17
          ],
          [
            2.388131,
            44.595812,
            381.82
          ],
          [
            2.388438,
            44.595851,
            379.64
          ],
          [
            2.388834,
            44.595938,
            378.19
          ],
          [
            2.389081,
            44.595941,
            377.47
          ],
          [
            2.389306,
            44.59593,
            377.1
          ],
          [
            2.389548,
            44.595876,
            377.73
          ],
          [
            2.389805,
            44.595731,
            380.09
          ],
          [
            2.389961,
            44.595569,
            383.43
          ],
          [
            2.390132,
            44.595326,
            388.67
          ],
          [
            2.390117,
            44.595271,
            389.72
          ],
          [
            2.389934,
            44.595135,
            393.16
          ],
          [
            2.389725,
            44.594925,
            397.97
          ],
          [
            2.38966,
            44.594811,
            399.98
          ],
          [
            2.389591,
            44.594601,
            402.87
          ],
          [
            2.389599,
            44.594504,
            404.08
          ],
          [
            2.389599,
            44.594504,
            404.08
          ],
          [
            2.389591,
            44.594601,
            402.87
          ],
          [
            2.38966,
            44.594811,
            399.98
          ],
          [
            2.389725,
            44.594925,
            397.97
          ],
          [
            2.389934,
            44.595135,
            393.16
          ],
          [
            2.390117,
            44.595271,
            389.72
          ],
          [
            2.390132,
            44.595326,
            388.67
          ],
          [
            2.389961,
            44.595569,
            383.43
          ],
          [
            2.389805,
            44.595731,
            380.09
          ],
          [
            2.389548,
            44.595876,
            377.73
          ],
          [
            2.389306,
            44.59593,
            377.1
          ],
          [
            2.389081,
            44.595941,
            377.47
          ],
          [
            2.388834,
            44.595938,
            378.19
          ],
          [
            2.388438,
            44.595851,
            379.64
          ],
          [
            2.388131,
            44.595812,
            381.82
          ],
          [
            2.387335,
            44.595852,
            380.17
          ],
          [
            2.387394,
            44.595824,
            381.43
          ]
        ]
      }
    },
    {
      "type": "Feature",
      "properties": {
        "source": "Boucle_de_Conques.gpx",
        "type": "route"
      },
      "geometry": {
        "type": "LineString",
        "coordinates": [
          [
            2.3979,
            44.598917
          ],
          [
            2.397874,
            44.598948
          ],
          [
            2.397802,
            44.598954
          ],
          [
            2.397705,
            44.599125
          ],
          [
            2.395531,
            44.59867
          ],
          [
            2.393933,
            44.598108
          ],
          [
            2.393551,
            44.598175
          ],
          [
            2.391037,
            44.597745
          ],
          [
            2.389612,
            44.596772
          ],
          [
            2.387335,
            44.595852
          ],
          [
            2.389599,
            44.594504
          ],
          [
            2.389599,
            44.594504
          ],
          [
            2.387335,
            44.595852
          ],
          [
            2.387394,
            44.595824
          ]
        ]
      }
    }
  ]
}