{
  "type": "FeatureCollection",
  "features": [
    {
      "type": "Feature",
      "properties": {
        "name": "GraphHopper Track",
        "source": "Chapelles_Vallon.gpx",
        "type": "track"
      },
      "geometry": {
        "type": "LineString",
        "coordinates": [
          [
            2.464356,
            44.476233,
            301.14
          ],
          [
            2.464337,
            44.47621,
            300.9
          ],
          [
            2.464238,
            44.476141,
            300.37
          ],
          [
            2.464061,
            44.476073,
            300.05
          ],
          [
            2.463946,
            44.476055,
            300.46
          ],
          [
            2.463894,
            44.47606,
            301.0
          ],
          [
            2.4637,
            44.47603,
            300.17
          ],
          [
            2.463663,
            44.475705,
            293.93
          ],
          [
            2.463605,
            44.475404,
            288.56
          ],
          [
            2.463582,
            44.475382,
            288.09
          ],
          [
            2.463561,
            44.475304,
            286.91
          ],
          [
            2.463465,
            44.475156,
            284.57
          ],
          [
            2.463095,
            44.475311,
            284.71
          ],
          [
            2.462942,
            44.475438,
            285.2
          ],
          [
            2.462778,
            44.475598,
            285.13
          ],
          [
            2.462676,
            44.475716,
            285.39
          ],
          [
            2.462564,
            44.475806,
            285.45
          ],
          [
            2.462443,
            44.475854,
            285.2
          ],
          [
            2.462183,
            44.475934,
            282.54
          ],
          [
            2.461972,
            44.476165,
            283.98
          ],
          [
            2.461671,
            44.476387,
            284.06
          ],
          [
            2.461329,
            44.476633,
            285.21
          ],
          [
            2.461272,
            44.476627,
            284.93
          ],
          [
            2.460921,
            44.476642,
            282.4
          ],
          [
            2.460754,
            44.476623,
            281.16
          ],
          [
            2.460585,
            44.476574,
            279.95
          ],
          [
            2.460504,
            44.476569,
            279.49
          ],
          [
            2.460308,
            44.476613,
            279.11
          ],
          [
            2.459618,
            44.476863,
            279.28
          ],
          [
            2.459196,
            44.476987,
            279.06
          ],
          [
            2.458231,
            44.477202,
            277.68
          ],
          [
            2.457866,
            44.477307,
            276.79
          ],
          [
            2.457631,
            44.477352,
            276.22
          ],
          [
            2.457003,
            44.477439,
            274.38
          ],
          [
            2.456897,
            44.477448,
            273.9
          ],
          [
            2.456802,
            44.477441,
            273.21
          ],
          [
            2.456709,
            44.477409,
            272.43
          ],
          [
            2.456396,
            44.47724,
            271.0
          ],
          [
            2.456208,
            44.477171,
            271.5
          ],
          [
            2.455943,
            44.477095,
            272.0
          ],
          [
            2.455874,
            44.477065,
            272.0
          ],
          [
            2.455807,
            44.477017,
            272.39
          ],
          [
            2.455491,
            44.476717,
            275.68
          ],
          [
            2.455283,
            44.476836,
            274.77
          ],
          [
            2.455083,
            44.47694,
            274.95
          ],
          [
            2.455063,
            44.476991,
            274.6
          ],
          [
            2.454631,
            44.4772,
            275.06
          ],
          [
            2.454467,
            44.477218,
            276.13
          ],
          [
            2.454408,
            44.477218,
            276.58
          ],
          [
            2.45355,
            44.476513,
            277.92
          ],
          [
            2.453455,
            44.4764,
            278.06
          ],
          [
            2.453312,
            44.476176,
            277.93
          ],
          [
            2.453273,
            44.476,
            277.76
          ],
          [
            2.453244,
            44.475765,
            277.7
          ],
          [
            2.453225,
            44.475174,
            278.05
          ],
          [
            2.453203,
            44.475052,
            278.33
          ],
          [
            2.453165,
            44.474933,
            278.67
          ],
          [
            2.453118,
            44.47484,
            278.94
          ],
          [
            2.453048,
            44.474752,
            279.28
          ],
          [
            2.452933,
            44.474659,
            279.75
          ],
          [
            2.452395,
            44.474288,
            282.18
          ],
          [
            2.451696,
            44.473753,
            282.54
          ],
          [
            2.450329,
            44.472615,
            280.89
          ],
          [
            2.450108,
            44.472447,
            281.25
          ],
          [
            2.44968,
            44.472067,
            281.59
          ],
          [
            2.449586,
            44.471973,
            281.51
          ],
          [
            2.449361,
            44.471679,
            281.94
          ],
          [
            2.44929,
            44.471533,
            282.63
          ],
          [
            2.449237,
            44.471347,
            283.3
          ],
          [
            2.449237,
            44.471121,
            284.19
          ],
          [
            2.449265,
            44.470981,
            284.84
          ],
          [
            2.449595,
            44.470061,
            288.72
          ],
          [
            2.449616,
            44.469909,
            289.29
          ],
          [
            2.449584,
            44.469739,
            289.85
          ],
          [
            2.449504,
            44.469602,
            290.29
          ],
          [
            2.449447,
            44.469539,
            290.48
          ],
          [
            2.449298,
            44.469433,
            290.81
          ],
          [
            2.449183,
            44.469383,
            290.96
          ],
          [
            2.448997,
            44.469311,
            291.09
          ],
          [
            2.448756,
            44.469234,
            291.07
          ],
          [
            2.448541,
            44.469152,
            290.96
          ],
          [
            2.44831,
            44.46904,
            290.81
          ],
          [
            2.447994,
            44.46884,
            290.64
          ],
          [
            2.447706,
            44.468635,
            290.5
          ],
          [
            2.447209,
            44.468361,
            290.08
          ],
          [
            2.44694,
            44.468228,
            289.85
          ],
          [
            2.446584,
            44.468088,
            289.56
          ],
          [
            2.446408,
            44.468042,
            289.46
          ],
          [
            2.446088,
            44.467971,
            289.47
          ],
          [
            2.445156,
            44.467824,
            291.29
          ],
          [
            2.444765,
            44.467752,
            292.29
          ],
          [
            2.44465,
            44.467719,
            291.84
          ],
          [
            2.444607,
            44.467739,
            292.07
          ],
          [
            2.44416,
            44.467723,
            291.82
          ],
          [
            2.444002,
            44.467739,
            292.36
          ],
          [
            2.443836,
            44.46772,
            292.91
          ],
          [
            2.443631,
            44.467667,
            293.56
          ],
          [
            2.443358,
            44.467563,
            294.57
          ],
          [
            2.442923,
            44.467361,
            296.59
          ],
          [
            2.442504,
            44.467227,
            298.3
          ],
          [
            2.442037,
            44.467137,
            301.01
          ],
          [
            2.441791,
            44.467074,
            302.92
          ],
          [
            2.441575,
            44.467052,
            304.78
          ],
          [
            2.441478,
            44.467091,
            305.82
          ],
          [
            2.441512,
            44.467174,
            306.99
          ],
          [
            2.441572,
            44.467238,
            308.1
          ],
          [
            2.441756,
            44.46738,
            311.07
          ],
          [
            2.441915,
            44.46754,
            314.44
          ],
          [
            2.442114,
            44.467689,
            317.94
          ],
          [
            2.44236,
            44.467908,
            322.07
          ],
          [
            2.442485,
            44.468069,
            324.57
          ],
          [
            2.442658,
            44.468197,
            326.75
          ],
          [
            2.442862,
            44.468327,
            328.89
          ],
          [
            2.442951,
            44.46844,
            330.25
          ],
          [
            2.442948,
            44.468568,
            331.46
          ],
          [
            2.442889,
            44.468699,
            332.69
          ],
          [
            2.442787,
            44.468825,
            334.07
          ],
          [
            2.442699,
            44.468905,
            334.98
          ],
          [
            2.442569,
            44.468981,
            336.36
          ],
          [
            2.442515,
            44.468999,
            336.84
          ],
          [
            2.442548,
            44.469255,
            335.35
          ],
          [
            2.442542,
            44.469405,
            335.34
          ],
          [
            2.442564,
            44.469512,
            335.61
          ],
          [
            2.442591,
            44.469565,
            335.81
          ],
          [
            2.442666,
            44.469619,
            336.1
          ],
          [
            2.442789,
            44.469634,
            336.35
          ],
          [
            2.44295,
            44.469634,
            336.69
          ],
          [
            2.44318,
            44.469608,
            337.37
          ],
          [
            2.443615,
            44.469535,
            339.15
          ],
          [
            2.44391,
            44.469493,
            340.58
          ],
          [
            2.444082,
            44.469446,
            341.54
          ],
          [
            2.444152,
            44.469454,
            341.92
          ],
          [
            2.444173,
            44.469493,
            342.24
          ],
          [
            2.444173,
            44.469493,
            342.24
          ],
          [
            2.444152,
            44.469454,
            341.92
          ],
          [
            2.444082,
            44.469446,
            341.54
          ],
          [
            2.44391,
            44.469493,
            340.58
          ],
          [
            2.443615,
            44.469535,
            339.15
          ],
          [
            2.44318,
            44.469608,
            337.37
          ],
          [
            2.44295,
            44.469634,
            336.69
          ],
          [
            2.442789,
            44.469634,
            336.35
          ],
          [
            2.442666,
            44.469619,
            336.1
          ],
          [
            2.442591,
            44.469565,
            335.81
          ],
          [
            2.442564,
            44.469512,
            335.61
          ],
          [
            2.442542,
            44.469405,
            335.34
          ],
          [
            2.442548,
            44.469255,
            335.35
          ],
          [
            2.442515,
            44.468999,
            336.84
          ],
          [
            2.442569,
            44.468981,
            336.36
          ],
          [
            2.442699,
            44.468905,
            334.98
          ],
          [
            2.442787,
            44.468825,
            334.07
          ],
          [
            2.442889,
            44.468699,
            332.69
          ],
          [
            2.442948,
            44.468568,
            331.46
          ],
          [
            2.442951,
            44.46844,
            330.25
          ],
          [
            2.442862,
            44.468327,
            328.89
          ],
          [
            2.442658,
            44.468197,
            326.75
          ],
          [
            2.442485,
            44.468069,
            324.57
          ],
          [
            2.44236,
            44.467908,
            322.07
          ],
          [
            2.442114,
            44.467689,
            317.94
          ],
          [
            2.441915,
            44.46754,
            314.44
          ],
          [
            2.441756,
            44.46738,
            311.07
          ],
          [
            2.441572,
            44.467238,
            308.1
          ],
          [
            2.441512,
            44.467174,
            306.99
          ],
          [
            2.441478,
            44.467091,
            305.82
          ],
          [
            2.441575,
            44.467052,
            304.78
          ],
          [
            2.441791,
            44.467074,
            302.92
          ],
          [
            2.442037,
            44.467137,
            301.01
          ],
          [
            2.442504,
            44.467227,
            298.3
          ],
          [
            2.442923,
            44.467361,
            296.59
          ],
          [
            2.443358,
            44.467563,
            294.57
          ],
          [
            2.443631,
            44.467667,
            293.56
          ],
          [
            2.443836,
            44.46772,
            292.91
          ],
          [
            2.444002,
            44.467739,
            292.36
          ],
          [
            2.44416,
            44.467723,
            291.82
          ],
          [
            2.444607,
            44.467739,
            292.07
          ],
          [
            2.44465,
            44.467719,
            291.84
          ],
          [
            2.444323,
            44.467619,
            289.78
          ],
          [
            2.443963,
            44.467476,
            289.88
          ],
          [
            2.443146,
            44.467094,
            291.71
          ],
          [
            2.442767,
            44.466929,
            292.55
          ],
          [
            2.442562,
            44.466846,
            293.02
          ],
          [
            2.442304,
            44.466774,
            293.53
          ],
          [
            2.442083,
            44.466726,
            293.9
          ],
          [
            2.441222,
            44.466625,
            295.56
          ],
          [
            2.440526,
            44.466477,
            296.67
          ],
          [
            2.440055,
            44.466363,
            296.81
          ],
          [
            2.439666,
            44.466294,
            296.71
          ],
          [
            2.439064,
            44.4662,
            296.25
          ],
          [
            2.438681,
            44.466118,
            296.06
          ],
          [
            2.438399,
            44.466043,
            296.06
          ],
          [
            2.437716,
            44.465839,
            296.19
          ],
          [
            2.437539,
            44.465797,
            296.36
          ],
          [
            2.437213,
            44.465759,
            296.84
          ],
          [
            2.436836,
            44.465725,
            296.65
          ],
          [
            2.436459,
            44.465708,
            296.39
          ],
          [
            2.436087,
            44.465671,
            295.85
          ],
          [
            2.435717,
            44.465604,
            296.01
          ],
          [
            2.434969,
            44.465454,
            296.24
          ],
          [
            2.434493,
            44.465321,
            296.19
          ],
          [
            2.434194,
            44.465209,
            296.14
          ],
          [
            2.433791,
            44.465042,
            296.09
          ],
          [
            2.433485,
            44.464951,
            296.07
          ],
          [
            2.433318,
            44.464919,
            296.0
          ],
          [
            2.43309,
            44.46489,
            296.1
          ],
          [
            2.432431,
            44.464865,
            296.78
          ],
          [
            2.43195,
            44.464837,
            297.4
          ],
          [
            2.431672,
            44.464811,
            297.73
          ],
          [
            2.431426,
            44.464782,
            298.06
          ],
          [
            2.431195,
            44.464739,
            298.45
          ],
          [
            2.430834,
            44.464655,
            299.02
          ],
          [
            2.430824,
            44.464582,
            298.99
          ],
          [
            2.430752,
            44.464481,
            298.85
          ],
          [
            2.43057,
            44.464342,
            298.82
          ],
          [
            2.429543,
            44.463668,
            298.48
          ],
          [
            2.428458,
            44.462897,
            297.98
          ],
          [
            2.428302,
            44.462774,
            298.09
          ],
          [
            2.428176,
            44.462637,
            298.3
          ],
          [
            2.427995,
            44.462378,
            298.89
          ],
          [
            2.427951,
            44.462251,
            298.86
          ],
          [
            2.427772,
            44.461457,
            300.43
          ],
          [
            2.427722,
            44.461094,
            301.88
          ],
          [
            2.42761,
            44.460663,
            304.09
          ],
          [
            2.427191,
            44.459612,
            309.09
          ],
          [
            2.42737,
            44.45967,
            309.52
          ],
          [
            2.428358,
            44.460322,
            308.92
          ],
          [
            2.428622,
            44.460482,
            309.24
          ],
          [
            2.428804,
            44.460562,
            309.55
          ],
          [
            2.428997,
            44.460662,
            310.03
          ],
          [
            2.429148,
            44.460807,
            310.46
          ],
          [
            2.429362,
            44.460982,
            311.17
          ],
          [
            2.429507,
            44.461067,
            311.57
          ],
          [
            2.429602,
            44.461111,
            311.8
          ],
          [
            2.429647,
            44.461173,
            312.11
          ],
          [
            2.429824,
            44.461265,
            312.61
          ],
          [
            2.430274,
            44.461384,
            312.94
          ],
          [
            2.430757,
            44.461476,
            313.33
          ],
          [
            2.430961,
            44.461583,
            313.79
          ],
          [
            2.431084,
            44.461732,
            314.51
          ],
          [
            2.431243,
            44.461817,
            315.3
          ],
          [
            2.431331,
            44.461888,
            315.89
          ],
          [
            2.431693,
            44.462,
            318.07
          ],
          [
            2.431856,
            44.462026,
            319.27
          ],
          [
            2.432367,
            44.462215,
            324.31
          ],
          [
            2.433005,
            44.462417,
            331.92
          ],
          [
            2.433477,
            44.462525,
            338.43
          ],
          [
            2.433643,
            44.462525,
            340.53
          ],
          [
            2.434051,
            44.462551,
            345.35
          ],
          [
            2.434266,
            44.46262,
            347.87
          ],
          [
            2.435124,
            44.462999,
            356.21
          ],
          [
            2.435333,
            44.463133,
            358.26
          ],
          [
            2.435669,
            44.4632,
            360.58
          ],
          [
            2.435962,
            44.463244,
            362.58
          ],
          [
            2.43617,
            44.463367,
            364.55
          ],
          [
            2.436524,
            44.463459,
            367.38
          ],
          [
            2.436755,
            44.463474,
            368.94
          ],
          [
            2.437065,
            44.463448,
            371.08
          ],
          [
            2.437216,
            44.463404,
            372.43
          ],
          [
            2.437304,
            44.463338,
            373.58
          ],
          [
            2.437429,
            44.463164,
            376.31
          ],
          [
            2.437517,
            44.463059,
            378.13
          ],
          [
            2.437624,
            44.462986,
            379.59
          ],
          [
            2.437743,
            44.462718,
            382.13
          ],
          [
            2.437831,
            44.462469,
            383.35
          ],
          [
            2.4379,
            44.462361,
            383.67
          ],
          [
            2.438049,
            44.462261,
            383.91
          ],
          [
            2.438238,
            44.462186,
            383.83
          ],
          [
            2.438533,
            44.462102,
            382.82
          ],
          [
            2.438934,
            44.462017,
            380.68
          ],
          [
            2.438978,
            44.462037,
            380.44
          ],
          [
            2.438976,
            44.462073,
            380.23
          ],
          [
            2.4389,
            44.462134,
            379.72
          ],
          [
            2.438652,
            44.462261,
            378.34
          ],
          [
            2.438485,
            44.462392,
            376.84
          ],
          [
            2.43849,
            44.462435,
            376.42
          ],
          [
            2.438697,
            44.462378,
            374.71
          ],
          [
            2.438846,
            44.462379,
            373.48
          ],
          [
            2.439032,
            44.462406,
            371.82
          ],
          [
            2.439208,
            44.462406,
            370.29
          ],
          [
            2.439323,
            44.462357,
            369.18
          ],
          [
            2.439639,
            44.462247,
            365.61
          ],
          [
            2.439793,
            44.462224,
            364.27
          ],
          [
            2.439917,
            44.462241,
            362.08
          ],
          [
            2.439871,
            44.462094,
            371.47
          ],
          [
            2.439949,
            44.461964,
            379.71
          ],
          [
            2.440102,
            44.461703,
            379.64
          ],
          [
            2.440307,
            44.461627,
            376.18
          ],
          [
            2.440349,
            44.461575,
            376.86
          ],
          [
            2.440325,
            44.461536,
            377.57
          ],
          [
            2.440213,
            44.461536,
            378.7
          ],
          [
            2.440023,
            44.461642,
            380.29
          ],
          [
            2.439936,
            44.461751,
            380.4
          ],
          [
            2.439881,
            44.461738,
            380.46
          ],
          [
            2.439891,
            44.461638,
            380.83
          ],
          [
            2.439969,
            44.461531,
            381.64
          ],
          [
            2.440096,
            44.461406,
            382.73
          ],
          [
            2.440102,
            44.461199,
            383.88
          ],
          [
            2.439971,
            44.461098,
            384.57
          ],
          [
            2.439646,
            44.460798,
            387.08
          ],
          [
            2.439631,
            44.460649,
            388.84
          ],
          [
            2.439668,
            44.460412,
            390.57
          ],
          [
            2.439751,
            44.460322,
            391.34
          ],
          [
            2.439602,
            44.460245,
            392.28
          ],
          [
            2.439435,
            44.460202,
            394.22
          ],
          [
            2.439226,
            44.459985,
            399.55
          ],
          [
            2.439119,
            44.459895,
            401.81
          ],
          [
            2.439012,
            44.459609,
            407.16
          ],
          [
            2.438824,
            44.45923,
            413.72
          ],
          [
            2.438726,
            44.459066,
            416.23
          ],
          [
            2.438657,
            44.458617,
            421.96
          ],
          [
            2.438696,
            44.45837,
            425.07
          ],
          [
            2.438756,
            44.458183,
            428.26
          ],
          [
            2.439008,
            44.457924,
            435.61
          ],
          [
            2.439117,
            44.457755,
            440.67
          ],
          [
            2.439183,
            44.457684,
            442.79
          ],
          [
            2.439372,
            44.457534,
            446.58
          ],
          [
            2.43952,
            44.457668,
            444.54
          ],
          [
            2.439588,
            44.457761,
            444.36
          ],
          [
            2.439706,
            44.457846,
            445.08
          ],
          [
            2.440121,
            44.457949,
            449.85
          ],
          [
            2.440398,
            44.458122,
            454.04
          ],
          [
            2.440833,
            44.458435,
            458.68
          ],
          [
            2.440982,
            44.458558,
            459.74
          ],
          [
            2.441213,
            44.458719,
            461.07
          ],
          [
            2.441406,
            44.458826,
            462.1
          ],
          [
            2.441358,
            44.458721,
            464.7
          ],
          [
            2.441479,
            44.458773,
            466.31
          ],
          [
            2.44162,
            44.458816,
            468.05
          ],
          [
            2.441883,
            44.458944,
            471.14
          ],
          [
            2.4421,
            44.459026,
            473.28
          ],
          [
            2.442268,
            44.45906,
            474.79
          ],
          [
            2.442668,
            44.459105,
            477.47
          ],
          [
            2.442775,
            44.459086,
            478.5
          ],
          [
            2.442821,
            44.459026,
            479.81
          ],
          [
            2.442889,
            44.458862,
            482.63
          ],
          [
            2.442958,
            44.458737,
            484.34
          ],
          [
            2.443048,
            44.458613,
            485.95
          ],
          [
            2.443201,
            44.45844,
            488.06
          ],
          [
            2.443497,
            44.458069,
            491.67
          ],
          [
            2.443637,
            44.457914,
            492.87
          ],
          [
            2.443821,
            44.457643,
            494.28
          ],
          [
            2.444002,
            44.45746,
            495.04
          ],
          [
            2.444432,
            44.457149,
            496.13
          ],
          [
            2.444534,
            44.45705,
            496.34
          ],
          [
            2.444628,
            44.456919,
            496.18
          ],
          [
            2.444659,
            44.456833,
            496.35
          ],
          [
            2.444778,
            44.456712,
            496.86
          ],
          [
            2.444911,
            44.456545,
            496.9
          ],
          [
            2.44501,
            44.456343,
            496.74
          ]
        ]
      }
    },
    {
      "type": "Feature",
      "properties": {
        "source": "Chapelles_Vallon.gpx",
        "type": "route"
      },
      "geometry": {
        "type": "LineString",
        "coordinates": [
          [
            2.464356,
            44.476233
          ],
          [
            2.463465,
            44.475156
          ],
          [
            2.462183,
            44.475934
          ],
          [
            2.461671,
            44.476387
          ],
          [
            2.461329,
            44.476633
          ],
          [
            2.456802,
            44.477441
          ],
          [
            2.455491,
            44.476717
          ],
          [
            2.455083,
            44.47694
          ],
          [
            2.454631,
            44.4772
          ],
          [
            2.454408,
            44.477218
          ],
          [
            2.44465,
            44.467719
          ],
          [
            2.442515,
            44.468999
          ],
          [
            2.444173,
            44.469493
          ],
          [
            2.444173,
            44.469493
          ],
          [
            2.442515,
            44.468999
          ],
          [
            2.44465,
            44.467719
          ],
          [
            2.430834,
            44.464655
          ],
          [
            2.427191,
            44.459612
          ],
          [
            2.439917,
            44.462241
          ],
          [
            2.439751,
            44.460322
          ],
          [
            2.438756,
            44.458183
          ],
          [
            2.439372,
            44.457534
          ],
          [
            2.440121,
            44.457949
          ],
          [
            2.441406,
            44.458826
          ],
          [
            2.441358,
            44.458721
          ],
          [
            2.44501,
            44.456343
          ]
        ]
      }
    }
  ]
}