{
  "type": "FeatureCollection",
  "features": [
    {
      "type": "Feature",
      "properties": {
        "name": "GraphHopper Track",
        "source": "Crêtes_du_Ségala.gpx",
        "type": "track"
      },
      "geometry": {
        "type": "LineString",
        "coordinates": [
          [
            2.228301,
            44.476141,
            466.84
          ],
          [
            2.2284,
            44.476101,
            466.98
          ],
          [
            2.228573,
            44.476358,
            466.68
          ],
          [
            2.228587,
            44.476467,
            466.17
          ],
          [
            2.228639,
            44.476603,
            466.0
          ],
          [
            2.228717,
            44.476919,
            465.1
          ],
          [
            2.22891,
            44.477274,
            465.98
          ],
          [
            2.228931,
            44.47744,
            464.88
          ],
          [
            2.228881,
            44.477681,
            462.71
          ],
          [
            2.228897,
            44.477792,
            461.88
          ],
          [
            2.228995,
            44.477852,
            461.72
          ],
          [
            2.229444,
            44.478032,
            462.14
          ],
          [
            2.229417,
            44.478184,
            460.77
          ],
          [
            2.229407,
            44.478393,
            459.08
          ],
          [
            2.22954,
            44.478941,
            455.29
          ],
          [
            2.229587,
            44.479058,
            454.63
          ],
          [
            2.229594,
            44.479176,
            453.73
          ],
          [
            2.229636,
            44.479312,
            453.13
          ],
          [
            2.22972,
            44.479743,
            451.38
          ],
          [
            2.229606,
            44.479762,
            451.97
          ],
          [
            2.229566,
            44.479781,
            452.21
          ],
          [
            2.229541,
            44.479843,
            452.32
          ],
          [
            2.229537,
            44.47999,
            452.62
          ],
          [
            2.229087,
            44.481005,
            456.17
          ],
          [
            2.228975,
            44.48141,
            457.57
          ],
          [
            2.228931,
            44.481504,
            458.21
          ],
          [
            2.228867,
            44.481612,
            458.9
          ],
          [
            2.22868,
            44.481871,
            460.0
          ],
          [
            2.228587,
            44.481952,
            459.98
          ],
          [
            2.228498,
            44.482066,
            459.96
          ],
          [
            2.228256,
            44.482522,
            460.18
          ],
          [
            2.228194,
            44.482621,
            459.76
          ],
          [
            2.22807,
            44.482714,
            459.27
          ],
          [
            2.227918,
            44.482801,
            459.0
          ],
          [
            2.227801,
            44.482821,
            458.49
          ],
          [
            2.227557,
            44.482897,
            457.09
          ],
          [
            2.227108,
            44.483014,
            454.55
          ],
          [
            2.226547,
            44.483206,
            451.21
          ],
          [
            2.226241,
            44.483333,
            449.28
          ],
          [
            2.225889,
            44.483459,
            446.55
          ],
          [
            2.225535,
            44.483775,
            443.38
          ],
          [
            2.225288,
            44.483942,
            440.7
          ],
          [
            2.224979,
            44.484206,
            436.86
          ],
          [
            2.224658,
            44.484458,
            432.08
          ],
          [
            2.224478,
            44.484567,
            429.97
          ],
          [
            2.224372,
            44.484564,
            430.28
          ],
          [
            2.224293,
            44.484573,
            430.52
          ],
          [
            2.224204,
            44.484599,
            430.71
          ],
          [
            2.224191,
            44.484738,
            429.86
          ],
          [
            2.224135,
            44.484874,
            429.68
          ],
          [
            2.224033,
            44.484987,
            429.71
          ],
          [
            2.22387,
            44.485111,
            430.02
          ],
          [
            2.223754,
            44.485172,
            430.05
          ],
          [
            2.223703,
            44.485175,
            429.87
          ],
          [
            2.223562,
            44.48537,
            430.52
          ],
          [
            2.223467,
            44.485468,
            430.21
          ],
          [
            2.221986,
            44.486712,
            430.91
          ],
          [
            2.221844,
            44.486736,
            430.56
          ],
          [
            2.221557,
            44.486904,
            429.29
          ],
          [
            2.221029,
            44.487264,
            428.16
          ],
          [
            2.22081,
            44.487391,
            427.89
          ],
          [
            2.220233,
            44.48765,
            426.53
          ],
          [
            2.220071,
            44.487702,
            426.78
          ],
          [
            2.219875,
            44.487855,
            427.12
          ],
          [
            2.21926,
            44.48828,
            429.42
          ],
          [
            2.218925,
            44.48846,
            430.9
          ],
          [
            2.218421,
            44.488651,
            433.0
          ],
          [
            2.217695,
            44.488788,
            435.66
          ],
          [
            2.215854,
            44.489305,
            441.2
          ],
          [
            2.215433,
            44.489392,
            441.55
          ],
          [
            2.213307,
            44.49013,
            442.5
          ],
          [
            2.211786,
            44.490569,
            443.04
          ],
          [
            2.211022,
            44.490763,
            442.63
          ],
          [
            2.210477,
            44.490841,
            442.68
          ],
          [
            2.209201,
            44.491195,
            443.94
          ],
          [
            2.208396,
            44.491476,
            445.49
          ],
          [
            2.207973,
            44.49181,
            444.52
          ],
          [
            2.207678,
            44.49193,
            444.69
          ],
          [
            2.207372,
            44.492331,
            446.11
          ],
          [
            2.207588,
            44.49255,
            445.86
          ],
          [
            2.20785,
            44.492751,
            445.68
          ],
          [
            2.207987,
            44.492934,
            445.62
          ],
          [
            2.208042,
            44.493097,
            445.82
          ],
          [
            2.207728,
            44.493114,
            445.6
          ],
          [
            2.207507,
            44.493146,
            445.6
          ],
          [
            2.207282,
            44.493203,
            445.51
          ],
          [
            2.207071,
            44.493281,
            445.39
          ],
          [
            2.206827,
            44.493403,
            445.3
          ],
          [
            2.20661,
            44.493565,
            445.08
          ],
          [
            2.204883,
            44.495156,
            443.35
          ],
          [
            2.204883,
            44.495156,
            443.35
          ],
          [
            2.20661,
            44.493565,
            445.08
          ],
          [
            2.206827,
            44.493403,
            445.3
          ],
          [
            2.207071,
            44.493281,
            445.39
          ],
          [
            2.207282,
            44.493203,
            445.51
          ],
          [
            2.207507,
            44.493146,
            445.6
          ],
          [
            2.207728,
            44.493114,
            445.6
          ],
          [
            2.208042,
            44.493097,
            445.82
          ],
          [
            2.208235,
            44.493115,
            445.87
          ],
          [
            2.208608,
            44.494026,
            448.74
          ],
          [
            2.208944,
            44.494688,
            450.89
          ],
          [
            2.209548,
            44.495773,
            454.32
          ],
          [
            2.209703,
            44.495989,
            454.72
          ],
          [
            2.209862,
            44.496267,
            454.96
          ],
          [
            2.210145,
            44.496849,
            454.74
          ],
          [
            2.210553,
            44.497499,
            454.67
          ],
          [
            2.210778,
            44.498073,
            455.6
          ],
          [
            2.210877,
            44.498528,
            456.23
          ],
          [
            2.210815,
            44.498819,
            456.43
          ],
          [
            2.210812,
            44.499053,
            455.98
          ],
          [
            2.21087,
            44.499107,
            455.72
          ],
          [
            2.211084,
            44.499157,
            455.34
          ],
          [
            2.210959,
            44.499199,
            454.65
          ],
          [
            2.210843,
            44.499267,
            453.37
          ],
          [
            2.210744,
            44.499346,
            452.76
          ],
          [
            2.210681,
            44.499451,
            452.22
          ],
          [
            2.210643,
            44.499602,
            451.38
          ],
          [
            2.210748,
            44.500243,
            447.04
          ],
          [
            2.211967,
            44.500412,
            450.82
          ],
          [
            2.212589,
            44.500409,
            452.11
          ],
          [
            2.213405,
            44.500526,
            449.81
          ],
          [
            2.213749,
            44.500642,
            447.26
          ],
          [
            2.214545,
            44.501085,
            438.08
          ],
          [
            2.215068,
            44.501461,
            432.11
          ],
          [
            2.215418,
            44.501644,
            429.06
          ],
          [
            2.215656,
            44.501878,
            426.26
          ],
          [
            2.216085,
            44.502116,
            422.22
          ],
          [
            2.216234,
            44.502268,
            420.85
          ],
          [
            2.216344,
            44.502468,
            421.18
          ],
          [
            2.216536,
            44.502593,
            422.63
          ],
          [
            2.216829,
            44.502728,
            424.9
          ],
          [
            2.217357,
            44.502896,
            427.95
          ],
          [
            2.217926,
            44.503234,
            430.95
          ],
          [
            2.218481,
            44.503617,
            432.76
          ],
          [
            2.218699,
            44.503937,
            433.82
          ],
          [
            2.219011,
            44.504232,
            435.45
          ],
          [
            2.219172,
            44.504505,
            437.49
          ],
          [
            2.219527,
            44.504764,
            441.11
          ],
          [
            2.219989,
            44.505026,
            446.44
          ],
          [
            2.220196,
            44.505154,
            449.44
          ],
          [
            2.220477,
            44.505286,
            453.98
          ],
          [
            2.220538,
            44.505345,
            455.0
          ],
          [
            2.220907,
            44.505593,
            457.74
          ],
          [
            2.221038,
            44.505738,
            457.48
          ],
          [
            2.221123,
            44.505876,
            457.83
          ],
          [
            2.221306,
            44.506265,
            459.31
          ],
          [
            2.221433,
            44.506501,
            460.5
          ],
          [
            2.221714,
            44.507083,
            465.06
          ],
          [
            2.221791,
            44.507221,
            465.64
          ],
          [
            2.221838,
            44.507333,
            465.34
          ],
          [
            2.221736,
            44.507506,
            465.7
          ],
          [
            2.22154,
            44.507922,
            465.9
          ],
          [
            2.221397,
            44.508172,
            465.49
          ],
          [
            2.220902,
            44.508959,
            463.98
          ],
          [
            2.220725,
            44.509352,
            463.71
          ],
          [
            2.22055,
            44.509786,
            463.14
          ],
          [
            2.220127,
            44.51037,
            460.82
          ],
          [
            2.219866,
            44.510853,
            458.24
          ],
          [
            2.219746,
            44.51105,
            457.37
          ],
          [
            2.219614,
            44.511202,
            456.7
          ],
          [
            2.219503,
            44.511293,
            456.31
          ],
          [
            2.219362,
            44.511386,
            455.97
          ],
          [
            2.219161,
            44.511469,
            455.73
          ],
          [
            2.218927,
            44.511548,
            455.47
          ],
          [
            2.218627,
            44.511617,
            455.29
          ],
          [
            2.218469,
            44.511663,
            455.41
          ],
          [
            2.218163,
            44.511806,
            455.3
          ],
          [
            2.218126,
            44.511853,
            454.13
          ],
          [
            2.21812,
            44.51188,
            453.5
          ],
          [
            2.218058,
            44.511983,
            451.29
          ],
          [
            2.217924,
            44.512117,
            449.01
          ],
          [
            2.21781,
            44.512202,
            447.78
          ],
          [
            2.217728,
            44.512242,
            446.97
          ],
          [
            2.217459,
            44.512323,
            443.63
          ],
          [
            2.217147,
            44.512386,
            439.5
          ],
          [
            2.216964,
            44.512404,
            437.0
          ],
          [
            2.216757,
            44.512464,
            433.87
          ],
          [
            2.216489,
            44.51256,
            429.24
          ],
          [
            2.21634,
            44.512603,
            426.46
          ],
          [
            2.216185,
            44.512672,
            423.07
          ],
          [
            2.216012,
            44.512709,
            419.74
          ],
          [
            2.21591,
            44.512756,
            417.63
          ],
          [
            2.215872,
            44.512818,
            416.05
          ],
          [
            2.215908,
            44.512872,
            414.69
          ],
          [
            2.215994,
            44.51294,
            412.74
          ],
          [
            2.215966,
            44.512976,
            411.93
          ],
          [
            2.215924,
            44.513,
            411.21
          ],
          [
            2.215814,
            44.51303,
            409.77
          ],
          [
            2.215612,
            44.51305,
            407.67
          ],
          [
            2.215462,
            44.513032,
            406.42
          ],
          [
            2.21533,
            44.513004,
            405.53
          ],
          [
            2.215242,
            44.512954,
            404.86
          ],
          [
            2.215188,
            44.512889,
            404.15
          ],
          [
            2.215187,
            44.512827,
            403.62
          ],
          [
            2.21523,
            44.512758,
            403.04
          ],
          [
            2.215336,
            44.512643,
            401.99
          ],
          [
            2.215593,
            44.512455,
            399.34
          ],
          [
            2.215596,
            44.512433,
            399.06
          ],
          [
            2.215572,
            44.512423,
            398.81
          ],
          [
            2.215478,
            44.512426,
            397.93
          ],
          [
            2.215395,
            44.51246,
            396.92
          ],
          [
            2.215152,
            44.512532,
            393.52
          ],
          [
            2.214982,
            44.512568,
            390.56
          ],
          [
            2.214851,
            44.512618,
            387.79
          ],
          [
            2.21459,
            44.512758,
            381.4
          ],
          [
            2.214536,
            44.51281,
            379.7
          ],
          [
            2.214448,
            44.512867,
            377.46
          ],
          [
            2.21438,
            44.512889,
            376.04
          ],
          [
            2.214213,
            44.512967,
            372.25
          ],
          [
            2.214178,
            44.513016,
            370.82
          ],
          [
            2.214149,
            44.513147,
            367.75
          ],
          [
            2.214166,
            44.513336,
            364.55
          ],
          [
            2.214143,
            44.513593,
            361.42
          ],
          [
            2.214172,
            44.513635,
            360.94
          ],
          [
            2.214233,
            44.513681,
            360.25
          ],
          [
            2.214269,
            44.513689,
            359.95
          ],
          [
            2.214414,
            44.513665,
            358.77
          ],
          [
            2.214487,
            44.513662,
            358.14
          ],
          [
            2.214581,
            44.513637,
            357.21
          ],
          [
            2.214716,
            44.513665,
            355.83
          ],
          [
            2.21485,
            44.513738,
            354.29
          ],
          [
            2.214978,
            44.513781,
            353.21
          ],
          [
            2.215049,
            44.513841,
            352.42
          ],
          [
            2.215135,
            44.513868,
            351.67
          ],
          [
            2.215193,
            44.513906,
            350.88
          ],
          [
            2.215231,
            44.513942,
            350.18
          ],
          [
            2.215247,
            44.513973,
            349.62
          ],
          [
            2.215305,
            44.514022,
            348.43
          ],
          [
            2.21532,
            44.514059,
            347.67
          ],
          [
            2.215294,
            44.514095,
            346.86
          ],
          [
            2.215248,
            44.514108,
            346.14
          ],
          [
            2.21521,
            44.514108,
            345.56
          ],
          [
            2.215161,
            44.514123,
            344.79
          ],
          [
            2.215082,
            44.514122,
            343.64
          ],
          [
            2.214928,
            44.514182,
            340.87
          ],
          [
            2.214898,
            44.514214,
            340.01
          ],
          [
            2.214834,
            44.514369,
            337.07
          ],
          [
            2.214747,
            44.514453,
            334.81
          ],
          [
            2.214712,
            44.51446,
            334.23
          ],
          [
            2.214695,
            44.514472,
            333.86
          ],
          [
            2.214693,
            44.514525,
            332.88
          ],
          [
            2.214727,
            44.514541,
            332.48
          ],
          [
            2.214744,
            44.514561,
            332.16
          ],
          [
            2.214747,
            44.514615,
            331.42
          ],
          [
            2.214733,
            44.514668,
            331.12
          ],
          [
            2.214758,
            44.514687,
            330.78
          ],
          [
            2.214831,
            44.514693,
            329.95
          ],
          [
            2.214976,
            44.514752,
            328.39
          ],
          [
            2.215034,
            44.514757,
            328.01
          ],
          [
            2.215109,
            44.514735,
            327.68
          ],
          [
            2.215238,
            44.514669,
            327.41
          ],
          [
            2.215324,
            44.514657,
            327.16
          ],
          [
            2.215401,
            44.514618,
            326.92
          ],
          [
            2.21544,
            44.514587,
            326.83
          ],
          [
            2.215605,
            44.514507,
            326.56
          ],
          [
            2.215801,
            44.514459,
            326.15
          ],
          [
            2.215875,
            44.514423,
            326.01
          ],
          [
            2.215934,
            44.514408,
            325.95
          ],
          [
            2.216123,
            44.514329,
            325.89
          ],
          [
            2.216337,
            44.514281,
            325.82
          ],
          [
            2.216402,
            44.514277,
            325.73
          ],
          [
            2.216455,
            44.514264,
            325.69
          ],
          [
            2.216543,
            44.514269,
            325.72
          ],
          [
            2.216614,
            44.51429,
            325.79
          ],
          [
            2.216689,
            44.514276,
            325.8
          ],
          [
            2.216938,
            44.514281,
            325.7
          ],
          [
            2.217055,
            44.514291,
            326.0
          ],
          [
            2.217201,
            44.514332,
            325.86
          ],
          [
            2.21726,
            44.514378,
            324.5
          ],
          [
            2.217447,
            44.514578,
            320.7
          ],
          [
            2.217491,
            44.51467,
            320.6
          ],
          [
            2.217624,
            44.514753,
            320.3
          ],
          [
            2.217687,
            44.514812,
            319.9
          ],
          [
            2.217758,
            44.514863,
            319.51
          ],
          [
            2.217861,
            44.514904,
            319.42
          ],
          [
            2.218085,
            44.514966,
            318.91
          ],
          [
            2.218234,
            44.514998,
            317.91
          ],
          [
            2.218309,
            44.515041,
            317.8
          ],
          [
            2.218443,
            44.515085,
            317.4
          ],
          [
            2.218532,
            44.515149,
            317.34
          ],
          [
            2.218588,
            44.515423,
            315.69
          ],
          [
            2.218586,
            44.515534,
            315.08
          ],
          [
            2.218698,
            44.515693,
            314.39
          ],
          [
            2.218747,
            44.515797,
            314.25
          ],
          [
            2.218794,
            44.515869,
            314.23
          ],
          [
            2.2188,
            44.515943,
            314.22
          ],
          [
            2.218701,
            44.51614,
            314.14
          ],
          [
            2.218589,
            44.516221,
            313.93
          ],
          [
            2.218434,
            44.516271,
            313.58
          ],
          [
            2.218338,
            44.516334,
            313.25
          ],
          [
            2.218233,
            44.516462,
            312.55
          ],
          [
            2.218144,
            44.516642,
            311.55
          ],
          [
            2.218038,
            44.516917,
            309.16
          ],
          [
            2.217995,
            44.516976,
            308.39
          ],
          [
            2.217915,
            44.517055,
            307.19
          ],
          [
            2.21783,
            44.517179,
            305.48
          ],
          [
            2.217817,
            44.517303,
            304.01
          ],
          [
            2.217861,
            44.5174,
            302.98
          ],
          [
            2.217874,
            44.517487,
            302.28
          ],
          [
            2.217844,
            44.51758,
            301.65
          ],
          [
            2.217783,
            44.517661,
            301.14
          ],
          [
            2.217676,
            44.517744,
            300.58
          ],
          [
            2.217637,
            44.517764,
            300.42
          ],
          [
            2.217599,
            44.517796,
            300.22
          ],
          [
            2.217561,
            44.51785,
            299.98
          ],
          [
            2.217464,
            44.517919,
            299.71
          ],
          [
            2.217307,
            44.518014,
            299.65
          ],
          [
            2.217232,
            44.518103,
            299.72
          ],
          [
            2.217212,
            44.518201,
            299.8
          ],
          [
            2.217208,
            44.518295,
            299.87
          ],
          [
            2.217225,
            44.518355,
            299.91
          ],
          [
            2.217245,
            44.518511,
            299.99
          ],
          [
            2.217237,
            44.518637,
            299.9
          ],
          [
            2.217255,
            44.518744,
            299.65
          ],
          [
            2.21728,
            44.518787,
            299.5
          ],
          [
            2.217461,
            44.518991,
            298.35
          ],
          [
            2.217587,
            44.519094,
            297.42
          ],
          [
            2.217731,
            44.519256,
            295.61
          ],
          [
            2.217932,
            44.519412,
            293.09
          ],
          [
            2.21812,
            44.519587,
            290.41
          ],
          [
            2.218172,
            44.519692,
            289.04
          ],
          [
            2.218222,
            44.519891,
            286.43
          ],
          [
            2.218239,
            44.520207,
            282.69
          ],
          [
            2.218297,
            44.520312,
            281.63
          ],
          [
            2.218423,
            44.520497,
            280.08
          ],
          [
            2.218518,
            44.520678,
            278.98
          ],
          [
            2.218686,
            44.520865,
            277.95
          ],
          [
            2.218765,
            44.520918,
            277.62
          ],
          [
            2.218943,
            44.520987,
            277.11
          ],
          [
            2.21899,
            44.52108,
            276.79
          ],
          [
            2.219002,
            44.521158,
            276.54
          ],
          [
            2.219052,
            44.521281,
            276.15
          ],
          [
            2.219148,
            44.521448,
            275.52
          ],
          [
            2.219177,
            44.521555,
            275.23
          ],
          [
            2.219238,
            44.521629,
            274.86
          ],
          [
            2.219297,
            44.521721,
            274.24
          ],
          [
            2.219332,
            44.521854,
            273.22
          ],
          [
            2.219325,
            44.521952,
            272.74
          ],
          [
            2.219279,
            44.522007,
            272.75
          ],
          [
            2.219056,
            44.522125,
            275.07
          ],
          [
            2.219145,
            44.52216,
            273.24
          ],
          [
            2.219292,
            44.522274,
            271.17
          ],
          [
            2.219374,
            44.522358,
            270.46
          ],
          [
            2.219432,
            44.522402,
            270.12
          ],
          [
            2.219642,
            44.522537,
            270.74
          ],
          [
            2.220039,
            44.522636,
            270.81
          ],
          [
            2.220453,
            44.52277,
            269.31
          ],
          [
            2.220744,
            44.522802,
            268.7
          ],
          [
            2.220987,
            44.522784,
            268.43
          ],
          [
            2.221403,
            44.522774,
            268.56
          ],
          [
            2.221528,
            44.522814,
            268.74
          ],
          [
            2.221754,
            44.522928,
            269.22
          ],
          [
            2.222049,
            44.52317,
            270.27
          ],
          [
            2.222415,
            44.523515,
            271.98
          ],
          [
            2.222711,
            44.523728,
            272.72
          ],
          [
            2.222911,
            44.523849,
            273.76
          ],
          [
            2.222902,
            44.524002,
            276.45
          ],
          [
            2.222843,
            44.524388,
            284.12
          ],
          [
            2.222721,
            44.524549,
            289.33
          ],
          [
            2.222667,
            44.524687,
            292.99
          ],
          [
            2.222638,
            44.524931,
            298.68
          ],
          [
            2.222642,
            44.525219,
            305.13
          ],
          [
            2.222618,
            44.525418,
            309.48
          ],
          [
            2.222638,
            44.525549,
            312.39
          ],
          [
            2.222638,
            44.525752,
            316.99
          ],
          [
            2.222591,
            44.525882,
            319.99
          ],
          [
            2.222663,
            44.526184,
            326.36
          ],
          [
            2.222721,
            44.526372,
            330.26
          ],
          [
            2.222723,
            44.526412,
            331.09
          ],
          [
            2.222688,
            44.526446,
            331.96
          ],
          [
            2.222625,
            44.526456,
            332.93
          ],
          [
            2.222544,
            44.526443,
            334.19
          ],
          [
            2.222208,
            44.526267,
            340.26
          ],
          [
            2.22198,
            44.526124,
            344.06
          ],
          [
            2.221784,
            44.525955,
            347.38
          ],
          [
            2.22163,
            44.525738,
            350.83
          ],
          [
            2.221543,
            44.52555,
            353.16
          ],
          [
            2.221367,
            44.525024,
            356.17
          ],
          [
            2.221233,
            44.524719,
            357.81
          ],
          [
            2.221188,
            44.524679,
            358.13
          ],
          [
            2.221127,
            44.524675,
            358.42
          ],
          [
            2.221075,
            44.524708,
            358.76
          ],
          [
            2.221062,
            44.524766,
            359.18
          ],
          [
            2.221024,
            44.524852,
            359.86
          ],
          [
            2.221006,
            44.524966,
            360.84
          ],
          [
            2.221022,
            44.525193,
            363.44
          ],
          [
            2.221011,
            44.525286,
            364.81
          ],
          [
            2.220946,
            44.525458,
            367.77
          ],
          [
            2.220904,
            44.525677,
            371.63
          ],
          [
            2.220844,
            44.525844,
            374.79
          ],
          [
            2.220818,
            44.526056,
            378.85
          ],
          [
            2.220888,
            44.526316,
            383.94
          ],
          [
            2.220869,
            44.526461,
            386.53
          ],
          [
            2.220811,
            44.526658,
            389.67
          ],
          [
            2.220834,
            44.52678,
            391.33
          ],
          [
            2.221057,
            44.52725,
            396.11
          ],
          [
            2.221375,
            44.527766,
            398.64
          ],
          [
            2.221565,
            44.527936,
            399.43
          ],
          [
            2.221971,
            44.528207,
            401.56
          ],
          [
            2.222401,
            44.528433,
            404.3
          ],
          [
            2.222669,
            44.5286,
            405.94
          ],
          [
            2.222889,
            44.528778,
            407.83
          ],
          [
            2.223062,
            44.528991,
            408.82
          ],
          [
            2.223242,
            44.529156,
            408.29
          ],
          [
            2.223123,
            44.529268,
            408.57
          ],
          [
            2.222946,
            44.529472,
            408.83
          ],
          [
            2.222567,
            44.529845,
            409.15
          ],
          [
            2.221601,
            44.531091,
            410.6
          ],
          [
            2.2215,
            44.531203,
            410.72
          ],
          [
            2.22142,
            44.531262,
            410.77
          ],
          [
            2.221262,
            44.531351,
            410.75
          ],
          [
            2.22108,
            44.531411,
            410.59
          ],
          [
            2.220905,
            44.531444,
            410.3
          ],
          [
            2.220397,
            44.531491,
            408.86
          ],
          [
            2.220107,
            44.531754,
            407.43
          ],
          [
            2.21964,
            44.532106,
            407.15
          ],
          [
            2.219194,
            44.532413,
            406.63
          ],
          [
            2.218908,
            44.532567,
            405.91
          ],
          [
            2.218577,
            44.532649,
            405.65
          ],
          [
            2.218195,
            44.532681,
            405.57
          ],
          [
            2.217882,
            44.532682,
            406.12
          ],
          [
            2.217672,
            44.532646,
            407.42
          ],
          [
            2.217583,
            44.53259,
            408.44
          ],
          [
            2.217428,
            44.532431,
            410.7
          ],
          [
            2.21733,
            44.532383,
            411.52
          ],
          [
            2.217209,
            44.532374,
            412.29
          ],
          [
            2.217102,
            44.532405,
            413.02
          ],
          [
            2.21701,
            44.532489,
            413.99
          ],
          [
            2.216775,
            44.532877,
            417.46
          ],
          [
            2.216323,
            44.533435,
            421.17
          ],
          [
            2.215848,
            44.533977,
            423.9
          ],
          [
            2.215579,
            44.534384,
            425.75
          ],
          [
            2.215339,
            44.534635,
            427.05
          ],
          [
            2.214999,
            44.534828,
            428.91
          ],
          [
            2.214889,
            44.534878,
            429.54
          ],
          [
            2.214833,
            44.534969,
            429.63
          ],
          [
            2.214816,
            44.535272,
            428.75
          ],
          [
            2.214784,
            44.535421,
            428.19
          ]
        ]
      }
    },
    {
      "type": "Feature",
      "properties": {
        "source": "Crêtes_du_Ségala.gpx",
        "type": "route"
      },
      "geometry": {
        "type": "LineString",
        "coordinates": [
          [
            2.228301,
            44.476141
          ],
          [
            2.2284,
            44.476101
          ],
          [
            2.22891,
            44.477274
          ],
          [
            2.228931,
            44.47744
          ],
          [
            2.228881,
            44.477681
          ],
          [
            2.229444,
            44.478032
          ],
          [
            2.22954,
            44.478941
          ],
          [
            2.22972,
            44.479743
          ],
          [
            2.229566,
            44.479781
          ],
          [
            2.227918,
            44.482801
          ],
          [
            2.224478,
            44.484567
          ],
          [
            2.224204,
            44.484599
          ],
          [
            2.223703,
            44.485175
          ],
          [
            2.221986,
            44.486712
          ],
          [
            2.208396,
            44.491476
          ],
          [
            2.207973,
            44.49181
          ],
          [
            2.207372,
            44.492331
          ],
          [
            2.208042,
            44.493097
          ],
          [
            2.204883,
            44.495156
          ],
          [
            2.204883,
            44.495156
          ],
          [
            2.208235,
            44.493115
          ],
          [
            2.211084,
            44.499157
          ],
          [
            2.210959,
            44.499199
          ],
          [
            2.210748,
            44.500243
          ],
          [
            2.220477,
            44.505286
          ],
          [
            2.221838,
            44.507333
          ],
          [
            2.218163,
            44.511806
          ],
          [
            2.214733,
            44.514668
          ],
          [
            2.219056,
            44.522125
          ],
          [
            2.222911,
            44.523849
          ],
          [
            2.223242,
            44.529156
          ],
          [
            2.214889,
            44.534878
          ],
          [
            2.214784,
            44.535421
          ]
        ]
      }
    }
  ]
}