{
  "type": "FeatureCollection",
  "features": [
    {
      "type": "Feature",
      "properties": {
        "name": "GraphHopper Track",
        "source": "Rocher_Marie-L..gpx",
        "type": "track"
      },
      "geometry": {
        "type": "LineString",
        "coordinates": [
          [
            0.955516,
            43.125449,
            336.08
          ],
          [
            0.955222,
            43.1254,
            336.05
          ],
          [
            0.954491,
            43.12519,
            335.9
          ],
          [
            0.954134,
            43.125068,
            336.07
          ],
          [
            0.954134,
            43.125068,
            336.07
          ],
          [
            0.954491,
            43.12519,
            335.9
          ],
          [
            0.955222,
            43.1254,
            336.05
          ],
          [
            0.955516,
            43.125449,
            336.08
          ]
        ]
      }
    },
    {
      "type": "Feature",
      "properties": {
        "source": "Rocher_Marie-L..gpx",
        "type": "route"
      },
      "geometry": {
        "type": "LineString",
        "coordinates": [
          [
            0.955516,
            43.125449
          ],
          [
            0.954134,
            43.125068
          ],
          [
            0.954134,
            43.125068
          ],
          [
            0.955516,
            43.125449
          ]
        ]
      }
    }
  ]
}