{
  "type": "FeatureCollection",
  "features": [
    {
      "type": "Feature",
      "properties": {
        "name": "GraphHopper Track",
        "source": "Sentier_du_canal.gpx",
        "type": "track"
      },
      "geometry": {
        "type": "LineString",
        "coordinates": [
          [
            0.745267,
            43.115493,
            395.19
          ],
          [
            0.745275,
            43.11537,
            395.29
          ],
          [
            0.745292,
            43.115308,
            395.43
          ],
          [
            0.745319,
            43.11527,
            395.64
          ],
          [
            0.745352,
            43.115183,
            396.0
          ],
          [
            0.746683,
            43.115686,
            395.0
          ],
          [
            0.747887,
            43.116129,
            394.97
          ],
          [
            0.748497,
            43.115,
            394.0
          ],
          [
            0.747903,
            43.114826,
            394.09
          ],
          [
            0.747907,
            43.1148,
            394.16
          ],
          [
            0.747897,
            43.114775,
            394.14
          ],
          [
            0.747876,
            43.114753,
            394.13
          ],
          [
            0.747846,
            43.114739,
            394.01
          ],
          [
            0.748159,
            43.114159,
            395.0
          ],
          [
            0.748225,
            43.11416,
            395.0
          ],
          [
            0.748276,
            43.11413,
            395.0
          ],
          [
            0.74829,
            43.114083,
            395.0
          ],
          [
            0.74828,
            43.11406,
            395.0
          ],
          [
            0.748232,
            43.114027,
            395.0
          ],
          [
            0.748567,
            43.113405,
            395.0
          ],
          [
            0.74859,
            43.11339,
            395.0
          ],
          [
            0.748629,
            43.11338,
            395.0
          ],
          [
            0.748664,
            43.113385,
            395.0
          ],
          [
            0.748774,
            43.113196,
            394.88
          ],
          [
            0.74878,
            43.113171,
            394.87
          ],
          [
            0.748772,
            43.113144,
            394.86
          ],
          [
            0.748749,
            43.113122,
            394.85
          ],
          [
            0.748425,
            43.113049,
            394.84
          ],
          [
            0.748407,
            43.113036,
            394.85
          ],
          [
            0.748406,
            43.113021,
            394.81
          ],
          [
            0.748501,
            43.112845,
            394.4
          ],
          [
            0.74853,
            43.112642,
            394.36
          ],
          [
            0.748913,
            43.112646,
            394.0
          ],
          [
            0.748863,
            43.112056,
            394.32
          ],
          [
            0.749759,
            43.111861,
            394.26
          ],
          [
            0.750015,
            43.111792,
            394.16
          ],
          [
            0.750132,
            43.111737,
            394.05
          ],
          [
            0.750443,
            43.111468,
            393.39
          ],
          [
            0.750552,
            43.111353,
            393.17
          ],
          [
            0.750723,
            43.111225,
            392.79
          ],
          [
            0.75095,
            43.111129,
            391.81
          ],
          [
            0.751119,
            43.111086,
            390.79
          ],
          [
            0.751208,
            43.111074,
            390.1
          ],
          [
            0.751968,
            43.111113,
            387.91
          ],
          [
            0.752357,
            43.111119,
            387.14
          ],
          [
            0.753056,
            43.111111,
            385.89
          ],
          [
            0.753481,
            43.111151,
            385.36
          ],
          [
            0.75423,
            43.111322,
            384.25
          ],
          [
            0.754573,
            43.111359,
            383.27
          ],
          [
            0.754722,
            43.111351,
            382.78
          ],
          [
            0.754844,
            43.111315,
            382.45
          ],
          [
            0.755243,
            43.111136,
            380.07
          ],
          [
            0.755352,
            43.111103,
            379.27
          ],
          [
            0.755464,
            43.111085,
            378.72
          ],
          [
            0.755579,
            43.111111,
            378.34
          ],
          [
            0.755683,
            43.111052,
            377.13
          ],
          [
            0.755883,
            43.111001,
            375.63
          ],
          [
            0.756169,
            43.110944,
            373.26
          ],
          [
            0.756309,
            43.110881,
            371.99
          ],
          [
            0.756384,
            43.110813,
            371.11
          ],
          [
            0.756422,
            43.110713,
            370.07
          ],
          [
            0.75641,
            43.110595,
            368.92
          ],
          [
            0.756371,
            43.110517,
            368.16
          ],
          [
            0.756258,
            43.110353,
            366.59
          ],
          [
            0.756131,
            43.110237,
            365.42
          ],
          [
            0.755905,
            43.110089,
            363.95
          ],
          [
            0.755838,
            43.110004,
            363.44
          ],
          [
            0.75583,
            43.109918,
            363.03
          ],
          [
            0.755867,
            43.109838,
            362.7
          ],
          [
            0.755954,
            43.109769,
            362.45
          ],
          [
            0.756107,
            43.109734,
            362.28
          ],
          [
            0.756404,
            43.109732,
            362.29
          ],
          [
            0.75663,
            43.109787,
            362.46
          ],
          [
            0.756844,
            43.10986,
            362.7
          ],
          [
            0.757267,
            43.110031,
            363.19
          ],
          [
            0.757517,
            43.110069,
            363.7
          ],
          [
            0.757671,
            43.110069,
            363.72
          ],
          [
            0.757745,
            43.110052,
            363.6
          ],
          [
            0.757806,
            43.110006,
            363.42
          ],
          [
            0.757839,
            43.109953,
            363.2
          ],
          [
            0.757866,
            43.109771,
            360.77
          ],
          [
            0.757877,
            43.109511,
            361.15
          ],
          [
            0.757865,
            43.109428,
            362.45
          ],
          [
            0.756808,
            43.107202,
            360.89
          ],
          [
            0.756716,
            43.107236,
            360.97
          ],
          [
            0.756087,
            43.107268,
            360.33
          ],
          [
            0.755861,
            43.107262,
            358.89
          ],
          [
            0.755717,
            43.107304,
            358.09
          ],
          [
            0.75556,
            43.107377,
            357.03
          ],
          [
            0.755345,
            43.107499,
            355.29
          ],
          [
            0.755184,
            43.107541,
            354.09
          ],
          [
            0.755058,
            43.107532,
            353.17
          ],
          [
            0.754888,
            43.107486,
            351.83
          ],
          [
            0.754266,
            43.107132,
            347.77
          ],
          [
            0.753701,
            43.106907,
            346.29
          ],
          [
            0.75337,
            43.106813,
            345.91
          ],
          [
            0.752939,
            43.106721,
            345.7
          ],
          [
            0.75262,
            43.106687,
            345.61
          ],
          [
            0.752385,
            43.106677,
            345.56
          ],
          [
            0.752177,
            43.106634,
            345.57
          ],
          [
            0.751986,
            43.106544,
            345.66
          ],
          [
            0.751636,
            43.106344,
            345.63
          ],
          [
            0.752124,
            43.106129,
            345.16
          ],
          [
            0.75464,
            43.105389,
            344.32
          ],
          [
            0.755401,
            43.105237,
            344.1
          ],
          [
            0.755401,
            43.105237,
            344.1
          ],
          [
            0.75464,
            43.105389,
            344.32
          ],
          [
            0.752124,
            43.106129,
            345.16
          ],
          [
            0.751636,
            43.106344,
            345.63
          ],
          [
            0.751563,
            43.106302,
            345.66
          ],
          [
            0.7514,
            43.106243,
            345.67
          ],
          [
            0.751241,
            43.106229,
            345.67
          ],
          [
            0.750903,
            43.106238,
            345.71
          ],
          [
            0.750609,
            43.106234,
            345.76
          ],
          [
            0.750361,
            43.106198,
            345.99
          ],
          [
            0.74985,
            43.10605,
            345.86
          ],
          [
            0.749451,
            43.105898,
            345.93
          ],
          [
            0.74919,
            43.105776,
            346.02
          ],
          [
            0.748813,
            43.105568,
            346.16
          ],
          [
            0.748482,
            43.105345,
            346.25
          ],
          [
            0.748112,
            43.105042,
            346.29
          ],
          [
            0.747576,
            43.104518,
            346.46
          ],
          [
            0.74703,
            43.104036,
            347.0
          ],
          [
            0.746924,
            43.103959,
            347.35
          ],
          [
            0.746872,
            43.103936,
            347.66
          ],
          [
            0.746488,
            43.103598,
            347.9
          ],
          [
            0.74627,
            43.103373,
            347.95
          ],
          [
            0.745914,
            43.102954,
            348.12
          ],
          [
            0.745753,
            43.102787,
            348.24
          ],
          [
            0.745654,
            43.102721,
            348.31
          ],
          [
            0.744807,
            43.102273,
            349.12
          ],
          [
            0.744632,
            43.102153,
            349.55
          ],
          [
            0.744586,
            43.102087,
            349.34
          ],
          [
            0.744539,
            43.101924,
            349.46
          ],
          [
            0.744502,
            43.101685,
            349.75
          ],
          [
            0.744391,
            43.10127,
            349.89
          ],
          [
            0.744263,
            43.100862,
            349.93
          ],
          [
            0.74415,
            43.100571,
            350.0
          ],
          [
            0.743974,
            43.10023,
            350.24
          ],
          [
            0.743798,
            43.099953,
            350.57
          ],
          [
            0.743461,
            43.099518,
            350.98
          ],
          [
            0.743384,
            43.099393,
            351.06
          ],
          [
            0.743243,
            43.09909,
            351.24
          ],
          [
            0.743121,
            43.098923,
            351.28
          ],
          [
            0.742537,
            43.098248,
            351.21
          ],
          [
            0.742494,
            43.098185,
            351.18
          ],
          [
            0.742401,
            43.098006,
            351.08
          ],
          [
            0.742321,
            43.09793,
            351.02
          ],
          [
            0.74219,
            43.097852,
            350.97
          ],
          [
            0.742005,
            43.097767,
            350.94
          ],
          [
            0.74185,
            43.097656,
            350.91
          ],
          [
            0.741466,
            43.097309,
            351.04
          ],
          [
            0.741196,
            43.097116,
            351.27
          ],
          [
            0.740986,
            43.096978,
            351.43
          ],
          [
            0.740746,
            43.096703,
            351.63
          ],
          [
            0.74053,
            43.096272,
            351.93
          ],
          [
            0.74041,
            43.096101,
            351.98
          ],
          [
            0.739452,
            43.095187,
            351.86
          ],
          [
            0.739224,
            43.094919,
            352.12
          ],
          [
            0.738891,
            43.094459,
            352.71
          ],
          [
            0.738742,
            43.094313,
            352.77
          ],
          [
            0.73849,
            43.093996,
            353.04
          ],
          [
            0.738266,
            43.093739,
            353.29
          ],
          [
            0.73803,
            43.0935,
            353.91
          ],
          [
            0.737926,
            43.093442,
            354.3
          ],
          [
            0.738091,
            43.09326,
            353.69
          ],
          [
            0.738173,
            43.093127,
            354.03
          ],
          [
            0.738255,
            43.093022,
            354.48
          ],
          [
            0.738564,
            43.092809,
            354.68
          ],
          [
            0.738812,
            43.092668,
            354.91
          ],
          [
            0.738909,
            43.092601,
            354.16
          ],
          [
            0.739602,
            43.091874,
            354.21
          ],
          [
            0.73966,
            43.091831,
            355.26
          ],
          [
            0.739789,
            43.091805,
            356.03
          ],
          [
            0.739906,
            43.091827,
            355.68
          ],
          [
            0.740012,
            43.091878,
            355.0
          ],
          [
            0.740109,
            43.091975,
            355.0
          ],
          [
            0.740163,
            43.091996,
            355.0
          ],
          [
            0.74017,
            43.092032,
            354.76
          ],
          [
            0.740191,
            43.092066,
            354.53
          ],
          [
            0.740225,
            43.092094,
            354.38
          ],
          [
            0.740269,
            43.092112,
            354.29
          ],
          [
            0.740318,
            43.092121,
            354.16
          ],
          [
            0.740369,
            43.092118,
            354.12
          ],
          [
            0.74044,
            43.092097,
            354.25
          ],
          [
            0.740684,
            43.092249,
            353.09
          ],
          [
            0.74165,
            43.092748,
            351.31
          ],
          [
            0.742302,
            43.092933,
            351.0
          ],
          [
            0.742829,
            43.093074,
            351.47
          ],
          [
            0.74303,
            43.093085,
            351.87
          ],
          [
            0.743224,
            43.093141,
            351.91
          ],
          [
            0.743394,
            43.093221,
            351.81
          ],
          [
            0.744038,
            43.093469,
            351.13
          ],
          [
            0.744157,
            43.093522,
            351.02
          ],
          [
            0.746112,
            43.094204,
            352.45
          ],
          [
            0.746237,
            43.094229,
            352.72
          ],
          [
            0.746707,
            43.094192,
            353.26
          ],
          [
            0.746821,
            43.0942,
            353.0
          ],
          [
            0.746918,
            43.09425,
            353.0
          ],
          [
            0.747269,
            43.094551,
            353.0
          ],
          [
            0.747346,
            43.09459,
            353.0
          ],
          [
            0.747492,
            43.094547,
            353.0
          ],
          [
            0.747557,
            43.094537,
            353.0
          ],
          [
            0.747633,
            43.094405,
            352.91
          ],
          [
            0.747711,
            43.094327,
            352.83
          ],
          [
            0.747963,
            43.094179,
            352.76
          ],
          [
            0.74885,
            43.093808,
            353.0
          ],
          [
            0.749103,
            43.093853,
            353.0
          ],
          [
            0.749735,
            43.093905,
            353.16
          ],
          [
            0.749848,
            43.093893,
            353.65
          ],
          [
            0.749928,
            43.093842,
            353.91
          ],
          [
            0.750142,
            43.09365,
            353.98
          ],
          [
            0.750216,
            43.093598,
            353.98
          ],
          [
            0.750335,
            43.093566,
            353.99
          ],
          [
            0.750427,
            43.093568,
            353.99
          ],
          [
            0.750891,
            43.093634,
            354.0
          ],
          [
            0.751478,
            43.093698,
            354.0
          ],
          [
            0.753329,
            43.093943,
            353.44
          ],
          [
            0.753407,
            43.09397,
            353.34
          ],
          [
            0.753507,
            43.093875,
            353.99
          ],
          [
            0.753574,
            43.093891,
            353.73
          ],
          [
            0.754517,
            43.093976,
            353.16
          ],
          [
            0.755327,
            43.093778,
            352.99
          ],
          [
            0.75663,
            43.093929,
            352.55
          ],
          [
            0.757369,
            43.093975,
            352.19
          ],
          [
            0.759446,
            43.094196,
            352.0
          ],
          [
            0.75992,
            43.094178,
            352.0
          ],
          [
            0.760544,
            43.094035,
            351.99
          ],
          [
            0.76148,
            43.094026,
            351.76
          ],
          [
            0.76252,
            43.094126,
            351.21
          ],
          [
            0.765555,
            43.094126,
            350.0
          ],
          [
            0.766954,
            43.094022,
            349.74
          ],
          [
            0.768589,
            43.093519,
            349.0
          ],
          [
            0.771043,
            43.093036,
            348.48
          ],
          [
            0.773367,
            43.092742,
            347.99
          ],
          [
            0.775574,
            43.092666,
            346.8
          ],
          [
            0.776587,
            43.092922,
            346.18
          ],
          [
            0.777771,
            43.093233,
            345.33
          ],
          [
            0.778354,
            43.093436,
            345.03
          ],
          [
            0.779815,
            43.093747,
            344.65
          ],
          [
            0.780399,
            43.094057,
            344.27
          ],
          [
            0.781195,
            43.094142,
            344.01
          ],
          [
            0.782374,
            43.094337,
            344.0
          ],
          [
            0.783616,
            43.094463,
            343.58
          ],
          [
            0.783712,
            43.094442,
            343.58
          ],
          [
            0.783751,
            43.094381,
            343.58
          ],
          [
            0.783799,
            43.094258,
            343.59
          ],
          [
            0.783845,
            43.093318,
            344.13
          ],
          [
            0.783809,
            43.093001,
            344.23
          ],
          [
            0.784008,
            43.092763,
            344.21
          ],
          [
            0.784597,
            43.092803,
            344.18
          ],
          [
            0.785764,
            43.092743,
            343.71
          ],
          [
            0.787031,
            43.092816,
            343.07
          ],
          [
            0.788041,
            43.092628,
            343.0
          ],
          [
            0.788538,
            43.092656,
            343.0
          ],
          [
            0.788709,
            43.092652,
            343.0
          ],
          [
            0.789265,
            43.092601,
            342.93
          ],
          [
            0.790006,
            43.092419,
            342.59
          ],
          [
            0.791015,
            43.092089,
            342.0
          ],
          [
            0.791401,
            43.091997,
            341.57
          ],
          [
            0.791876,
            43.091921,
            341.0
          ],
          [
            0.792062,
            43.091914,
            341.0
          ],
          [
            0.792485,
            43.091882,
            341.0
          ],
          [
            0.792483,
            43.091803,
            341.0
          ],
          [
            0.792544,
            43.091583,
            341.27
          ],
          [
            0.792577,
            43.091418,
            341.52
          ],
          [
            0.792528,
            43.091295,
            341.8
          ],
          [
            0.792235,
            43.091092,
            342.46
          ],
          [
            0.792187,
            43.091008,
            342.73
          ],
          [
            0.792202,
            43.090911,
            343.04
          ],
          [
            0.792368,
            43.090665,
            343.93
          ],
          [
            0.792442,
            43.090219,
            345.41
          ],
          [
            0.792543,
            43.089276,
            347.36
          ],
          [
            0.792752,
            43.089009,
            344.96
          ],
          [
            0.792887,
            43.088894,
            344.05
          ],
          [
            0.793193,
            43.088761,
            343.2
          ],
          [
            0.793305,
            43.088629,
            342.73
          ],
          [
            0.793587,
            43.088229,
            342.07
          ],
          [
            0.793805,
            43.0879,
            342.52
          ],
          [
            0.793968,
            43.087885,
            341.96
          ],
          [
            0.795349,
            43.087921,
            341.0
          ],
          [
            0.796286,
            43.087961,
            340.32
          ],
          [
            0.797118,
            43.088044,
            340.0
          ],
          [
            0.797177,
            43.087435,
            339.74
          ],
          [
            0.796837,
            43.086309,
            339.0
          ],
          [
            0.796976,
            43.086299,
            339.0
          ],
          [
            0.797208,
            43.08622,
            339.0
          ],
          [
            0.797418,
            43.086121,
            338.99
          ],
          [
            0.797579,
            43.086006,
            338.97
          ],
          [
            0.797631,
            43.085918,
            338.94
          ],
          [
            0.797794,
            43.084994,
            338.62
          ],
          [
            0.79783,
            43.084925,
            338.58
          ],
          [
            0.797925,
            43.08487,
            338.53
          ],
          [
            0.798026,
            43.084833,
            338.48
          ],
          [
            0.798178,
            43.084808,
            338.43
          ],
          [
            0.79837,
            43.084823,
            338.39
          ],
          [
            0.798977,
            43.084991,
            338.18
          ],
          [
            0.799127,
            43.085023,
            338.21
          ],
          [
            0.799323,
            43.085037,
            338.0
          ],
          [
            0.800377,
            43.085076,
            336.96
          ],
          [
            0.800943,
            43.08518,
            336.69
          ],
          [
            0.801513,
            43.085208,
            336.34
          ],
          [
            0.80192,
            43.085205,
            336.05
          ],
          [
            0.802151,
            43.085263,
            335.9
          ],
          [
            0.802812,
            43.085602,
            335.16
          ],
          [
            0.803414,
            43.085809,
            334.82
          ],
          [
            0.804012,
            43.085982,
            334.39
          ],
          [
            0.804429,
            43.086058,
            334.2
          ],
          [
            0.80477,
            43.086051,
            334.11
          ],
          [
            0.805099,
            43.085954,
            334.06
          ],
          [
            0.805669,
            43.085735,
            334.18
          ]
        ]
      }
    },
    {
      "type": "Feature",
      "properties": {
        "source": "Sentier_du_canal.gpx",
        "type": "route"
      },
      "geometry": {
        "type": "LineString",
        "coordinates": [
          [
            0.745267,
            43.115493
          ],
          [
            0.745352,
            43.115183
          ],
          [
            0.747887,
            43.116129
          ],
          [
            0.747903,
            43.114826
          ],
          [
            0.748159,
            43.114159
          ],
          [
            0.74853,
            43.112642
          ],
          [
            0.748913,
            43.112646
          ],
          [
            0.748863,
            43.112056
          ],
          [
            0.755579,
            43.111111
          ],
          [
            0.756808,
            43.107202
          ],
          [
            0.751636,
            43.106344
          ],
          [
            0.755401,
            43.105237
          ],
          [
            0.755401,
            43.105237
          ],
          [
            0.751636,
            43.106344
          ],
          [
            0.746872,
            43.103936
          ],
          [
            0.737926,
            43.093442
          ],
          [
            0.740012,
            43.091878
          ],
          [
            0.740163,
            43.091996
          ],
          [
            0.747346,
            43.09459
          ],
          [
            0.747557,
            43.094537
          ],
          [
            0.74885,
            43.093808
          ],
          [
            0.753407,
            43.09397
          ],
          [
            0.753507,
            43.093875
          ],
          [
            0.782374,
            43.094337
          ],
          [
            0.792485,
            43.091882
          ],
          [
            0.793805,
            43.0879
          ],
          [
            0.797118,
            43.088044
          ],
          [
            0.796837,
            43.086309
          ],
          [
            0.805669,
            43.085735
          ]
        ]
      }
    }
  ]
}