{
  "type": "FeatureCollection",
  "features": [
    {
      "type": "Feature",
      "properties": {
        "name": "GraphHopper Track",
        "source": "Frontignan-Savès.gpx",
        "type": "track"
      },
      "geometry": {
        "type": "LineString",
        "coordinates": [
          [
            0.924944,
            43.394414,
            194.74
          ],
          [
            0.924944,
            43.394414,
            194.74
          ],
          [
            0.924279,
            43.394593,
            195.21
          ],
          [
            0.92319,
            43.394753,
            197.67
          ],
          [
            0.923013,
            43.39477,
            198.0
          ],
          [
            0.92298,
            43.394638,
            197.55
          ],
          [
            0.922851,
            43.394278,
            197.06
          ],
          [
            0.922755,
            43.394065,
            197.66
          ],
          [
            0.922613,
            43.393801,
            197.87
          ],
          [
            0.922323,
            43.393439,
            197.81
          ],
          [
            0.920792,
            43.391646,
            197.9
          ],
          [
            0.919442,
            43.390103,
            197.85
          ],
          [
            0.919206,
            43.389891,
            198.7
          ],
          [
            0.919304,
            43.389828,
            198.25
          ],
          [
            0.919499,
            43.389744,
            197.93
          ],
          [
            0.919928,
            43.3895,
            197.18
          ],
          [
            0.920459,
            43.389142,
            198.07
          ],
          [
            0.920627,
            43.38889,
            200.0
          ],
          [
            0.920263,
            43.388745,
            199.19
          ],
          [
            0.919434,
            43.388064,
            199.94
          ],
          [
            0.9183,
            43.387164,
            201.79
          ],
          [
            0.917959,
            43.386936,
            202.09
          ],
          [
            0.917412,
            43.386606,
            202.39
          ],
          [
            0.916953,
            43.386203,
            202.41
          ],
          [
            0.916747,
            43.385821,
            202.07
          ],
          [
            0.916661,
            43.385392,
            202.04
          ],
          [
            0.916586,
            43.385178,
            202.18
          ],
          [
            0.916481,
            43.385072,
            202.19
          ],
          [
            0.916162,
            43.384903,
            202.27
          ],
          [
            0.915883,
            43.38482,
            202.4
          ]
        ]
      }
    },
    {
      "type": "Feature",
      "properties": {
        "source": "Frontignan-Savès.gpx",
        "type": "route"
      },
      "geometry": {
        "type": "LineString",
        "coordinates": [
          [
            0.924944,
            43.394414
          ],
          [
            0.924944,
            43.394414
          ],
          [
            0.923013,
            43.39477
          ],
          [
            0.919206,
            43.389891
          ],
          [
            0.920627,
            43.38889
          ],
          [
            0.915883,
            43.38482
          ]
        ]
      }
    }
  ]
}