{
  "type": "FeatureCollection",
  "features": [
    {
      "type": "Feature",
      "properties": {
        "name": "GraphHopper Track",
        "source": "Sentier_Carbonne.gpx",
        "type": "track"
      },
      "geometry": {
        "type": "LineString",
        "coordinates": [
          [
            1.222526,
            43.295782,
            210.0
          ],
          [
            1.222796,
            43.295769,
            210.0
          ],
          [
            1.223457,
            43.295775,
            210.0
          ],
          [
            1.223678,
            43.295758,
            210.0
          ],
          [
            1.224204,
            43.295785,
            210.0
          ],
          [
            1.224278,
            43.295811,
            210.0
          ],
          [
            1.224354,
            43.295821,
            210.0
          ],
          [
            1.224816,
            43.295784,
            210.0
          ],
          [
            1.224842,
            43.296203,
            209.86
          ],
          [
            1.224867,
            43.296314,
            209.57
          ],
          [
            1.224881,
            43.296676,
            209.02
          ],
          [
            1.224863,
            43.296786,
            209.0
          ],
          [
            1.224815,
            43.296883,
            209.0
          ],
          [
            1.224957,
            43.296947,
            209.0
          ],
          [
            1.225262,
            43.296932,
            209.0
          ],
          [
            1.225214,
            43.297746,
            209.0
          ],
          [
            1.225166,
            43.298166,
            209.0
          ],
          [
            1.225117,
            43.298467,
            209.0
          ],
          [
            1.225117,
            43.298467,
            209.0
          ],
          [
            1.225166,
            43.298166,
            209.0
          ],
          [
            1.225214,
            43.297746,
            209.0
          ],
          [
            1.225262,
            43.296932,
            209.0
          ],
          [
            1.224957,
            43.296947,
            209.0
          ],
          [
            1.224815,
            43.296883,
            209.0
          ],
          [
            1.224597,
            43.296984,
            209.0
          ],
          [
            1.223556,
            43.298336,
            209.0
          ],
          [
            1.222042,
            43.300161,
            210.0
          ],
          [
            1.221107,
            43.301354,
            209.19
          ],
          [
            1.22087,
            43.301612,
            209.24
          ],
          [
            1.220824,
            43.30169,
            209.49
          ],
          [
            1.220716,
            43.301792,
            209.94
          ],
          [
            1.220599,
            43.301877,
            210.31
          ],
          [
            1.220596,
            43.301939,
            210.28
          ],
          [
            1.220578,
            43.301989,
            210.14
          ],
          [
            1.220547,
            43.302035,
            210.08
          ],
          [
            1.220504,
            43.302075,
            210.02
          ],
          [
            1.220451,
            43.302109,
            210.08
          ],
          [
            1.220392,
            43.302134,
            210.06
          ],
          [
            1.220328,
            43.30215,
            210.0
          ],
          [
            1.220268,
            43.302266,
            209.72
          ],
          [
            1.220232,
            43.302367,
            209.59
          ],
          [
            1.220182,
            43.302566,
            209.45
          ],
          [
            1.220169,
            43.302715,
            209.37
          ],
          [
            1.220143,
            43.302852,
            209.11
          ],
          [
            1.22007,
            43.303106,
            208.83
          ],
          [
            1.219528,
            43.30441,
            207.23
          ],
          [
            1.219426,
            43.304716,
            207.35
          ],
          [
            1.219402,
            43.304829,
            207.38
          ],
          [
            1.219385,
            43.305008,
            207.54
          ],
          [
            1.219397,
            43.305296,
            208.26
          ],
          [
            1.219411,
            43.305405,
            208.29
          ],
          [
            1.219423,
            43.305746,
            208.82
          ],
          [
            1.219409,
            43.305784,
            208.91
          ],
          [
            1.219375,
            43.305825,
            209.0
          ],
          [
            1.219336,
            43.305854,
            209.04
          ],
          [
            1.219283,
            43.305872,
            209.04
          ],
          [
            1.219224,
            43.305878,
            209.04
          ],
          [
            1.219155,
            43.305872,
            209.04
          ],
          [
            1.219097,
            43.305853,
            209.04
          ],
          [
            1.219041,
            43.30582,
            209.05
          ],
          [
            1.21901,
            43.305778,
            209.07
          ],
          [
            1.219,
            43.305732,
            209.09
          ],
          [
            1.219004,
            43.30569,
            209.1
          ],
          [
            1.219036,
            43.305598,
            209.14
          ]
        ]
      }
    },
    {
      "type": "Feature",
      "properties": {
        "source": "Sentier_Carbonne.gpx",
        "type": "route"
      },
      "geometry": {
        "type": "LineString",
        "coordinates": [
          [
            1.222526,
            43.295782
          ],
          [
            1.224816,
            43.295784
          ],
          [
            1.224815,
            43.296883
          ],
          [
            1.225262,
            43.296932
          ],
          [
            1.225117,
            43.298467
          ],
          [
            1.225117,
            43.298467
          ],
          [
            1.225262,
            43.296932
          ],
          [
            1.22087,
            43.301612
          ],
          [
            1.220599,
            43.301877
          ],
          [
            1.219411,
            43.305405
          ],
          [
            1.219036,
            43.305598
          ]
        ]
      }
    }
  ]
}