{
  "type": "FeatureCollection",
  "features": [
    {
      "type": "Feature",
      "properties": {
        "name": "GraphHopper Track",
        "source": "Circuit_St-Cirgue.gpx",
        "type": "track"
      },
      "geometry": {
        "type": "LineString",
        "coordinates": [
          [
            2.376907,
            43.949692,
            195.01
          ],
          [
            2.377095,
            43.949365,
            194.84
          ],
          [
            2.377441,
            43.948865,
            194.75
          ],
          [
            2.377828,
            43.948343,
            195.03
          ],
          [
            2.378145,
            43.948063,
            195.0
          ],
          [
            2.378283,
            43.947923,
            195.0
          ],
          [
            2.37846,
            43.947626,
            195.0
          ],
          [
            2.378501,
            43.94752,
            194.98
          ],
          [
            2.378512,
            43.947412,
            194.97
          ],
          [
            2.378558,
            43.947281,
            195.0
          ],
          [
            2.378574,
            43.947152,
            194.69
          ],
          [
            2.378617,
            43.947084,
            194.43
          ],
          [
            2.378529,
            43.947055,
            194.11
          ],
          [
            2.378504,
            43.947029,
            194.1
          ],
          [
            2.378482,
            43.946984,
            194.17
          ],
          [
            2.378503,
            43.946754,
            194.62
          ],
          [
            2.378519,
            43.946666,
            194.82
          ],
          [
            2.378556,
            43.946593,
            194.95
          ],
          [
            2.378623,
            43.946549,
            195.0
          ],
          [
            2.378535,
            43.946366,
            194.91
          ],
          [
            2.378384,
            43.946139,
            195.74
          ],
          [
            2.378376,
            43.946092,
            195.88
          ],
          [
            2.378392,
            43.945894,
            199.2
          ],
          [
            2.378389,
            43.945773,
            201.52
          ],
          [
            2.378358,
            43.945653,
            203.42
          ],
          [
            2.378297,
            43.945538,
            205.61
          ],
          [
            2.378068,
            43.945244,
            208.71
          ],
          [
            2.377839,
            43.944862,
            214.89
          ],
          [
            2.377735,
            43.944747,
            213.61
          ],
          [
            2.377794,
            43.944714,
            220.03
          ],
          [
            2.37807,
            43.944543,
            205.46
          ],
          [
            2.378134,
            43.944454,
            205.56
          ],
          [
            2.37815,
            43.944368,
            205.64
          ],
          [
            2.378134,
            43.944289,
            205.71
          ],
          [
            2.378023,
            43.944079,
            205.92
          ],
          [
            2.377921,
            43.943913,
            206.12
          ],
          [
            2.377883,
            43.943818,
            207.84
          ],
          [
            2.377862,
            43.943691,
            209.34
          ],
          [
            2.377998,
            43.943616,
            205.53
          ],
          [
            2.378147,
            43.943469,
            202.31
          ],
          [
            2.378839,
            43.942708,
            202.24
          ],
          [
            2.378919,
            43.942578,
            203.82
          ],
          [
            2.379017,
            43.942504,
            204.84
          ],
          [
            2.379532,
            43.942245,
            204.26
          ],
          [
            2.379999,
            43.942058,
            204.52
          ],
          [
            2.38046,
            43.941863,
            204.98
          ],
          [
            2.381244,
            43.941612,
            206.14
          ],
          [
            2.3817,
            43.941506,
            206.18
          ],
          [
            2.382072,
            43.941382,
            205.96
          ],
          [
            2.382372,
            43.941302,
            205.7
          ],
          [
            2.382631,
            43.941247,
            205.42
          ],
          [
            2.382925,
            43.941206,
            205.12
          ],
          [
            2.383587,
            43.941141,
            204.78
          ],
          [
            2.383805,
            43.94116,
            204.34
          ],
          [
            2.384079,
            43.941198,
            204.73
          ],
          [
            2.384901,
            43.941361,
            207.66
          ],
          [
            2.386124,
            43.941627,
            215.79
          ],
          [
            2.386451,
            43.941682,
            217.07
          ],
          [
            2.386563,
            43.941717,
            217.55
          ],
          [
            2.386615,
            43.941769,
            217.89
          ],
          [
            2.386666,
            43.941851,
            218.77
          ],
          [
            2.386715,
            43.94197,
            219.74
          ],
          [
            2.386757,
            43.942022,
            220.21
          ],
          [
            2.386831,
            43.942082,
            220.77
          ],
          [
            2.386974,
            43.942144,
            221.54
          ],
          [
            2.387613,
            43.942344,
            224.09
          ],
          [
            2.388071,
            43.942475,
            225.3
          ],
          [
            2.388938,
            43.942695,
            226.7
          ],
          [
            2.390039,
            43.942941,
            227.61
          ],
          [
            2.390312,
            43.94298,
            227.53
          ],
          [
            2.39107,
            43.943029,
            226.75
          ],
          [
            2.391352,
            43.943068,
            226.34
          ],
          [
            2.391619,
            43.943123,
            226.71
          ],
          [
            2.392158,
            43.943258,
            226.92
          ],
          [
            2.39295,
            43.943414,
            226.9
          ],
          [
            2.393576,
            43.943483,
            226.17
          ],
          [
            2.393853,
            43.943496,
            225.96
          ],
          [
            2.394163,
            43.943477,
            225.78
          ],
          [
            2.394367,
            43.943438,
            225.72
          ],
          [
            2.394681,
            43.943316,
            225.77
          ],
          [
            2.395078,
            43.943077,
            226.02
          ],
          [
            2.395444,
            43.942908,
            226.28
          ],
          [
            2.395738,
            43.94281,
            226.44
          ],
          [
            2.396064,
            43.942727,
            226.53
          ],
          [
            2.396934,
            43.942638,
            225.51
          ],
          [
            2.397113,
            43.942604,
            225.12
          ],
          [
            2.39728,
            43.942516,
            224.71
          ],
          [
            2.397312,
            43.942425,
            224.46
          ],
          [
            2.397283,
            43.942324,
            224.19
          ],
          [
            2.397191,
            43.942214,
            223.86
          ],
          [
            2.396698,
            43.941815,
            222.78
          ],
          [
            2.396211,
            43.941442,
            222.38
          ],
          [
            2.396073,
            43.941307,
            222.07
          ],
          [
            2.395564,
            43.940389,
            219.24
          ],
          [
            2.395033,
            43.939797,
            216.31
          ],
          [
            2.394791,
            43.939598,
            215.12
          ],
          [
            2.394534,
            43.939412,
            217.03
          ],
          [
            2.394152,
            43.939191,
            215.36
          ],
          [
            2.394005,
            43.939071,
            214.36
          ],
          [
            2.393726,
            43.93865,
            212.82
          ],
          [
            2.393544,
            43.938429,
            212.05
          ],
          [
            2.393241,
            43.938124,
            211.35
          ],
          [
            2.393092,
            43.937844,
            210.83
          ],
          [
            2.39288,
            43.937338,
            209.44
          ],
          [
            2.392823,
            43.936906,
            209.38
          ],
          [
            2.392748,
            43.93676,
            209.22
          ],
          [
            2.392529,
            43.936429,
            208.51
          ],
          [
            2.392463,
            43.936254,
            208.19
          ],
          [
            2.392447,
            43.936101,
            207.97
          ],
          [
            2.392651,
            43.935593,
            206.69
          ],
          [
            2.392715,
            43.935349,
            206.19
          ],
          [
            2.392715,
            43.935118,
            205.87
          ],
          [
            2.392742,
            43.934767,
            205.54
          ],
          [
            2.393242,
            43.933513,
            206.13
          ],
          [
            2.39373,
            43.93301,
            207.41
          ],
          [
            2.394297,
            43.932573,
            207.79
          ],
          [
            2.395115,
            43.932279,
            206.33
          ],
          [
            2.396301,
            43.932137,
            205.06
          ],
          [
            2.397168,
            43.932212,
            205.07
          ],
          [
            2.398255,
            43.932435,
            205.08
          ],
          [
            2.399557,
            43.932773,
            207.05
          ],
          [
            2.40048,
            43.933219,
            208.68
          ],
          [
            2.401482,
            43.933836,
            210.45
          ],
          [
            2.402112,
            43.934267,
            210.45
          ],
          [
            2.402597,
            43.934445,
            208.4
          ],
          [
            2.4028,
            43.934581,
            206.43
          ],
          [
            2.402982,
            43.934791,
            207.4
          ],
          [
            2.403698,
            43.935678,
            212.98
          ],
          [
            2.403895,
            43.935827,
            212.53
          ],
          [
            2.404234,
            43.936002,
            210.11
          ],
          [
            2.404763,
            43.93642,
            207.24
          ],
          [
            2.404949,
            43.936576,
            209.24
          ],
          [
            2.405279,
            43.937026,
            209.56
          ],
          [
            2.405964,
            43.937899,
            211.05
          ],
          [
            2.406769,
            43.938583,
            212.82
          ],
          [
            2.40756,
            43.939143,
            215.81
          ],
          [
            2.408232,
            43.939779,
            217.63
          ],
          [
            2.408693,
            43.940377,
            217.49
          ],
          [
            2.40897,
            43.940956,
            217.48
          ],
          [
            2.408983,
            43.941345,
            217.58
          ],
          [
            2.408904,
            43.943481,
            218.28
          ],
          [
            2.408904,
            43.94425,
            218.23
          ],
          [
            2.409102,
            43.944781,
            217.85
          ],
          [
            2.40943,
            43.945493,
            217.64
          ],
          [
            2.409838,
            43.946191,
            217.88
          ],
          [
            2.410058,
            43.946423,
            217.68
          ],
          [
            2.410517,
            43.947171,
            215.25
          ],
          [
            2.410655,
            43.947214,
            218.56
          ],
          [
            2.410768,
            43.947403,
            219.32
          ],
          [
            2.41094,
            43.947588,
            221.47
          ],
          [
            2.411235,
            43.947731,
            223.98
          ],
          [
            2.411481,
            43.947897,
            226.38
          ],
          [
            2.411894,
            43.948295,
            231.83
          ],
          [
            2.412141,
            43.948465,
            234.37
          ],
          [
            2.412635,
            43.948685,
            239.62
          ],
          [
            2.412863,
            43.948827,
            242.55
          ],
          [
            2.41294,
            43.948827,
            243.34
          ],
          [
            2.413002,
            43.948796,
            244.12
          ],
          [
            2.412969,
            43.948685,
            245.83
          ],
          [
            2.412969,
            43.948685,
            245.83
          ],
          [
            2.413002,
            43.948796,
            244.12
          ],
          [
            2.41294,
            43.948827,
            243.34
          ],
          [
            2.412863,
            43.948827,
            242.55
          ],
          [
            2.412635,
            43.948685,
            239.62
          ],
          [
            2.412141,
            43.948465,
            234.37
          ],
          [
            2.411894,
            43.948295,
            231.83
          ],
          [
            2.411481,
            43.947897,
            226.38
          ],
          [
            2.411235,
            43.947731,
            223.98
          ],
          [
            2.41094,
            43.947588,
            221.47
          ],
          [
            2.410768,
            43.947403,
            219.32
          ],
          [
            2.410655,
            43.947214,
            218.56
          ],
          [
            2.410517,
            43.947171,
            215.25
          ],
          [
            2.410058,
            43.946423,
            217.68
          ],
          [
            2.409838,
            43.946191,
            217.88
          ],
          [
            2.40943,
            43.945493,
            217.64
          ],
          [
            2.409102,
            43.944781,
            217.85
          ],
          [
            2.408904,
            43.94425,
            218.23
          ],
          [
            2.408904,
            43.943481,
            218.28
          ],
          [
            2.408983,
            43.941345,
            217.58
          ],
          [
            2.40897,
            43.940956,
            217.48
          ],
          [
            2.408693,
            43.940377,
            217.49
          ],
          [
            2.408232,
            43.939779,
            217.63
          ],
          [
            2.40756,
            43.939143,
            215.81
          ],
          [
            2.406769,
            43.938583,
            212.82
          ],
          [
            2.405964,
            43.937899,
            211.05
          ],
          [
            2.405279,
            43.937026,
            209.56
          ],
          [
            2.404949,
            43.936576,
            209.24
          ],
          [
            2.404763,
            43.93642,
            207.24
          ],
          [
            2.404234,
            43.936002,
            210.11
          ],
          [
            2.403895,
            43.935827,
            212.53
          ],
          [
            2.403698,
            43.935678,
            212.98
          ],
          [
            2.402982,
            43.934791,
            207.4
          ],
          [
            2.4028,
            43.934581,
            206.43
          ],
          [
            2.402597,
            43.934445,
            208.4
          ],
          [
            2.402112,
            43.934267,
            210.45
          ],
          [
            2.401482,
            43.933836,
            210.45
          ],
          [
            2.40048,
            43.933219,
            208.68
          ],
          [
            2.399557,
            43.932773,
            207.05
          ],
          [
            2.398255,
            43.932435,
            205.08
          ],
          [
            2.397168,
            43.932212,
            205.07
          ],
          [
            2.396301,
            43.932137,
            205.06
          ],
          [
            2.395115,
            43.932279,
            206.33
          ],
          [
            2.394297,
            43.932573,
            207.79
          ],
          [
            2.39373,
            43.93301,
            207.41
          ],
          [
            2.393242,
            43.933513,
            206.13
          ],
          [
            2.392742,
            43.934767,
            205.54
          ],
          [
            2.392715,
            43.935118,
            205.87
          ],
          [
            2.392715,
            43.935349,
            206.19
          ],
          [
            2.392651,
            43.935593,
            206.69
          ],
          [
            2.392447,
            43.936101,
            207.97
          ],
          [
            2.392463,
            43.936254,
            208.19
          ],
          [
            2.392529,
            43.936429,
            208.51
          ],
          [
            2.392748,
            43.93676,
            209.22
          ],
          [
            2.392823,
            43.936906,
            209.38
          ],
          [
            2.39288,
            43.937338,
            209.44
          ],
          [
            2.393092,
            43.937844,
            210.83
          ],
          [
            2.393241,
            43.938124,
            211.35
          ],
          [
            2.393544,
            43.938429,
            212.05
          ],
          [
            2.393726,
            43.93865,
            212.82
          ],
          [
            2.394005,
            43.939071,
            214.36
          ],
          [
            2.394152,
            43.939191,
            215.36
          ],
          [
            2.394534,
            43.939412,
            217.03
          ],
          [
            2.394791,
            43.939598,
            215.12
          ],
          [
            2.395033,
            43.939797,
            216.31
          ],
          [
            2.395564,
            43.940389,
            219.24
          ],
          [
            2.396073,
            43.941307,
            222.07
          ],
          [
            2.396211,
            43.941442,
            222.38
          ],
          [
            2.396698,
            43.941815,
            222.78
          ],
          [
            2.397191,
            43.942214,
            223.86
          ],
          [
            2.397283,
            43.942324,
            224.19
          ],
          [
            2.397312,
            43.942425,
            224.46
          ],
          [
            2.39728,
            43.942516,
            224.71
          ],
          [
            2.397113,
            43.942604,
            225.12
          ],
          [
            2.396934,
            43.942638,
            225.51
          ],
          [
            2.396064,
            43.942727,
            226.53
          ],
          [
            2.395738,
            43.94281,
            226.44
          ],
          [
            2.395444,
            43.942908,
            226.28
          ],
          [
            2.395078,
            43.943077,
            226.02
          ],
          [
            2.394681,
            43.943316,
            225.77
          ],
          [
            2.394367,
            43.943438,
            225.72
          ],
          [
            2.394163,
            43.943477,
            225.78
          ],
          [
            2.393853,
            43.943496,
            225.96
          ],
          [
            2.393576,
            43.943483,
            226.17
          ],
          [
            2.39295,
            43.943414,
            226.9
          ],
          [
            2.392158,
            43.943258,
            226.92
          ],
          [
            2.391619,
            43.943123,
            226.71
          ],
          [
            2.391352,
            43.943068,
            226.34
          ],
          [
            2.39107,
            43.943029,
            226.75
          ],
          [
            2.390312,
            43.94298,
            227.53
          ],
          [
            2.390039,
            43.942941,
            227.61
          ],
          [
            2.388938,
            43.942695,
            226.7
          ],
          [
            2.388071,
            43.942475,
            225.3
          ],
          [
            2.387613,
            43.942344,
            224.09
          ],
          [
            2.386974,
            43.942144,
            221.54
          ],
          [
            2.386831,
            43.942082,
            220.77
          ],
          [
            2.386757,
            43.942022,
            220.21
          ],
          [
            2.386715,
            43.94197,
            219.74
          ],
          [
            2.386666,
            43.941851,
            218.77
          ],
          [
            2.386615,
            43.941769,
            217.89
          ],
          [
            2.386563,
            43.941717,
            217.55
          ],
          [
            2.386451,
            43.941682,
            217.07
          ],
          [
            2.386124,
            43.941627,
            215.79
          ],
          [
            2.384901,
            43.941361,
            207.66
          ],
          [
            2.384079,
            43.941198,
            204.73
          ],
          [
            2.383805,
            43.94116,
            204.34
          ],
          [
            2.383587,
            43.941141,
            204.78
          ],
          [
            2.382925,
            43.941206,
            205.12
          ],
          [
            2.382631,
            43.941247,
            205.42
          ],
          [
            2.382372,
            43.941302,
            205.7
          ],
          [
            2.382072,
            43.941382,
            205.96
          ],
          [
            2.3817,
            43.941506,
            206.18
          ],
          [
            2.381244,
            43.941612,
            206.14
          ],
          [
            2.38046,
            43.941863,
            204.98
          ],
          [
            2.379999,
            43.942058,
            204.52
          ],
          [
            2.379532,
            43.942245,
            204.26
          ],
          [
            2.379017,
            43.942504,
            204.84
          ],
          [
            2.37876,
            43.942591,
            208.19
          ],
          [
            2.377741,
            43.942772,
            207.43
          ],
          [
            2.377004,
            43.942873,
            206.89
          ],
          [
            2.376029,
            43.942991,
            206.17
          ],
          [
            2.375266,
            43.943044,
            205.61
          ],
          [
            2.374847,
            43.943051,
            205.3
          ],
          [
            2.373854,
            43.943099,
            204.58
          ],
          [
            2.371729,
            43.943094,
            203.02
          ],
          [
            2.370101,
            43.943117,
            201.83
          ],
          [
            2.369829,
            43.943112,
            200.49
          ],
          [
            2.369271,
            43.943076,
            198.36
          ],
          [
            2.368763,
            43.942818,
            199.14
          ],
          [
            2.36853,
            43.94267,
            199.14
          ],
          [
            2.367754,
            43.94241,
            198.42
          ],
          [
            2.367701,
            43.942433,
            198.09
          ],
          [
            2.367667,
            43.942475,
            197.76
          ],
          [
            2.367656,
            43.942563,
            197.72
          ],
          [
            2.367577,
            43.94274,
            197.99
          ],
          [
            2.364868,
            43.941814,
            198.0
          ]
        ]
      }
    },
    {
      "type": "Feature",
      "properties": {
        "source": "Circuit_St-Cirgue.gpx",
        "type": "route"
      },
      "geometry": {
        "type": "LineString",
        "coordinates": [
          [
            2.376907,
            43.949692
          ],
          [
            2.378617,
            43.947084
          ],
          [
            2.378623,
            43.946549
          ],
          [
            2.377735,
            43.944747
          ],
          [
            2.377862,
            43.943691
          ],
          [
            2.383587,
            43.941141
          ],
          [
            2.384901,
            43.941361
          ],
          [
            2.410517,
            43.947171
          ],
          [
            2.412969,
            43.948685
          ],
          [
            2.412969,
            43.948685
          ],
          [
            2.410517,
            43.947171
          ],
          [
            2.384901,
            43.941361
          ],
          [
            2.383587,
            43.941141
          ],
          [
            2.379017,
            43.942504
          ],
          [
            2.369271,
            43.943076
          ],
          [
            2.367667,
            43.942475
          ],
          [
            2.367577,
            43.94274
          ],
          [
            2.364868,
            43.941814
          ]
        ]
      }
    }
  ]
}