{
  "type": "FeatureCollection",
  "features": [
    {
      "type": "Feature",
      "properties": {
        "name": "GraphHopper Track",
        "source": "Patrimoine_Montpezat.gpx",
        "type": "track"
      },
      "geometry": {
        "type": "LineString",
        "coordinates": [
          [
            1.478485,
            44.238096,
            250.86
          ],
          [
            1.478659,
            44.238267,
            253.1
          ],
          [
            1.478761,
            44.238398,
            254.47
          ],
          [
            1.47881,
            44.23855,
            255.76
          ],
          [
            1.478772,
            44.238635,
            256.51
          ],
          [
            1.478686,
            44.238748,
            257.65
          ],
          [
            1.478686,
            44.238832,
            258.41
          ],
          [
            1.478764,
            44.238957,
            259.99
          ],
          [
            1.479013,
            44.239234,
            262.76
          ],
          [
            1.479221,
            44.239447,
            262.75
          ],
          [
            1.478842,
            44.239707,
            262.93
          ],
          [
            1.47868,
            44.239774,
            262.96
          ],
          [
            1.478561,
            44.2398,
            263.0
          ],
          [
            1.478256,
            44.239252,
            263.68
          ],
          [
            1.478188,
            44.239202,
            263.65
          ],
          [
            1.478088,
            44.239144,
            263.41
          ],
          [
            1.477965,
            44.239087,
            263.0
          ],
          [
            1.477959,
            44.238964,
            263.09
          ],
          [
            1.477828,
            44.2388,
            263.52
          ],
          [
            1.477674,
            44.238635,
            264.2
          ],
          [
            1.477578,
            44.23849,
            263.67
          ],
          [
            1.477453,
            44.238121,
            261.07
          ],
          [
            1.477455,
            44.238099,
            261.01
          ],
          [
            1.477402,
            44.238012,
            261.04
          ],
          [
            1.477348,
            44.237992,
            261.01
          ],
          [
            1.477277,
            44.237911,
            261.0
          ],
          [
            1.477273,
            44.237814,
            260.86
          ],
          [
            1.477328,
            44.237697,
            260.36
          ],
          [
            1.477387,
            44.237659,
            259.74
          ],
          [
            1.477428,
            44.237649,
            259.46
          ],
          [
            1.477573,
            44.237568,
            258.58
          ],
          [
            1.477573,
            44.237568,
            258.58
          ],
          [
            1.477428,
            44.237649,
            259.46
          ],
          [
            1.477387,
            44.237659,
            259.74
          ],
          [
            1.477328,
            44.237697,
            260.36
          ],
          [
            1.477273,
            44.237814,
            260.86
          ],
          [
            1.477277,
            44.237911,
            261.0
          ],
          [
            1.477348,
            44.237992,
            261.01
          ],
          [
            1.477402,
            44.238012,
            261.04
          ],
          [
            1.477455,
            44.238099,
            261.01
          ],
          [
            1.477453,
            44.238121,
            261.07
          ],
          [
            1.477578,
            44.23849,
            263.67
          ],
          [
            1.477674,
            44.238635,
            264.2
          ],
          [
            1.477828,
            44.2388,
            263.52
          ],
          [
            1.477959,
            44.238964,
            263.09
          ],
          [
            1.477965,
            44.239087,
            263.0
          ],
          [
            1.478088,
            44.239144,
            263.41
          ],
          [
            1.478188,
            44.239202,
            263.65
          ],
          [
            1.478256,
            44.239252,
            263.68
          ],
          [
            1.478561,
            44.2398,
            263.0
          ],
          [
            1.47868,
            44.239774,
            262.96
          ],
          [
            1.478842,
            44.239707,
            262.93
          ],
          [
            1.479221,
            44.239447,
            262.75
          ],
          [
            1.479013,
            44.239234,
            262.76
          ],
          [
            1.478764,
            44.238957,
            259.99
          ],
          [
            1.478686,
            44.238832,
            258.41
          ],
          [
            1.478686,
            44.238748,
            257.65
          ],
          [
            1.478772,
            44.238635,
            256.51
          ],
          [
            1.47881,
            44.23855,
            255.76
          ],
          [
            1.478761,
            44.238398,
            254.47
          ],
          [
            1.478659,
            44.238267,
            253.1
          ],
          [
            1.478485,
            44.238096,
            250.86
          ]
        ]
      }
    },
    {
      "type": "Feature",
      "properties": {
        "source": "Patrimoine_Montpezat.gpx",
        "type": "route"
      },
      "geometry": {
        "type": "LineString",
        "coordinates": [
          [
            1.478485,
            44.238096
          ],
          [
            1.478561,
            44.2398
          ],
          [
            1.477965,
            44.239087
          ],
          [
            1.477277,
            44.237911
          ],
          [
            1.477328,
            44.237697
          ],
          [
            1.477573,
            44.237568
          ],
          [
            1.477573,
            44.237568
          ],
          [
            1.477328,
            44.237697
          ],
          [
            1.477277,
            44.237911
          ],
          [
            1.477965,
            44.239087
          ],
          [
            1.478561,
            44.2398
          ],
          [
            1.478485,
            44.238096
          ]
        ]
      }
    }
  ]
}