{
  "type": "FeatureCollection",
  "features": [
    {
      "type": "Feature",
      "properties": {
        "name": "GraphHopper Track",
        "source": "Sentier_de_Raphaël.gpx",
        "type": "track"
      },
      "geometry": {
        "type": "LineString",
        "coordinates": [
          [
            0.403856,
            43.514307,
            168.24
          ],
          [
            0.403809,
            43.514488,
            168.0
          ],
          [
            0.404444,
            43.514584,
            167.88
          ],
          [
            0.404426,
            43.514651,
            167.33
          ],
          [
            0.407227,
            43.515094,
            158.36
          ],
          [
            0.407353,
            43.515093,
            157.63
          ],
          [
            0.407456,
            43.515122,
            157.13
          ],
          [
            0.407626,
            43.515156,
            156.73
          ],
          [
            0.409311,
            43.515419,
            153.73
          ],
          [
            0.409218,
            43.515519,
            153.51
          ],
          [
            0.410297,
            43.515696,
            153.96
          ],
          [
            0.411314,
            43.515845,
            153.97
          ],
          [
            0.411434,
            43.51575,
            153.1
          ],
          [
            0.412146,
            43.515862,
            150.25
          ],
          [
            0.412305,
            43.515905,
            154.24
          ],
          [
            0.412378,
            43.515934,
            154.76
          ],
          [
            0.412443,
            43.515974,
            154.99
          ],
          [
            0.412666,
            43.515926,
            153.74
          ],
          [
            0.412658,
            43.515997,
            153.77
          ],
          [
            0.412679,
            43.516099,
            153.82
          ],
          [
            0.41277,
            43.51621,
            154.0
          ],
          [
            0.412878,
            43.516318,
            153.52
          ],
          [
            0.412832,
            43.516342,
            153.82
          ],
          [
            0.41342,
            43.516902,
            152.93
          ],
          [
            0.412883,
            43.516672,
            152.28
          ],
          [
            0.41283,
            43.516668,
            152.21
          ],
          [
            0.412769,
            43.516693,
            152.11
          ],
          [
            0.412746,
            43.516742,
            151.96
          ],
          [
            0.412745,
            43.516829,
            151.64
          ],
          [
            0.412827,
            43.516975,
            151.24
          ],
          [
            0.412675,
            43.516924,
            151.1
          ],
          [
            0.412522,
            43.516773,
            150.95
          ],
          [
            0.412467,
            43.516759,
            150.87
          ],
          [
            0.41241,
            43.516764,
            150.79
          ],
          [
            0.41218,
            43.516895,
            150.6
          ],
          [
            0.41214,
            43.516955,
            150.61
          ],
          [
            0.412125,
            43.517011,
            150.56
          ],
          [
            0.412119,
            43.517112,
            150.45
          ],
          [
            0.412148,
            43.517224,
            150.34
          ],
          [
            0.412459,
            43.517515,
            151.0
          ],
          [
            0.412459,
            43.517515,
            151.0
          ],
          [
            0.412148,
            43.517224,
            150.34
          ],
          [
            0.412119,
            43.517112,
            150.45
          ],
          [
            0.412125,
            43.517011,
            150.56
          ],
          [
            0.41214,
            43.516955,
            150.61
          ],
          [
            0.41218,
            43.516895,
            150.6
          ],
          [
            0.41241,
            43.516764,
            150.79
          ],
          [
            0.412467,
            43.516759,
            150.87
          ],
          [
            0.412522,
            43.516773,
            150.95
          ],
          [
            0.412675,
            43.516924,
            151.1
          ],
          [
            0.412827,
            43.516975,
            151.24
          ],
          [
            0.412745,
            43.516829,
            151.64
          ],
          [
            0.412746,
            43.516742,
            151.96
          ],
          [
            0.412769,
            43.516693,
            152.11
          ],
          [
            0.41283,
            43.516668,
            152.21
          ],
          [
            0.412883,
            43.516672,
            152.28
          ],
          [
            0.41342,
            43.516902,
            152.93
          ],
          [
            0.412443,
            43.515974,
            154.99
          ],
          [
            0.412378,
            43.515934,
            154.76
          ],
          [
            0.412305,
            43.515905,
            154.24
          ],
          [
            0.412146,
            43.515862,
            150.25
          ],
          [
            0.411434,
            43.51575,
            153.1
          ],
          [
            0.411314,
            43.515845,
            153.97
          ],
          [
            0.410297,
            43.515696,
            153.96
          ],
          [
            0.409218,
            43.515519,
            153.51
          ],
          [
            0.409311,
            43.515419,
            153.73
          ],
          [
            0.407626,
            43.515156,
            156.73
          ],
          [
            0.407456,
            43.515122,
            157.13
          ],
          [
            0.407353,
            43.515093,
            157.63
          ],
          [
            0.407227,
            43.515094,
            158.36
          ],
          [
            0.404426,
            43.514651,
            167.33
          ],
          [
            0.404444,
            43.514584,
            167.88
          ],
          [
            0.403809,
            43.514488,
            168.0
          ],
          [
            0.403856,
            43.514307,
            168.24
          ]
        ]
      }
    },
    {
      "type": "Feature",
      "properties": {
        "source": "Sentier_de_Raphaël.gpx",
        "type": "route"
      },
      "geometry": {
        "type": "LineString",
        "coordinates": [
          [
            0.403856,
            43.514307
          ],
          [
            0.403809,
            43.514488
          ],
          [
            0.404444,
            43.514584
          ],
          [
            0.404426,
            43.514651
          ],
          [
            0.409311,
            43.515419
          ],
          [
            0.409218,
            43.515519
          ],
          [
            0.411434,
            43.51575
          ],
          [
            0.412443,
            43.515974
          ],
          [
            0.412666,
            43.515926
          ],
          [
            0.412832,
            43.516342
          ],
          [
            0.41342,
            43.516902
          ],
          [
            0.412827,
            43.516975
          ],
          [
            0.412459,
            43.517515
          ],
          [
            0.412459,
            43.517515
          ],
          [
            0.412827,
            43.516975
          ],
          [
            0.41342,
            43.516902
          ],
          [
            0.411434,
            43.51575
          ],
          [
            0.409218,
            43.515519
          ],
          [
            0.409311,
            43.515419
          ],
          [
            0.404426,
            43.514651
          ],
          [
            0.404444,
            43.514584
          ],
          [
            0.403809,
            43.514488
          ],
          [
            0.403856,
            43.514307
          ]
        ]
      }
    }
  ]
}