{
  "type": "FeatureCollection",
  "features": [
    {
      "type": "Feature",
      "properties": {
        "name": "GraphHopper Track",
        "source": "Étang_dAraing.gpx",
        "type": "track"
      },
      "geometry": {
        "type": "LineString",
        "coordinates": [
          [
            0.937949,
            42.833845,
            925.44
          ],
          [
            0.937926,
            42.833631,
            927.81
          ],
          [
            0.937886,
            42.833526,
            928.6
          ],
          [
            0.937614,
            42.833005,
            933.69
          ],
          [
            0.937608,
            42.83298,
            933.91
          ],
          [
            0.937614,
            42.83296,
            934.1
          ],
          [
            0.937744,
            42.832899,
            934.72
          ],
          [
            0.937949,
            42.832841,
            938.08
          ],
          [
            0.937981,
            42.83282,
            938.74
          ],
          [
            0.938014,
            42.832754,
            940.22
          ],
          [
            0.938006,
            42.832718,
            941.03
          ],
          [
            0.937973,
            42.832665,
            942.23
          ],
          [
            0.937973,
            42.83262,
            943.08
          ],
          [
            0.93799,
            42.83257,
            944.19
          ],
          [
            0.937794,
            42.832039,
            948.03
          ],
          [
            0.937713,
            42.831938,
            948.44
          ],
          [
            0.937386,
            42.831651,
            948.44
          ],
          [
            0.937331,
            42.831571,
            948.47
          ],
          [
            0.937304,
            42.831487,
            949.46
          ],
          [
            0.937315,
            42.831247,
            955.69
          ],
          [
            0.937346,
            42.8311,
            960.68
          ],
          [
            0.937351,
            42.831017,
            962.47
          ],
          [
            0.937233,
            42.830675,
            961.37
          ],
          [
            0.937195,
            42.830626,
            961.18
          ],
          [
            0.937055,
            42.830541,
            961.15
          ],
          [
            0.936932,
            42.830441,
            961.25
          ],
          [
            0.936781,
            42.830226,
            961.48
          ],
          [
            0.936761,
            42.830142,
            961.64
          ],
          [
            0.936794,
            42.829861,
            963.43
          ],
          [
            0.936782,
            42.829628,
            966.39
          ],
          [
            0.937043,
            42.829306,
            973.51
          ],
          [
            0.93711,
            42.829201,
            976.43
          ],
          [
            0.937252,
            42.8288,
            988.87
          ],
          [
            0.937252,
            42.82858,
            994.66
          ],
          [
            0.937186,
            42.828285,
            999.55
          ],
          [
            0.936902,
            42.828026,
            1001.07
          ],
          [
            0.936438,
            42.827854,
            999.23
          ],
          [
            0.936095,
            42.82766,
            997.24
          ],
          [
            0.935998,
            42.827525,
            997.09
          ],
          [
            0.935918,
            42.827329,
            998.08
          ],
          [
            0.935854,
            42.82704,
            1000.73
          ],
          [
            0.93583,
            42.826661,
            1005.4
          ],
          [
            0.935742,
            42.826485,
            1008.86
          ],
          [
            0.935594,
            42.826349,
            1012.35
          ],
          [
            0.935542,
            42.826046,
            1019.34
          ],
          [
            0.935576,
            42.825949,
            1022.92
          ],
          [
            0.935623,
            42.825877,
            1026.78
          ],
          [
            0.935641,
            42.825823,
            1029.64
          ],
          [
            0.935617,
            42.825793,
            1030.12
          ],
          [
            0.93548,
            42.825722,
            1027.94
          ],
          [
            0.935465,
            42.825702,
            1028.92
          ],
          [
            0.935402,
            42.82547,
            1036.65
          ],
          [
            0.935346,
            42.825426,
            1037.88
          ],
          [
            0.934747,
            42.825141,
            1047.86
          ],
          [
            0.934548,
            42.82506,
            1050.29
          ],
          [
            0.9344,
            42.825042,
            1053.22
          ],
          [
            0.934234,
            42.825036,
            1058.27
          ],
          [
            0.933909,
            42.824856,
            1060.5
          ],
          [
            0.933665,
            42.824675,
            1063.15
          ],
          [
            0.933565,
            42.824638,
            1063.89
          ],
          [
            0.933392,
            42.824612,
            1065.04
          ],
          [
            0.933129,
            42.824429,
            1067.52
          ],
          [
            0.93294,
            42.824319,
            1069.44
          ],
          [
            0.932645,
            42.824117,
            1072.06
          ],
          [
            0.932309,
            42.823987,
            1075.73
          ],
          [
            0.932098,
            42.823924,
            1077.56
          ],
          [
            0.931744,
            42.823945,
            1080.03
          ],
          [
            0.931465,
            42.823917,
            1081.64
          ],
          [
            0.931226,
            42.823919,
            1083.25
          ],
          [
            0.931089,
            42.823862,
            1084.32
          ],
          [
            0.93086,
            42.823841,
            1085.82
          ],
          [
            0.930356,
            42.823734,
            1089.14
          ],
          [
            0.928949,
            42.823256,
            1100.09
          ],
          [
            0.928554,
            42.82318,
            1103.56
          ],
          [
            0.92822,
            42.823133,
            1106.48
          ],
          [
            0.927985,
            42.823165,
            1108.5
          ],
          [
            0.92756,
            42.823137,
            1112.06
          ],
          [
            0.927365,
            42.823181,
            1113.68
          ],
          [
            0.927032,
            42.823187,
            1116.15
          ],
          [
            0.926453,
            42.823167,
            1120.17
          ],
          [
            0.926126,
            42.823177,
            1122.52
          ],
          [
            0.925672,
            42.823271,
            1126.0
          ],
          [
            0.925446,
            42.823377,
            1128.07
          ],
          [
            0.924996,
            42.823416,
            1131.72
          ],
          [
            0.923996,
            42.823443,
            1138.58
          ],
          [
            0.923549,
            42.823412,
            1141.39
          ],
          [
            0.922963,
            42.823307,
            1145.48
          ],
          [
            0.922793,
            42.823262,
            1146.85
          ],
          [
            0.922397,
            42.823218,
            1150.13
          ],
          [
            0.922022,
            42.823159,
            1153.07
          ],
          [
            0.921779,
            42.823106,
            1155.0
          ],
          [
            0.921698,
            42.823072,
            1155.68
          ],
          [
            0.92157,
            42.822982,
            1156.89
          ],
          [
            0.921376,
            42.822897,
            1158.41
          ],
          [
            0.920844,
            42.822735,
            1162.73
          ],
          [
            0.920662,
            42.822712,
            1164.29
          ],
          [
            0.920479,
            42.82272,
            1165.82
          ],
          [
            0.920137,
            42.822699,
            1168.74
          ],
          [
            0.920026,
            42.822703,
            1169.71
          ],
          [
            0.919859,
            42.822698,
            1171.12
          ],
          [
            0.919689,
            42.822675,
            1172.48
          ],
          [
            0.919316,
            42.822579,
            1175.29
          ],
          [
            0.919161,
            42.822574,
            1176.38
          ],
          [
            0.918936,
            42.822526,
            1177.82
          ],
          [
            0.918621,
            42.82243,
            1179.27
          ],
          [
            0.918558,
            42.822379,
            1179.49
          ],
          [
            0.918506,
            42.822371,
            1179.66
          ],
          [
            0.918472,
            42.822388,
            1180.42
          ],
          [
            0.918458,
            42.822428,
            1181.72
          ],
          [
            0.918488,
            42.822465,
            1182.05
          ],
          [
            0.918566,
            42.822496,
            1182.29
          ],
          [
            0.918617,
            42.822563,
            1182.89
          ],
          [
            0.918671,
            42.822696,
            1184.28
          ],
          [
            0.918776,
            42.822764,
            1185.36
          ],
          [
            0.919237,
            42.822795,
            1188.55
          ],
          [
            0.919698,
            42.822945,
            1192.9
          ],
          [
            0.919887,
            42.822996,
            1194.17
          ],
          [
            0.91998,
            42.823005,
            1194.75
          ],
          [
            0.920041,
            42.823039,
            1195.24
          ],
          [
            0.919934,
            42.823081,
            1196.05
          ],
          [
            0.919832,
            42.823095,
            1196.83
          ],
          [
            0.919731,
            42.823084,
            1197.65
          ],
          [
            0.919497,
            42.822996,
            1199.92
          ],
          [
            0.91932,
            42.822974,
            1201.43
          ],
          [
            0.919169,
            42.822995,
            1202.7
          ],
          [
            0.918794,
            42.823086,
            1205.06
          ],
          [
            0.918036,
            42.82305,
            1209.99
          ],
          [
            0.917209,
            42.822885,
            1213.99
          ],
          [
            0.917163,
            42.822922,
            1214.32
          ],
          [
            0.917188,
            42.822967,
            1214.65
          ],
          [
            0.917433,
            42.823,
            1215.96
          ],
          [
            0.918021,
            42.823171,
            1220.73
          ],
          [
            0.918349,
            42.823235,
            1223.16
          ],
          [
            0.918375,
            42.823259,
            1223.49
          ],
          [
            0.918358,
            42.823272,
            1223.7
          ],
          [
            0.916523,
            42.8232,
            1237.45
          ],
          [
            0.916533,
            42.823245,
            1237.9
          ],
          [
            0.916683,
            42.823275,
            1239.01
          ],
          [
            0.916848,
            42.82329,
            1240.19
          ],
          [
            0.917058,
            42.823331,
            1241.99
          ],
          [
            0.917842,
            42.823522,
            1247.11
          ],
          [
            0.918042,
            42.823527,
            1247.88
          ],
          [
            0.918313,
            42.823453,
            1248.93
          ],
          [
            0.918491,
            42.823432,
            1249.83
          ],
          [
            0.918598,
            42.823445,
            1250.37
          ],
          [
            0.918694,
            42.823478,
            1250.75
          ],
          [
            0.918911,
            42.823571,
            1251.04
          ],
          [
            0.919215,
            42.823709,
            1251.58
          ],
          [
            0.919334,
            42.823726,
            1252.09
          ],
          [
            0.919424,
            42.823719,
            1252.41
          ],
          [
            0.919772,
            42.823654,
            1253.11
          ],
          [
            0.919876,
            42.823657,
            1253.67
          ],
          [
            0.920163,
            42.823725,
            1255.34
          ],
          [
            0.920265,
            42.823719,
            1255.78
          ],
          [
            0.920408,
            42.823635,
            1256.68
          ],
          [
            0.920459,
            42.823642,
            1256.98
          ],
          [
            0.920473,
            42.82368,
            1257.32
          ],
          [
            0.920416,
            42.823722,
            1257.89
          ],
          [
            0.920292,
            42.823771,
            1259.02
          ],
          [
            0.920164,
            42.823792,
            1260.15
          ],
          [
            0.919711,
            42.823772,
            1264.69
          ],
          [
            0.919441,
            42.8238,
            1267.64
          ],
          [
            0.919261,
            42.823831,
            1269.06
          ],
          [
            0.919049,
            42.823852,
            1270.72
          ],
          [
            0.918647,
            42.823824,
            1274.67
          ],
          [
            0.918347,
            42.823703,
            1277.81
          ],
          [
            0.918281,
            42.823712,
            1278.29
          ],
          [
            0.918474,
            42.82385,
            1279.89
          ],
          [
            0.918679,
            42.823924,
            1281.2
          ],
          [
            0.919936,
            42.824032,
            1288.14
          ],
          [
            0.920403,
            42.824129,
            1292.15
          ],
          [
            0.920508,
            42.824206,
            1293.34
          ],
          [
            0.92038,
            42.824219,
            1294.42
          ],
          [
            0.91967,
            42.82419,
            1300.65
          ],
          [
            0.918874,
            42.824173,
            1307.75
          ],
          [
            0.918807,
            42.824219,
            1308.47
          ],
          [
            0.918866,
            42.824275,
            1309.2
          ],
          [
            0.919913,
            42.82439,
            1315.04
          ],
          [
            0.920219,
            42.824474,
            1316.86
          ],
          [
            0.920286,
            42.82454,
            1317.65
          ],
          [
            0.920125,
            42.824556,
            1318.92
          ],
          [
            0.918966,
            42.824487,
            1328.07
          ],
          [
            0.918598,
            42.824377,
            1330.83
          ],
          [
            0.918154,
            42.8243,
            1334.76
          ],
          [
            0.918031,
            42.824315,
            1335.82
          ],
          [
            0.918006,
            42.824382,
            1336.75
          ],
          [
            0.918179,
            42.824489,
            1339.65
          ],
          [
            0.918703,
            42.824622,
            1347.15
          ],
          [
            0.918813,
            42.824693,
            1348.79
          ],
          [
            0.918682,
            42.824722,
            1349.92
          ],
          [
            0.918299,
            42.824665,
            1351.97
          ],
          [
            0.917674,
            42.824612,
            1352.94
          ],
          [
            0.917053,
            42.824609,
            1350.05
          ],
          [
            0.916188,
            42.824502,
            1349.96
          ],
          [
            0.916041,
            42.824544,
            1350.81
          ],
          [
            0.916095,
            42.824609,
            1351.51
          ],
          [
            0.916507,
            42.824683,
            1355.66
          ],
          [
            0.916816,
            42.824711,
            1360.56
          ],
          [
            0.917155,
            42.824757,
            1366.42
          ],
          [
            0.917436,
            42.824819,
            1370.72
          ],
          [
            0.917965,
            42.824954,
            1379.14
          ],
          [
            0.91832,
            42.825061,
            1384.25
          ],
          [
            0.918667,
            42.825176,
            1387.82
          ],
          [
            0.919964,
            42.825457,
            1386.36
          ],
          [
            0.920394,
            42.825537,
            1386.26
          ],
          [
            0.920819,
            42.82564,
            1387.89
          ],
          [
            0.921241,
            42.825689,
            1390.8
          ],
          [
            0.921461,
            42.82574,
            1393.09
          ],
          [
            0.921713,
            42.825735,
            1395.55
          ],
          [
            0.922178,
            42.82586,
            1399.98
          ],
          [
            0.922505,
            42.825968,
            1402.89
          ],
          [
            0.92334,
            42.826152,
            1406.96
          ],
          [
            0.92394,
            42.826246,
            1408.35
          ],
          [
            0.924249,
            42.826279,
            1410.2
          ],
          [
            0.924389,
            42.826351,
            1411.4
          ],
          [
            0.924389,
            42.826351,
            1411.4
          ],
          [
            0.924249,
            42.826279,
            1410.2
          ],
          [
            0.92394,
            42.826246,
            1408.35
          ],
          [
            0.92334,
            42.826152,
            1406.96
          ],
          [
            0.922505,
            42.825968,
            1402.89
          ],
          [
            0.922178,
            42.82586,
            1399.98
          ],
          [
            0.921713,
            42.825735,
            1395.55
          ],
          [
            0.921461,
            42.82574,
            1393.09
          ],
          [
            0.921241,
            42.825689,
            1390.8
          ],
          [
            0.920819,
            42.82564,
            1387.89
          ],
          [
            0.920394,
            42.825537,
            1386.26
          ],
          [
            0.919964,
            42.825457,
            1386.36
          ],
          [
            0.918667,
            42.825176,
            1387.82
          ],
          [
            0.91832,
            42.825061,
            1384.25
          ],
          [
            0.917965,
            42.824954,
            1379.14
          ],
          [
            0.917436,
            42.824819,
            1370.72
          ],
          [
            0.917155,
            42.824757,
            1366.42
          ],
          [
            0.916816,
            42.824711,
            1360.56
          ],
          [
            0.916507,
            42.824683,
            1355.66
          ],
          [
            0.916095,
            42.824609,
            1351.51
          ],
          [
            0.916041,
            42.824544,
            1350.81
          ],
          [
            0.916188,
            42.824502,
            1349.96
          ],
          [
            0.917053,
            42.824609,
            1350.05
          ],
          [
            0.917674,
            42.824612,
            1352.94
          ],
          [
            0.918299,
            42.824665,
            1351.97
          ],
          [
            0.918682,
            42.824722,
            1349.92
          ],
          [
            0.918813,
            42.824693,
            1348.79
          ],
          [
            0.918703,
            42.824622,
            1347.15
          ],
          [
            0.918179,
            42.824489,
            1339.65
          ],
          [
            0.918006,
            42.824382,
            1336.75
          ],
          [
            0.918031,
            42.824315,
            1335.82
          ],
          [
            0.918154,
            42.8243,
            1334.76
          ],
          [
            0.918598,
            42.824377,
            1330.83
          ],
          [
            0.918966,
            42.824487,
            1328.07
          ],
          [
            0.920125,
            42.824556,
            1318.92
          ],
          [
            0.920286,
            42.82454,
            1317.65
          ],
          [
            0.920219,
            42.824474,
            1316.86
          ],
          [
            0.919913,
            42.82439,
            1315.04
          ],
          [
            0.918866,
            42.824275,
            1309.2
          ],
          [
            0.918807,
            42.824219,
            1308.47
          ],
          [
            0.918874,
            42.824173,
            1307.75
          ],
          [
            0.91967,
            42.82419,
            1300.65
          ],
          [
            0.92038,
            42.824219,
            1294.42
          ],
          [
            0.920508,
            42.824206,
            1293.34
          ],
          [
            0.920403,
            42.824129,
            1292.15
          ],
          [
            0.919936,
            42.824032,
            1288.14
          ],
          [
            0.918679,
            42.823924,
            1281.2
          ],
          [
            0.918474,
            42.82385,
            1279.89
          ],
          [
            0.918281,
            42.823712,
            1278.29
          ],
          [
            0.918347,
            42.823703,
            1277.81
          ],
          [
            0.918647,
            42.823824,
            1274.67
          ],
          [
            0.919049,
            42.823852,
            1270.72
          ],
          [
            0.919261,
            42.823831,
            1269.06
          ],
          [
            0.919441,
            42.8238,
            1267.64
          ],
          [
            0.919711,
            42.823772,
            1264.69
          ],
          [
            0.920164,
            42.823792,
            1260.15
          ],
          [
            0.920292,
            42.823771,
            1259.02
          ],
          [
            0.920416,
            42.823722,
            1257.89
          ],
          [
            0.920473,
            42.82368,
            1257.32
          ],
          [
            0.920459,
            42.823642,
            1256.98
          ],
          [
            0.920408,
            42.823635,
            1256.68
          ],
          [
            0.920265,
            42.823719,
            1255.78
          ],
          [
            0.920163,
            42.823725,
            1255.34
          ],
          [
            0.919876,
            42.823657,
            1253.67
          ],
          [
            0.919772,
            42.823654,
            1253.11
          ],
          [
            0.919424,
            42.823719,
            1252.41
          ],
          [
            0.919334,
            42.823726,
            1252.09
          ],
          [
            0.919215,
            42.823709,
            1251.58
          ],
          [
            0.918911,
            42.823571,
            1251.04
          ],
          [
            0.918694,
            42.823478,
            1250.75
          ],
          [
            0.918598,
            42.823445,
            1250.37
          ],
          [
            0.918491,
            42.823432,
            1249.83
          ],
          [
            0.918313,
            42.823453,
            1248.93
          ],
          [
            0.918042,
            42.823527,
            1247.88
          ],
          [
            0.917842,
            42.823522,
            1247.11
          ],
          [
            0.917058,
            42.823331,
            1241.99
          ],
          [
            0.916848,
            42.82329,
            1240.19
          ],
          [
            0.916683,
            42.823275,
            1239.01
          ],
          [
            0.916533,
            42.823245,
            1237.9
          ],
          [
            0.916523,
            42.8232,
            1237.45
          ],
          [
            0.918358,
            42.823272,
            1223.7
          ],
          [
            0.918375,
            42.823259,
            1223.49
          ],
          [
            0.918349,
            42.823235,
            1223.16
          ],
          [
            0.918021,
            42.823171,
            1220.73
          ],
          [
            0.917433,
            42.823,
            1215.96
          ],
          [
            0.917188,
            42.822967,
            1214.65
          ],
          [
            0.917163,
            42.822922,
            1214.32
          ],
          [
            0.917209,
            42.822885,
            1213.99
          ],
          [
            0.918036,
            42.82305,
            1209.99
          ],
          [
            0.918794,
            42.823086,
            1205.06
          ],
          [
            0.919169,
            42.822995,
            1202.7
          ],
          [
            0.91932,
            42.822974,
            1201.43
          ],
          [
            0.919497,
            42.822996,
            1199.92
          ],
          [
            0.919731,
            42.823084,
            1197.65
          ],
          [
            0.919832,
            42.823095,
            1196.83
          ],
          [
            0.919934,
            42.823081,
            1196.05
          ],
          [
            0.920041,
            42.823039,
            1195.24
          ],
          [
            0.91998,
            42.823005,
            1194.75
          ],
          [
            0.919887,
            42.822996,
            1194.17
          ],
          [
            0.919698,
            42.822945,
            1192.9
          ],
          [
            0.919237,
            42.822795,
            1188.55
          ],
          [
            0.918776,
            42.822764,
            1185.36
          ],
          [
            0.918671,
            42.822696,
            1184.28
          ],
          [
            0.918617,
            42.822563,
            1182.89
          ],
          [
            0.918566,
            42.822496,
            1182.29
          ],
          [
            0.918488,
            42.822465,
            1182.05
          ],
          [
            0.918458,
            42.822428,
            1181.72
          ],
          [
            0.918472,
            42.822388,
            1180.42
          ],
          [
            0.918506,
            42.822371,
            1179.66
          ],
          [
            0.918558,
            42.822379,
            1179.49
          ],
          [
            0.918621,
            42.82243,
            1179.27
          ],
          [
            0.918936,
            42.822526,
            1177.82
          ],
          [
            0.919161,
            42.822574,
            1176.38
          ],
          [
            0.919316,
            42.822579,
            1175.29
          ],
          [
            0.919689,
            42.822675,
            1172.48
          ],
          [
            0.919859,
            42.822698,
            1171.12
          ],
          [
            0.920026,
            42.822703,
            1169.71
          ],
          [
            0.920137,
            42.822699,
            1168.74
          ],
          [
            0.920479,
            42.82272,
            1165.82
          ],
          [
            0.920662,
            42.822712,
            1164.29
          ],
          [
            0.920844,
            42.822735,
            1162.73
          ],
          [
            0.921376,
            42.822897,
            1158.41
          ],
          [
            0.92157,
            42.822982,
            1156.89
          ],
          [
            0.921698,
            42.823072,
            1155.68
          ],
          [
            0.921779,
            42.823106,
            1155.0
          ],
          [
            0.922022,
            42.823159,
            1153.07
          ],
          [
            0.922397,
            42.823218,
            1150.13
          ],
          [
            0.922793,
            42.823262,
            1146.85
          ],
          [
            0.922963,
            42.823307,
            1145.48
          ],
          [
            0.923549,
            42.823412,
            1141.39
          ],
          [
            0.923996,
            42.823443,
            1138.58
          ],
          [
            0.924996,
            42.823416,
            1131.72
          ],
          [
            0.925446,
            42.823377,
            1128.07
          ],
          [
            0.925672,
            42.823271,
            1126.0
          ],
          [
            0.926126,
            42.823177,
            1122.52
          ],
          [
            0.926453,
            42.823167,
            1120.17
          ],
          [
            0.927032,
            42.823187,
            1116.15
          ],
          [
            0.927365,
            42.823181,
            1113.68
          ],
          [
            0.92756,
            42.823137,
            1112.06
          ],
          [
            0.927985,
            42.823165,
            1108.5
          ],
          [
            0.92822,
            42.823133,
            1106.48
          ],
          [
            0.928554,
            42.82318,
            1103.56
          ],
          [
            0.928949,
            42.823256,
            1100.09
          ],
          [
            0.930356,
            42.823734,
            1089.14
          ],
          [
            0.93086,
            42.823841,
            1085.82
          ],
          [
            0.931089,
            42.823862,
            1084.32
          ],
          [
            0.931226,
            42.823919,
            1083.25
          ],
          [
            0.931465,
            42.823917,
            1081.64
          ],
          [
            0.931744,
            42.823945,
            1080.03
          ],
          [
            0.932098,
            42.823924,
            1077.56
          ],
          [
            0.932309,
            42.823987,
            1075.73
          ],
          [
            0.932645,
            42.824117,
            1072.06
          ],
          [
            0.93294,
            42.824319,
            1069.44
          ],
          [
            0.933129,
            42.824429,
            1067.52
          ],
          [
            0.933392,
            42.824612,
            1065.04
          ],
          [
            0.933565,
            42.824638,
            1063.89
          ],
          [
            0.933665,
            42.824675,
            1063.15
          ],
          [
            0.933909,
            42.824856,
            1060.5
          ],
          [
            0.934234,
            42.825036,
            1058.27
          ],
          [
            0.9344,
            42.825042,
            1053.22
          ],
          [
            0.934548,
            42.82506,
            1050.29
          ],
          [
            0.934747,
            42.825141,
            1047.86
          ],
          [
            0.935346,
            42.825426,
            1037.88
          ],
          [
            0.935402,
            42.82547,
            1036.65
          ],
          [
            0.935465,
            42.825702,
            1028.92
          ],
          [
            0.93548,
            42.825722,
            1027.94
          ],
          [
            0.935617,
            42.825793,
            1030.12
          ],
          [
            0.935641,
            42.825823,
            1029.64
          ],
          [
            0.935623,
            42.825877,
            1026.78
          ],
          [
            0.935576,
            42.825949,
            1022.92
          ],
          [
            0.935542,
            42.826046,
            1019.34
          ],
          [
            0.935594,
            42.826349,
            1012.35
          ],
          [
            0.935742,
            42.826485,
            1008.86
          ],
          [
            0.93583,
            42.826661,
            1005.4
          ],
          [
            0.935854,
            42.82704,
            1000.73
          ],
          [
            0.935918,
            42.827329,
            998.08
          ],
          [
            0.935998,
            42.827525,
            997.09
          ],
          [
            0.936095,
            42.82766,
            997.24
          ],
          [
            0.936438,
            42.827854,
            999.23
          ],
          [
            0.936902,
            42.828026,
            1001.07
          ],
          [
            0.937186,
            42.828285,
            999.55
          ],
          [
            0.937252,
            42.82858,
            994.66
          ],
          [
            0.937252,
            42.8288,
            988.87
          ],
          [
            0.93711,
            42.829201,
            976.43
          ],
          [
            0.937043,
            42.829306,
            973.51
          ],
          [
            0.936782,
            42.829628,
            966.39
          ],
          [
            0.936794,
            42.829861,
            963.43
          ],
          [
            0.936761,
            42.830142,
            961.64
          ],
          [
            0.936781,
            42.830226,
            961.48
          ],
          [
            0.936932,
            42.830441,
            961.25
          ],
          [
            0.937055,
            42.830541,
            961.15
          ],
          [
            0.937195,
            42.830626,
            961.18
          ],
          [
            0.937233,
            42.830675,
            961.37
          ],
          [
            0.937351,
            42.831017,
            962.47
          ],
          [
            0.937346,
            42.8311,
            960.68
          ],
          [
            0.937315,
            42.831247,
            955.69
          ],
          [
            0.937304,
            42.831487,
            949.46
          ],
          [
            0.937331,
            42.831571,
            948.47
          ],
          [
            0.937386,
            42.831651,
            948.44
          ],
          [
            0.937713,
            42.831938,
            948.44
          ],
          [
            0.937794,
            42.832039,
            948.03
          ],
          [
            0.93799,
            42.83257,
            944.19
          ],
          [
            0.937973,
            42.83262,
            943.08
          ],
          [
            0.937973,
            42.832665,
            942.23
          ],
          [
            0.938006,
            42.832718,
            941.03
          ],
          [
            0.938014,
            42.832754,
            940.22
          ],
          [
            0.937981,
            42.83282,
            938.74
          ],
          [
            0.937949,
            42.832841,
            938.08
          ],
          [
            0.937744,
            42.832899,
            934.72
          ],
          [
            0.937614,
            42.83296,
            934.1
          ],
          [
            0.937608,
            42.83298,
            933.91
          ],
          [
            0.937614,
            42.833005,
            933.69
          ],
          [
            0.937886,
            42.833526,
            928.6
          ],
          [
            0.937926,
            42.833631,
            927.81
          ],
          [
            0.937957,
            42.83392,
            924.62
          ],
          [
            0.937921,
            42.834284,
            921.92
          ],
          [
            0.937929,
            42.83443,
            920.85
          ],
          [
            0.937961,
            42.834601,
            919.65
          ],
          [
            0.937998,
            42.834729,
            918.82
          ],
          [
            0.938092,
            42.834897,
            917.68
          ],
          [
            0.938304,
            42.835253,
            915.33
          ],
          [
            0.938353,
            42.835326,
            914.81
          ],
          [
            0.938427,
            42.835405,
            914.18
          ],
          [
            0.938463,
            42.835458,
            913.79
          ],
          [
            0.938512,
            42.835577,
            912.94
          ],
          [
            0.938554,
            42.835787,
            911.43
          ],
          [
            0.938617,
            42.836238,
            907.84
          ],
          [
            0.938644,
            42.836347,
            906.88
          ],
          [
            0.938701,
            42.836927,
            901.94
          ],
          [
            0.93869,
            42.837103,
            900.46
          ],
          [
            0.938627,
            42.837293,
            899.15
          ],
          [
            0.938488,
            42.837479,
            897.41
          ],
          [
            0.938261,
            42.837714,
            895.68
          ],
          [
            0.938162,
            42.837774,
            895.86
          ],
          [
            0.938122,
            42.837879,
            895.59
          ],
          [
            0.938103,
            42.838001,
            895.12
          ],
          [
            0.938111,
            42.838068,
            894.62
          ],
          [
            0.93814,
            42.83813,
            894.04
          ],
          [
            0.938271,
            42.838338,
            891.99
          ],
          [
            0.938414,
            42.838534,
            890.22
          ],
          [
            0.938517,
            42.838614,
            889.24
          ],
          [
            0.938907,
            42.83885,
            885.91
          ],
          [
            0.938995,
            42.838939,
            884.99
          ],
          [
            0.939024,
            42.839033,
            884.26
          ],
          [
            0.939025,
            42.83918,
            883.15
          ],
          [
            0.939007,
            42.839437,
            881.31
          ],
          [
            0.938968,
            42.839536,
            880.61
          ],
          [
            0.938454,
            42.840268,
            876.16
          ],
          [
            0.938189,
            42.840699,
            873.7
          ],
          [
            0.938129,
            42.840831,
            872.94
          ],
          [
            0.938085,
            42.841007,
            871.95
          ],
          [
            0.937949,
            42.841676,
            867.89
          ],
          [
            0.937901,
            42.841819,
            866.82
          ],
          [
            0.93808,
            42.841865,
            866.5
          ],
          [
            0.937983,
            42.842115,
            865.13
          ],
          [
            0.937931,
            42.842578,
            862.67
          ],
          [
            0.937916,
            42.842607,
            862.52
          ],
          [
            0.937926,
            42.842642,
            862.28
          ],
          [
            0.937897,
            42.843313,
            859.12
          ],
          [
            0.937813,
            42.84424,
            855.28
          ],
          [
            0.937714,
            42.844592,
            853.84
          ],
          [
            0.937604,
            42.845047,
            851.83
          ],
          [
            0.937503,
            42.846021,
            846.41
          ],
          [
            0.93744,
            42.846284,
            844.4
          ],
          [
            0.937261,
            42.846515,
            842.16
          ],
          [
            0.937223,
            42.846579,
            841.92
          ],
          [
            0.937215,
            42.846661,
            841.48
          ],
          [
            0.937323,
            42.846879,
            840.39
          ],
          [
            0.937473,
            42.847384,
            837.81
          ],
          [
            0.937524,
            42.847631,
            836.62
          ],
          [
            0.937503,
            42.847855,
            835.61
          ],
          [
            0.93704,
            42.849072,
            831.87
          ],
          [
            0.936818,
            42.849407,
            829.95
          ],
          [
            0.936535,
            42.849756,
            827.49
          ],
          [
            0.936354,
            42.850152,
            825.7
          ],
          [
            0.936234,
            42.850444,
            824.57
          ],
          [
            0.936191,
            42.850955,
            822.33
          ],
          [
            0.935717,
            42.85163,
            818.32
          ],
          [
            0.935654,
            42.85167,
            818.05
          ],
          [
            0.93552,
            42.851708,
            818.34
          ],
          [
            0.935467,
            42.851743,
            818.26
          ],
          [
            0.935415,
            42.851816,
            817.91
          ],
          [
            0.935196,
            42.852073,
            817.04
          ],
          [
            0.934514,
            42.852695,
            816.25
          ],
          [
            0.934416,
            42.852856,
            815.42
          ],
          [
            0.934425,
            42.852939,
            814.98
          ],
          [
            0.934476,
            42.853018,
            814.47
          ],
          [
            0.934716,
            42.85321,
            812.51
          ],
          [
            0.935164,
            42.853518,
            807.92
          ],
          [
            0.93531,
            42.853628,
            806.62
          ],
          [
            0.935375,
            42.853743,
            806.32
          ],
          [
            0.935368,
            42.853852,
            806.07
          ],
          [
            0.935091,
            42.854388,
            806.97
          ],
          [
            0.935081,
            42.854485,
            806.98
          ],
          [
            0.935142,
            42.854575,
            807.23
          ],
          [
            0.935612,
            42.854978,
            804.63
          ],
          [
            0.935916,
            42.85521,
            801.6
          ],
          [
            0.936006,
            42.855365,
            800.49
          ],
          [
            0.936087,
            42.855566,
            799.61
          ],
          [
            0.936212,
            42.855967,
            797.64
          ],
          [
            0.936808,
            42.857061,
            793.95
          ],
          [
            0.936845,
            42.857161,
            793.6
          ],
          [
            0.936866,
            42.857274,
            793.22
          ],
          [
            0.93673,
            42.858407,
            789.88
          ],
          [
            0.936744,
            42.858545,
            789.65
          ],
          [
            0.937135,
            42.859854,
            788.25
          ],
          [
            0.937221,
            42.859983,
            788.08
          ],
          [
            0.93741,
            42.860193,
            786.5
          ],
          [
            0.93783,
            42.860587,
            783.23
          ],
          [
            0.938129,
            42.860947,
            781.84
          ],
          [
            0.938195,
            42.861102,
            781.82
          ],
          [
            0.938195,
            42.861226,
            781.91
          ],
          [
            0.938038,
            42.861638,
            782.54
          ],
          [
            0.938029,
            42.861754,
            782.69
          ],
          [
            0.93807,
            42.862034,
            782.57
          ],
          [
            0.938115,
            42.862139,
            782.25
          ],
          [
            0.938231,
            42.86232,
            781.4
          ],
          [
            0.938473,
            42.86266,
            779.31
          ],
          [
            0.938619,
            42.863045,
            777.2
          ],
          [
            0.938687,
            42.863187,
            776.46
          ],
          [
            0.938836,
            42.863425,
            775.44
          ],
          [
            0.938994,
            42.86362,
            774.33
          ],
          [
            0.939227,
            42.863822,
            771.94
          ],
          [
            0.939743,
            42.864376,
            768.67
          ],
          [
            0.940029,
            42.864708,
            766.88
          ],
          [
            0.940245,
            42.865092,
            764.82
          ],
          [
            0.940478,
            42.86557,
            762.01
          ],
          [
            0.940402,
            42.865594,
            762.12
          ],
          [
            0.940346,
            42.865624,
            762.12
          ],
          [
            0.94023,
            42.865658,
            762.68
          ],
          [
            0.94011,
            42.86568,
            763.42
          ],
          [
            0.939953,
            42.865685,
            764.71
          ],
          [
            0.939631,
            42.865654,
            768.25
          ],
          [
            0.939272,
            42.865636,
            770.89
          ],
          [
            0.93894,
            42.865635,
            772.47
          ],
          [
            0.93886,
            42.865653,
            772.77
          ],
          [
            0.938796,
            42.86569,
            773.05
          ],
          [
            0.938734,
            42.865741,
            773.34
          ],
          [
            0.938204,
            42.866434,
            773.67
          ],
          [
            0.938133,
            42.866599,
            773.95
          ],
          [
            0.938085,
            42.866784,
            774.89
          ],
          [
            0.937901,
            42.867095,
            777.48
          ],
          [
            0.937816,
            42.867199,
            778.62
          ],
          [
            0.937702,
            42.867265,
            779.82
          ],
          [
            0.937318,
            42.867461,
            784.38
          ],
          [
            0.937205,
            42.867494,
            785.48
          ],
          [
            0.937098,
            42.867502,
            786.42
          ],
          [
            0.93677,
            42.86748,
            788.85
          ],
          [
            0.936159,
            42.867468,
            791.99
          ],
          [
            0.936069,
            42.867453,
            792.31
          ],
          [
            0.935984,
            42.867423,
            792.56
          ],
          [
            0.935927,
            42.867357,
            792.72
          ],
          [
            0.935822,
            42.867182,
            792.87
          ],
          [
            0.935679,
            42.866973,
            793.23
          ],
          [
            0.935558,
            42.866853,
            793.75
          ],
          [
            0.935403,
            42.866771,
            794.57
          ],
          [
            0.934926,
            42.866557,
            797.74
          ],
          [
            0.934791,
            42.866459,
            798.48
          ],
          [
            0.934566,
            42.866328,
            799.74
          ],
          [
            0.934463,
            42.866309,
            800.61
          ],
          [
            0.934353,
            42.866298,
            801.6
          ],
          [
            0.934121,
            42.866322,
            802.18
          ],
          [
            0.93394,
            42.866358,
            800.78
          ],
          [
            0.933768,
            42.866428,
            799.7
          ],
          [
            0.933631,
            42.86646,
            801.08
          ],
          [
            0.933517,
            42.866477,
            801.56
          ],
          [
            0.932836,
            42.86663,
            801.1
          ],
          [
            0.932603,
            42.866704,
            801.21
          ],
          [
            0.932366,
            42.866811,
            801.65
          ],
          [
            0.932208,
            42.866851,
            802.14
          ],
          [
            0.932036,
            42.866862,
            802.74
          ],
          [
            0.93168,
            42.866861,
            804.14
          ],
          [
            0.931358,
            42.866871,
            805.59
          ],
          [
            0.930941,
            42.866904,
            807.92
          ],
          [
            0.930802,
            42.866934,
            808.37
          ],
          [
            0.930685,
            42.866985,
            808.66
          ],
          [
            0.930603,
            42.867047,
            808.78
          ],
          [
            0.93047,
            42.867178,
            809.18
          ],
          [
            0.930395,
            42.867237,
            810.6
          ],
          [
            0.930232,
            42.867277,
            811.27
          ],
          [
            0.92982,
            42.867309,
            812.69
          ],
          [
            0.929633,
            42.867355,
            813.45
          ],
          [
            0.929486,
            42.867407,
            814.12
          ],
          [
            0.928984,
            42.86766,
            818.15
          ],
          [
            0.928795,
            42.867714,
            818.33
          ],
          [
            0.928358,
            42.867777,
            818.57
          ],
          [
            0.928229,
            42.867783,
            818.59
          ],
          [
            0.927785,
            42.867717,
            820.42
          ],
          [
            0.927677,
            42.867731,
            820.86
          ],
          [
            0.927575,
            42.867753,
            821.35
          ],
          [
            0.927474,
            42.867788,
            821.7
          ],
          [
            0.927381,
            42.867849,
            822.16
          ],
          [
            0.927181,
            42.867945,
            824.48
          ],
          [
            0.927029,
            42.867989,
            825.84
          ],
          [
            0.926907,
            42.868002,
            826.13
          ],
          [
            0.926677,
            42.867978,
            826.56
          ],
          [
            0.926486,
            42.867967,
            827.44
          ],
          [
            0.925919,
            42.867972,
            830.21
          ],
          [
            0.925692,
            42.86799,
            831.5
          ],
          [
            0.925401,
            42.867973,
            833.23
          ],
          [
            0.925259,
            42.867934,
            834.1
          ],
          [
            0.925118,
            42.867929,
            834.89
          ],
          [
            0.924649,
            42.867947,
            837.28
          ],
          [
            0.924315,
            42.867944,
            838.86
          ],
          [
            0.923899,
            42.867975,
            840.58
          ],
          [
            0.923778,
            42.867978,
            841.01
          ],
          [
            0.923428,
            42.868088,
            842.51
          ],
          [
            0.923335,
            42.868139,
            842.82
          ],
          [
            0.923188,
            42.868169,
            843.79
          ],
          [
            0.9231,
            42.868201,
            844.49
          ],
          [
            0.922939,
            42.868324,
            846.03
          ],
          [
            0.922886,
            42.86835,
            846.46
          ],
          [
            0.922787,
            42.868379,
            847.17
          ],
          [
            0.92274,
            42.868385,
            847.5
          ],
          [
            0.922706,
            42.868377,
            847.74
          ],
          [
            0.922669,
            42.868334,
            848.2
          ],
          [
            0.922579,
            42.868272,
            848.93
          ],
          [
            0.922501,
            42.868254,
            849.33
          ],
          [
            0.922381,
            42.868262,
            850.41
          ],
          [
            0.922209,
            42.868292,
            851.41
          ],
          [
            0.921821,
            42.868317,
            854.53
          ],
          [
            0.921675,
            42.868345,
            855.99
          ],
          [
            0.921478,
            42.868427,
            859.07
          ],
          [
            0.92132,
            42.868527,
            861.56
          ],
          [
            0.921167,
            42.868598,
            863.71
          ],
          [
            0.920959,
            42.868716,
            868.07
          ],
          [
            0.920807,
            42.86877,
            871.19
          ],
          [
            0.920662,
            42.868793,
            872.97
          ],
          [
            0.920449,
            42.868785,
            872.77
          ],
          [
            0.920153,
            42.86872,
            873.79
          ],
          [
            0.919817,
            42.868706,
            877.43
          ],
          [
            0.919494,
            42.868661,
            881.43
          ],
          [
            0.919028,
            42.868656,
            887.55
          ],
          [
            0.918813,
            42.868662,
            890.48
          ],
          [
            0.918565,
            42.868608,
            894.17
          ],
          [
            0.918014,
            42.868578,
            900.6
          ],
          [
            0.917561,
            42.868569,
            903.38
          ],
          [
            0.917032,
            42.86846,
            905.72
          ],
          [
            0.916663,
            42.86835,
            908.25
          ],
          [
            0.916398,
            42.868308,
            909.95
          ],
          [
            0.916167,
            42.868306,
            911.31
          ],
          [
            0.916057,
            42.868328,
            911.94
          ],
          [
            0.915707,
            42.868304,
            913.98
          ],
          [
            0.915301,
            42.868223,
            916.39
          ],
          [
            0.914583,
            42.86793,
            918.74
          ],
          [
            0.914131,
            42.867665,
            920.52
          ],
          [
            0.913914,
            42.867362,
            920.4
          ],
          [
            0.913763,
            42.867195,
            919.62
          ],
          [
            0.913652,
            42.867051,
            918.74
          ],
          [
            0.913567,
            42.866905,
            917.53
          ],
          [
            0.913443,
            42.866754,
            915.68
          ],
          [
            0.913268,
            42.866676,
            916.29
          ],
          [
            0.913204,
            42.866613,
            917.63
          ],
          [
            0.9132,
            42.866577,
            919.41
          ],
          [
            0.913252,
            42.866496,
            925.65
          ],
          [
            0.913285,
            42.866482,
            927.14
          ],
          [
            0.913381,
            42.866474,
            929.19
          ],
          [
            0.913571,
            42.866503,
            933.31
          ],
          [
            0.913887,
            42.8665,
            940.47
          ],
          [
            0.914163,
            42.866606,
            947.96
          ],
          [
            0.914548,
            42.866675,
            955.92
          ],
          [
            0.914885,
            42.866756,
            963.6
          ],
          [
            0.915036,
            42.866866,
            968.04
          ],
          [
            0.91508,
            42.866882,
            969.06
          ],
          [
            0.915139,
            42.866841,
            970.68
          ],
          [
            0.915128,
            42.866765,
            972.73
          ],
          [
            0.914998,
            42.866649,
            976.34
          ],
          [
            0.914755,
            42.866531,
            981.08
          ],
          [
            0.914611,
            42.866426,
            984.57
          ],
          [
            0.914493,
            42.866312,
            987.37
          ],
          [
            0.914252,
            42.866103,
            988.29
          ],
          [
            0.913987,
            42.865943,
            988.15
          ],
          [
            0.913527,
            42.865917,
            986.47
          ],
          [
            0.913026,
            42.865687,
            981.72
          ],
          [
            0.912893,
            42.865671,
            981.09
          ],
          [
            0.912559,
            42.865672,
            981.08
          ],
          [
            0.912329,
            42.865619,
            981.57
          ],
          [
            0.911951,
            42.865611,
            982.62
          ],
          [
            0.911258,
            42.865461,
            986.9
          ],
          [
            0.91091,
            42.865406,
            990.52
          ],
          [
            0.910701,
            42.865383,
            993.01
          ],
          [
            0.91028,
            42.865222,
            998.45
          ],
          [
            0.909887,
            42.86506,
            1004.53
          ],
          [
            0.908945,
            42.864874,
            1020.04
          ],
          [
            0.908866,
            42.864836,
            1021.34
          ],
          [
            0.908825,
            42.864826,
            1021.95
          ],
          [
            0.908719,
            42.864827,
            1023.46
          ],
          [
            0.908465,
            42.864806,
            1027.13
          ],
          [
            0.908278,
            42.864786,
            1029.68
          ],
          [
            0.90812,
            42.864756,
            1031.73
          ],
          [
            0.907795,
            42.864671,
            1035.09
          ],
          [
            0.90735,
            42.86452,
            1039.34
          ],
          [
            0.907198,
            42.864447,
            1040.77
          ],
          [
            0.907078,
            42.864292,
            1042.47
          ],
          [
            0.90683,
            42.864106,
            1044.2
          ],
          [
            0.906589,
            42.863837,
            1046.88
          ],
          [
            0.906451,
            42.863715,
            1048.19
          ],
          [
            0.9063,
            42.863536,
            1050.24
          ],
          [
            0.905984,
            42.863211,
            1055.1
          ],
          [
            0.905567,
            42.862896,
            1062.8
          ],
          [
            0.905146,
            42.862643,
            1068.62
          ],
          [
            0.905038,
            42.862631,
            1070.08
          ],
          [
            0.904935,
            42.862683,
            1071.83
          ],
          [
            0.904823,
            42.862689,
            1073.51
          ],
          [
            0.904435,
            42.862436,
            1080.06
          ],
          [
            0.904183,
            42.862155,
            1084.86
          ],
          [
            0.903904,
            42.861903,
            1088.95
          ],
          [
            0.903582,
            42.861428,
            1094.0
          ],
          [
            0.903513,
            42.861274,
            1095.88
          ],
          [
            0.903534,
            42.861066,
            1097.94
          ],
          [
            0.903598,
            42.860897,
            1099.65
          ],
          [
            0.903577,
            42.86079,
            1100.69
          ],
          [
            0.9034,
            42.860595,
            1102.84
          ],
          [
            0.903152,
            42.860172,
            1104.09
          ],
          [
            0.903024,
            42.859782,
            1106.16
          ],
          [
            0.902995,
            42.859572,
            1107.49
          ],
          [
            0.90304,
            42.859383,
            1110.62
          ],
          [
            0.902992,
            42.859252,
            1112.57
          ],
          [
            0.902912,
            42.859171,
            1110.9
          ],
          [
            0.902941,
            42.859108,
            1113.8
          ],
          [
            0.90289,
            42.858877,
            1118.3
          ],
          [
            0.902661,
            42.858164,
            1126.4
          ],
          [
            0.902486,
            42.857891,
            1130.1
          ],
          [
            0.902336,
            42.8576,
            1134.03
          ],
          [
            0.90219,
            42.857192,
            1142.98
          ],
          [
            0.90211,
            42.857143,
            1144.52
          ],
          [
            0.902107,
            42.85704,
            1146.46
          ],
          [
            0.902206,
            42.856947,
            1148.4
          ],
          [
            0.902206,
            42.856838,
            1149.98
          ],
          [
            0.902019,
            42.856667,
            1153.1
          ],
          [
            0.901123,
            42.856181,
            1165.41
          ],
          [
            0.900975,
            42.856047,
            1168.31
          ],
          [
            0.900599,
            42.855885,
            1173.91
          ],
          [
            0.899375,
            42.855646,
            1185.66
          ],
          [
            0.898711,
            42.855614,
            1190.85
          ],
          [
            0.898375,
            42.855632,
            1193.76
          ],
          [
            0.898201,
            42.855455,
            1195.96
          ],
          [
            0.898115,
            42.855332,
            1197.12
          ],
          [
            0.897797,
            42.855224,
            1198.81
          ],
          [
            0.897401,
            42.855417,
            1201.09
          ],
          [
            0.897216,
            42.855491,
            1202.04
          ],
          [
            0.896941,
            42.855529,
            1203.38
          ],
          [
            0.89641,
            42.855302,
            1208.26
          ],
          [
            0.89628,
            42.855213,
            1210.52
          ],
          [
            0.896248,
            42.855121,
            1212.37
          ],
          [
            0.896324,
            42.855041,
            1214.33
          ],
          [
            0.896643,
            42.854868,
            1217.9
          ],
          [
            0.896609,
            42.854798,
            1219.62
          ],
          [
            0.896475,
            42.854762,
            1221.23
          ],
          [
            0.89634,
            42.854762,
            1221.89
          ],
          [
            0.895787,
            42.854884,
            1224.41
          ],
          [
            0.895636,
            42.854942,
            1225.71
          ],
          [
            0.895524,
            42.854928,
            1226.31
          ],
          [
            0.895253,
            42.854724,
            1227.92
          ],
          [
            0.895164,
            42.854631,
            1228.51
          ],
          [
            0.895046,
            42.854616,
            1228.96
          ],
          [
            0.894942,
            42.854733,
            1229.86
          ],
          [
            0.894764,
            42.854805,
            1230.92
          ],
          [
            0.894608,
            42.854753,
            1231.7
          ],
          [
            0.894505,
            42.854824,
            1232.23
          ],
          [
            0.894364,
            42.85487,
            1232.71
          ],
          [
            0.894222,
            42.854863,
            1233.25
          ],
          [
            0.894079,
            42.854843,
            1234.19
          ],
          [
            0.893649,
            42.854592,
            1240.6
          ],
          [
            0.893456,
            42.854464,
            1245.22
          ],
          [
            0.893247,
            42.854263,
            1252.19
          ],
          [
            0.89294,
            42.853909,
            1264.23
          ],
          [
            0.892821,
            42.853805,
            1268.07
          ],
          [
            0.892664,
            42.853704,
            1271.78
          ],
          [
            0.892306,
            42.853635,
            1276.3
          ],
          [
            0.892138,
            42.853552,
            1277.59
          ],
          [
            0.891782,
            42.853679,
            1278.64
          ],
          [
            0.891478,
            42.853885,
            1279.85
          ],
          [
            0.891281,
            42.853925,
            1280.65
          ],
          [
            0.891088,
            42.853985,
            1281.89
          ],
          [
            0.890846,
            42.853745,
            1285.53
          ],
          [
            0.890668,
            42.853542,
            1289.97
          ],
          [
            0.890354,
            42.853421,
            1295.92
          ],
          [
            0.890024,
            42.853169,
            1302.97
          ],
          [
            0.889899,
            42.853039,
            1305.64
          ],
          [
            0.889845,
            42.852923,
            1307.69
          ],
          [
            0.88969,
            42.852859,
            1309.69
          ],
          [
            0.889061,
            42.852641,
            1314.31
          ],
          [
            0.888215,
            42.85257,
            1315.14
          ],
          [
            0.887714,
            42.852421,
            1315.85
          ],
          [
            0.887567,
            42.852417,
            1316.53
          ],
          [
            0.887431,
            42.852378,
            1317.42
          ],
          [
            0.88705,
            42.852147,
            1321.53
          ],
          [
            0.886802,
            42.851887,
            1327.07
          ],
          [
            0.886612,
            42.851628,
            1333.45
          ],
          [
            0.886501,
            42.851362,
            1340.33
          ],
          [
            0.886402,
            42.851233,
            1344.28
          ],
          [
            0.886584,
            42.851306,
            1348.45
          ],
          [
            0.886621,
            42.85125,
            1350.24
          ],
          [
            0.886547,
            42.851121,
            1354.34
          ],
          [
            0.886692,
            42.851168,
            1357.76
          ],
          [
            0.886677,
            42.851075,
            1360.55
          ],
          [
            0.886854,
            42.851146,
            1364.98
          ],
          [
            0.886781,
            42.85096,
            1370.33
          ],
          [
            0.886544,
            42.850654,
            1378.28
          ],
          [
            0.887137,
            42.850916,
            1388.86
          ],
          [
            0.887055,
            42.850744,
            1392.43
          ],
          [
            0.886515,
            42.850291,
            1407.39
          ],
          [
            0.886444,
            42.850203,
            1410.84
          ],
          [
            0.886304,
            42.850203,
            1407.26
          ],
          [
            0.886234,
            42.850191,
            1406.66
          ],
          [
            0.886083,
            42.850116,
            1405.93
          ],
          [
            0.885942,
            42.850058,
            1406.2
          ],
          [
            0.885864,
            42.849973,
            1406.52
          ],
          [
            0.885551,
            42.849683,
            1405.06
          ],
          [
            0.885372,
            42.849494,
            1403.95
          ],
          [
            0.885305,
            42.849466,
            1403.67
          ],
          [
            0.885213,
            42.849446,
            1403.29
          ],
          [
            0.885067,
            42.849346,
            1402.5
          ],
          [
            0.884987,
            42.849235,
            1401.77
          ],
          [
            0.884885,
            42.849169,
            1401.19
          ],
          [
            0.884773,
            42.849036,
            1400.46
          ],
          [
            0.884619,
            42.848791,
            1399.77
          ],
          [
            0.88451,
            42.848649,
            1399.73
          ],
          [
            0.884458,
            42.848505,
            1400.24
          ],
          [
            0.884233,
            42.848289,
            1399.93
          ],
          [
            0.884116,
            42.848213,
            1399.06
          ],
          [
            0.884078,
            42.848131,
            1401.46
          ],
          [
            0.884076,
            42.848046,
            1403.57
          ],
          [
            0.884065,
            42.848007,
            1404.04
          ],
          [
            0.884025,
            42.847958,
            1404.99
          ],
          [
            0.883948,
            42.847943,
            1406.19
          ],
          [
            0.883896,
            42.84789,
            1407.66
          ],
          [
            0.883785,
            42.847459,
            1417.25
          ],
          [
            0.883696,
            42.847275,
            1421.66
          ],
          [
            0.88362,
            42.847179,
            1424.36
          ],
          [
            0.883629,
            42.847122,
            1425.69
          ],
          [
            0.883551,
            42.846962,
            1429.3
          ],
          [
            0.883461,
            42.84671,
            1434.37
          ],
          [
            0.883409,
            42.846659,
            1435.64
          ],
          [
            0.883363,
            42.846573,
            1437.55
          ],
          [
            0.883184,
            42.84651,
            1440.6
          ],
          [
            0.883139,
            42.846486,
            1441.48
          ],
          [
            0.883114,
            42.846456,
            1442.22
          ],
          [
            0.883071,
            42.846467,
            1442.95
          ],
          [
            0.88302,
            42.84643,
            1444.1
          ],
          [
            0.882798,
            42.846373,
            1447.85
          ],
          [
            0.882692,
            42.846309,
            1450.0
          ],
          [
            0.882488,
            42.846263,
            1453.47
          ],
          [
            0.882387,
            42.846222,
            1455.53
          ],
          [
            0.882272,
            42.846201,
            1457.76
          ],
          [
            0.882269,
            42.846159,
            1458.89
          ],
          [
            0.882221,
            42.846108,
            1460.56
          ],
          [
            0.882165,
            42.846082,
            1461.9
          ],
          [
            0.882083,
            42.846009,
            1464.48
          ],
          [
            0.88208,
            42.845966,
            1465.66
          ],
          [
            0.882053,
            42.845907,
            1467.31
          ],
          [
            0.882123,
            42.845834,
            1469.64
          ],
          [
            0.88216,
            42.845782,
            1471.17
          ],
          [
            0.882266,
            42.845589,
            1476.56
          ],
          [
            0.882243,
            42.845502,
            1478.78
          ],
          [
            0.882275,
            42.845348,
            1482.56
          ],
          [
            0.882388,
            42.845281,
            1485.11
          ],
          [
            0.882549,
            42.845167,
            1489.04
          ],
          [
            0.882854,
            42.844935,
            1497.09
          ],
          [
            0.883133,
            42.844778,
            1504.41
          ],
          [
            0.883423,
            42.844687,
            1511.48
          ],
          [
            0.883486,
            42.844642,
            1513.47
          ],
          [
            0.883547,
            42.844569,
            1516.05
          ],
          [
            0.88374,
            42.844503,
            1520.74
          ],
          [
            0.883836,
            42.844487,
            1522.92
          ],
          [
            0.883965,
            42.844487,
            1525.78
          ],
          [
            0.883986,
            42.844451,
            1526.96
          ],
          [
            0.883965,
            42.844349,
            1530.05
          ],
          [
            0.883675,
            42.844212,
            1537.26
          ],
          [
            0.883357,
            42.843944,
            1546.2
          ],
          [
            0.883061,
            42.84365,
            1554.75
          ],
          [
            0.883032,
            42.84357,
            1556.67
          ],
          [
            0.882991,
            42.843402,
            1560.65
          ],
          [
            0.883032,
            42.843287,
            1563.44
          ],
          [
            0.882997,
            42.843149,
            1566.64
          ],
          [
            0.88296,
            42.843047,
            1569.03
          ],
          [
            0.882864,
            42.842936,
            1572.03
          ],
          [
            0.882821,
            42.84286,
            1573.89
          ],
          [
            0.882839,
            42.842821,
            1574.81
          ],
          [
            0.882812,
            42.842673,
            1578.09
          ],
          [
            0.882786,
            42.842629,
            1579.12
          ],
          [
            0.88279,
            42.842601,
            1579.74
          ],
          [
            0.882773,
            42.842562,
            1580.6
          ],
          [
            0.882742,
            42.842419,
            1583.58
          ],
          [
            0.882692,
            42.842274,
            1586.59
          ],
          [
            0.882601,
            42.841757,
            1597.85
          ],
          [
            0.88262,
            42.841644,
            1600.36
          ],
          [
            0.88265,
            42.841625,
            1600.99
          ],
          [
            0.882659,
            42.841597,
            1601.62
          ],
          [
            0.882707,
            42.841587,
            1602.39
          ],
          [
            0.88274,
            42.841477,
            1604.7
          ],
          [
            0.882944,
            42.841127,
            1613.72
          ],
          [
            0.883029,
            42.841022,
            1617.23
          ],
          [
            0.883103,
            42.8408,
            1623.18
          ],
          [
            0.8832,
            42.840748,
            1625.37
          ],
          [
            0.883354,
            42.84072,
            1628.11
          ],
          [
            0.88342,
            42.840688,
            1629.43
          ],
          [
            0.883482,
            42.840602,
            1631.62
          ],
          [
            0.883561,
            42.840271,
            1638.8
          ],
          [
            0.883545,
            42.840174,
            1640.98
          ],
          [
            0.883449,
            42.839907,
            1645.78
          ],
          [
            0.883419,
            42.839849,
            1646.83
          ],
          [
            0.883238,
            42.83975,
            1649.94
          ],
          [
            0.883205,
            42.839658,
            1651.94
          ],
          [
            0.883077,
            42.839594,
            1654.48
          ],
          [
            0.882809,
            42.839376,
            1661.72
          ],
          [
            0.88274,
            42.83919,
            1667.3
          ],
          [
            0.882675,
            42.839063,
            1670.82
          ],
          [
            0.882509,
            42.838859,
            1677.07
          ],
          [
            0.882482,
            42.838762,
            1679.8
          ],
          [
            0.882516,
            42.838679,
            1682.2
          ],
          [
            0.882474,
            42.838628,
            1683.76
          ],
          [
            0.882379,
            42.838625,
            1685.58
          ],
          [
            0.882317,
            42.838572,
            1687.34
          ],
          [
            0.882239,
            42.838469,
            1690.4
          ],
          [
            0.88222,
            42.838377,
            1692.92
          ],
          [
            0.882249,
            42.838296,
            1695.27
          ],
          [
            0.882294,
            42.838231,
            1697.27
          ],
          [
            0.882251,
            42.838194,
            1698.55
          ],
          [
            0.882253,
            42.838147,
            1699.73
          ],
          [
            0.882003,
            42.838009,
            1706.25
          ],
          [
            0.882023,
            42.837947,
            1708.19
          ],
          [
            0.882077,
            42.837926,
            1709.52
          ],
          [
            0.882099,
            42.837908,
            1710.22
          ],
          [
            0.882073,
            42.837843,
            1712.13
          ],
          [
            0.882005,
            42.83779,
            1714.14
          ],
          [
            0.881864,
            42.837745,
            1717.22
          ],
          [
            0.881824,
            42.837724,
            1718.22
          ],
          [
            0.881812,
            42.837621,
            1721.11
          ],
          [
            0.881757,
            42.837467,
            1725.69
          ],
          [
            0.881678,
            42.837409,
            1728.05
          ],
          [
            0.88157,
            42.837377,
            1730.57
          ],
          [
            0.881517,
            42.837343,
            1732.11
          ],
          [
            0.881452,
            42.837256,
            1735.16
          ],
          [
            0.881389,
            42.837193,
            1737.7
          ],
          [
            0.881321,
            42.837138,
            1740.1
          ],
          [
            0.881147,
            42.837019,
            1745.47
          ],
          [
            0.881078,
            42.83694,
            1748.37
          ],
          [
            0.881037,
            42.836848,
            1751.55
          ],
          [
            0.881033,
            42.836774,
            1754.03
          ],
          [
            0.880968,
            42.836707,
            1756.72
          ],
          [
            0.880745,
            42.836593,
            1762.61
          ],
          [
            0.880522,
            42.836348,
            1769.55
          ],
          [
            0.880407,
            42.836275,
            1771.48
          ],
          [
            0.88027,
            42.836238,
            1773.42
          ],
          [
            0.880123,
            42.83618,
            1776.12
          ],
          [
            0.88004,
            42.836117,
            1778.31
          ],
          [
            0.879651,
            42.836042,
            1786.62
          ],
          [
            0.879575,
            42.836038,
            1788.21
          ],
          [
            0.87956,
            42.835912,
            1792.18
          ],
          [
            0.879593,
            42.835852,
            1794.38
          ],
          [
            0.879534,
            42.835825,
            1796.14
          ],
          [
            0.87952,
            42.835757,
            1798.56
          ],
          [
            0.879444,
            42.835696,
            1801.63
          ],
          [
            0.879284,
            42.835615,
            1807.34
          ],
          [
            0.87938,
            42.835536,
            1811.65
          ],
          [
            0.879341,
            42.835487,
            1814.02
          ],
          [
            0.879305,
            42.83547,
            1815.32
          ],
          [
            0.879358,
            42.835385,
            1819.01
          ],
          [
            0.879417,
            42.835356,
            1821.04
          ],
          [
            0.879517,
            42.83529,
            1824.84
          ],
          [
            0.879526,
            42.835259,
            1826.02
          ],
          [
            0.879473,
            42.835253,
            1827.48
          ],
          [
            0.87939,
            42.835272,
            1829.9
          ],
          [
            0.879358,
            42.835248,
            1831.18
          ],
          [
            0.879401,
            42.835219,
            1832.83
          ],
          [
            0.87952,
            42.835181,
            1836.56
          ],
          [
            0.879565,
            42.835135,
            1838.88
          ],
          [
            0.87956,
            42.835111,
            1839.84
          ],
          [
            0.879529,
            42.835095,
            1840.97
          ],
          [
            0.879459,
            42.835082,
            1843.09
          ],
          [
            0.879293,
            42.834975,
            1849.79
          ],
          [
            0.87922,
            42.834943,
            1852.41
          ],
          [
            0.879227,
            42.83488,
            1854.98
          ],
          [
            0.879173,
            42.834741,
            1860.54
          ],
          [
            0.879094,
            42.834578,
            1868.01
          ],
          [
            0.879061,
            42.83437,
            1876.89
          ],
          [
            0.879023,
            42.834291,
            1879.75
          ],
          [
            0.879002,
            42.834258,
            1880.74
          ],
          [
            0.87894,
            42.834212,
            1881.67
          ],
          [
            0.878875,
            42.834117,
            1881.1
          ],
          [
            0.878834,
            42.834091,
            1881.32
          ],
          [
            0.878813,
            42.834087,
            1881.68
          ]
        ]
      }
    },
    {
      "type": "Feature",
      "properties": {
        "source": "Étang_dAraing.gpx",
        "type": "route"
      },
      "geometry": {
        "type": "LineString",
        "coordinates": [
          [
            0.937949,
            42.833845
          ],
          [
            0.937614,
            42.83296
          ],
          [
            0.937744,
            42.832899
          ],
          [
            0.93799,
            42.83257
          ],
          [
            0.918472,
            42.822388
          ],
          [
            0.924389,
            42.826351
          ],
          [
            0.924389,
            42.826351
          ],
          [
            0.937346,
            42.8311
          ],
          [
            0.93799,
            42.83257
          ],
          [
            0.937614,
            42.83296
          ],
          [
            0.937926,
            42.833631
          ],
          [
            0.937901,
            42.841819
          ],
          [
            0.93808,
            42.841865
          ],
          [
            0.937916,
            42.842607
          ],
          [
            0.940478,
            42.86557
          ],
          [
            0.902912,
            42.859171
          ],
          [
            0.878813,
            42.834087
          ]
        ]
      }
    }
  ]
}