{
  "type": "FeatureCollection",
  "features": [
    {
      "type": "Feature",
      "properties": {
        "name": "GraphHopper Track",
        "source": "Forêt_de_Barèges_H.gpx",
        "type": "track"
      },
      "geometry": {
        "type": "LineString",
        "coordinates": [
          [
            0.068212,
            42.898574,
            1260.51
          ],
          [
            0.068555,
            42.898575,
            1258.71
          ],
          [
            0.068582,
            42.898524,
            1256.7
          ],
          [
            0.068613,
            42.898519,
            1256.6
          ],
          [
            0.068733,
            42.898536,
            1256.8
          ],
          [
            0.068844,
            42.898569,
            1255.17
          ],
          [
            0.068858,
            42.89856,
            1254.91
          ],
          [
            0.068858,
            42.898547,
            1254.77
          ],
          [
            0.068784,
            42.898485,
            1253.93
          ],
          [
            0.068681,
            42.898343,
            1248.31
          ],
          [
            0.068712,
            42.898295,
            1246.79
          ],
          [
            0.0687,
            42.898262,
            1245.88
          ],
          [
            0.068674,
            42.898228,
            1245.18
          ],
          [
            0.068617,
            42.898203,
            1244.58
          ],
          [
            0.068018,
            42.898117,
            1241.02
          ],
          [
            0.067688,
            42.898102,
            1240.96
          ],
          [
            0.067679,
            42.897806,
            1235.33
          ],
          [
            0.067696,
            42.897747,
            1235.74
          ],
          [
            0.067614,
            42.897733,
            1235.37
          ],
          [
            0.067675,
            42.897616,
            1236.68
          ],
          [
            0.067672,
            42.897598,
            1236.84
          ],
          [
            0.067513,
            42.897454,
            1238.43
          ],
          [
            0.067403,
            42.897313,
            1242.21
          ],
          [
            0.067288,
            42.89716,
            1246.82
          ],
          [
            0.067219,
            42.89709,
            1249.38
          ],
          [
            0.067217,
            42.897073,
            1249.84
          ],
          [
            0.067288,
            42.897057,
            1251.31
          ],
          [
            0.067294,
            42.897045,
            1251.65
          ],
          [
            0.067117,
            42.896829,
            1258.15
          ],
          [
            0.067432,
            42.896939,
            1261.61
          ],
          [
            0.067599,
            42.897025,
            1262.03
          ],
          [
            0.06814,
            42.897135,
            1273.07
          ],
          [
            0.068592,
            42.897137,
            1286.76
          ],
          [
            0.068905,
            42.897101,
            1296.68
          ],
          [
            0.069403,
            42.897108,
            1311.25
          ],
          [
            0.069682,
            42.89707,
            1319.09
          ],
          [
            0.069956,
            42.897012,
            1325.32
          ],
          [
            0.070049,
            42.897032,
            1326.5
          ],
          [
            0.070445,
            42.896935,
            1331.51
          ],
          [
            0.070393,
            42.896822,
            1333.99
          ],
          [
            0.070353,
            42.896794,
            1334.29
          ],
          [
            0.070274,
            42.896768,
            1334.39
          ],
          [
            0.070202,
            42.896754,
            1334.33
          ],
          [
            0.069956,
            42.896739,
            1334.28
          ],
          [
            0.069826,
            42.896714,
            1333.94
          ],
          [
            0.069502,
            42.896614,
            1333.11
          ],
          [
            0.068882,
            42.89645,
            1329.17
          ],
          [
            0.068765,
            42.89637,
            1330.16
          ],
          [
            0.068613,
            42.896218,
            1332.39
          ],
          [
            0.068374,
            42.896051,
            1335.98
          ],
          [
            0.068109,
            42.895752,
            1341.79
          ],
          [
            0.068136,
            42.895693,
            1342.73
          ],
          [
            0.070127,
            42.89614,
            1356.96
          ],
          [
            0.070261,
            42.896142,
            1358.33
          ],
          [
            0.070134,
            42.896013,
            1362.13
          ],
          [
            0.068229,
            42.894992,
            1379.02
          ],
          [
            0.068012,
            42.894865,
            1381.04
          ],
          [
            0.067922,
            42.894784,
            1382.19
          ],
          [
            0.068053,
            42.894783,
            1383.31
          ],
          [
            0.068382,
            42.894881,
            1386.64
          ],
          [
            0.069447,
            42.895105,
            1396.69
          ],
          [
            0.071169,
            42.895573,
            1405.8
          ],
          [
            0.072349,
            42.89588,
            1411.98
          ],
          [
            0.073127,
            42.896021,
            1416.88
          ],
          [
            0.074289,
            42.896108,
            1427.24
          ],
          [
            0.074425,
            42.896104,
            1428.44
          ],
          [
            0.074474,
            42.89608,
            1428.94
          ],
          [
            0.074444,
            42.896049,
            1429.39
          ],
          [
            0.074259,
            42.896005,
            1430.99
          ],
          [
            0.073189,
            42.89564,
            1440.3
          ],
          [
            0.072833,
            42.895438,
            1444.91
          ],
          [
            0.07232,
            42.895105,
            1451.88
          ],
          [
            0.072301,
            42.895053,
            1452.51
          ],
          [
            0.072301,
            42.895053,
            1452.51
          ],
          [
            0.07232,
            42.895105,
            1451.88
          ],
          [
            0.072833,
            42.895438,
            1444.91
          ],
          [
            0.073189,
            42.89564,
            1440.3
          ],
          [
            0.074259,
            42.896005,
            1430.99
          ],
          [
            0.074444,
            42.896049,
            1429.39
          ],
          [
            0.074474,
            42.89608,
            1428.94
          ],
          [
            0.074425,
            42.896104,
            1428.44
          ],
          [
            0.074289,
            42.896108,
            1427.24
          ],
          [
            0.073127,
            42.896021,
            1416.88
          ],
          [
            0.072349,
            42.89588,
            1411.98
          ],
          [
            0.071169,
            42.895573,
            1405.8
          ],
          [
            0.069447,
            42.895105,
            1396.69
          ],
          [
            0.068382,
            42.894881,
            1386.64
          ],
          [
            0.068053,
            42.894783,
            1383.31
          ],
          [
            0.067922,
            42.894784,
            1382.19
          ],
          [
            0.068012,
            42.894865,
            1381.04
          ],
          [
            0.068229,
            42.894992,
            1379.02
          ],
          [
            0.070134,
            42.896013,
            1362.13
          ],
          [
            0.070261,
            42.896142,
            1358.33
          ],
          [
            0.070127,
            42.89614,
            1356.96
          ],
          [
            0.068136,
            42.895693,
            1342.73
          ],
          [
            0.068109,
            42.895752,
            1341.79
          ],
          [
            0.068374,
            42.896051,
            1335.98
          ],
          [
            0.068613,
            42.896218,
            1332.39
          ],
          [
            0.068765,
            42.89637,
            1330.16
          ],
          [
            0.068882,
            42.89645,
            1329.17
          ],
          [
            0.069222,
            42.896839,
            1321.31
          ],
          [
            0.069048,
            42.896806,
            1319.32
          ],
          [
            0.068283,
            42.896519,
            1310.93
          ],
          [
            0.068103,
            42.89649,
            1309.94
          ],
          [
            0.067955,
            42.89639,
            1309.27
          ],
          [
            0.067831,
            42.896289,
            1308.52
          ],
          [
            0.067617,
            42.896162,
            1306.43
          ],
          [
            0.067391,
            42.895898,
            1301.67
          ],
          [
            0.067286,
            42.895886,
            1300.53
          ],
          [
            0.067032,
            42.895912,
            1298.32
          ],
          [
            0.066616,
            42.895969,
            1295.1
          ],
          [
            0.066538,
            42.895855,
            1293.42
          ],
          [
            0.06649,
            42.895663,
            1290.88
          ],
          [
            0.066353,
            42.895576,
            1289.23
          ],
          [
            0.066154,
            42.895495,
            1287.5
          ],
          [
            0.066015,
            42.895458,
            1286.71
          ],
          [
            0.065911,
            42.895443,
            1286.02
          ],
          [
            0.065774,
            42.895543,
            1284.31
          ],
          [
            0.06557,
            42.895668,
            1280.65
          ],
          [
            0.065259,
            42.895659,
            1274.65
          ],
          [
            0.065004,
            42.895619,
            1272.58
          ],
          [
            0.064855,
            42.895662,
            1267.84
          ],
          [
            0.064521,
            42.895443,
            1275.34
          ],
          [
            0.064384,
            42.895198,
            1283.19
          ],
          [
            0.064263,
            42.895085,
            1286.3
          ],
          [
            0.064158,
            42.89497,
            1290.38
          ],
          [
            0.063998,
            42.894874,
            1293.93
          ],
          [
            0.0637,
            42.894663,
            1294.34
          ],
          [
            0.063578,
            42.894489,
            1292.85
          ],
          [
            0.063585,
            42.894083,
            1294.64
          ],
          [
            0.063473,
            42.893769,
            1296.63
          ],
          [
            0.063403,
            42.893711,
            1297.1
          ],
          [
            0.063271,
            42.893677,
            1297.64
          ],
          [
            0.062799,
            42.893675,
            1298.31
          ],
          [
            0.062365,
            42.8937,
            1301.57
          ],
          [
            0.06209,
            42.893762,
            1303.66
          ],
          [
            0.062079,
            42.893633,
            1304.34
          ],
          [
            0.062023,
            42.893491,
            1305.14
          ],
          [
            0.061933,
            42.893359,
            1306.67
          ],
          [
            0.061731,
            42.893271,
            1309.64
          ],
          [
            0.061564,
            42.893231,
            1312.4
          ],
          [
            0.061463,
            42.893185,
            1313.81
          ],
          [
            0.061428,
            42.893119,
            1314.56
          ],
          [
            0.061387,
            42.892821,
            1314.99
          ],
          [
            0.061348,
            42.892733,
            1315.19
          ],
          [
            0.061229,
            42.892685,
            1315.83
          ],
          [
            0.061111,
            42.89265,
            1316.94
          ],
          [
            0.06096,
            42.892685,
            1318.78
          ],
          [
            0.060846,
            42.892696,
            1320.2
          ],
          [
            0.060751,
            42.892631,
            1321.61
          ],
          [
            0.060685,
            42.89251,
            1322.82
          ],
          [
            0.060682,
            42.892341,
            1323.35
          ],
          [
            0.06084,
            42.892123,
            1323.72
          ],
          [
            0.060804,
            42.892065,
            1323.97
          ]
        ]
      }
    },
    {
      "type": "Feature",
      "properties": {
        "source": "Forêt_de_Barèges_H.gpx",
        "type": "route"
      },
      "geometry": {
        "type": "LineString",
        "coordinates": [
          [
            0.068212,
            42.898574
          ],
          [
            0.068555,
            42.898575
          ],
          [
            0.068681,
            42.898343
          ],
          [
            0.067688,
            42.898102
          ],
          [
            0.067696,
            42.897747
          ],
          [
            0.067614,
            42.897733
          ],
          [
            0.067513,
            42.897454
          ],
          [
            0.067403,
            42.897313
          ],
          [
            0.067117,
            42.896829
          ],
          [
            0.070445,
            42.896935
          ],
          [
            0.070261,
            42.896142
          ],
          [
            0.072301,
            42.895053
          ],
          [
            0.072301,
            42.895053
          ],
          [
            0.070261,
            42.896142
          ],
          [
            0.068882,
            42.89645
          ],
          [
            0.064855,
            42.895662
          ],
          [
            0.060804,
            42.892065
          ]
        ]
      }
    }
  ]
}