{
  "type": "FeatureCollection",
  "features": [
    {
      "type": "Feature",
      "properties": {
        "name": "GraphHopper Track",
        "source": "Vallée_Haut-Adour.gpx",
        "type": "track"
      },
      "geometry": {
        "type": "LineString",
        "coordinates": [
          [
            0.148488,
            43.065495,
            547.87
          ],
          [
            0.14883,
            43.065023,
            549.27
          ],
          [
            0.148868,
            43.065001,
            549.49
          ],
          [
            0.14884,
            43.064918,
            549.74
          ],
          [
            0.148952,
            43.064357,
            550.0
          ],
          [
            0.149107,
            43.064008,
            550.0
          ],
          [
            0.14925,
            43.063799,
            551.0
          ],
          [
            0.149371,
            43.063772,
            551.0
          ],
          [
            0.149649,
            43.063333,
            551.79
          ],
          [
            0.149732,
            43.063223,
            552.09
          ],
          [
            0.149965,
            43.063172,
            552.46
          ],
          [
            0.150015,
            43.063168,
            552.61
          ],
          [
            0.150029,
            43.063226,
            552.32
          ],
          [
            0.150087,
            43.063213,
            552.66
          ],
          [
            0.150158,
            43.063214,
            552.81
          ],
          [
            0.150225,
            43.063241,
            552.81
          ],
          [
            0.150465,
            43.063392,
            552.63
          ],
          [
            0.150542,
            43.063423,
            552.62
          ],
          [
            0.150738,
            43.063454,
            552.89
          ],
          [
            0.150937,
            43.063527,
            552.89
          ],
          [
            0.151714,
            43.063573,
            553.0
          ],
          [
            0.151727,
            43.063078,
            554.0
          ],
          [
            0.151666,
            43.063033,
            553.92
          ],
          [
            0.152044,
            43.062554,
            554.42
          ],
          [
            0.153245,
            43.061228,
            557.0
          ],
          [
            0.153532,
            43.060932,
            558.0
          ],
          [
            0.153572,
            43.060865,
            558.08
          ],
          [
            0.153577,
            43.060812,
            558.28
          ],
          [
            0.153558,
            43.060739,
            558.67
          ],
          [
            0.153703,
            43.060703,
            559.0
          ],
          [
            0.153708,
            43.060655,
            559.0
          ],
          [
            0.153752,
            43.060619,
            559.0
          ],
          [
            0.153783,
            43.060611,
            559.0
          ],
          [
            0.153848,
            43.060618,
            559.0
          ],
          [
            0.154232,
            43.060138,
            559.4
          ],
          [
            0.154678,
            43.059632,
            560.38
          ],
          [
            0.154783,
            43.059455,
            560.79
          ],
          [
            0.15511,
            43.058703,
            561.31
          ],
          [
            0.155257,
            43.058405,
            561.75
          ],
          [
            0.156788,
            43.055949,
            562.98
          ],
          [
            0.156911,
            43.055794,
            563.34
          ],
          [
            0.157151,
            43.05543,
            564.65
          ],
          [
            0.15722,
            43.055304,
            564.99
          ],
          [
            0.15727,
            43.055132,
            565.29
          ],
          [
            0.157314,
            43.054299,
            565.37
          ],
          [
            0.158416,
            43.054262,
            567.0
          ],
          [
            0.158416,
            43.054224,
            567.0
          ],
          [
            0.158431,
            43.054178,
            567.03
          ],
          [
            0.159388,
            43.052783,
            570.74
          ],
          [
            0.159455,
            43.052658,
            570.97
          ],
          [
            0.159503,
            43.052495,
            571.35
          ],
          [
            0.159563,
            43.05205,
            572.08
          ],
          [
            0.159533,
            43.051565,
            572.63
          ],
          [
            0.159548,
            43.051513,
            572.71
          ],
          [
            0.159656,
            43.051331,
            572.88
          ],
          [
            0.159844,
            43.051132,
            573.23
          ],
          [
            0.160189,
            43.050616,
            574.29
          ],
          [
            0.160875,
            43.050036,
            576.55
          ],
          [
            0.161438,
            43.049736,
            578.75
          ],
          [
            0.161881,
            43.049445,
            581.0
          ],
          [
            0.162017,
            43.049316,
            581.83
          ],
          [
            0.162075,
            43.049281,
            581.98
          ],
          [
            0.162123,
            43.049264,
            582.0
          ],
          [
            0.162171,
            43.049267,
            582.0
          ],
          [
            0.162223,
            43.049184,
            582.08
          ],
          [
            0.16233,
            43.049086,
            582.42
          ],
          [
            0.162557,
            43.04893,
            582.85
          ],
          [
            0.162642,
            43.048847,
            583.05
          ],
          [
            0.162916,
            43.048409,
            584.0
          ],
          [
            0.163347,
            43.048034,
            585.15
          ],
          [
            0.163497,
            43.047866,
            585.58
          ],
          [
            0.163588,
            43.0477,
            586.03
          ],
          [
            0.163613,
            43.047546,
            586.43
          ],
          [
            0.163603,
            43.047462,
            586.61
          ],
          [
            0.163549,
            43.047321,
            586.91
          ],
          [
            0.163403,
            43.047039,
            587.85
          ],
          [
            0.163375,
            43.046897,
            587.96
          ],
          [
            0.163377,
            43.046783,
            588.07
          ],
          [
            0.163513,
            43.046002,
            589.23
          ],
          [
            0.163605,
            43.045723,
            590.07
          ],
          [
            0.163684,
            43.045554,
            590.61
          ],
          [
            0.163784,
            43.045419,
            591.08
          ],
          [
            0.163912,
            43.045308,
            591.45
          ],
          [
            0.164544,
            43.044827,
            593.45
          ],
          [
            0.164942,
            43.044497,
            594.8
          ],
          [
            0.165258,
            43.044216,
            595.86
          ],
          [
            0.165575,
            43.043965,
            596.82
          ],
          [
            0.165929,
            43.043727,
            597.82
          ],
          [
            0.166367,
            43.043461,
            599.14
          ],
          [
            0.166759,
            43.043189,
            600.57
          ],
          [
            0.166853,
            43.043115,
            601.01
          ],
          [
            0.166913,
            43.04302,
            601.34
          ],
          [
            0.167074,
            43.042634,
            602.18
          ],
          [
            0.16721,
            43.042333,
            602.58
          ],
          [
            0.167449,
            43.041875,
            603.19
          ],
          [
            0.167745,
            43.041433,
            604.0
          ],
          [
            0.167783,
            43.041344,
            604.08
          ],
          [
            0.167827,
            43.04107,
            604.84
          ],
          [
            0.168022,
            43.040273,
            606.74
          ],
          [
            0.168113,
            43.039983,
            607.42
          ],
          [
            0.168138,
            43.039828,
            607.91
          ],
          [
            0.168135,
            43.039719,
            608.55
          ],
          [
            0.168105,
            43.039628,
            608.35
          ],
          [
            0.16807,
            43.039591,
            608.18
          ],
          [
            0.168088,
            43.039566,
            608.32
          ],
          [
            0.168199,
            43.038334,
            609.83
          ],
          [
            0.168216,
            43.038241,
            610.04
          ],
          [
            0.168366,
            43.037949,
            611.01
          ],
          [
            0.168451,
            43.037843,
            611.7
          ],
          [
            0.168573,
            43.037749,
            612.72
          ],
          [
            0.168652,
            43.037669,
            613.58
          ],
          [
            0.168706,
            43.037574,
            613.84
          ],
          [
            0.168786,
            43.037294,
            614.58
          ],
          [
            0.169082,
            43.036435,
            617.54
          ],
          [
            0.16918,
            43.035936,
            619.01
          ],
          [
            0.169212,
            43.035818,
            619.31
          ],
          [
            0.169264,
            43.035723,
            619.65
          ],
          [
            0.169345,
            43.03563,
            620.38
          ],
          [
            0.169655,
            43.035356,
            622.09
          ],
          [
            0.169787,
            43.035168,
            622.3
          ],
          [
            0.170133,
            43.034538,
            624.01
          ],
          [
            0.170346,
            43.034197,
            626.04
          ],
          [
            0.170784,
            43.033661,
            630.1
          ],
          [
            0.171176,
            43.033035,
            633.41
          ],
          [
            0.17137,
            43.032741,
            634.86
          ],
          [
            0.171729,
            43.03239,
            636.97
          ],
          [
            0.171859,
            43.032212,
            638.02
          ],
          [
            0.172153,
            43.031699,
            640.48
          ],
          [
            0.172264,
            43.031558,
            640.94
          ],
          [
            0.172416,
            43.031334,
            641.54
          ],
          [
            0.172622,
            43.030937,
            642.4
          ],
          [
            0.172969,
            43.03043,
            643.62
          ],
          [
            0.173045,
            43.030334,
            644.35
          ],
          [
            0.173409,
            43.029733,
            645.67
          ],
          [
            0.173544,
            43.029423,
            645.71
          ],
          [
            0.173568,
            43.029319,
            645.81
          ],
          [
            0.173579,
            43.029033,
            646.33
          ],
          [
            0.173597,
            43.028943,
            646.57
          ],
          [
            0.173792,
            43.028363,
            649.04
          ],
          [
            0.173826,
            43.028193,
            649.91
          ],
          [
            0.173844,
            43.027999,
            650.67
          ],
          [
            0.173846,
            43.027304,
            651.33
          ],
          [
            0.173872,
            43.026864,
            651.13
          ],
          [
            0.173888,
            43.026739,
            651.08
          ],
          [
            0.173987,
            43.026534,
            650.93
          ],
          [
            0.174048,
            43.026464,
            651.01
          ],
          [
            0.174142,
            43.026387,
            651.37
          ],
          [
            0.174262,
            43.026316,
            652.24
          ],
          [
            0.174347,
            43.026222,
            652.08
          ],
          [
            0.174391,
            43.02613,
            650.92
          ],
          [
            0.174677,
            43.025454,
            645.97
          ],
          [
            0.174867,
            43.024981,
            646.1
          ],
          [
            0.17495,
            43.024714,
            645.84
          ],
          [
            0.175076,
            43.024103,
            645.42
          ],
          [
            0.17518,
            43.023903,
            646.26
          ],
          [
            0.175372,
            43.023581,
            646.17
          ],
          [
            0.175616,
            43.023125,
            646.01
          ],
          [
            0.175997,
            43.022609,
            648.52
          ],
          [
            0.176123,
            43.022409,
            650.01
          ],
          [
            0.176186,
            43.022273,
            651.02
          ],
          [
            0.176237,
            43.022108,
            652.01
          ],
          [
            0.176314,
            43.021786,
            653.66
          ],
          [
            0.176353,
            43.021696,
            654.08
          ],
          [
            0.17651,
            43.021442,
            655.12
          ],
          [
            0.17665,
            43.021184,
            655.78
          ],
          [
            0.176786,
            43.020974,
            655.88
          ],
          [
            0.176885,
            43.020848,
            655.69
          ],
          [
            0.17702,
            43.020732,
            655.29
          ],
          [
            0.177668,
            43.020261,
            653.23
          ],
          [
            0.178324,
            43.01974,
            653.76
          ],
          [
            0.17843,
            43.019678,
            655.44
          ],
          [
            0.17847,
            43.01962,
            655.16
          ],
          [
            0.178473,
            43.019583,
            654.61
          ],
          [
            0.178457,
            43.01956,
            653.69
          ],
          [
            0.178303,
            43.019458,
            649.5
          ],
          [
            0.178241,
            43.019368,
            649.23
          ],
          [
            0.178096,
            43.019074,
            650.21
          ],
          [
            0.177999,
            43.018848,
            650.98
          ],
          [
            0.177908,
            43.018707,
            651.52
          ],
          [
            0.177887,
            43.018623,
            651.75
          ],
          [
            0.177901,
            43.018524,
            651.89
          ],
          [
            0.178035,
            43.01829,
            652.47
          ],
          [
            0.178066,
            43.018205,
            652.72
          ],
          [
            0.178197,
            43.01797,
            653.07
          ],
          [
            0.178294,
            43.017845,
            654.0
          ],
          [
            0.178337,
            43.017746,
            654.0
          ],
          [
            0.178324,
            43.017713,
            654.09
          ],
          [
            0.178285,
            43.017685,
            654.13
          ],
          [
            0.178018,
            43.017561,
            654.03
          ],
          [
            0.177872,
            43.017511,
            654.0
          ],
          [
            0.177877,
            43.017463,
            654.13
          ],
          [
            0.177815,
            43.017258,
            654.97
          ],
          [
            0.177739,
            43.017185,
            655.3
          ],
          [
            0.177568,
            43.01707,
            655.81
          ],
          [
            0.17729,
            43.016926,
            656.37
          ],
          [
            0.177481,
            43.01668,
            657.36
          ],
          [
            0.177573,
            43.016523,
            658.22
          ],
          [
            0.177573,
            43.016523,
            658.22
          ],
          [
            0.17767,
            43.016365,
            659.0
          ],
          [
            0.177751,
            43.016155,
            659.68
          ],
          [
            0.177809,
            43.016036,
            660.09
          ],
          [
            0.177889,
            43.015909,
            660.51
          ],
          [
            0.178119,
            43.015689,
            661.32
          ],
          [
            0.178282,
            43.015564,
            662.0
          ],
          [
            0.178388,
            43.015468,
            662.12
          ],
          [
            0.178464,
            43.01537,
            662.48
          ],
          [
            0.178514,
            43.015284,
            662.94
          ],
          [
            0.178589,
            43.015116,
            663.0
          ],
          [
            0.178702,
            43.014944,
            663.75
          ],
          [
            0.178844,
            43.014764,
            664.0
          ],
          [
            0.179962,
            43.013513,
            669.0
          ],
          [
            0.180508,
            43.012938,
            671.0
          ],
          [
            0.180675,
            43.012781,
            671.29
          ],
          [
            0.180891,
            43.012611,
            671.89
          ],
          [
            0.181332,
            43.012349,
            672.77
          ]
        ]
      }
    },
    {
      "type": "Feature",
      "properties": {
        "source": "Vallée_Haut-Adour.gpx",
        "type": "route"
      },
      "geometry": {
        "type": "LineString",
        "coordinates": [
          [
            0.148488,
            43.065495
          ],
          [
            0.148868,
            43.065001
          ],
          [
            0.14884,
            43.064918
          ],
          [
            0.14925,
            43.063799
          ],
          [
            0.149371,
            43.063772
          ],
          [
            0.150015,
            43.063168
          ],
          [
            0.150029,
            43.063226
          ],
          [
            0.150542,
            43.063423
          ],
          [
            0.151714,
            43.063573
          ],
          [
            0.151727,
            43.063078
          ],
          [
            0.151666,
            43.063033
          ],
          [
            0.153558,
            43.060739
          ],
          [
            0.153703,
            43.060703
          ],
          [
            0.156788,
            43.055949
          ],
          [
            0.157314,
            43.054299
          ],
          [
            0.158416,
            43.054262
          ],
          [
            0.162171,
            43.049267
          ],
          [
            0.16807,
            43.039591
          ],
          [
            0.177872,
            43.017511
          ],
          [
            0.17729,
            43.016926
          ],
          [
            0.177573,
            43.016523
          ],
          [
            0.177573,
            43.016523
          ],
          [
            0.181332,
            43.012349
          ]
        ]
      }
    }
  ]
}