{
  "type": "FeatureCollection",
  "features": [
    {
      "type": "Feature",
      "properties": {
        "name": "GraphHopper Track",
        "source": "Juglaron.gpx",
        "type": "track"
      },
      "geometry": {
        "type": "LineString",
        "coordinates": [
          [
            0.115697,
            43.861276,
            125.73
          ],
          [
            0.11559,
            43.861227,
            126.34
          ],
          [
            0.115533,
            43.861144,
            127.02
          ],
          [
            0.115512,
            43.861012,
            128.01
          ],
          [
            0.115525,
            43.860445,
            131.43
          ],
          [
            0.115085,
            43.859235,
            132.34
          ],
          [
            0.115097,
            43.859123,
            132.77
          ],
          [
            0.115011,
            43.859118,
            132.51
          ],
          [
            0.114941,
            43.859091,
            132.42
          ],
          [
            0.114803,
            43.859007,
            133.14
          ],
          [
            0.113948,
            43.858418,
            137.1
          ],
          [
            0.113763,
            43.858299,
            137.57
          ],
          [
            0.113618,
            43.858219,
            137.19
          ],
          [
            0.113446,
            43.858162,
            137.99
          ],
          [
            0.113256,
            43.858142,
            138.44
          ],
          [
            0.113113,
            43.858151,
            138.68
          ],
          [
            0.112972,
            43.858184,
            139.14
          ],
          [
            0.112829,
            43.858245,
            139.36
          ],
          [
            0.111615,
            43.859153,
            141.03
          ],
          [
            0.11134,
            43.859363,
            141.0
          ],
          [
            0.1111,
            43.85953,
            141.0
          ],
          [
            0.108969,
            43.858957,
            145.14
          ],
          [
            0.108678,
            43.858903,
            145.93
          ],
          [
            0.106899,
            43.858727,
            146.0
          ],
          [
            0.106343,
            43.859044,
            145.72
          ],
          [
            0.105163,
            43.859778,
            149.25
          ],
          [
            0.103591,
            43.859426,
            156.88
          ],
          [
            0.103326,
            43.859387,
            158.11
          ],
          [
            0.103103,
            43.859948,
            159.55
          ],
          [
            0.10302,
            43.860033,
            159.0
          ],
          [
            0.103091,
            43.86014,
            158.72
          ],
          [
            0.103113,
            43.860212,
            158.47
          ],
          [
            0.102122,
            43.860255,
            160.11
          ],
          [
            0.102123,
            43.86016,
            160.4
          ],
          [
            0.102123,
            43.86016,
            160.4
          ],
          [
            0.102122,
            43.860255,
            160.11
          ],
          [
            0.103113,
            43.860212,
            158.47
          ],
          [
            0.103091,
            43.86014,
            158.72
          ],
          [
            0.10302,
            43.860033,
            159.0
          ],
          [
            0.103103,
            43.859948,
            159.55
          ],
          [
            0.103326,
            43.859387,
            158.11
          ],
          [
            0.103591,
            43.859426,
            156.88
          ],
          [
            0.105163,
            43.859778,
            149.25
          ],
          [
            0.106343,
            43.859044,
            145.72
          ],
          [
            0.106899,
            43.858727,
            146.0
          ],
          [
            0.108678,
            43.858903,
            145.93
          ],
          [
            0.108969,
            43.858957,
            145.14
          ],
          [
            0.1111,
            43.85953,
            141.0
          ],
          [
            0.11134,
            43.859363,
            141.0
          ],
          [
            0.111615,
            43.859153,
            141.03
          ],
          [
            0.111803,
            43.859011,
            141.0
          ],
          [
            0.112829,
            43.858245,
            139.36
          ],
          [
            0.112972,
            43.858184,
            139.14
          ],
          [
            0.113113,
            43.858151,
            138.68
          ],
          [
            0.113256,
            43.858142,
            138.44
          ],
          [
            0.113446,
            43.858162,
            137.99
          ],
          [
            0.113618,
            43.858219,
            137.19
          ],
          [
            0.113763,
            43.858299,
            137.57
          ],
          [
            0.113948,
            43.858418,
            137.1
          ],
          [
            0.114803,
            43.859007,
            133.14
          ],
          [
            0.114941,
            43.859091,
            132.42
          ],
          [
            0.115011,
            43.859118,
            132.51
          ],
          [
            0.115097,
            43.859123,
            132.77
          ],
          [
            0.115085,
            43.859235,
            132.34
          ],
          [
            0.115525,
            43.860445,
            131.43
          ],
          [
            0.115512,
            43.861012,
            128.01
          ],
          [
            0.115533,
            43.861144,
            127.02
          ],
          [
            0.11559,
            43.861227,
            126.34
          ],
          [
            0.115697,
            43.861276,
            125.73
          ]
        ]
      }
    },
    {
      "type": "Feature",
      "properties": {
        "source": "Juglaron.gpx",
        "type": "route"
      },
      "geometry": {
        "type": "LineString",
        "coordinates": [
          [
            0.115697,
            43.861276
          ],
          [
            0.115097,
            43.859123
          ],
          [
            0.111615,
            43.859153
          ],
          [
            0.1111,
            43.85953
          ],
          [
            0.106899,
            43.858727
          ],
          [
            0.105163,
            43.859778
          ],
          [
            0.103326,
            43.859387
          ],
          [
            0.10302,
            43.860033
          ],
          [
            0.103113,
            43.860212
          ],
          [
            0.102122,
            43.860255
          ],
          [
            0.102123,
            43.86016
          ],
          [
            0.102123,
            43.86016
          ],
          [
            0.102122,
            43.860255
          ],
          [
            0.103113,
            43.860212
          ],
          [
            0.10302,
            43.860033
          ],
          [
            0.103326,
            43.859387
          ],
          [
            0.105163,
            43.859778
          ],
          [
            0.106899,
            43.858727
          ],
          [
            0.1111,
            43.85953
          ],
          [
            0.111615,
            43.859153
          ],
          [
            0.111803,
            43.859011
          ],
          [
            0.115097,
            43.859123
          ],
          [
            0.115697,
            43.861276
          ]
        ]
      }
    }
  ]
}