{
  "type": "FeatureCollection",
  "features": [
    {
      "type": "Feature",
      "properties": {
        "name": "GraphHopper Track",
        "source": "Promo._historique.gpx",
        "type": "track"
      },
      "geometry": {
        "type": "LineString",
        "coordinates": [
          [
            1.201083,
            42.864773,
            521.92
          ],
          [
            1.201119,
            42.864723,
            520.96
          ],
          [
            1.201119,
            42.864703,
            520.62
          ],
          [
            1.201075,
            42.864669,
            519.89
          ],
          [
            1.201013,
            42.864664,
            519.51
          ],
          [
            1.200934,
            42.864689,
            519.29
          ],
          [
            1.200827,
            42.864707,
            518.61
          ],
          [
            1.200737,
            42.864631,
            517.25
          ],
          [
            1.200876,
            42.86454,
            516.72
          ],
          [
            1.201064,
            42.864431,
            515.7
          ],
          [
            1.201167,
            42.864356,
            514.76
          ],
          [
            1.201283,
            42.8643,
            513.58
          ],
          [
            1.201316,
            42.864251,
            512.66
          ],
          [
            1.201369,
            42.864274,
            512.82
          ],
          [
            1.201459,
            42.864364,
            514.08
          ],
          [
            1.201527,
            42.864492,
            515.43
          ],
          [
            1.201527,
            42.864492,
            515.43
          ],
          [
            1.201603,
            42.864635,
            516.92
          ],
          [
            1.201926,
            42.865106,
            518.65
          ],
          [
            1.201882,
            42.865127,
            520.07
          ],
          [
            1.201866,
            42.865105,
            520.48
          ],
          [
            1.201836,
            42.865119,
            520.92
          ],
          [
            1.201857,
            42.865147,
            521.36
          ],
          [
            1.201833,
            42.865156,
            521.95
          ],
          [
            1.201817,
            42.865131,
            522.29
          ],
          [
            1.201789,
            42.86514,
            522.59
          ],
          [
            1.201815,
            42.865174,
            522.77
          ],
          [
            1.201814,
            42.865191,
            523.13
          ],
          [
            1.201788,
            42.865183,
            523.52
          ],
          [
            1.201653,
            42.86501,
            524.13
          ],
          [
            1.201526,
            42.864939,
            524.35
          ],
          [
            1.201476,
            42.864922,
            524.58
          ],
          [
            1.201394,
            42.864849,
            523.78
          ],
          [
            1.201338,
            42.864831,
            523.62
          ],
          [
            1.201318,
            42.864755,
            522.2
          ]
        ]
      }
    },
    {
      "type": "Feature",
      "properties": {
        "source": "Promo._historique.gpx",
        "type": "route"
      },
      "geometry": {
        "type": "LineString",
        "coordinates": [
          [
            1.201083,
            42.864773
          ],
          [
            1.200737,
            42.864631
          ],
          [
            1.201316,
            42.864251
          ],
          [
            1.201527,
            42.864492
          ],
          [
            1.201527,
            42.864492
          ],
          [
            1.201926,
            42.865106
          ],
          [
            1.201833,
            42.865156
          ],
          [
            1.201476,
            42.864922
          ],
          [
            1.201338,
            42.864831
          ],
          [
            1.201318,
            42.864755
          ]
        ]
      }
    }
  ]
}