{
  "type": "FeatureCollection",
  "features": [
    {
      "type": "Feature",
      "properties": {
        "name": "GraphHopper Track",
        "source": "Étang_dAyès.gpx",
        "type": "track"
      },
      "geometry": {
        "type": "LineString",
        "coordinates": [
          [
            1.164649,
            42.870306,
            851.59
          ],
          [
            1.164637,
            42.870267,
            851.78
          ],
          [
            1.164581,
            42.87024,
            852.04
          ],
          [
            1.164221,
            42.870159,
            853.46
          ],
          [
            1.164048,
            42.870096,
            854.22
          ],
          [
            1.163893,
            42.869972,
            856.8
          ],
          [
            1.16383,
            42.869888,
            858.82
          ],
          [
            1.16375,
            42.869866,
            860.38
          ],
          [
            1.163583,
            42.869866,
            863.38
          ],
          [
            1.163795,
            42.869579,
            864.79
          ],
          [
            1.163893,
            42.869395,
            865.94
          ],
          [
            1.164224,
            42.86865,
            871.68
          ],
          [
            1.164277,
            42.868474,
            873.67
          ],
          [
            1.164363,
            42.86797,
            879.98
          ],
          [
            1.164425,
            42.867807,
            882.77
          ],
          [
            1.164684,
            42.867486,
            887.74
          ],
          [
            1.164678,
            42.867428,
            888.31
          ],
          [
            1.164639,
            42.867387,
            888.76
          ],
          [
            1.1646,
            42.86738,
            889.01
          ],
          [
            1.164544,
            42.867384,
            889.31
          ],
          [
            1.16447,
            42.867435,
            889.79
          ],
          [
            1.164008,
            42.86804,
            892.44
          ],
          [
            1.163721,
            42.86839,
            893.91
          ],
          [
            1.163419,
            42.868671,
            896.82
          ],
          [
            1.163084,
            42.868917,
            900.28
          ],
          [
            1.162915,
            42.869025,
            901.94
          ],
          [
            1.162614,
            42.869162,
            904.17
          ],
          [
            1.162389,
            42.869219,
            905.36
          ],
          [
            1.162129,
            42.869261,
            906.82
          ],
          [
            1.161765,
            42.869274,
            909.38
          ],
          [
            1.161528,
            42.869264,
            910.75
          ],
          [
            1.161439,
            42.869231,
            911.26
          ],
          [
            1.161391,
            42.869184,
            911.69
          ],
          [
            1.161386,
            42.86914,
            912.03
          ],
          [
            1.161401,
            42.869094,
            912.4
          ],
          [
            1.161447,
            42.869066,
            912.74
          ],
          [
            1.161529,
            42.869051,
            913.26
          ],
          [
            1.161729,
            42.86907,
            914.56
          ],
          [
            1.161862,
            42.869068,
            915.49
          ],
          [
            1.162025,
            42.869035,
            916.75
          ],
          [
            1.162195,
            42.868958,
            918.15
          ],
          [
            1.162377,
            42.868853,
            919.29
          ],
          [
            1.162662,
            42.868597,
            921.72
          ],
          [
            1.162777,
            42.868452,
            923.13
          ],
          [
            1.16294,
            42.868198,
            925.51
          ],
          [
            1.163151,
            42.867775,
            929.5
          ],
          [
            1.163253,
            42.867521,
            931.54
          ],
          [
            1.163442,
            42.867246,
            934.16
          ],
          [
            1.163661,
            42.867007,
            937.08
          ],
          [
            1.164045,
            42.866336,
            945.38
          ],
          [
            1.164238,
            42.866074,
            948.62
          ],
          [
            1.164433,
            42.865836,
            951.29
          ],
          [
            1.164669,
            42.865576,
            954.12
          ],
          [
            1.164749,
            42.865434,
            955.52
          ],
          [
            1.164799,
            42.865305,
            956.69
          ],
          [
            1.164956,
            42.864562,
            962.26
          ],
          [
            1.164949,
            42.864419,
            963.09
          ],
          [
            1.164907,
            42.864298,
            963.81
          ],
          [
            1.164832,
            42.864186,
            964.59
          ],
          [
            1.16465,
            42.86405,
            966.03
          ],
          [
            1.164383,
            42.863886,
            968.59
          ],
          [
            1.163378,
            42.86346,
            979.69
          ],
          [
            1.163279,
            42.863435,
            980.81
          ],
          [
            1.163177,
            42.86343,
            982.55
          ],
          [
            1.163177,
            42.86346,
            983.27
          ],
          [
            1.163195,
            42.863512,
            983.97
          ],
          [
            1.163245,
            42.863546,
            983.93
          ],
          [
            1.163385,
            42.863596,
            983.83
          ],
          [
            1.163498,
            42.863671,
            984.57
          ],
          [
            1.163604,
            42.863816,
            986.28
          ],
          [
            1.163936,
            42.864494,
            993.25
          ],
          [
            1.163948,
            42.864615,
            994.07
          ],
          [
            1.163911,
            42.864709,
            994.87
          ],
          [
            1.163852,
            42.864698,
            996.48
          ],
          [
            1.163777,
            42.864707,
            998.45
          ],
          [
            1.163714,
            42.864729,
            1000.15
          ],
          [
            1.163588,
            42.864743,
            1002.92
          ],
          [
            1.163285,
            42.864801,
            1009.4
          ],
          [
            1.163178,
            42.86484,
            1011.85
          ],
          [
            1.162966,
            42.864864,
            1016.57
          ],
          [
            1.162875,
            42.864895,
            1018.76
          ],
          [
            1.162789,
            42.864954,
            1021.23
          ],
          [
            1.162684,
            42.864983,
            1023.55
          ],
          [
            1.162554,
            42.864996,
            1026.34
          ],
          [
            1.162378,
            42.864994,
            1030.2
          ],
          [
            1.162276,
            42.865011,
            1032.6
          ],
          [
            1.162208,
            42.865031,
            1034.41
          ],
          [
            1.162153,
            42.865059,
            1035.95
          ],
          [
            1.162099,
            42.86512,
            1037.85
          ],
          [
            1.162076,
            42.86517,
            1038.54
          ],
          [
            1.16202,
            42.865155,
            1039.82
          ],
          [
            1.161957,
            42.865121,
            1041.28
          ],
          [
            1.161783,
            42.865052,
            1044.11
          ],
          [
            1.161695,
            42.864993,
            1045.42
          ],
          [
            1.161636,
            42.864892,
            1047.22
          ],
          [
            1.161508,
            42.864812,
            1049.58
          ],
          [
            1.161367,
            42.864773,
            1052.1
          ],
          [
            1.160907,
            42.864604,
            1060.0
          ],
          [
            1.160796,
            42.864573,
            1061.9
          ],
          [
            1.160691,
            42.864559,
            1063.67
          ],
          [
            1.160579,
            42.864531,
            1065.76
          ],
          [
            1.160522,
            42.8645,
            1067.08
          ],
          [
            1.16031,
            42.864335,
            1072.44
          ],
          [
            1.160053,
            42.864222,
            1077.3
          ],
          [
            1.159787,
            42.864267,
            1083.87
          ],
          [
            1.159719,
            42.864303,
            1085.51
          ],
          [
            1.159661,
            42.864371,
            1087.16
          ],
          [
            1.159527,
            42.864398,
            1089.36
          ],
          [
            1.159379,
            42.864351,
            1091.8
          ],
          [
            1.159241,
            42.864274,
            1094.61
          ],
          [
            1.15914,
            42.864231,
            1096.44
          ],
          [
            1.159002,
            42.864221,
            1098.62
          ],
          [
            1.158876,
            42.864233,
            1100.78
          ],
          [
            1.158686,
            42.864215,
            1104.17
          ],
          [
            1.158691,
            42.86426,
            1103.96
          ],
          [
            1.158462,
            42.864291,
            1107.96
          ],
          [
            1.158359,
            42.864297,
            1109.74
          ],
          [
            1.158248,
            42.8643,
            1111.57
          ],
          [
            1.158162,
            42.864291,
            1113.03
          ],
          [
            1.158103,
            42.864274,
            1114.02
          ],
          [
            1.157946,
            42.864172,
            1117.28
          ],
          [
            1.157887,
            42.864147,
            1118.36
          ],
          [
            1.157804,
            42.864129,
            1119.67
          ],
          [
            1.157752,
            42.864109,
            1120.58
          ],
          [
            1.157721,
            42.864076,
            1121.42
          ],
          [
            1.157691,
            42.864025,
            1122.57
          ],
          [
            1.157655,
            42.863994,
            1123.41
          ],
          [
            1.15759,
            42.863973,
            1124.48
          ],
          [
            1.157358,
            42.863921,
            1127.95
          ],
          [
            1.15728,
            42.863921,
            1129.0
          ],
          [
            1.157203,
            42.863939,
            1130.05
          ],
          [
            1.157124,
            42.863973,
            1131.19
          ],
          [
            1.156925,
            42.864019,
            1133.65
          ],
          [
            1.156855,
            42.864026,
            1134.46
          ],
          [
            1.156771,
            42.864018,
            1135.48
          ],
          [
            1.15673,
            42.86399,
            1136.15
          ],
          [
            1.156694,
            42.863926,
            1137.27
          ],
          [
            1.156682,
            42.86385,
            1138.5
          ],
          [
            1.156698,
            42.86366,
            1141.37
          ],
          [
            1.156692,
            42.863593,
            1142.39
          ],
          [
            1.156636,
            42.863499,
            1144.0
          ],
          [
            1.156567,
            42.863412,
            1145.52
          ],
          [
            1.156399,
            42.863258,
            1148.33
          ],
          [
            1.156379,
            42.863225,
            1148.93
          ],
          [
            1.15635,
            42.863115,
            1150.95
          ],
          [
            1.156322,
            42.863067,
            1151.89
          ],
          [
            1.156236,
            42.862964,
            1153.91
          ],
          [
            1.156184,
            42.862851,
            1155.81
          ],
          [
            1.156151,
            42.862809,
            1156.47
          ],
          [
            1.156106,
            42.862782,
            1157.4
          ],
          [
            1.155955,
            42.862743,
            1160.99
          ],
          [
            1.155502,
            42.862498,
            1172.46
          ],
          [
            1.155502,
            42.862498,
            1172.46
          ],
          [
            1.155955,
            42.862743,
            1160.99
          ],
          [
            1.156106,
            42.862782,
            1157.4
          ],
          [
            1.156151,
            42.862809,
            1156.47
          ],
          [
            1.156184,
            42.862851,
            1155.81
          ],
          [
            1.156236,
            42.862964,
            1153.91
          ],
          [
            1.156322,
            42.863067,
            1151.89
          ],
          [
            1.15635,
            42.863115,
            1150.95
          ],
          [
            1.156379,
            42.863225,
            1148.93
          ],
          [
            1.156399,
            42.863258,
            1148.33
          ],
          [
            1.156567,
            42.863412,
            1145.52
          ],
          [
            1.156636,
            42.863499,
            1144.0
          ],
          [
            1.156692,
            42.863593,
            1142.39
          ],
          [
            1.156698,
            42.86366,
            1141.37
          ],
          [
            1.156682,
            42.86385,
            1138.5
          ],
          [
            1.156694,
            42.863926,
            1137.27
          ],
          [
            1.15673,
            42.86399,
            1136.15
          ],
          [
            1.156771,
            42.864018,
            1135.48
          ],
          [
            1.156855,
            42.864026,
            1134.46
          ],
          [
            1.156925,
            42.864019,
            1133.65
          ],
          [
            1.157124,
            42.863973,
            1131.19
          ],
          [
            1.157203,
            42.863939,
            1130.05
          ],
          [
            1.15728,
            42.863921,
            1129.0
          ],
          [
            1.157358,
            42.863921,
            1127.95
          ],
          [
            1.15759,
            42.863973,
            1124.48
          ],
          [
            1.157655,
            42.863994,
            1123.41
          ],
          [
            1.157691,
            42.864025,
            1122.57
          ],
          [
            1.157721,
            42.864076,
            1121.42
          ],
          [
            1.157752,
            42.864109,
            1120.58
          ],
          [
            1.157804,
            42.864129,
            1119.67
          ],
          [
            1.157887,
            42.864147,
            1118.36
          ],
          [
            1.157946,
            42.864172,
            1117.28
          ],
          [
            1.158103,
            42.864274,
            1114.02
          ],
          [
            1.158162,
            42.864291,
            1113.03
          ],
          [
            1.158248,
            42.8643,
            1111.57
          ],
          [
            1.158359,
            42.864297,
            1109.74
          ],
          [
            1.158462,
            42.864291,
            1107.96
          ],
          [
            1.158691,
            42.86426,
            1103.96
          ],
          [
            1.158686,
            42.864215,
            1104.17
          ],
          [
            1.158876,
            42.864233,
            1100.78
          ],
          [
            1.159002,
            42.864221,
            1098.62
          ],
          [
            1.15914,
            42.864231,
            1096.44
          ],
          [
            1.159241,
            42.864274,
            1094.61
          ],
          [
            1.159379,
            42.864351,
            1091.8
          ],
          [
            1.159527,
            42.864398,
            1089.36
          ],
          [
            1.159661,
            42.864371,
            1087.16
          ],
          [
            1.159719,
            42.864303,
            1085.51
          ],
          [
            1.159787,
            42.864267,
            1083.87
          ],
          [
            1.160053,
            42.864222,
            1077.3
          ],
          [
            1.16031,
            42.864335,
            1072.44
          ],
          [
            1.160522,
            42.8645,
            1067.08
          ],
          [
            1.160579,
            42.864531,
            1065.76
          ],
          [
            1.160691,
            42.864559,
            1063.67
          ],
          [
            1.160796,
            42.864573,
            1061.9
          ],
          [
            1.160907,
            42.864604,
            1060.0
          ],
          [
            1.161367,
            42.864773,
            1052.1
          ],
          [
            1.161508,
            42.864812,
            1049.58
          ],
          [
            1.161636,
            42.864892,
            1047.22
          ],
          [
            1.161695,
            42.864993,
            1045.42
          ],
          [
            1.161783,
            42.865052,
            1044.11
          ],
          [
            1.161957,
            42.865121,
            1041.28
          ],
          [
            1.16202,
            42.865155,
            1039.82
          ],
          [
            1.162076,
            42.86517,
            1038.54
          ],
          [
            1.162099,
            42.86512,
            1037.85
          ],
          [
            1.162153,
            42.865059,
            1035.95
          ],
          [
            1.162208,
            42.865031,
            1034.41
          ],
          [
            1.162276,
            42.865011,
            1032.6
          ],
          [
            1.162378,
            42.864994,
            1030.2
          ],
          [
            1.162554,
            42.864996,
            1026.34
          ],
          [
            1.162684,
            42.864983,
            1023.55
          ],
          [
            1.162789,
            42.864954,
            1021.23
          ],
          [
            1.162875,
            42.864895,
            1018.76
          ],
          [
            1.162966,
            42.864864,
            1016.57
          ],
          [
            1.163178,
            42.86484,
            1011.85
          ],
          [
            1.163285,
            42.864801,
            1009.4
          ],
          [
            1.163588,
            42.864743,
            1002.92
          ],
          [
            1.163714,
            42.864729,
            1000.15
          ],
          [
            1.163777,
            42.864707,
            998.45
          ],
          [
            1.163852,
            42.864698,
            996.48
          ],
          [
            1.163911,
            42.864709,
            994.87
          ],
          [
            1.163948,
            42.864615,
            994.07
          ],
          [
            1.163936,
            42.864494,
            993.25
          ],
          [
            1.163604,
            42.863816,
            986.28
          ],
          [
            1.163498,
            42.863671,
            984.57
          ],
          [
            1.163385,
            42.863596,
            983.83
          ],
          [
            1.163245,
            42.863546,
            983.93
          ],
          [
            1.163195,
            42.863512,
            983.97
          ],
          [
            1.163177,
            42.86346,
            983.27
          ],
          [
            1.163177,
            42.86343,
            982.55
          ],
          [
            1.162988,
            42.863433,
            986.22
          ],
          [
            1.162814,
            42.863406,
            987.86
          ],
          [
            1.162704,
            42.863354,
            987.83
          ],
          [
            1.162681,
            42.863305,
            987.64
          ],
          [
            1.162695,
            42.863216,
            987.21
          ],
          [
            1.162972,
            42.862683,
            986.46
          ],
          [
            1.163027,
            42.862463,
            986.25
          ],
          [
            1.163035,
            42.862177,
            986.73
          ],
          [
            1.163025,
            42.861983,
            987.61
          ],
          [
            1.162959,
            42.861704,
            989.34
          ],
          [
            1.16287,
            42.861513,
            990.25
          ],
          [
            1.162701,
            42.861379,
            990.79
          ],
          [
            1.162622,
            42.8613,
            990.99
          ],
          [
            1.1626,
            42.861229,
            991.09
          ],
          [
            1.162605,
            42.861156,
            991.16
          ],
          [
            1.162649,
            42.861064,
            991.24
          ],
          [
            1.162822,
            42.86079,
            991.23
          ],
          [
            1.1629,
            42.86059,
            991.13
          ],
          [
            1.162893,
            42.860477,
            991.2
          ],
          [
            1.162857,
            42.86041,
            991.34
          ],
          [
            1.162779,
            42.860341,
            991.61
          ],
          [
            1.162659,
            42.860297,
            992.03
          ],
          [
            1.162492,
            42.860266,
            992.61
          ],
          [
            1.162043,
            42.860242,
            995.57
          ],
          [
            1.161638,
            42.860165,
            999.06
          ],
          [
            1.160979,
            42.860062,
            1003.62
          ],
          [
            1.160719,
            42.860013,
            1005.02
          ],
          [
            1.160037,
            42.859809,
            1009.27
          ],
          [
            1.15921,
            42.859626,
            1013.39
          ],
          [
            1.159101,
            42.859553,
            1013.77
          ],
          [
            1.159041,
            42.859427,
            1014.21
          ],
          [
            1.158993,
            42.859038,
            1015.24
          ],
          [
            1.158964,
            42.858929,
            1015.3
          ],
          [
            1.158842,
            42.8588,
            1015.38
          ],
          [
            1.158707,
            42.858707,
            1015.62
          ],
          [
            1.158517,
            42.858639,
            1016.08
          ],
          [
            1.158266,
            42.858614,
            1016.81
          ],
          [
            1.157599,
            42.858626,
            1018.15
          ],
          [
            1.15729,
            42.858583,
            1018.27
          ],
          [
            1.156899,
            42.858488,
            1017.99
          ],
          [
            1.156586,
            42.858356,
            1017.56
          ],
          [
            1.156471,
            42.858287,
            1017.39
          ],
          [
            1.156286,
            42.858201,
            1017.22
          ],
          [
            1.156005,
            42.858113,
            1017.43
          ],
          [
            1.155659,
            42.858016,
            1018.46
          ],
          [
            1.155474,
            42.85797,
            1018.97
          ],
          [
            1.155117,
            42.857896,
            1019.83
          ],
          [
            1.155064,
            42.857879,
            1019.99
          ],
          [
            1.155013,
            42.857855,
            1020.16
          ],
          [
            1.154952,
            42.857808,
            1020.42
          ],
          [
            1.154758,
            42.857605,
            1021.51
          ],
          [
            1.154658,
            42.857527,
            1021.93
          ],
          [
            1.154466,
            42.857441,
            1022.38
          ],
          [
            1.153944,
            42.857242,
            1023.7
          ],
          [
            1.153742,
            42.857192,
            1024.58
          ],
          [
            1.153397,
            42.857158,
            1025.87
          ],
          [
            1.152602,
            42.857136,
            1028.82
          ],
          [
            1.152292,
            42.85712,
            1029.42
          ],
          [
            1.152107,
            42.857129,
            1029.46
          ],
          [
            1.151961,
            42.857151,
            1029.58
          ],
          [
            1.151877,
            42.857155,
            1029.73
          ],
          [
            1.151771,
            42.857148,
            1029.99
          ],
          [
            1.151404,
            42.857079,
            1031.45
          ],
          [
            1.151263,
            42.857072,
            1032.19
          ],
          [
            1.151137,
            42.857081,
            1032.89
          ],
          [
            1.150952,
            42.857109,
            1033.74
          ],
          [
            1.150814,
            42.857118,
            1034.11
          ],
          [
            1.150732,
            42.857112,
            1034.26
          ],
          [
            1.150628,
            42.857094,
            1034.44
          ],
          [
            1.150381,
            42.857028,
            1035.24
          ],
          [
            1.150246,
            42.856974,
            1035.88
          ],
          [
            1.15018,
            42.856925,
            1036.23
          ],
          [
            1.150149,
            42.856871,
            1036.48
          ],
          [
            1.150097,
            42.856694,
            1037.03
          ],
          [
            1.150031,
            42.856614,
            1037.26
          ],
          [
            1.149972,
            42.856581,
            1037.37
          ],
          [
            1.149803,
            42.856524,
            1037.49
          ],
          [
            1.149477,
            42.856464,
            1037.45
          ],
          [
            1.148369,
            42.856339,
            1040.46
          ],
          [
            1.147968,
            42.856304,
            1041.54
          ],
          [
            1.147588,
            42.856309,
            1043.19
          ],
          [
            1.147077,
            42.856367,
            1046.72
          ],
          [
            1.146472,
            42.856521,
            1052.11
          ],
          [
            1.145543,
            42.856725,
            1060.52
          ],
          [
            1.144853,
            42.856907,
            1065.3
          ],
          [
            1.144581,
            42.856991,
            1066.99
          ],
          [
            1.14436,
            42.857108,
            1068.69
          ],
          [
            1.144056,
            42.857306,
            1071.34
          ]
        ]
      }
    },
    {
      "type": "Feature",
      "properties": {
        "source": "Étang_dAyès.gpx",
        "type": "route"
      },
      "geometry": {
        "type": "LineString",
        "coordinates": [
          [
            1.164649,
            42.870306
          ],
          [
            1.163583,
            42.869866
          ],
          [
            1.163177,
            42.86343
          ],
          [
            1.163911,
            42.864709
          ],
          [
            1.162076,
            42.86517
          ],
          [
            1.158686,
            42.864215
          ],
          [
            1.158691,
            42.86426
          ],
          [
            1.156106,
            42.862782
          ],
          [
            1.155502,
            42.862498
          ],
          [
            1.155502,
            42.862498
          ],
          [
            1.158691,
            42.86426
          ],
          [
            1.158686,
            42.864215
          ],
          [
            1.162076,
            42.86517
          ],
          [
            1.163911,
            42.864709
          ],
          [
            1.163177,
            42.86343
          ],
          [
            1.144056,
            42.857306
          ]
        ]
      }
    }
  ]
}