{
  "type": "FeatureCollection",
  "features": [
    {
      "type": "Feature",
      "properties": {
        "name": "GraphHopper Track",
        "source": "Fort_Libéria_I.gpx",
        "type": "track"
      },
      "geometry": {
        "type": "LineString",
        "coordinates": [
          [
            2.366133,
            42.587304,
            436.3
          ],
          [
            2.36629,
            42.58736,
            435.55
          ],
          [
            2.36614,
            42.587553,
            429.57
          ],
          [
            2.365978,
            42.587853,
            433.23
          ],
          [
            2.366039,
            42.587986,
            434.86
          ],
          [
            2.366556,
            42.588695,
            493.36
          ],
          [
            2.365209,
            42.58961,
            591.68
          ],
          [
            2.365082,
            42.589521,
            592.25
          ],
          [
            2.365027,
            42.589559,
            595.84
          ],
          [
            2.364808,
            42.589585,
            597.76
          ],
          [
            2.364706,
            42.589701,
            599.89
          ],
          [
            2.364737,
            42.589826,
            602.58
          ],
          [
            2.364829,
            42.589872,
            603.85
          ],
          [
            2.364945,
            42.58984,
            601.47
          ],
          [
            2.36499,
            42.589727,
            599.6
          ],
          [
            2.36499,
            42.589727,
            599.6
          ],
          [
            2.364945,
            42.58984,
            601.47
          ],
          [
            2.364829,
            42.589872,
            603.85
          ],
          [
            2.364737,
            42.589826,
            602.58
          ],
          [
            2.364706,
            42.589701,
            599.89
          ],
          [
            2.364808,
            42.589585,
            597.76
          ],
          [
            2.365027,
            42.589559,
            595.84
          ],
          [
            2.365082,
            42.589521,
            592.25
          ],
          [
            2.365209,
            42.58961,
            591.68
          ],
          [
            2.366556,
            42.588695,
            493.36
          ],
          [
            2.366039,
            42.587986,
            434.86
          ],
          [
            2.365911,
            42.587997,
            436.47
          ],
          [
            2.365875,
            42.587983,
            436.38
          ],
          [
            2.365834,
            42.587922,
            436.19
          ],
          [
            2.365744,
            42.587829,
            436.09
          ],
          [
            2.365613,
            42.587764,
            435.94
          ],
          [
            2.365529,
            42.587742,
            436.11
          ]
        ]
      }
    },
    {
      "type": "Feature",
      "properties": {
        "source": "Fort_Libéria_I.gpx",
        "type": "route"
      },
      "geometry": {
        "type": "LineString",
        "coordinates": [
          [
            2.366133,
            42.587304
          ],
          [
            2.36629,
            42.58736
          ],
          [
            2.364829,
            42.589872
          ],
          [
            2.36499,
            42.589727
          ],
          [
            2.36499,
            42.589727
          ],
          [
            2.364829,
            42.589872
          ],
          [
            2.366039,
            42.587986
          ],
          [
            2.365529,
            42.587742
          ]
        ]
      }
    }
  ]
}