{
  "type": "FeatureCollection",
  "features": [
    {
      "type": "Feature",
      "properties": {
        "name": "GraphHopper Track",
        "source": "Lac_Saint-Denis.gpx",
        "type": "track"
      },
      "geometry": {
        "type": "LineString",
        "coordinates": [
          [
            2.235716,
            43.388553,
            725.91
          ],
          [
            2.235864,
            43.388301,
            723.23
          ],
          [
            2.23608,
            43.388046,
            720.09
          ],
          [
            2.236147,
            43.387911,
            718.64
          ],
          [
            2.236133,
            43.387853,
            718.19
          ],
          [
            2.236057,
            43.387747,
            717.19
          ],
          [
            2.235905,
            43.387486,
            714.57
          ],
          [
            2.235867,
            43.387183,
            711.81
          ],
          [
            2.236076,
            43.387255,
            712.46
          ],
          [
            2.236326,
            43.38742,
            713.12
          ],
          [
            2.236491,
            43.387491,
            712.67
          ],
          [
            2.236648,
            43.387499,
            711.98
          ],
          [
            2.236852,
            43.387461,
            711.34
          ],
          [
            2.237298,
            43.387345,
            709.07
          ],
          [
            2.23776,
            43.387301,
            705.97
          ],
          [
            2.238488,
            43.387272,
            700.8
          ],
          [
            2.238488,
            43.387272,
            700.8
          ],
          [
            2.23776,
            43.387301,
            705.97
          ],
          [
            2.237298,
            43.387345,
            709.07
          ],
          [
            2.236852,
            43.387461,
            711.34
          ],
          [
            2.236648,
            43.387499,
            711.98
          ],
          [
            2.236491,
            43.387491,
            712.67
          ],
          [
            2.236326,
            43.38742,
            713.12
          ],
          [
            2.236076,
            43.387255,
            712.46
          ],
          [
            2.235867,
            43.387183,
            711.81
          ],
          [
            2.235905,
            43.387486,
            714.57
          ],
          [
            2.236057,
            43.387747,
            717.19
          ],
          [
            2.236133,
            43.387853,
            718.19
          ],
          [
            2.236147,
            43.387911,
            718.64
          ],
          [
            2.23608,
            43.388046,
            720.09
          ],
          [
            2.235864,
            43.388301,
            723.23
          ],
          [
            2.235716,
            43.388553,
            725.91
          ]
        ]
      }
    },
    {
      "type": "Feature",
      "properties": {
        "source": "Lac_Saint-Denis.gpx",
        "type": "route"
      },
      "geometry": {
        "type": "LineString",
        "coordinates": [
          [
            2.235716,
            43.388553
          ],
          [
            2.235867,
            43.387183
          ],
          [
            2.238488,
            43.387272
          ],
          [
            2.238488,
            43.387272
          ],
          [
            2.235867,
            43.387183
          ],
          [
            2.235716,
            43.388553
          ]
        ]
      }
    }
  ]
}