{
  "type": "FeatureCollection",
  "features": [
    {
      "type": "Feature",
      "properties": {
        "name": "GraphHopper Track",
        "source": "Campagnac-Alos.gpx",
        "type": "track"
      },
      "geometry": {
        "type": "LineString",
        "coordinates": [
          [
            1.844659,
            44.030827,
            279.83
          ],
          [
            1.844861,
            44.0305,
            279.3
          ],
          [
            1.844905,
            44.030469,
            279.35
          ],
          [
            1.844955,
            44.030448,
            279.41
          ],
          [
            1.845328,
            44.030412,
            280.62
          ],
          [
            1.845401,
            44.030396,
            280.67
          ],
          [
            1.8455,
            44.030354,
            280.73
          ],
          [
            1.845585,
            44.030302,
            280.06
          ],
          [
            1.845808,
            44.030142,
            277.34
          ],
          [
            1.845869,
            44.030076,
            276.71
          ],
          [
            1.845946,
            44.029921,
            276.0
          ],
          [
            1.845948,
            44.029863,
            276.0
          ],
          [
            1.845924,
            44.029716,
            274.62
          ],
          [
            1.846447,
            44.029714,
            272.47
          ],
          [
            1.846729,
            44.02969,
            270.7
          ],
          [
            1.846946,
            44.029643,
            269.26
          ],
          [
            1.847277,
            44.029528,
            266.8
          ],
          [
            1.847729,
            44.029473,
            262.49
          ],
          [
            1.848183,
            44.029459,
            258.3
          ],
          [
            1.848409,
            44.029516,
            256.28
          ],
          [
            1.849483,
            44.029952,
            247.53
          ],
          [
            1.850016,
            44.030072,
            243.7
          ],
          [
            1.85051,
            44.03012,
            239.91
          ],
          [
            1.851283,
            44.03013,
            234.49
          ],
          [
            1.85187,
            44.030082,
            230.96
          ],
          [
            1.852304,
            44.030068,
            229.2
          ],
          [
            1.85261,
            44.030135,
            228.62
          ],
          [
            1.852817,
            44.030264,
            228.61
          ],
          [
            1.853071,
            44.030437,
            228.56
          ],
          [
            1.853391,
            44.030537,
            230.46
          ],
          [
            1.853637,
            44.030571,
            231.45
          ],
          [
            1.853753,
            44.030467,
            229.92
          ],
          [
            1.853983,
            44.030293,
            227.55
          ],
          [
            1.854442,
            44.030021,
            222.77
          ],
          [
            1.854524,
            44.029957,
            221.8
          ],
          [
            1.854599,
            44.029856,
            220.34
          ],
          [
            1.85471,
            44.029601,
            217.63
          ],
          [
            1.854744,
            44.029641,
            217.53
          ],
          [
            1.854811,
            44.029592,
            217.05
          ],
          [
            1.854911,
            44.029549,
            216.63
          ],
          [
            1.855152,
            44.029494,
            216.13
          ],
          [
            1.855537,
            44.029434,
            215.82
          ],
          [
            1.855822,
            44.029345,
            215.43
          ],
          [
            1.855953,
            44.029288,
            215.67
          ],
          [
            1.85599,
            44.029224,
            215.82
          ],
          [
            1.856005,
            44.029151,
            216.06
          ],
          [
            1.855955,
            44.0289,
            217.6
          ],
          [
            1.855953,
            44.028798,
            218.26
          ],
          [
            1.855995,
            44.028607,
            219.82
          ],
          [
            1.856224,
            44.028021,
            226.59
          ],
          [
            1.856485,
            44.027604,
            231.75
          ],
          [
            1.85654,
            44.02756,
            232.37
          ],
          [
            1.856599,
            44.027536,
            232.89
          ],
          [
            1.856662,
            44.027532,
            233.38
          ],
          [
            1.856733,
            44.027541,
            233.95
          ],
          [
            1.856764,
            44.027562,
            234.29
          ],
          [
            1.85677,
            44.027611,
            234.86
          ],
          [
            1.856724,
            44.027631,
            235.32
          ],
          [
            1.856714,
            44.027667,
            235.74
          ],
          [
            1.856728,
            44.027847,
            237.94
          ],
          [
            1.856737,
            44.027882,
            238.41
          ],
          [
            1.856763,
            44.0279,
            238.75
          ],
          [
            1.856804,
            44.027907,
            239.16
          ],
          [
            1.856951,
            44.027908,
            240.65
          ],
          [
            1.857,
            44.027916,
            241.19
          ],
          [
            1.857069,
            44.02795,
            242.12
          ],
          [
            1.857148,
            44.027967,
            243.05
          ],
          [
            1.857421,
            44.027959,
            246.51
          ],
          [
            1.858145,
            44.027818,
            257.85
          ],
          [
            1.858607,
            44.027675,
            265.58
          ],
          [
            1.858876,
            44.027581,
            269.87
          ],
          [
            1.859505,
            44.027285,
            278.93
          ],
          [
            1.859655,
            44.027256,
            280.2
          ],
          [
            1.859833,
            44.027233,
            281.35
          ],
          [
            1.859969,
            44.02723,
            282.05
          ],
          [
            1.860136,
            44.027196,
            282.72
          ],
          [
            1.860657,
            44.027048,
            283.51
          ],
          [
            1.861303,
            44.026812,
            282.9
          ],
          [
            1.86113,
            44.026547,
            282.86
          ],
          [
            1.86101,
            44.026417,
            282.6
          ],
          [
            1.86086,
            44.026297,
            282.23
          ],
          [
            1.86082,
            44.026243,
            282.03
          ],
          [
            1.860819,
            44.026188,
            282.0
          ],
          [
            1.860838,
            44.026137,
            282.0
          ],
          [
            1.860893,
            44.026104,
            282.0
          ],
          [
            1.86121,
            44.026035,
            281.78
          ],
          [
            1.861341,
            44.025984,
            281.53
          ],
          [
            1.861781,
            44.025734,
            280.17
          ],
          [
            1.861951,
            44.025645,
            279.49
          ],
          [
            1.862076,
            44.025595,
            278.99
          ],
          [
            1.862235,
            44.025554,
            278.46
          ],
          [
            1.862584,
            44.025495,
            276.87
          ],
          [
            1.862734,
            44.025447,
            275.95
          ],
          [
            1.862891,
            44.025339,
            274.53
          ],
          [
            1.863342,
            44.025212,
            271.19
          ],
          [
            1.863821,
            44.025105,
            267.63
          ],
          [
            1.864173,
            44.025037,
            265.03
          ],
          [
            1.864505,
            44.024944,
            262.53
          ],
          [
            1.864743,
            44.024823,
            260.5
          ],
          [
            1.865246,
            44.024589,
            257.26
          ],
          [
            1.865515,
            44.024454,
            255.67
          ],
          [
            1.865653,
            44.024392,
            255.07
          ],
          [
            1.865841,
            44.024327,
            254.8
          ],
          [
            1.866086,
            44.024205,
            253.72
          ],
          [
            1.8663,
            44.024121,
            251.76
          ],
          [
            1.86653,
            44.024069,
            249.39
          ],
          [
            1.866857,
            44.023973,
            246.17
          ],
          [
            1.867339,
            44.023791,
            240.2
          ],
          [
            1.867568,
            44.023739,
            237.55
          ],
          [
            1.868095,
            44.023546,
            231.06
          ],
          [
            1.868268,
            44.023398,
            228.45
          ],
          [
            1.868414,
            44.023251,
            226.57
          ],
          [
            1.868508,
            44.023175,
            225.73
          ],
          [
            1.868611,
            44.02314,
            225.15
          ],
          [
            1.86874,
            44.023162,
            224.58
          ],
          [
            1.868836,
            44.023223,
            224.14
          ],
          [
            1.868991,
            44.023352,
            223.47
          ],
          [
            1.869096,
            44.02338,
            223.22
          ],
          [
            1.869158,
            44.02338,
            223.09
          ],
          [
            1.869232,
            44.023337,
            222.95
          ],
          [
            1.869385,
            44.023218,
            222.81
          ],
          [
            1.86968,
            44.023102,
            222.72
          ],
          [
            1.87001,
            44.023063,
            222.59
          ],
          [
            1.870402,
            44.023081,
            222.42
          ],
          [
            1.870895,
            44.023157,
            222.88
          ],
          [
            1.871034,
            44.023114,
            223.0
          ],
          [
            1.871417,
            44.023013,
            223.85
          ],
          [
            1.871565,
            44.023024,
            224.39
          ],
          [
            1.871702,
            44.023094,
            225.21
          ],
          [
            1.871529,
            44.022798,
            225.1
          ],
          [
            1.871265,
            44.022471,
            226.05
          ],
          [
            1.870985,
            44.022276,
            226.59
          ],
          [
            1.870718,
            44.022181,
            227.5
          ],
          [
            1.870507,
            44.022142,
            228.44
          ],
          [
            1.870223,
            44.022121,
            229.97
          ],
          [
            1.870096,
            44.022083,
            230.82
          ],
          [
            1.870108,
            44.021983,
            231.82
          ],
          [
            1.870101,
            44.021904,
            232.74
          ],
          [
            1.869946,
            44.021699,
            235.69
          ],
          [
            1.869915,
            44.021573,
            237.31
          ],
          [
            1.869933,
            44.021449,
            238.85
          ],
          [
            1.870009,
            44.021262,
            241.04
          ],
          [
            1.869992,
            44.020798,
            245.43
          ],
          [
            1.869905,
            44.020396,
            249.04
          ],
          [
            1.869895,
            44.020128,
            252.12
          ],
          [
            1.869953,
            44.019982,
            254.08
          ],
          [
            1.87031,
            44.01952,
            261.18
          ],
          [
            1.870719,
            44.019139,
            266.7
          ],
          [
            1.870822,
            44.018962,
            268.26
          ],
          [
            1.871012,
            44.018562,
            270.75
          ],
          [
            1.871154,
            44.018292,
            271.71
          ],
          [
            1.871264,
            44.018209,
            271.99
          ],
          [
            1.87136,
            44.018095,
            272.27
          ],
          [
            1.871439,
            44.01795,
            272.56
          ],
          [
            1.871483,
            44.017806,
            272.94
          ],
          [
            1.871448,
            44.017802,
            272.83
          ],
          [
            1.871449,
            44.017734,
            272.73
          ],
          [
            1.871674,
            44.017276,
            272.86
          ],
          [
            1.871672,
            44.017191,
            272.53
          ],
          [
            1.871588,
            44.017099,
            271.59
          ],
          [
            1.871514,
            44.017041,
            271.15
          ],
          [
            1.871472,
            44.016996,
            270.87
          ],
          [
            1.871446,
            44.016935,
            270.48
          ],
          [
            1.871437,
            44.016751,
            269.02
          ],
          [
            1.87142,
            44.016694,
            268.64
          ],
          [
            1.871292,
            44.016562,
            267.59
          ],
          [
            1.871175,
            44.016467,
            266.72
          ],
          [
            1.871108,
            44.016371,
            265.94
          ],
          [
            1.871057,
            44.016277,
            265.19
          ],
          [
            1.870997,
            44.016218,
            264.63
          ],
          [
            1.870934,
            44.016188,
            264.21
          ],
          [
            1.870841,
            44.016173,
            263.68
          ],
          [
            1.870483,
            44.016218,
            261.86
          ],
          [
            1.870331,
            44.016211,
            261.12
          ],
          [
            1.870038,
            44.016159,
            259.64
          ],
          [
            1.86952,
            44.016097,
            257.4
          ],
          [
            1.869357,
            44.016086,
            256.85
          ],
          [
            1.869191,
            44.016092,
            256.34
          ],
          [
            1.869069,
            44.016105,
            256.0
          ],
          [
            1.868687,
            44.016231,
            255.43
          ],
          [
            1.868574,
            44.016253,
            255.41
          ],
          [
            1.86846,
            44.01627,
            255.44
          ],
          [
            1.868226,
            44.016264,
            255.66
          ],
          [
            1.868043,
            44.016279,
            255.94
          ],
          [
            1.867949,
            44.016308,
            256.17
          ],
          [
            1.867406,
            44.016616,
            258.4
          ],
          [
            1.867324,
            44.016635,
            258.72
          ],
          [
            1.867173,
            44.016655,
            259.28
          ],
          [
            1.866911,
            44.016672,
            260.27
          ],
          [
            1.866723,
            44.016721,
            260.74
          ],
          [
            1.866723,
            44.016721,
            260.74
          ],
          [
            1.866911,
            44.016672,
            260.27
          ],
          [
            1.867173,
            44.016655,
            259.28
          ],
          [
            1.867324,
            44.016635,
            258.72
          ],
          [
            1.867406,
            44.016616,
            258.4
          ],
          [
            1.867949,
            44.016308,
            256.17
          ],
          [
            1.868043,
            44.016279,
            255.94
          ],
          [
            1.868226,
            44.016264,
            255.66
          ],
          [
            1.86846,
            44.01627,
            255.44
          ],
          [
            1.868574,
            44.016253,
            255.41
          ],
          [
            1.868687,
            44.016231,
            255.43
          ],
          [
            1.869069,
            44.016105,
            256.0
          ],
          [
            1.869191,
            44.016092,
            256.34
          ],
          [
            1.869357,
            44.016086,
            256.85
          ],
          [
            1.86952,
            44.016097,
            257.4
          ],
          [
            1.870038,
            44.016159,
            259.64
          ],
          [
            1.870331,
            44.016211,
            261.12
          ],
          [
            1.870483,
            44.016218,
            261.86
          ],
          [
            1.870841,
            44.016173,
            263.68
          ],
          [
            1.870934,
            44.016188,
            264.21
          ],
          [
            1.870997,
            44.016218,
            264.63
          ],
          [
            1.871057,
            44.016277,
            265.19
          ],
          [
            1.871108,
            44.016371,
            265.94
          ],
          [
            1.871175,
            44.016467,
            266.72
          ],
          [
            1.871292,
            44.016562,
            267.59
          ],
          [
            1.87142,
            44.016694,
            268.64
          ],
          [
            1.871437,
            44.016751,
            269.02
          ],
          [
            1.871446,
            44.016935,
            270.48
          ],
          [
            1.871472,
            44.016996,
            270.87
          ],
          [
            1.871514,
            44.017041,
            271.15
          ],
          [
            1.871588,
            44.017099,
            271.59
          ],
          [
            1.871672,
            44.017191,
            272.53
          ],
          [
            1.871674,
            44.017276,
            272.86
          ],
          [
            1.871449,
            44.017734,
            272.73
          ],
          [
            1.871448,
            44.017802,
            272.83
          ],
          [
            1.871483,
            44.017806,
            272.94
          ],
          [
            1.871439,
            44.01795,
            272.56
          ],
          [
            1.87136,
            44.018095,
            272.27
          ],
          [
            1.871264,
            44.018209,
            271.99
          ],
          [
            1.871154,
            44.018292,
            271.71
          ],
          [
            1.871012,
            44.018562,
            270.75
          ],
          [
            1.870822,
            44.018962,
            268.26
          ],
          [
            1.870719,
            44.019139,
            266.7
          ],
          [
            1.87031,
            44.01952,
            261.18
          ],
          [
            1.869953,
            44.019982,
            254.08
          ],
          [
            1.869895,
            44.020128,
            252.12
          ],
          [
            1.869905,
            44.020396,
            249.04
          ],
          [
            1.869992,
            44.020798,
            245.43
          ],
          [
            1.870009,
            44.021262,
            241.04
          ],
          [
            1.869933,
            44.021449,
            238.85
          ],
          [
            1.869915,
            44.021573,
            237.31
          ],
          [
            1.869946,
            44.021699,
            235.69
          ],
          [
            1.870101,
            44.021904,
            232.74
          ],
          [
            1.870108,
            44.021983,
            231.82
          ],
          [
            1.870096,
            44.022083,
            230.82
          ],
          [
            1.870223,
            44.022121,
            229.97
          ],
          [
            1.870507,
            44.022142,
            228.44
          ],
          [
            1.870718,
            44.022181,
            227.5
          ],
          [
            1.870985,
            44.022276,
            226.59
          ],
          [
            1.871265,
            44.022471,
            226.05
          ],
          [
            1.871529,
            44.022798,
            225.1
          ],
          [
            1.871702,
            44.023094,
            225.21
          ],
          [
            1.871948,
            44.023296,
            227.68
          ],
          [
            1.872198,
            44.023418,
            228.47
          ],
          [
            1.87258,
            44.023533,
            229.47
          ],
          [
            1.873195,
            44.023546,
            230.08
          ],
          [
            1.873206,
            44.023503,
            230.4
          ],
          [
            1.873255,
            44.023464,
            230.69
          ],
          [
            1.873706,
            44.023308,
            231.89
          ],
          [
            1.87411,
            44.023147,
            232.92
          ],
          [
            1.875172,
            44.022942,
            235.57
          ],
          [
            1.875575,
            44.022904,
            236.62
          ]
        ]
      }
    },
    {
      "type": "Feature",
      "properties": {
        "source": "Campagnac-Alos.gpx",
        "type": "route"
      },
      "geometry": {
        "type": "LineString",
        "coordinates": [
          [
            1.844659,
            44.030827
          ],
          [
            1.845924,
            44.029716
          ],
          [
            1.847277,
            44.029528
          ],
          [
            1.853637,
            44.030571
          ],
          [
            1.85471,
            44.029601
          ],
          [
            1.854744,
            44.029641
          ],
          [
            1.861303,
            44.026812
          ],
          [
            1.860838,
            44.026137
          ],
          [
            1.862891,
            44.025339
          ],
          [
            1.871702,
            44.023094
          ],
          [
            1.871483,
            44.017806
          ],
          [
            1.871448,
            44.017802
          ],
          [
            1.866723,
            44.016721
          ],
          [
            1.866723,
            44.016721
          ],
          [
            1.871448,
            44.017802
          ],
          [
            1.871483,
            44.017806
          ],
          [
            1.873195,
            44.023546
          ],
          [
            1.875575,
            44.022904
          ]
        ]
      }
    }
  ]
}