{
  "type": "FeatureCollection",
  "features": [
    {
      "type": "Feature",
      "properties": {
        "name": "GraphHopper Track",
        "source": "Circuit_Grésigne.gpx",
        "type": "track"
      },
      "geometry": {
        "type": "LineString",
        "coordinates": [
          [
            1.835707,
            44.033443,
            316.82
          ],
          [
            1.835193,
            44.033502,
            318.24
          ],
          [
            1.834889,
            44.033612,
            319.19
          ],
          [
            1.834625,
            44.033807,
            320.2
          ],
          [
            1.834474,
            44.034016,
            321.08
          ],
          [
            1.834411,
            44.034225,
            321.8
          ],
          [
            1.834441,
            44.034464,
            322.57
          ],
          [
            1.834741,
            44.035038,
            324.81
          ],
          [
            1.834788,
            44.035248,
            325.75
          ],
          [
            1.83478,
            44.035444,
            326.72
          ],
          [
            1.834634,
            44.035953,
            329.85
          ],
          [
            1.834295,
            44.03643,
            333.22
          ],
          [
            1.833973,
            44.036685,
            335.46
          ],
          [
            1.833609,
            44.036897,
            337.4
          ],
          [
            1.833273,
            44.036986,
            338.78
          ],
          [
            1.832903,
            44.037,
            340.23
          ],
          [
            1.832242,
            44.03692,
            342.27
          ],
          [
            1.832007,
            44.036958,
            342.91
          ],
          [
            1.831801,
            44.037049,
            343.59
          ],
          [
            1.831608,
            44.037181,
            344.29
          ],
          [
            1.831135,
            44.037605,
            346.71
          ],
          [
            1.830451,
            44.038,
            341.45
          ],
          [
            1.830264,
            44.038097,
            339.29
          ],
          [
            1.830147,
            44.038073,
            338.12
          ],
          [
            1.82994,
            44.038083,
            335.97
          ],
          [
            1.829584,
            44.038173,
            331.68
          ],
          [
            1.829284,
            44.038214,
            327.94
          ],
          [
            1.829114,
            44.038214,
            325.87
          ],
          [
            1.828966,
            44.038242,
            324.01
          ],
          [
            1.828817,
            44.038252,
            322.2
          ],
          [
            1.828686,
            44.03829,
            320.44
          ],
          [
            1.828593,
            44.03828,
            319.24
          ],
          [
            1.828486,
            44.038235,
            317.6
          ],
          [
            1.828289,
            44.038207,
            314.87
          ],
          [
            1.828078,
            44.038249,
            311.75
          ],
          [
            1.827592,
            44.038363,
            304.06
          ],
          [
            1.827412,
            44.038359,
            301.14
          ],
          [
            1.827122,
            44.038387,
            295.86
          ],
          [
            1.826974,
            44.03838,
            293.1
          ],
          [
            1.826949,
            44.038487,
            290.37
          ],
          [
            1.827039,
            44.038605,
            287.12
          ],
          [
            1.827119,
            44.038736,
            283.73
          ],
          [
            1.827091,
            44.038805,
            282.06
          ],
          [
            1.82697,
            44.038839,
            279.93
          ],
          [
            1.826777,
            44.038822,
            276.77
          ],
          [
            1.826528,
            44.038784,
            272.83
          ],
          [
            1.825986,
            44.038725,
            265.38
          ],
          [
            1.825845,
            44.038691,
            263.55
          ],
          [
            1.825599,
            44.03856,
            259.71
          ],
          [
            1.825508,
            44.038435,
            257.34
          ],
          [
            1.825475,
            44.038408,
            256.74
          ],
          [
            1.825423,
            44.038387,
            255.99
          ],
          [
            1.825302,
            44.038386,
            254.06
          ],
          [
            1.82495,
            44.038996,
            254.3
          ],
          [
            1.824851,
            44.039197,
            254.36
          ],
          [
            1.824751,
            44.039327,
            254.41
          ],
          [
            1.824496,
            44.039573,
            255.0
          ],
          [
            1.824496,
            44.039573,
            255.0
          ],
          [
            1.824751,
            44.039327,
            254.41
          ],
          [
            1.824851,
            44.039197,
            254.36
          ],
          [
            1.82495,
            44.038996,
            254.3
          ],
          [
            1.825302,
            44.038386,
            254.06
          ],
          [
            1.825423,
            44.038387,
            255.99
          ],
          [
            1.825475,
            44.038408,
            256.74
          ],
          [
            1.825508,
            44.038435,
            257.34
          ],
          [
            1.825599,
            44.03856,
            259.71
          ],
          [
            1.825845,
            44.038691,
            263.55
          ],
          [
            1.825986,
            44.038725,
            265.38
          ],
          [
            1.826528,
            44.038784,
            272.83
          ],
          [
            1.826777,
            44.038822,
            276.77
          ],
          [
            1.82697,
            44.038839,
            279.93
          ],
          [
            1.827091,
            44.038805,
            282.06
          ],
          [
            1.827119,
            44.038736,
            283.73
          ],
          [
            1.827039,
            44.038605,
            287.12
          ],
          [
            1.826949,
            44.038487,
            290.37
          ],
          [
            1.826974,
            44.03838,
            293.1
          ],
          [
            1.827122,
            44.038387,
            295.86
          ],
          [
            1.827412,
            44.038359,
            301.14
          ],
          [
            1.827592,
            44.038363,
            304.06
          ],
          [
            1.828078,
            44.038249,
            311.75
          ],
          [
            1.828289,
            44.038207,
            314.87
          ],
          [
            1.828486,
            44.038235,
            317.6
          ],
          [
            1.828593,
            44.03828,
            319.24
          ],
          [
            1.828686,
            44.03829,
            320.44
          ],
          [
            1.828817,
            44.038252,
            322.2
          ],
          [
            1.828966,
            44.038242,
            324.01
          ],
          [
            1.829114,
            44.038214,
            325.87
          ],
          [
            1.829284,
            44.038214,
            327.94
          ],
          [
            1.829584,
            44.038173,
            331.68
          ],
          [
            1.82994,
            44.038083,
            335.97
          ],
          [
            1.830147,
            44.038073,
            338.12
          ],
          [
            1.830264,
            44.038097,
            339.29
          ],
          [
            1.830451,
            44.038,
            341.45
          ],
          [
            1.831135,
            44.037605,
            346.71
          ],
          [
            1.831608,
            44.037181,
            344.29
          ],
          [
            1.831801,
            44.037049,
            343.59
          ],
          [
            1.832007,
            44.036958,
            342.91
          ],
          [
            1.832242,
            44.03692,
            342.27
          ],
          [
            1.832903,
            44.037,
            340.23
          ],
          [
            1.833273,
            44.036986,
            338.78
          ],
          [
            1.833609,
            44.036897,
            337.4
          ],
          [
            1.833973,
            44.036685,
            335.46
          ],
          [
            1.834295,
            44.03643,
            333.22
          ],
          [
            1.834634,
            44.035953,
            329.85
          ],
          [
            1.83478,
            44.035444,
            326.72
          ],
          [
            1.834788,
            44.035248,
            325.75
          ],
          [
            1.834741,
            44.035038,
            324.81
          ],
          [
            1.834441,
            44.034464,
            322.57
          ],
          [
            1.834411,
            44.034225,
            321.8
          ],
          [
            1.834474,
            44.034016,
            321.08
          ],
          [
            1.834625,
            44.033807,
            320.2
          ],
          [
            1.834889,
            44.033612,
            319.19
          ],
          [
            1.835193,
            44.033502,
            318.24
          ],
          [
            1.835707,
            44.033443,
            316.82
          ]
        ]
      }
    },
    {
      "type": "Feature",
      "properties": {
        "source": "Circuit_Grésigne.gpx",
        "type": "route"
      },
      "geometry": {
        "type": "LineString",
        "coordinates": [
          [
            1.835707,
            44.033443
          ],
          [
            1.831135,
            44.037605
          ],
          [
            1.825302,
            44.038386
          ],
          [
            1.824496,
            44.039573
          ],
          [
            1.824496,
            44.039573
          ],
          [
            1.825302,
            44.038386
          ],
          [
            1.831135,
            44.037605
          ],
          [
            1.835707,
            44.033443
          ]
        ]
      }
    }
  ]
}