{
  "type": "FeatureCollection",
  "features": [
    {
      "type": "Feature",
      "properties": {
        "name": "GraphHopper Track",
        "source": "Boucle_Lacroix-Barrez.gpx",
        "type": "track"
      },
      "geometry": {
        "type": "LineString",
        "coordinates": [
          [
            2.634739,
            44.78493,
            759.34
          ],
          [
            2.635299,
            44.784884,
            760.53
          ],
          [
            2.635937,
            44.784717,
            763.72
          ],
          [
            2.636377,
            44.784302,
            767.89
          ],
          [
            2.636903,
            44.784066,
            770.22
          ],
          [
            2.637257,
            44.78383,
            770.01
          ],
          [
            2.637536,
            44.783312,
            767.76
          ],
          [
            2.637761,
            44.783053,
            766.31
          ],
          [
            2.637838,
            44.782848,
            766.38
          ],
          [
            2.637731,
            44.782673,
            766.84
          ],
          [
            2.637713,
            44.782479,
            766.84
          ],
          [
            2.638193,
            44.781915,
            766.43
          ],
          [
            2.638426,
            44.781568,
            766.0
          ],
          [
            2.638775,
            44.781186,
            765.06
          ],
          [
            2.638822,
            44.781115,
            765.0
          ],
          [
            2.638362,
            44.780808,
            765.19
          ],
          [
            2.637617,
            44.780293,
            767.2
          ],
          [
            2.637214,
            44.78,
            769.3
          ],
          [
            2.637139,
            44.779828,
            770.97
          ],
          [
            2.636847,
            44.77962,
            772.2
          ],
          [
            2.636659,
            44.7796,
            772.0
          ],
          [
            2.636527,
            44.779563,
            771.81
          ],
          [
            2.636414,
            44.779413,
            771.4
          ],
          [
            2.636325,
            44.77921,
            771.24
          ],
          [
            2.636143,
            44.778963,
            771.12
          ],
          [
            2.635983,
            44.778853,
            771.49
          ],
          [
            2.635731,
            44.778743,
            771.87
          ],
          [
            2.635397,
            44.778525,
            772.0
          ],
          [
            2.635214,
            44.778425,
            772.0
          ],
          [
            2.635331,
            44.778367,
            772.0
          ],
          [
            2.635632,
            44.778124,
            772.0
          ],
          [
            2.635764,
            44.778043,
            772.0
          ],
          [
            2.636158,
            44.777859,
            771.54
          ],
          [
            2.636234,
            44.777951,
            771.84
          ],
          [
            2.636234,
            44.777951,
            771.84
          ],
          [
            2.636158,
            44.777859,
            771.54
          ],
          [
            2.635764,
            44.778043,
            772.0
          ],
          [
            2.635632,
            44.778124,
            772.0
          ],
          [
            2.635331,
            44.778367,
            772.0
          ],
          [
            2.635214,
            44.778425,
            772.0
          ],
          [
            2.635168,
            44.7784,
            772.0
          ],
          [
            2.634906,
            44.778317,
            772.0
          ],
          [
            2.634641,
            44.778279,
            772.0
          ],
          [
            2.634415,
            44.778264,
            772.0
          ],
          [
            2.634155,
            44.778161,
            771.75
          ],
          [
            2.63395,
            44.778003,
            771.32
          ],
          [
            2.633594,
            44.777831,
            771.0
          ],
          [
            2.632125,
            44.777226,
            770.0
          ],
          [
            2.63196,
            44.777225,
            770.0
          ],
          [
            2.631904,
            44.777118,
            769.98
          ],
          [
            2.631784,
            44.776945,
            769.92
          ],
          [
            2.631901,
            44.776893,
            769.99
          ],
          [
            2.631808,
            44.776624,
            769.66
          ],
          [
            2.631444,
            44.776132,
            769.86
          ],
          [
            2.631041,
            44.775729,
            770.0
          ],
          [
            2.630983,
            44.775685,
            770.0
          ],
          [
            2.630795,
            44.775923,
            770.0
          ],
          [
            2.630669,
            44.776033,
            770.0
          ],
          [
            2.630579,
            44.776057,
            770.0
          ]
        ]
      }
    },
    {
      "type": "Feature",
      "properties": {
        "source": "Boucle_Lacroix-Barrez.gpx",
        "type": "route"
      },
      "geometry": {
        "type": "LineString",
        "coordinates": [
          [
            2.634739,
            44.78493
          ],
          [
            2.637838,
            44.782848
          ],
          [
            2.638822,
            44.781115
          ],
          [
            2.636847,
            44.77962
          ],
          [
            2.636659,
            44.7796
          ],
          [
            2.635214,
            44.778425
          ],
          [
            2.636158,
            44.777859
          ],
          [
            2.636234,
            44.777951
          ],
          [
            2.636234,
            44.777951
          ],
          [
            2.636158,
            44.777859
          ],
          [
            2.635214,
            44.778425
          ],
          [
            2.63196,
            44.777225
          ],
          [
            2.631784,
            44.776945
          ],
          [
            2.631901,
            44.776893
          ],
          [
            2.630983,
            44.775685
          ],
          [
            2.630579,
            44.776057
          ]
        ]
      }
    }
  ]
}