{
  "type": "FeatureCollection",
  "features": [
    {
      "type": "Feature",
      "properties": {
        "name": "GraphHopper Track",
        "source": "Crêtes_du_Puymorens.gpx",
        "type": "track"
      },
      "geometry": {
        "type": "LineString",
        "coordinates": [
          [
            1.812038,
            42.56181,
            1933.76
          ],
          [
            1.811942,
            42.561901,
            1932.78
          ],
          [
            1.811907,
            42.561955,
            1932.29
          ],
          [
            1.811823,
            42.562247,
            1929.85
          ],
          [
            1.811757,
            42.562279,
            1929.3
          ],
          [
            1.811677,
            42.562287,
            1928.77
          ],
          [
            1.811572,
            42.562279,
            1928.17
          ],
          [
            1.811457,
            42.562253,
            1927.6
          ],
          [
            1.811313,
            42.562253,
            1927.35
          ],
          [
            1.811262,
            42.562287,
            1927.26
          ],
          [
            1.811101,
            42.562365,
            1926.58
          ],
          [
            1.810948,
            42.562163,
            1924.78
          ],
          [
            1.81086,
            42.562095,
            1923.85
          ],
          [
            1.810718,
            42.561893,
            1922.26
          ],
          [
            1.810545,
            42.561592,
            1921.41
          ],
          [
            1.810435,
            42.561338,
            1920.69
          ],
          [
            1.81015,
            42.560948,
            1919.43
          ],
          [
            1.810065,
            42.560794,
            1919.01
          ],
          [
            1.810038,
            42.560584,
            1918.35
          ],
          [
            1.810047,
            42.560415,
            1917.69
          ],
          [
            1.810075,
            42.560304,
            1917.52
          ],
          [
            1.810132,
            42.56024,
            1917.53
          ],
          [
            1.810177,
            42.560083,
            1917.12
          ],
          [
            1.810167,
            42.560017,
            1917.21
          ],
          [
            1.810184,
            42.559924,
            1917.25
          ],
          [
            1.810446,
            42.55947,
            1915.99
          ],
          [
            1.810586,
            42.559401,
            1915.16
          ],
          [
            1.810478,
            42.559312,
            1915.22
          ],
          [
            1.810372,
            42.559241,
            1915.42
          ],
          [
            1.810143,
            42.559065,
            1913.72
          ],
          [
            1.809922,
            42.558923,
            1911.63
          ],
          [
            1.809553,
            42.558726,
            1908.3
          ],
          [
            1.808752,
            42.558326,
            1898.43
          ],
          [
            1.80808,
            42.557946,
            1887.57
          ],
          [
            1.80744,
            42.557671,
            1878.96
          ],
          [
            1.806597,
            42.557274,
            1868.62
          ],
          [
            1.806237,
            42.55713,
            1865.15
          ],
          [
            1.806001,
            42.556973,
            1863.4
          ],
          [
            1.805893,
            42.556918,
            1862.98
          ],
          [
            1.805602,
            42.556813,
            1862.55
          ],
          [
            1.805266,
            42.556721,
            1862.84
          ],
          [
            1.805027,
            42.556681,
            1863.35
          ],
          [
            1.804893,
            42.55665,
            1863.9
          ],
          [
            1.804809,
            42.556589,
            1864.43
          ],
          [
            1.804751,
            42.556479,
            1865.07
          ],
          [
            1.804718,
            42.556308,
            1865.59
          ],
          [
            1.804756,
            42.556213,
            1865.39
          ],
          [
            1.805059,
            42.556111,
            1863.71
          ],
          [
            1.80532,
            42.556052,
            1862.43
          ],
          [
            1.805478,
            42.556043,
            1861.82
          ],
          [
            1.805629,
            42.556274,
            1859.64
          ],
          [
            1.805694,
            42.556346,
            1859.2
          ],
          [
            1.805762,
            42.556389,
            1858.99
          ],
          [
            1.80586,
            42.556399,
            1858.83
          ],
          [
            1.806006,
            42.556367,
            1858.68
          ],
          [
            1.806151,
            42.556314,
            1858.53
          ],
          [
            1.806151,
            42.556314,
            1858.53
          ],
          [
            1.806006,
            42.556367,
            1858.68
          ],
          [
            1.80586,
            42.556399,
            1858.83
          ],
          [
            1.805762,
            42.556389,
            1858.99
          ],
          [
            1.805694,
            42.556346,
            1859.2
          ],
          [
            1.805629,
            42.556274,
            1859.64
          ],
          [
            1.805478,
            42.556043,
            1861.82
          ],
          [
            1.80532,
            42.556052,
            1862.43
          ],
          [
            1.805059,
            42.556111,
            1863.71
          ],
          [
            1.804756,
            42.556213,
            1865.39
          ],
          [
            1.804665,
            42.556231,
            1866.16
          ],
          [
            1.804519,
            42.556231,
            1866.91
          ],
          [
            1.804323,
            42.55619,
            1868.16
          ],
          [
            1.804184,
            42.556148,
            1869.13
          ],
          [
            1.803935,
            42.556027,
            1871.05
          ],
          [
            1.803428,
            42.555834,
            1875.5
          ],
          [
            1.803013,
            42.555742,
            1878.64
          ],
          [
            1.8025,
            42.555582,
            1883.33
          ],
          [
            1.802364,
            42.555535,
            1884.73
          ],
          [
            1.802159,
            42.555414,
            1887.41
          ],
          [
            1.802028,
            42.555389,
            1888.92
          ],
          [
            1.801929,
            42.555389,
            1890.09
          ],
          [
            1.801585,
            42.555428,
            1894.55
          ],
          [
            1.801016,
            42.555457,
            1902.93
          ],
          [
            1.800702,
            42.555442,
            1907.96
          ],
          [
            1.800395,
            42.555415,
            1912.88
          ],
          [
            1.80021,
            42.555383,
            1915.85
          ],
          [
            1.799709,
            42.555255,
            1924.1
          ],
          [
            1.799276,
            42.555117,
            1931.36
          ],
          [
            1.798536,
            42.554949,
            1943.39
          ],
          [
            1.798212,
            42.554803,
            1949.55
          ],
          [
            1.797863,
            42.554717,
            1955.48
          ],
          [
            1.797453,
            42.554632,
            1962.43
          ],
          [
            1.797144,
            42.554507,
            1968.12
          ],
          [
            1.796664,
            42.554431,
            1976.29
          ],
          [
            1.795955,
            42.554211,
            1987.36
          ],
          [
            1.794944,
            42.553849,
            2002.45
          ],
          [
            1.79442,
            42.553632,
            2011.11
          ],
          [
            1.794121,
            42.553492,
            2016.59
          ],
          [
            1.793751,
            42.553337,
            2023.25
          ],
          [
            1.793399,
            42.553227,
            2029.33
          ],
          [
            1.793058,
            42.553099,
            2035.07
          ],
          [
            1.792757,
            42.552999,
            2039.67
          ],
          [
            1.792264,
            42.552858,
            2047.25
          ],
          [
            1.792137,
            42.552777,
            2049.84
          ],
          [
            1.792027,
            42.552596,
            2054.07
          ],
          [
            1.79181,
            42.552489,
            2058.3
          ],
          [
            1.791536,
            42.552301,
            2064.75
          ]
        ]
      }
    },
    {
      "type": "Feature",
      "properties": {
        "source": "Crêtes_du_Puymorens.gpx",
        "type": "route"
      },
      "geometry": {
        "type": "LineString",
        "coordinates": [
          [
            1.812038,
            42.56181
          ],
          [
            1.811101,
            42.562365
          ],
          [
            1.810177,
            42.560083
          ],
          [
            1.810586,
            42.559401
          ],
          [
            1.804756,
            42.556213
          ],
          [
            1.805478,
            42.556043
          ],
          [
            1.806151,
            42.556314
          ],
          [
            1.806151,
            42.556314
          ],
          [
            1.805478,
            42.556043
          ],
          [
            1.791536,
            42.552301
          ]
        ]
      }
    }
  ]
}