{
  "type": "FeatureCollection",
  "features": [
    {
      "type": "Feature",
      "properties": {
        "name": "GraphHopper Track",
        "source": "Château_Chalabre.gpx",
        "type": "track"
      },
      "geometry": {
        "type": "LineString",
        "coordinates": [
          [
            2.006667,
            42.982685,
            375.0
          ],
          [
            2.006847,
            42.982628,
            375.0
          ],
          [
            2.006956,
            42.982782,
            376.0
          ],
          [
            2.007156,
            42.982721,
            375.91
          ],
          [
            2.007356,
            42.983041,
            377.86
          ],
          [
            2.007439,
            42.983152,
            378.34
          ],
          [
            2.00791,
            42.983109,
            384.31
          ],
          [
            2.00791,
            42.983109,
            384.31
          ],
          [
            2.007439,
            42.983152,
            378.34
          ],
          [
            2.007523,
            42.983265,
            378.87
          ],
          [
            2.007572,
            42.98345,
            379.33
          ],
          [
            2.007548,
            42.98362,
            379.62
          ],
          [
            2.00748,
            42.983754,
            378.77
          ],
          [
            2.008492,
            42.98423,
            385.39
          ],
          [
            2.008642,
            42.984283,
            385.94
          ]
        ]
      }
    },
    {
      "type": "Feature",
      "properties": {
        "source": "Château_Chalabre.gpx",
        "type": "route"
      },
      "geometry": {
        "type": "LineString",
        "coordinates": [
          [
            2.006667,
            42.982685
          ],
          [
            2.006847,
            42.982628
          ],
          [
            2.006956,
            42.982782
          ],
          [
            2.007156,
            42.982721
          ],
          [
            2.007439,
            42.983152
          ],
          [
            2.00791,
            42.983109
          ],
          [
            2.00791,
            42.983109
          ],
          [
            2.007439,
            42.983152
          ],
          [
            2.00748,
            42.983754
          ],
          [
            2.008642,
            42.984283
          ]
        ]
      }
    }
  ]
}