{
  "type": "FeatureCollection",
  "features": [
    {
      "type": "Feature",
      "properties": {
        "name": "GraphHopper Track",
        "source": "Sentier_Cathare.gpx",
        "type": "track"
      },
      "geometry": {
        "type": "LineString",
        "coordinates": [
          [
            2.005961,
            42.984037,
            372.17
          ],
          [
            2.005855,
            42.984031,
            372.13
          ],
          [
            2.005875,
            42.98385,
            372.32
          ],
          [
            2.006024,
            42.983656,
            373.07
          ],
          [
            2.006208,
            42.983469,
            374.0
          ],
          [
            2.006144,
            42.983408,
            373.98
          ],
          [
            2.006122,
            42.983308,
            374.0
          ],
          [
            2.006366,
            42.983281,
            374.09
          ],
          [
            2.00656,
            42.98325,
            375.02
          ],
          [
            2.00683,
            42.983188,
            375.91
          ],
          [
            2.007356,
            42.983041,
            377.86
          ],
          [
            2.007373,
            42.983064,
            377.96
          ],
          [
            2.007739,
            42.98292,
            378.4
          ],
          [
            2.007659,
            42.982825,
            377.54
          ],
          [
            2.008119,
            42.982629,
            378.26
          ],
          [
            2.008129,
            42.982616,
            378.07
          ],
          [
            2.008048,
            42.9825,
            375.95
          ],
          [
            2.008314,
            42.982399,
            376.2
          ],
          [
            2.008411,
            42.982401,
            376.21
          ],
          [
            2.008528,
            42.98241,
            376.2
          ],
          [
            2.009307,
            42.982546,
            376.02
          ],
          [
            2.009625,
            42.982608,
            377.48
          ],
          [
            2.009825,
            42.982623,
            378.45
          ],
          [
            2.010066,
            42.982612,
            378.76
          ],
          [
            2.010286,
            42.982585,
            378.49
          ],
          [
            2.010528,
            42.982541,
            378.45
          ],
          [
            2.010841,
            42.982466,
            378.52
          ],
          [
            2.011138,
            42.982364,
            378.61
          ],
          [
            2.011426,
            42.982232,
            378.77
          ],
          [
            2.012537,
            42.981538,
            377.5
          ],
          [
            2.012834,
            42.981322,
            377.99
          ],
          [
            2.013121,
            42.981039,
            378.57
          ],
          [
            2.013208,
            42.980929,
            378.73
          ],
          [
            2.013279,
            42.980795,
            378.98
          ],
          [
            2.013333,
            42.98063,
            379.32
          ],
          [
            2.01334,
            42.980427,
            379.56
          ],
          [
            2.013256,
            42.979892,
            380.54
          ],
          [
            2.013269,
            42.97981,
            380.72
          ],
          [
            2.013303,
            42.979728,
            380.76
          ],
          [
            2.013354,
            42.979646,
            381.04
          ],
          [
            2.013444,
            42.979545,
            381.72
          ],
          [
            2.013625,
            42.979383,
            381.49
          ],
          [
            2.013848,
            42.979219,
            381.01
          ],
          [
            2.014157,
            42.979039,
            381.1
          ],
          [
            2.014635,
            42.978828,
            381.56
          ],
          [
            2.015094,
            42.978587,
            381.69
          ],
          [
            2.0177,
            42.976718,
            384.31
          ],
          [
            2.018266,
            42.976363,
            384.93
          ],
          [
            2.018844,
            42.97612,
            385.43
          ],
          [
            2.019875,
            42.975841,
            386.17
          ],
          [
            2.020404,
            42.975677,
            386.74
          ],
          [
            2.02082,
            42.975518,
            387.15
          ],
          [
            2.021306,
            42.975235,
            387.61
          ],
          [
            2.023004,
            42.974161,
            389.64
          ],
          [
            2.024304,
            42.973477,
            390.84
          ],
          [
            2.024485,
            42.973372,
            390.96
          ],
          [
            2.024642,
            42.973263,
            391.08
          ],
          [
            2.024764,
            42.973162,
            391.2
          ],
          [
            2.024858,
            42.973062,
            391.31
          ],
          [
            2.024977,
            42.972911,
            391.46
          ],
          [
            2.025444,
            42.972192,
            392.02
          ],
          [
            2.025237,
            42.971742,
            389.56
          ],
          [
            2.025231,
            42.971672,
            389.3
          ],
          [
            2.025245,
            42.971595,
            388.95
          ],
          [
            2.025575,
            42.971265,
            388.0
          ],
          [
            2.025615,
            42.971259,
            388.06
          ],
          [
            2.025685,
            42.971222,
            388.31
          ],
          [
            2.026181,
            42.970843,
            389.4
          ],
          [
            2.026275,
            42.970808,
            389.7
          ],
          [
            2.026495,
            42.970769,
            390.6
          ],
          [
            2.026819,
            42.970745,
            391.98
          ],
          [
            2.02706,
            42.970755,
            394.4
          ],
          [
            2.027139,
            42.970613,
            394.03
          ],
          [
            2.027214,
            42.970439,
            394.29
          ],
          [
            2.027267,
            42.970238,
            394.27
          ],
          [
            2.027496,
            42.96885,
            394.23
          ],
          [
            2.027496,
            42.968747,
            394.31
          ],
          [
            2.027482,
            42.968641,
            394.41
          ],
          [
            2.027445,
            42.968535,
            394.51
          ],
          [
            2.027377,
            42.968414,
            394.63
          ],
          [
            2.027274,
            42.968292,
            394.62
          ],
          [
            2.026914,
            42.967956,
            394.84
          ],
          [
            2.026778,
            42.967778,
            395.05
          ],
          [
            2.026698,
            42.967591,
            395.3
          ],
          [
            2.026734,
            42.9674,
            395.57
          ],
          [
            2.026885,
            42.967172,
            395.92
          ],
          [
            2.027708,
            42.966414,
            397.08
          ],
          [
            2.0282,
            42.965979,
            397.64
          ],
          [
            2.028735,
            42.965456,
            398.31
          ],
          [
            2.029617,
            42.96436,
            399.2
          ],
          [
            2.030376,
            42.963048,
            400.43
          ],
          [
            2.030432,
            42.962841,
            400.51
          ],
          [
            2.030467,
            42.962552,
            400.57
          ],
          [
            2.030468,
            42.962368,
            400.57
          ],
          [
            2.030446,
            42.962187,
            400.43
          ],
          [
            2.030366,
            42.961869,
            400.2
          ],
          [
            2.030347,
            42.961731,
            400.1
          ],
          [
            2.030345,
            42.961602,
            400.03
          ],
          [
            2.030374,
            42.96148,
            400.41
          ],
          [
            2.030514,
            42.961163,
            401.87
          ],
          [
            2.030546,
            42.961029,
            401.91
          ],
          [
            2.030535,
            42.960889,
            401.97
          ],
          [
            2.030354,
            42.960379,
            402.26
          ],
          [
            2.030332,
            42.960208,
            402.2
          ],
          [
            2.03035,
            42.96005,
            402.21
          ],
          [
            2.030399,
            42.95989,
            402.29
          ],
          [
            2.030586,
            42.95941,
            402.75
          ],
          [
            2.030637,
            42.959221,
            402.68
          ],
          [
            2.030915,
            42.957808,
            404.23
          ],
          [
            2.031085,
            42.956693,
            404.24
          ],
          [
            2.031216,
            42.956051,
            403.58
          ],
          [
            2.031315,
            42.956056,
            403.95
          ],
          [
            2.031811,
            42.955973,
            405.17
          ],
          [
            2.031964,
            42.955905,
            405.9
          ],
          [
            2.032024,
            42.955839,
            406.21
          ],
          [
            2.032265,
            42.954824,
            408.62
          ],
          [
            2.032459,
            42.954321,
            410.8
          ],
          [
            2.032459,
            42.954267,
            410.88
          ],
          [
            2.032235,
            42.953855,
            410.82
          ],
          [
            2.032125,
            42.953684,
            410.74
          ],
          [
            2.031977,
            42.95359,
            409.8
          ],
          [
            2.031768,
            42.953485,
            408.7
          ],
          [
            2.031367,
            42.953259,
            406.47
          ],
          [
            2.031445,
            42.953113,
            408.18
          ],
          [
            2.031324,
            42.953053,
            406.24
          ],
          [
            2.03066,
            42.952469,
            404.29
          ],
          [
            2.030589,
            42.95246,
            404.81
          ],
          [
            2.030448,
            42.952559,
            404.28
          ],
          [
            2.030248,
            42.952646,
            403.64
          ],
          [
            2.030067,
            42.952693,
            403.51
          ],
          [
            2.02952,
            42.952726,
            405.15
          ],
          [
            2.029409,
            42.952681,
            405.74
          ],
          [
            2.029307,
            42.95258,
            406.71
          ],
          [
            2.029263,
            42.952477,
            407.66
          ],
          [
            2.029207,
            42.9524,
            408.51
          ],
          [
            2.02912,
            42.952359,
            409.31
          ],
          [
            2.028987,
            42.952375,
            410.42
          ],
          [
            2.028813,
            42.952439,
            412.16
          ],
          [
            2.028213,
            42.95284,
            418.93
          ],
          [
            2.028043,
            42.952917,
            420.32
          ],
          [
            2.02766,
            42.953041,
            422.99
          ],
          [
            2.027243,
            42.95308,
            425.38
          ],
          [
            2.026497,
            42.953066,
            428.66
          ],
          [
            2.026323,
            42.953086,
            429.26
          ],
          [
            2.02586,
            42.953187,
            430.88
          ],
          [
            2.02562,
            42.95318,
            431.77
          ],
          [
            2.02562,
            42.95318,
            431.77
          ],
          [
            2.02586,
            42.953187,
            430.88
          ],
          [
            2.026323,
            42.953086,
            429.26
          ],
          [
            2.026497,
            42.953066,
            428.66
          ],
          [
            2.027243,
            42.95308,
            425.38
          ],
          [
            2.02766,
            42.953041,
            422.99
          ],
          [
            2.028043,
            42.952917,
            420.32
          ],
          [
            2.028213,
            42.95284,
            418.93
          ],
          [
            2.028813,
            42.952439,
            412.16
          ],
          [
            2.028987,
            42.952375,
            410.42
          ],
          [
            2.02912,
            42.952359,
            409.31
          ],
          [
            2.029207,
            42.9524,
            408.51
          ],
          [
            2.029263,
            42.952477,
            407.66
          ],
          [
            2.029307,
            42.95258,
            406.71
          ],
          [
            2.029409,
            42.952681,
            405.74
          ],
          [
            2.02952,
            42.952726,
            405.15
          ],
          [
            2.030067,
            42.952693,
            403.51
          ],
          [
            2.030248,
            42.952646,
            403.64
          ],
          [
            2.030448,
            42.952559,
            404.28
          ],
          [
            2.030589,
            42.95246,
            404.81
          ],
          [
            2.03066,
            42.952469,
            404.29
          ],
          [
            2.031324,
            42.953053,
            406.24
          ],
          [
            2.031445,
            42.953113,
            408.18
          ],
          [
            2.031537,
            42.952968,
            408.84
          ],
          [
            2.031767,
            42.952713,
            408.98
          ],
          [
            2.032041,
            42.95247,
            409.31
          ],
          [
            2.03249,
            42.952121,
            409.73
          ],
          [
            2.034182,
            42.951079,
            409.63
          ],
          [
            2.034504,
            42.950775,
            409.86
          ],
          [
            2.035593,
            42.949486,
            411.25
          ],
          [
            2.03588,
            42.94898,
            411.35
          ],
          [
            2.036052,
            42.948563,
            411.92
          ],
          [
            2.036135,
            42.948199,
            411.56
          ],
          [
            2.036188,
            42.947416,
            412.7
          ],
          [
            2.036203,
            42.946942,
            414.12
          ],
          [
            2.036281,
            42.946418,
            412.88
          ],
          [
            2.036366,
            42.946069,
            413.06
          ],
          [
            2.036538,
            42.94495,
            412.72
          ],
          [
            2.03659,
            42.944738,
            413.72
          ],
          [
            2.036688,
            42.944572,
            414.48
          ],
          [
            2.036993,
            42.94411,
            416.24
          ],
          [
            2.037168,
            42.943504,
            417.57
          ],
          [
            2.037205,
            42.943269,
            417.76
          ],
          [
            2.037209,
            42.943065,
            418.17
          ],
          [
            2.037193,
            42.942771,
            418.84
          ],
          [
            2.037204,
            42.942633,
            419.16
          ],
          [
            2.037251,
            42.942518,
            419.43
          ],
          [
            2.037329,
            42.942395,
            419.69
          ],
          [
            2.037514,
            42.9422,
            420.08
          ],
          [
            2.037623,
            42.942068,
            420.31
          ],
          [
            2.037718,
            42.94192,
            420.46
          ],
          [
            2.037795,
            42.941779,
            420.54
          ],
          [
            2.037902,
            42.941549,
            420.41
          ],
          [
            2.037946,
            42.94141,
            420.2
          ],
          [
            2.037988,
            42.941184,
            419.92
          ],
          [
            2.038001,
            42.941013,
            419.75
          ],
          [
            2.03798,
            42.940831,
            419.54
          ],
          [
            2.037848,
            42.940389,
            419.16
          ],
          [
            2.037866,
            42.940131,
            419.15
          ],
          [
            2.037997,
            42.939891,
            419.13
          ],
          [
            2.038733,
            42.939039,
            419.77
          ],
          [
            2.038939,
            42.938709,
            420.34
          ],
          [
            2.039508,
            42.937425,
            422.05
          ],
          [
            2.039618,
            42.936976,
            422.41
          ],
          [
            2.039782,
            42.936558,
            422.4
          ],
          [
            2.040219,
            42.935916,
            421.35
          ],
          [
            2.040446,
            42.935683,
            421.05
          ],
          [
            2.040687,
            42.935555,
            420.95
          ],
          [
            2.041163,
            42.935361,
            421.04
          ],
          [
            2.042458,
            42.934923,
            422.05
          ],
          [
            2.042768,
            42.934855,
            422.12
          ],
          [
            2.043129,
            42.934806,
            422.24
          ],
          [
            2.043692,
            42.934829,
            422.58
          ],
          [
            2.043942,
            42.934808,
            422.86
          ],
          [
            2.044221,
            42.934751,
            423.21
          ],
          [
            2.044465,
            42.934649,
            423.75
          ],
          [
            2.044623,
            42.934517,
            424.4
          ],
          [
            2.044733,
            42.934342,
            424.59
          ],
          [
            2.044924,
            42.933988,
            424.86
          ],
          [
            2.045111,
            42.933749,
            424.57
          ],
          [
            2.04553,
            42.933168,
            424.33
          ],
          [
            2.046293,
            42.932068,
            425.54
          ],
          [
            2.046378,
            42.93188,
            426.03
          ],
          [
            2.046382,
            42.931663,
            426.73
          ],
          [
            2.046312,
            42.931494,
            427.32
          ],
          [
            2.04605,
            42.931237,
            428.41
          ],
          [
            2.045928,
            42.931067,
            429.13
          ],
          [
            2.045895,
            42.930844,
            430.04
          ],
          [
            2.045942,
            42.930607,
            431.04
          ],
          [
            2.046199,
            42.929932,
            434.25
          ],
          [
            2.046319,
            42.929494,
            436.58
          ],
          [
            2.046348,
            42.929215,
            437.84
          ],
          [
            2.046298,
            42.928752,
            440.81
          ],
          [
            2.046205,
            42.928701,
            440.67
          ],
          [
            2.046188,
            42.928678,
            440.82
          ],
          [
            2.046179,
            42.928594,
            441.26
          ],
          [
            2.046189,
            42.928542,
            441.5
          ],
          [
            2.046254,
            42.928448,
            441.97
          ],
          [
            2.046438,
            42.928279,
            443.18
          ],
          [
            2.046586,
            42.928031,
            444.85
          ],
          [
            2.046693,
            42.927931,
            446.7
          ],
          [
            2.046931,
            42.927158,
            450.0
          ],
          [
            2.047081,
            42.926716,
            452.38
          ],
          [
            2.047126,
            42.926286,
            454.81
          ],
          [
            2.047083,
            42.925944,
            456.64
          ],
          [
            2.046863,
            42.925304,
            460.14
          ],
          [
            2.046821,
            42.924937,
            461.8
          ],
          [
            2.046883,
            42.924727,
            462.85
          ],
          [
            2.047083,
            42.924487,
            464.17
          ],
          [
            2.047252,
            42.924232,
            465.23
          ],
          [
            2.04732,
            42.923983,
            466.39
          ],
          [
            2.047341,
            42.92378,
            467.5
          ],
          [
            2.047282,
            42.923597,
            468.52
          ],
          [
            2.047027,
            42.923239,
            470.61
          ],
          [
            2.046962,
            42.923006,
            471.86
          ],
          [
            2.04696,
            42.92285,
            472.7
          ],
          [
            2.047032,
            42.922692,
            473.57
          ],
          [
            2.047455,
            42.922226,
            476.59
          ],
          [
            2.047524,
            42.922086,
            477.35
          ],
          [
            2.047498,
            42.921862,
            478.49
          ],
          [
            2.047275,
            42.921483,
            480.66
          ],
          [
            2.047248,
            42.92134,
            481.22
          ],
          [
            2.047225,
            42.92108,
            482.2
          ],
          [
            2.047168,
            42.920914,
            482.96
          ],
          [
            2.047112,
            42.920697,
            482.99
          ],
          [
            2.046633,
            42.920823,
            477.61
          ],
          [
            2.046543,
            42.920841,
            480.98
          ],
          [
            2.046431,
            42.920845,
            482.7
          ],
          [
            2.046311,
            42.920832,
            483.47
          ],
          [
            2.045572,
            42.920657,
            485.92
          ],
          [
            2.045459,
            42.920639,
            486.28
          ]
        ]
      }
    },
    {
      "type": "Feature",
      "properties": {
        "source": "Sentier_Cathare.gpx",
        "type": "route"
      },
      "geometry": {
        "type": "LineString",
        "coordinates": [
          [
            2.005961,
            42.984037
          ],
          [
            2.005855,
            42.984031
          ],
          [
            2.005875,
            42.98385
          ],
          [
            2.006208,
            42.983469
          ],
          [
            2.006122,
            42.983308
          ],
          [
            2.007356,
            42.983041
          ],
          [
            2.007373,
            42.983064
          ],
          [
            2.007739,
            42.98292
          ],
          [
            2.007659,
            42.982825
          ],
          [
            2.008119,
            42.982629
          ],
          [
            2.008048,
            42.9825
          ],
          [
            2.025444,
            42.972192
          ],
          [
            2.025575,
            42.971265
          ],
          [
            2.02706,
            42.970755
          ],
          [
            2.031216,
            42.956051
          ],
          [
            2.031367,
            42.953259
          ],
          [
            2.031445,
            42.953113
          ],
          [
            2.03066,
            42.952469
          ],
          [
            2.02562,
            42.95318
          ],
          [
            2.02562,
            42.95318
          ],
          [
            2.03066,
            42.952469
          ],
          [
            2.031445,
            42.953113
          ],
          [
            2.047112,
            42.920697
          ],
          [
            2.045459,
            42.920639
          ]
        ]
      }
    }
  ]
}