{
  "type": "FeatureCollection",
  "features": [
    {
      "type": "Feature",
      "properties": {
        "name": "GraphHopper Track",
        "source": "Bords_de_lOsse.gpx",
        "type": "track"
      },
      "geometry": {
        "type": "LineString",
        "coordinates": [
          [
            0.322135,
            43.576743,
            156.09
          ],
          [
            0.322111,
            43.576628,
            156.38
          ],
          [
            0.322072,
            43.5766,
            156.59
          ],
          [
            0.322038,
            43.576595,
            156.72
          ],
          [
            0.321295,
            43.576668,
            159.86
          ],
          [
            0.321765,
            43.572909,
            158.26
          ],
          [
            0.323289,
            43.572879,
            156.29
          ],
          [
            0.323984,
            43.572887,
            156.07
          ],
          [
            0.325636,
            43.573245,
            157.0
          ],
          [
            0.32573,
            43.573304,
            157.02
          ],
          [
            0.325773,
            43.573356,
            157.03
          ],
          [
            0.325786,
            43.573786,
            157.0
          ],
          [
            0.32593,
            43.57405,
            156.96
          ],
          [
            0.326041,
            43.574199,
            157.09
          ],
          [
            0.326378,
            43.574586,
            157.58
          ],
          [
            0.326444,
            43.574678,
            158.1
          ],
          [
            0.326613,
            43.575675,
            159.61
          ],
          [
            0.326677,
            43.575856,
            159.12
          ],
          [
            0.326846,
            43.576261,
            158.35
          ],
          [
            0.326854,
            43.576375,
            158.37
          ],
          [
            0.32679,
            43.576684,
            159.21
          ],
          [
            0.326792,
            43.576772,
            160.02
          ],
          [
            0.326885,
            43.57712,
            164.46
          ],
          [
            0.326892,
            43.577225,
            165.9
          ],
          [
            0.326873,
            43.577311,
            167.02
          ],
          [
            0.326819,
            43.577395,
            168.09
          ],
          [
            0.326633,
            43.577563,
            170.91
          ],
          [
            0.326533,
            43.577625,
            172.13
          ],
          [
            0.326386,
            43.577692,
            173.67
          ],
          [
            0.326187,
            43.577752,
            174.94
          ],
          [
            0.326129,
            43.577781,
            175.43
          ],
          [
            0.326125,
            43.577819,
            176.23
          ],
          [
            0.326245,
            43.57781,
            176.9
          ],
          [
            0.326219,
            43.577897,
            178.89
          ],
          [
            0.326199,
            43.577924,
            179.23
          ],
          [
            0.326104,
            43.577995,
            180.25
          ],
          [
            0.326076,
            43.578027,
            180.76
          ],
          [
            0.32607,
            43.578059,
            181.21
          ],
          [
            0.326218,
            43.578382,
            186.27
          ],
          [
            0.326251,
            43.578423,
            187.09
          ],
          [
            0.32632,
            43.578476,
            188.57
          ],
          [
            0.326492,
            43.578403,
            193.68
          ],
          [
            0.326525,
            43.578316,
            193.67
          ],
          [
            0.326579,
            43.578241,
            193.74
          ],
          [
            0.326647,
            43.578179,
            193.61
          ],
          [
            0.326733,
            43.578127,
            192.94
          ],
          [
            0.326844,
            43.578076,
            192.74
          ],
          [
            0.32696,
            43.578043,
            192.83
          ],
          [
            0.327422,
            43.577973,
            194.15
          ],
          [
            0.327731,
            43.577967,
            195.14
          ],
          [
            0.327885,
            43.577989,
            195.74
          ],
          [
            0.328025,
            43.578029,
            196.44
          ],
          [
            0.328197,
            43.578111,
            197.66
          ],
          [
            0.328417,
            43.578244,
            199.89
          ],
          [
            0.328629,
            43.5784,
            203.04
          ],
          [
            0.328844,
            43.578329,
            201.66
          ],
          [
            0.329019,
            43.578294,
            201.29
          ],
          [
            0.329096,
            43.578309,
            201.54
          ],
          [
            0.329147,
            43.578308,
            201.57
          ],
          [
            0.329909,
            43.578224,
            205.54
          ],
          [
            0.330651,
            43.578107,
            214.48
          ],
          [
            0.330946,
            43.578075,
            217.76
          ],
          [
            0.331022,
            43.578083,
            218.5
          ],
          [
            0.331089,
            43.578106,
            219.12
          ],
          [
            0.331197,
            43.578214,
            221.23
          ],
          [
            0.331242,
            43.578247,
            222.12
          ],
          [
            0.331375,
            43.578295,
            223.35
          ],
          [
            0.332183,
            43.578088,
            218.0
          ],
          [
            0.333103,
            43.577803,
            214.26
          ],
          [
            0.333154,
            43.57775,
            214.08
          ],
          [
            0.333186,
            43.577674,
            214.13
          ],
          [
            0.333638,
            43.577733,
            213.22
          ],
          [
            0.333692,
            43.577686,
            212.93
          ],
          [
            0.335153,
            43.577482,
            205.63
          ],
          [
            0.335645,
            43.577441,
            203.37
          ],
          [
            0.335983,
            43.577545,
            201.73
          ],
          [
            0.337509,
            43.577939,
            198.73
          ],
          [
            0.337897,
            43.577982,
            198.5
          ],
          [
            0.338591,
            43.578038,
            197.78
          ],
          [
            0.339623,
            43.5783,
            195.83
          ],
          [
            0.341116,
            43.578602,
            193.53
          ],
          [
            0.343579,
            43.578982,
            184.15
          ],
          [
            0.343812,
            43.578992,
            182.8
          ],
          [
            0.34411,
            43.578961,
            180.85
          ],
          [
            0.344393,
            43.578892,
            178.41
          ],
          [
            0.344445,
            43.57884,
            178.48
          ],
          [
            0.344539,
            43.578814,
            178.13
          ],
          [
            0.346764,
            43.57838,
            175.1
          ],
          [
            0.346888,
            43.578354,
            175.79
          ],
          [
            0.347047,
            43.578294,
            176.62
          ],
          [
            0.34713,
            43.578359,
            176.95
          ],
          [
            0.347264,
            43.578398,
            178.49
          ],
          [
            0.348772,
            43.578711,
            197.68
          ],
          [
            0.349968,
            43.579124,
            211.55
          ],
          [
            0.350106,
            43.5792,
            213.22
          ],
          [
            0.350221,
            43.579281,
            214.72
          ],
          [
            0.350383,
            43.579349,
            216.46
          ],
          [
            0.351572,
            43.579637,
            227.65
          ],
          [
            0.351851,
            43.579698,
            230.35
          ],
          [
            0.352291,
            43.579744,
            234.03
          ],
          [
            0.352502,
            43.579755,
            235.1
          ],
          [
            0.352828,
            43.579737,
            234.99
          ],
          [
            0.353022,
            43.579741,
            233.69
          ],
          [
            0.354474,
            43.580067,
            218.82
          ],
          [
            0.354704,
            43.58013,
            216.19
          ],
          [
            0.355398,
            43.580395,
            208.63
          ],
          [
            0.355542,
            43.580438,
            207.33
          ],
          [
            0.356574,
            43.580585,
            200.69
          ],
          [
            0.356955,
            43.580607,
            199.06
          ],
          [
            0.35731,
            43.580643,
            197.85
          ],
          [
            0.357533,
            43.5807,
            197.17
          ],
          [
            0.357909,
            43.58083,
            195.92
          ],
          [
            0.358043,
            43.580905,
            195.38
          ],
          [
            0.358179,
            43.581004,
            194.75
          ],
          [
            0.359065,
            43.581728,
            189.3
          ],
          [
            0.359207,
            43.581813,
            188.59
          ],
          [
            0.360023,
            43.582164,
            185.09
          ],
          [
            0.360231,
            43.582206,
            184.38
          ],
          [
            0.360397,
            43.582226,
            183.86
          ],
          [
            0.361995,
            43.582206,
            176.77
          ],
          [
            0.362618,
            43.582251,
            175.0
          ],
          [
            0.363363,
            43.58226,
            173.68
          ],
          [
            0.36407,
            43.582302,
            171.46
          ],
          [
            0.365512,
            43.582514,
            164.53
          ],
          [
            0.365838,
            43.582604,
            163.36
          ],
          [
            0.365922,
            43.582595,
            163.13
          ],
          [
            0.365987,
            43.582568,
            162.95
          ],
          [
            0.366109,
            43.582567,
            162.69
          ],
          [
            0.366201,
            43.582578,
            162.52
          ],
          [
            0.366794,
            43.58269,
            162.02
          ],
          [
            0.367072,
            43.582775,
            162.06
          ],
          [
            0.36741,
            43.582983,
            162.18
          ],
          [
            0.367523,
            43.583069,
            162.47
          ],
          [
            0.367569,
            43.58312,
            162.91
          ],
          [
            0.367666,
            43.58294,
            162.83
          ],
          [
            0.367807,
            43.582721,
            163.45
          ],
          [
            0.368578,
            43.581634,
            165.99
          ],
          [
            0.368706,
            43.581435,
            166.39
          ],
          [
            0.368788,
            43.581261,
            166.7
          ],
          [
            0.36884,
            43.581104,
            166.92
          ],
          [
            0.368903,
            43.580781,
            167.29
          ],
          [
            0.368961,
            43.580602,
            166.96
          ],
          [
            0.36903,
            43.58049,
            166.44
          ],
          [
            0.369127,
            43.580367,
            165.0
          ],
          [
            0.369518,
            43.580427,
            167.08
          ],
          [
            0.372049,
            43.580405,
            172.66
          ],
          [
            0.37239,
            43.580389,
            173.8
          ],
          [
            0.37262,
            43.580356,
            174.6
          ],
          [
            0.373699,
            43.580156,
            178.87
          ],
          [
            0.374236,
            43.579976,
            181.24
          ],
          [
            0.374542,
            43.579856,
            182.74
          ],
          [
            0.374924,
            43.579951,
            187.81
          ],
          [
            0.375063,
            43.579971,
            188.48
          ],
          [
            0.375063,
            43.579971,
            188.48
          ],
          [
            0.374924,
            43.579951,
            187.81
          ],
          [
            0.374542,
            43.579856,
            182.74
          ],
          [
            0.374236,
            43.579976,
            181.24
          ],
          [
            0.373699,
            43.580156,
            178.87
          ],
          [
            0.37262,
            43.580356,
            174.6
          ],
          [
            0.37239,
            43.580389,
            173.8
          ],
          [
            0.372049,
            43.580405,
            172.66
          ],
          [
            0.369518,
            43.580427,
            167.08
          ],
          [
            0.369127,
            43.580367,
            165.0
          ],
          [
            0.36903,
            43.58049,
            166.44
          ],
          [
            0.368961,
            43.580602,
            166.96
          ],
          [
            0.368903,
            43.580781,
            167.29
          ],
          [
            0.36884,
            43.581104,
            166.92
          ],
          [
            0.368788,
            43.581261,
            166.7
          ],
          [
            0.368706,
            43.581435,
            166.39
          ],
          [
            0.368578,
            43.581634,
            165.99
          ],
          [
            0.367807,
            43.582721,
            163.45
          ],
          [
            0.367666,
            43.58294,
            162.83
          ],
          [
            0.367569,
            43.58312,
            162.91
          ],
          [
            0.367523,
            43.583069,
            162.47
          ],
          [
            0.36741,
            43.582983,
            162.18
          ],
          [
            0.367072,
            43.582775,
            162.06
          ],
          [
            0.366794,
            43.58269,
            162.02
          ],
          [
            0.366201,
            43.582578,
            162.52
          ],
          [
            0.366109,
            43.582567,
            162.69
          ],
          [
            0.365987,
            43.582568,
            162.95
          ],
          [
            0.365922,
            43.582595,
            163.13
          ],
          [
            0.365838,
            43.582604,
            163.36
          ],
          [
            0.365512,
            43.582514,
            164.53
          ],
          [
            0.36407,
            43.582302,
            171.46
          ],
          [
            0.363363,
            43.58226,
            173.68
          ],
          [
            0.362618,
            43.582251,
            175.0
          ],
          [
            0.361995,
            43.582206,
            176.77
          ],
          [
            0.360397,
            43.582226,
            183.86
          ],
          [
            0.360231,
            43.582206,
            184.38
          ],
          [
            0.360023,
            43.582164,
            185.09
          ],
          [
            0.359207,
            43.581813,
            188.59
          ],
          [
            0.359065,
            43.581728,
            189.3
          ],
          [
            0.358179,
            43.581004,
            194.75
          ],
          [
            0.358043,
            43.580905,
            195.38
          ],
          [
            0.357909,
            43.58083,
            195.92
          ],
          [
            0.357533,
            43.5807,
            197.17
          ],
          [
            0.35731,
            43.580643,
            197.85
          ],
          [
            0.356955,
            43.580607,
            199.06
          ],
          [
            0.356574,
            43.580585,
            200.69
          ],
          [
            0.355542,
            43.580438,
            207.33
          ],
          [
            0.355398,
            43.580395,
            208.63
          ],
          [
            0.354704,
            43.58013,
            216.19
          ],
          [
            0.354474,
            43.580067,
            218.82
          ],
          [
            0.353022,
            43.579741,
            233.69
          ],
          [
            0.352828,
            43.579737,
            234.99
          ],
          [
            0.352502,
            43.579755,
            235.1
          ],
          [
            0.352291,
            43.579744,
            234.03
          ],
          [
            0.351851,
            43.579698,
            230.35
          ],
          [
            0.351572,
            43.579637,
            227.65
          ],
          [
            0.350383,
            43.579349,
            216.46
          ],
          [
            0.350221,
            43.579281,
            214.72
          ],
          [
            0.350106,
            43.5792,
            213.22
          ],
          [
            0.349968,
            43.579124,
            211.55
          ],
          [
            0.348772,
            43.578711,
            197.68
          ],
          [
            0.347264,
            43.578398,
            178.49
          ],
          [
            0.34713,
            43.578359,
            176.95
          ],
          [
            0.347047,
            43.578294,
            176.62
          ],
          [
            0.346888,
            43.578354,
            175.79
          ],
          [
            0.346764,
            43.57838,
            175.1
          ],
          [
            0.344539,
            43.578814,
            178.13
          ],
          [
            0.344445,
            43.57884,
            178.48
          ],
          [
            0.344393,
            43.578892,
            178.41
          ],
          [
            0.34411,
            43.578961,
            180.85
          ],
          [
            0.343812,
            43.578992,
            182.8
          ],
          [
            0.343579,
            43.578982,
            184.15
          ],
          [
            0.341116,
            43.578602,
            193.53
          ],
          [
            0.339623,
            43.5783,
            195.83
          ],
          [
            0.338591,
            43.578038,
            197.78
          ],
          [
            0.337897,
            43.577982,
            198.5
          ],
          [
            0.337509,
            43.577939,
            198.73
          ],
          [
            0.335983,
            43.577545,
            201.73
          ],
          [
            0.335645,
            43.577441,
            203.37
          ],
          [
            0.335153,
            43.577482,
            205.63
          ],
          [
            0.333692,
            43.577686,
            212.93
          ],
          [
            0.333638,
            43.577733,
            213.22
          ],
          [
            0.333186,
            43.577674,
            214.13
          ],
          [
            0.333154,
            43.57775,
            214.08
          ],
          [
            0.333103,
            43.577803,
            214.26
          ],
          [
            0.332183,
            43.578088,
            218.0
          ],
          [
            0.331375,
            43.578295,
            223.35
          ],
          [
            0.331146,
            43.578341,
            223.71
          ],
          [
            0.330917,
            43.57837,
            222.34
          ],
          [
            0.330013,
            43.578424,
            211.51
          ],
          [
            0.329255,
            43.578511,
            205.45
          ],
          [
            0.329137,
            43.578519,
            204.75
          ],
          [
            0.328947,
            43.57851,
            204.0
          ],
          [
            0.328856,
            43.578497,
            203.87
          ],
          [
            0.328762,
            43.578471,
            203.92
          ],
          [
            0.328706,
            43.578447,
            203.68
          ],
          [
            0.328629,
            43.5784,
            203.04
          ],
          [
            0.328417,
            43.578244,
            199.89
          ],
          [
            0.328197,
            43.578111,
            197.66
          ],
          [
            0.328025,
            43.578029,
            196.44
          ],
          [
            0.327885,
            43.577989,
            195.74
          ],
          [
            0.327731,
            43.577967,
            195.14
          ],
          [
            0.327422,
            43.577973,
            194.15
          ],
          [
            0.32696,
            43.578043,
            192.83
          ],
          [
            0.326844,
            43.578076,
            192.74
          ],
          [
            0.326733,
            43.578127,
            192.94
          ],
          [
            0.326647,
            43.578179,
            193.61
          ],
          [
            0.326579,
            43.578241,
            193.74
          ],
          [
            0.326525,
            43.578316,
            193.67
          ],
          [
            0.326492,
            43.578403,
            193.68
          ],
          [
            0.32632,
            43.578476,
            188.57
          ],
          [
            0.326251,
            43.578423,
            187.09
          ],
          [
            0.326218,
            43.578382,
            186.27
          ],
          [
            0.32607,
            43.578059,
            181.21
          ],
          [
            0.326076,
            43.578027,
            180.76
          ],
          [
            0.326104,
            43.577995,
            180.25
          ],
          [
            0.326199,
            43.577924,
            179.23
          ],
          [
            0.326219,
            43.577897,
            178.89
          ],
          [
            0.326245,
            43.57781,
            176.9
          ],
          [
            0.326125,
            43.577819,
            176.23
          ],
          [
            0.326129,
            43.577781,
            175.43
          ],
          [
            0.326187,
            43.577752,
            174.94
          ],
          [
            0.326386,
            43.577692,
            173.67
          ],
          [
            0.326533,
            43.577625,
            172.13
          ],
          [
            0.326633,
            43.577563,
            170.91
          ],
          [
            0.326819,
            43.577395,
            168.09
          ],
          [
            0.326873,
            43.577311,
            167.02
          ],
          [
            0.326892,
            43.577225,
            165.9
          ],
          [
            0.326885,
            43.57712,
            164.46
          ],
          [
            0.326792,
            43.576772,
            160.02
          ],
          [
            0.32679,
            43.576684,
            159.21
          ],
          [
            0.326854,
            43.576375,
            158.37
          ],
          [
            0.326846,
            43.576261,
            158.35
          ],
          [
            0.326677,
            43.575856,
            159.12
          ],
          [
            0.326613,
            43.575675,
            159.61
          ],
          [
            0.326444,
            43.574678,
            158.1
          ],
          [
            0.326378,
            43.574586,
            157.58
          ],
          [
            0.326041,
            43.574199,
            157.09
          ],
          [
            0.32593,
            43.57405,
            156.96
          ],
          [
            0.325786,
            43.573786,
            157.0
          ],
          [
            0.325773,
            43.573356,
            157.03
          ],
          [
            0.32573,
            43.573304,
            157.02
          ],
          [
            0.325636,
            43.573245,
            157.0
          ],
          [
            0.323984,
            43.572887,
            156.07
          ],
          [
            0.323289,
            43.572879,
            156.29
          ],
          [
            0.321765,
            43.572909,
            158.26
          ],
          [
            0.321295,
            43.576668,
            159.86
          ],
          [
            0.322038,
            43.576595,
            156.72
          ],
          [
            0.322072,
            43.5766,
            156.59
          ],
          [
            0.322111,
            43.576628,
            156.38
          ],
          [
            0.322135,
            43.576743,
            156.09
          ]
        ]
      }
    },
    {
      "type": "Feature",
      "properties": {
        "source": "Bords_de_lOsse.gpx",
        "type": "route"
      },
      "geometry": {
        "type": "LineString",
        "coordinates": [
          [
            0.322135,
            43.576743
          ],
          [
            0.321295,
            43.576668
          ],
          [
            0.321765,
            43.572909
          ],
          [
            0.326125,
            43.577819
          ],
          [
            0.326245,
            43.57781
          ],
          [
            0.32632,
            43.578476
          ],
          [
            0.326492,
            43.578403
          ],
          [
            0.328629,
            43.5784
          ],
          [
            0.329019,
            43.578294
          ],
          [
            0.331375,
            43.578295
          ],
          [
            0.333186,
            43.577674
          ],
          [
            0.333638,
            43.577733
          ],
          [
            0.335645,
            43.577441
          ],
          [
            0.344393,
            43.578892
          ],
          [
            0.347047,
            43.578294
          ],
          [
            0.367569,
            43.58312
          ],
          [
            0.369127,
            43.580367
          ],
          [
            0.374542,
            43.579856
          ],
          [
            0.375063,
            43.579971
          ],
          [
            0.375063,
            43.579971
          ],
          [
            0.374542,
            43.579856
          ],
          [
            0.369127,
            43.580367
          ],
          [
            0.367569,
            43.58312
          ],
          [
            0.347047,
            43.578294
          ],
          [
            0.344393,
            43.578892
          ],
          [
            0.333638,
            43.577733
          ],
          [
            0.333186,
            43.577674
          ],
          [
            0.326492,
            43.578403
          ],
          [
            0.32632,
            43.578476
          ],
          [
            0.326245,
            43.57781
          ],
          [
            0.326125,
            43.577819
          ],
          [
            0.326444,
            43.574678
          ],
          [
            0.326378,
            43.574586
          ],
          [
            0.321765,
            43.572909
          ],
          [
            0.321295,
            43.576668
          ],
          [
            0.322135,
            43.576743
          ]
        ]
      }
    }
  ]
}