{
  "type": "FeatureCollection",
  "features": [
    {
      "type": "Feature",
      "properties": {
        "name": "GraphHopper Track",
        "source": "Traversée_Plateau.gpx",
        "type": "track"
      },
      "geometry": {
        "type": "LineString",
        "coordinates": [
          [
            2.703071,
            43.600316,
            708.42
          ],
          [
            2.703104,
            43.600341,
            707.8
          ],
          [
            2.703149,
            43.600328,
            707.17
          ],
          [
            2.703088,
            43.60029,
            706.14
          ],
          [
            2.703121,
            43.600277,
            705.53
          ],
          [
            2.703186,
            43.60032,
            704.35
          ],
          [
            2.703214,
            43.600307,
            703.04
          ],
          [
            2.703427,
            43.600545,
            704.19
          ],
          [
            2.703537,
            43.600639,
            704.35
          ],
          [
            2.703662,
            43.600717,
            704.48
          ],
          [
            2.704111,
            43.600922,
            703.01
          ],
          [
            2.70429,
            43.600977,
            701.93
          ],
          [
            2.704365,
            43.60099,
            701.45
          ],
          [
            2.704624,
            43.601014,
            699.76
          ],
          [
            2.704769,
            43.601024,
            698.89
          ],
          [
            2.704896,
            43.601021,
            699.07
          ],
          [
            2.705498,
            43.600965,
            702.3
          ],
          [
            2.705698,
            43.600939,
            703.94
          ],
          [
            2.705826,
            43.600907,
            704.34
          ],
          [
            2.705931,
            43.600862,
            704.6
          ],
          [
            2.70602,
            43.600901,
            704.97
          ],
          [
            2.706128,
            43.6009,
            705.08
          ],
          [
            2.706473,
            43.600845,
            704.83
          ],
          [
            2.706626,
            43.600811,
            705.58
          ],
          [
            2.706783,
            43.600763,
            706.58
          ],
          [
            2.706999,
            43.600653,
            707.86
          ],
          [
            2.707367,
            43.600407,
            710.62
          ],
          [
            2.707678,
            43.600258,
            712.47
          ],
          [
            2.70845,
            43.599946,
            718.85
          ],
          [
            2.708849,
            43.599853,
            722.12
          ],
          [
            2.709468,
            43.599732,
            724.21
          ],
          [
            2.709722,
            43.599724,
            725.53
          ],
          [
            2.709985,
            43.599739,
            726.87
          ],
          [
            2.710283,
            43.599804,
            728.52
          ],
          [
            2.710564,
            43.59984,
            730.27
          ],
          [
            2.711085,
            43.599829,
            734.16
          ],
          [
            2.712042,
            43.599791,
            741.76
          ],
          [
            2.71282,
            43.599742,
            746.84
          ],
          [
            2.713224,
            43.599763,
            747.98
          ],
          [
            2.713412,
            43.599804,
            748.0
          ],
          [
            2.713489,
            43.599838,
            748.34
          ],
          [
            2.713826,
            43.599919,
            749.48
          ],
          [
            2.714093,
            43.599958,
            751.22
          ],
          [
            2.714277,
            43.59996,
            752.53
          ],
          [
            2.714387,
            43.599945,
            753.39
          ],
          [
            2.715016,
            43.599807,
            758.36
          ],
          [
            2.715313,
            43.599769,
            760.63
          ],
          [
            2.715629,
            43.599753,
            762.86
          ],
          [
            2.716495,
            43.59967,
            768.26
          ],
          [
            2.718205,
            43.599378,
            777.58
          ],
          [
            2.719593,
            43.59916,
            784.4
          ],
          [
            2.721242,
            43.598839,
            791.33
          ],
          [
            2.723233,
            43.598559,
            796.56
          ],
          [
            2.723672,
            43.598483,
            798.01
          ],
          [
            2.72402,
            43.598453,
            799.36
          ],
          [
            2.724344,
            43.598489,
            800.64
          ],
          [
            2.724655,
            43.598507,
            801.79
          ],
          [
            2.724878,
            43.598481,
            802.53
          ],
          [
            2.725055,
            43.598441,
            803.26
          ],
          [
            2.72533,
            43.598391,
            803.92
          ],
          [
            2.725595,
            43.598366,
            804.11
          ],
          [
            2.725814,
            43.598421,
            804.45
          ],
          [
            2.725975,
            43.598523,
            803.68
          ],
          [
            2.726013,
            43.598654,
            803.65
          ],
          [
            2.726022,
            43.598963,
            805.15
          ],
          [
            2.726081,
            43.599076,
            805.58
          ],
          [
            2.726122,
            43.599123,
            805.73
          ],
          [
            2.726235,
            43.599216,
            806.13
          ],
          [
            2.726515,
            43.599409,
            807.28
          ],
          [
            2.726663,
            43.599559,
            807.88
          ],
          [
            2.726703,
            43.59964,
            808.04
          ],
          [
            2.726735,
            43.599738,
            808.14
          ],
          [
            2.726735,
            43.599866,
            808.19
          ],
          [
            2.726695,
            43.599966,
            808.2
          ],
          [
            2.726354,
            43.600426,
            808.08
          ],
          [
            2.726288,
            43.600645,
            807.85
          ],
          [
            2.72625,
            43.600947,
            807.43
          ],
          [
            2.726126,
            43.601119,
            807.25
          ],
          [
            2.725984,
            43.601346,
            807.12
          ],
          [
            2.725937,
            43.601504,
            807.07
          ],
          [
            2.725937,
            43.60171,
            806.94
          ],
          [
            2.726117,
            43.601957,
            806.47
          ],
          [
            2.726342,
            43.602197,
            805.91
          ],
          [
            2.726412,
            43.602323,
            805.55
          ],
          [
            2.726425,
            43.602434,
            805.21
          ],
          [
            2.726412,
            43.602578,
            804.7
          ],
          [
            2.726315,
            43.60316,
            803.03
          ],
          [
            2.726339,
            43.603264,
            802.94
          ],
          [
            2.726391,
            43.603342,
            803.03
          ],
          [
            2.726495,
            43.603431,
            803.53
          ],
          [
            2.726651,
            43.603515,
            803.68
          ],
          [
            2.726737,
            43.603507,
            803.19
          ],
          [
            2.727178,
            43.603567,
            803.07
          ],
          [
            2.728435,
            43.603625,
            801.64
          ],
          [
            2.728851,
            43.603908,
            799.88
          ],
          [
            2.729165,
            43.604242,
            798.75
          ],
          [
            2.729236,
            43.604358,
            798.31
          ],
          [
            2.729258,
            43.604476,
            797.9
          ],
          [
            2.729261,
            43.604648,
            797.26
          ],
          [
            2.729231,
            43.604826,
            796.46
          ],
          [
            2.729406,
            43.605039,
            795.16
          ],
          [
            2.729553,
            43.605272,
            793.73
          ],
          [
            2.73009,
            43.605787,
            791.14
          ],
          [
            2.730371,
            43.606078,
            790.87
          ],
          [
            2.730519,
            43.606204,
            791.08
          ],
          [
            2.730591,
            43.60624,
            791.22
          ],
          [
            2.730703,
            43.606252,
            791.47
          ],
          [
            2.731031,
            43.606223,
            792.4
          ],
          [
            2.731849,
            43.606082,
            796.14
          ],
          [
            2.732017,
            43.606009,
            796.05
          ],
          [
            2.732055,
            43.60595,
            795.89
          ],
          [
            2.73207,
            43.605787,
            796.44
          ],
          [
            2.732117,
            43.605626,
            796.87
          ],
          [
            2.732285,
            43.605334,
            798.49
          ],
          [
            2.732466,
            43.605271,
            800.14
          ],
          [
            2.733847,
            43.605087,
            809.26
          ],
          [
            2.734397,
            43.604956,
            812.52
          ],
          [
            2.734533,
            43.604897,
            813.21
          ],
          [
            2.734897,
            43.604627,
            814.58
          ],
          [
            2.73547,
            43.604363,
            813.95
          ],
          [
            2.735672,
            43.604353,
            813.44
          ],
          [
            2.735954,
            43.604406,
            812.54
          ],
          [
            2.736236,
            43.604492,
            811.63
          ],
          [
            2.736375,
            43.604556,
            811.16
          ],
          [
            2.736465,
            43.604633,
            810.81
          ],
          [
            2.736511,
            43.604713,
            810.55
          ],
          [
            2.736604,
            43.605183,
            809.27
          ],
          [
            2.736741,
            43.605524,
            808.36
          ],
          [
            2.73681,
            43.6056,
            808.06
          ],
          [
            2.736903,
            43.605658,
            807.65
          ],
          [
            2.736978,
            43.605664,
            807.05
          ],
          [
            2.737155,
            43.605659,
            808.57
          ],
          [
            2.737343,
            43.605633,
            809.32
          ],
          [
            2.737577,
            43.605458,
            809.81
          ],
          [
            2.737812,
            43.604997,
            808.67
          ],
          [
            2.737881,
            43.604678,
            807.9
          ],
          [
            2.737852,
            43.6044,
            807.42
          ],
          [
            2.737919,
            43.604205,
            807.33
          ],
          [
            2.73808,
            43.603972,
            807.56
          ],
          [
            2.738429,
            43.603569,
            808.71
          ],
          [
            2.738686,
            43.603378,
            809.59
          ],
          [
            2.7389,
            43.603269,
            810.29
          ],
          [
            2.739763,
            43.602885,
            812.75
          ],
          [
            2.740366,
            43.602448,
            813.36
          ],
          [
            2.740641,
            43.602268,
            813.11
          ],
          [
            2.741265,
            43.601924,
            812.4
          ],
          [
            2.742886,
            43.601079,
            810.79
          ],
          [
            2.742994,
            43.601042,
            810.34
          ],
          [
            2.743128,
            43.601008,
            809.57
          ],
          [
            2.743413,
            43.600967,
            807.46
          ],
          [
            2.743625,
            43.600946,
            805.92
          ],
          [
            2.74573,
            43.600787,
            794.4
          ],
          [
            2.74752,
            43.600353,
            777.93
          ],
          [
            2.748035,
            43.600134,
            772.77
          ],
          [
            2.748407,
            43.599993,
            769.44
          ],
          [
            2.749172,
            43.599771,
            763.65
          ],
          [
            2.749396,
            43.599723,
            761.87
          ],
          [
            2.74956,
            43.599665,
            761.09
          ],
          [
            2.750143,
            43.599493,
            757.44
          ],
          [
            2.750392,
            43.599446,
            756.01
          ],
          [
            2.750651,
            43.599428,
            754.82
          ],
          [
            2.751137,
            43.599447,
            753.23
          ],
          [
            2.751327,
            43.599413,
            752.77
          ],
          [
            2.751509,
            43.599326,
            752.43
          ],
          [
            2.752821,
            43.598557,
            750.54
          ],
          [
            2.752971,
            43.59846,
            750.14
          ],
          [
            2.753301,
            43.598176,
            749.01
          ],
          [
            2.753741,
            43.597814,
            747.3
          ],
          [
            2.753862,
            43.597751,
            746.86
          ],
          [
            2.754215,
            43.597605,
            745.37
          ],
          [
            2.754289,
            43.597674,
            745.64
          ],
          [
            2.754396,
            43.597752,
            745.72
          ],
          [
            2.754535,
            43.597837,
            745.24
          ],
          [
            2.754806,
            43.597977,
            745.44
          ],
          [
            2.754922,
            43.598027,
            745.18
          ],
          [
            2.755052,
            43.598067,
            744.96
          ],
          [
            2.755301,
            43.598118,
            744.63
          ],
          [
            2.756084,
            43.598228,
            744.14
          ],
          [
            2.756393,
            43.598259,
            744.07
          ],
          [
            2.756584,
            43.598266,
            744.04
          ],
          [
            2.757564,
            43.598248,
            743.77
          ],
          [
            2.757748,
            43.598254,
            743.62
          ],
          [
            2.757946,
            43.598275,
            743.49
          ],
          [
            2.75862,
            43.598365,
            742.94
          ],
          [
            2.758886,
            43.598385,
            742.81
          ],
          [
            2.759142,
            43.598386,
            742.36
          ],
          [
            2.759492,
            43.598361,
            741.9
          ],
          [
            2.760202,
            43.598269,
            741.48
          ],
          [
            2.760626,
            43.598256,
            741.19
          ],
          [
            2.761264,
            43.598264,
            740.01
          ],
          [
            2.761643,
            43.59825,
            740.46
          ],
          [
            2.761963,
            43.598216,
            740.96
          ],
          [
            2.762552,
            43.598123,
            741.57
          ],
          [
            2.764106,
            43.597919,
            741.01
          ],
          [
            2.764464,
            43.597887,
            741.18
          ],
          [
            2.764806,
            43.597879,
            741.28
          ],
          [
            2.765561,
            43.597906,
            741.17
          ],
          [
            2.766259,
            43.597957,
            740.58
          ],
          [
            2.768981,
            43.598197,
            741.12
          ],
          [
            2.769387,
            43.598244,
            741.34
          ],
          [
            2.772478,
            43.598697,
            741.71
          ],
          [
            2.772824,
            43.598716,
            741.26
          ],
          [
            2.773817,
            43.598702,
            741.99
          ],
          [
            2.774254,
            43.598595,
            740.74
          ],
          [
            2.774276,
            43.598558,
            740.54
          ],
          [
            2.774252,
            43.598507,
            740.3
          ],
          [
            2.774045,
            43.598442,
            739.24
          ],
          [
            2.773926,
            43.598378,
            738.28
          ],
          [
            2.773747,
            43.598192,
            739.11
          ],
          [
            2.773863,
            43.598124,
            739.61
          ],
          [
            2.774142,
            43.598028,
            740.32
          ],
          [
            2.774394,
            43.597912,
            741.12
          ],
          [
            2.774527,
            43.597783,
            741.71
          ],
          [
            2.774583,
            43.597674,
            742.13
          ],
          [
            2.774579,
            43.597469,
            743.08
          ],
          [
            2.774565,
            43.597335,
            743.99
          ],
          [
            2.77531,
            43.597272,
            744.29
          ],
          [
            2.775879,
            43.597264,
            744.59
          ],
          [
            2.776348,
            43.597239,
            744.96
          ],
          [
            2.776694,
            43.597211,
            745.38
          ],
          [
            2.777351,
            43.597102,
            747.79
          ],
          [
            2.77799,
            43.596877,
            752.45
          ],
          [
            2.778416,
            43.596808,
            755.65
          ],
          [
            2.778586,
            43.596769,
            756.78
          ],
          [
            2.778751,
            43.59671,
            757.83
          ],
          [
            2.778997,
            43.596688,
            759.09
          ],
          [
            2.779194,
            43.596694,
            760.0
          ],
          [
            2.779444,
            43.596643,
            760.88
          ],
          [
            2.779634,
            43.596539,
            761.27
          ],
          [
            2.779806,
            43.596412,
            761.35
          ],
          [
            2.779957,
            43.596344,
            761.27
          ],
          [
            2.780154,
            43.596296,
            761.05
          ],
          [
            2.780455,
            43.596306,
            760.41
          ],
          [
            2.780817,
            43.596344,
            759.29
          ],
          [
            2.781094,
            43.596389,
            758.15
          ],
          [
            2.781269,
            43.596442,
            757.19
          ],
          [
            2.781495,
            43.596409,
            755.94
          ],
          [
            2.781775,
            43.596324,
            754.25
          ],
          [
            2.782069,
            43.596336,
            752.66
          ],
          [
            2.782334,
            43.596426,
            751.25
          ],
          [
            2.782817,
            43.596673,
            748.85
          ],
          [
            2.783024,
            43.596722,
            748.53
          ],
          [
            2.783352,
            43.596738,
            748.37
          ],
          [
            2.783709,
            43.596701,
            748.56
          ],
          [
            2.783986,
            43.596694,
            748.86
          ],
          [
            2.784091,
            43.596652,
            749.03
          ],
          [
            2.784164,
            43.596611,
            749.17
          ],
          [
            2.784657,
            43.596564,
            750.06
          ],
          [
            2.785056,
            43.596562,
            750.8
          ],
          [
            2.785333,
            43.596592,
            751.5
          ],
          [
            2.785576,
            43.596604,
            752.32
          ],
          [
            2.785948,
            43.596537,
            753.78
          ],
          [
            2.786285,
            43.596458,
            754.97
          ],
          [
            2.78638,
            43.596393,
            755.42
          ],
          [
            2.786587,
            43.596372,
            756.2
          ],
          [
            2.787255,
            43.596495,
            758.69
          ],
          [
            2.787535,
            43.596486,
            759.38
          ],
          [
            2.788009,
            43.59644,
            760.67
          ],
          [
            2.788155,
            43.596447,
            760.35
          ],
          [
            2.788254,
            43.596525,
            758.97
          ],
          [
            2.788508,
            43.596477,
            757.74
          ],
          [
            2.788722,
            43.596454,
            756.89
          ],
          [
            2.788828,
            43.596556,
            756.39
          ],
          [
            2.788874,
            43.596647,
            756.73
          ],
          [
            2.788941,
            43.596852,
            757.94
          ],
          [
            2.789223,
            43.596809,
            759.17
          ],
          [
            2.789989,
            43.596625,
            763.11
          ],
          [
            2.790135,
            43.596614,
            764.5
          ],
          [
            2.790347,
            43.596856,
            764.36
          ],
          [
            2.790512,
            43.597067,
            764.53
          ],
          [
            2.790577,
            43.597174,
            764.89
          ],
          [
            2.790874,
            43.597419,
            765.86
          ],
          [
            2.791273,
            43.597702,
            767.95
          ],
          [
            2.791443,
            43.597843,
            769.63
          ],
          [
            2.791593,
            43.597855,
            771.54
          ],
          [
            2.791856,
            43.597725,
            774.73
          ],
          [
            2.791929,
            43.597741,
            775.44
          ],
          [
            2.792203,
            43.597891,
            778.86
          ],
          [
            2.792427,
            43.597947,
            781.25
          ],
          [
            2.792709,
            43.598119,
            784.85
          ],
          [
            2.792962,
            43.598148,
            787.31
          ],
          [
            2.7933,
            43.598213,
            790.6
          ],
          [
            2.793504,
            43.598211,
            792.35
          ],
          [
            2.793629,
            43.598248,
            793.43
          ],
          [
            2.793776,
            43.598168,
            794.77
          ],
          [
            2.794051,
            43.598264,
            796.83
          ],
          [
            2.794794,
            43.598681,
            801.33
          ],
          [
            2.794838,
            43.598721,
            801.63
          ],
          [
            2.794802,
            43.59882,
            801.31
          ],
          [
            2.794843,
            43.599001,
            801.25
          ],
          [
            2.794882,
            43.599107,
            800.99
          ],
          [
            2.794906,
            43.599253,
            799.72
          ],
          [
            2.795052,
            43.599395,
            797.92
          ],
          [
            2.795147,
            43.599459,
            797.13
          ],
          [
            2.795295,
            43.599649,
            794.85
          ],
          [
            2.795336,
            43.599725,
            793.81
          ],
          [
            2.795346,
            43.59986,
            791.82
          ],
          [
            2.795438,
            43.600145,
            787.21
          ],
          [
            2.795475,
            43.600221,
            786.12
          ],
          [
            2.795436,
            43.600578,
            782.92
          ],
          [
            2.795584,
            43.600663,
            782.42
          ],
          [
            2.795684,
            43.600805,
            782.38
          ],
          [
            2.795737,
            43.600911,
            782.8
          ],
          [
            2.79574,
            43.601062,
            783.87
          ],
          [
            2.795754,
            43.601189,
            785.13
          ],
          [
            2.795859,
            43.601439,
            788.53
          ],
          [
            2.795992,
            43.601571,
            790.89
          ],
          [
            2.79624,
            43.601789,
            794.09
          ],
          [
            2.796474,
            43.601951,
            795.66
          ],
          [
            2.796826,
            43.602417,
            795.63
          ],
          [
            2.797395,
            43.602945,
            790.38
          ],
          [
            2.797764,
            43.603255,
            786.65
          ],
          [
            2.79809,
            43.603472,
            783.44
          ],
          [
            2.798224,
            43.603477,
            783.21
          ],
          [
            2.798394,
            43.603544,
            781.76
          ],
          [
            2.798513,
            43.603619,
            780.43
          ],
          [
            2.798809,
            43.603751,
            777.26
          ],
          [
            2.798883,
            43.603761,
            776.89
          ],
          [
            2.799161,
            43.603774,
            776.26
          ],
          [
            2.79933,
            43.603814,
            776.02
          ],
          [
            2.799485,
            43.603896,
            776.02
          ],
          [
            2.799766,
            43.604008,
            776.35
          ],
          [
            2.800035,
            43.604079,
            776.61
          ],
          [
            2.800322,
            43.604085,
            777.5
          ],
          [
            2.800522,
            43.604044,
            778.61
          ],
          [
            2.80093,
            43.604175,
            776.18
          ],
          [
            2.801011,
            43.604236,
            775.28
          ],
          [
            2.801116,
            43.604191,
            776.41
          ],
          [
            2.801262,
            43.60418,
            777.08
          ],
          [
            2.801801,
            43.604197,
            779.25
          ],
          [
            2.802048,
            43.604171,
            780.54
          ],
          [
            2.802195,
            43.604105,
            781.48
          ],
          [
            2.802357,
            43.604064,
            782.57
          ],
          [
            2.802512,
            43.604059,
            783.52
          ],
          [
            2.802752,
            43.604079,
            784.99
          ],
          [
            2.802991,
            43.604079,
            787.03
          ],
          [
            2.803491,
            43.603942,
            793.36
          ],
          [
            2.803695,
            43.603921,
            794.86
          ],
          [
            2.804033,
            43.603875,
            797.37
          ],
          [
            2.804399,
            43.60387,
            800.56
          ],
          [
            2.804927,
            43.603707,
            805.9
          ],
          [
            2.805378,
            43.603513,
            809.31
          ],
          [
            2.805575,
            43.603417,
            810.05
          ],
          [
            2.805772,
            43.603335,
            810.32
          ],
          [
            2.805948,
            43.603304,
            810.49
          ],
          [
            2.806103,
            43.603299,
            810.69
          ],
          [
            2.806321,
            43.603345,
            810.97
          ],
          [
            2.806645,
            43.603452,
            811.27
          ],
          [
            2.806955,
            43.603544,
            811.53
          ],
          [
            2.807145,
            43.603564,
            811.77
          ],
          [
            2.80742,
            43.603575,
            812.28
          ],
          [
            2.808208,
            43.603549,
            814.65
          ],
          [
            2.808525,
            43.603508,
            816.14
          ],
          [
            2.808758,
            43.603386,
            817.53
          ],
          [
            2.808997,
            43.603243,
            819.08
          ],
          [
            2.809201,
            43.603065,
            820.78
          ],
          [
            2.809342,
            43.602902,
            822.18
          ],
          [
            2.809793,
            43.602295,
            826.28
          ],
          [
            2.809962,
            43.601953,
            827.95
          ],
          [
            2.810067,
            43.601663,
            829.02
          ],
          [
            2.810102,
            43.601494,
            829.54
          ],
          [
            2.810102,
            43.601107,
            829.76
          ],
          [
            2.810131,
            43.600898,
            829.11
          ],
          [
            2.8103,
            43.600556,
            827.58
          ],
          [
            2.810391,
            43.600531,
            827.29
          ],
          [
            2.810616,
            43.600541,
            826.67
          ],
          [
            2.810933,
            43.600495,
            825.88
          ],
          [
            2.811313,
            43.600388,
            825.68
          ],
          [
            2.811659,
            43.600235,
            826.55
          ],
          [
            2.811905,
            43.600072,
            827.69
          ],
          [
            2.812074,
            43.599975,
            828.35
          ],
          [
            2.812201,
            43.599847,
            829.23
          ],
          [
            2.812412,
            43.599715,
            828.46
          ],
          [
            2.812433,
            43.599613,
            828.48
          ],
          [
            2.812398,
            43.599501,
            827.62
          ],
          [
            2.812327,
            43.599394,
            826.24
          ],
          [
            2.812334,
            43.599266,
            824.22
          ],
          [
            2.81237,
            43.599159,
            822.95
          ],
          [
            2.81237,
            43.598981,
            821.04
          ],
          [
            2.812489,
            43.598879,
            819.32
          ],
          [
            2.812693,
            43.598771,
            816.21
          ],
          [
            2.812834,
            43.598736,
            814.53
          ],
          [
            2.812961,
            43.598675,
            813.87
          ],
          [
            2.813159,
            43.598595,
            814.13
          ],
          [
            2.813334,
            43.59869,
            816.85
          ],
          [
            2.813461,
            43.598828,
            819.19
          ],
          [
            2.81376,
            43.59922,
            824.19
          ],
          [
            2.813855,
            43.599393,
            826.69
          ],
          [
            2.813897,
            43.599608,
            828.25
          ],
          [
            2.813852,
            43.599839,
            828.01
          ],
          [
            2.813757,
            43.600077,
            826.46
          ],
          [
            2.813729,
            43.60026,
            825.86
          ],
          [
            2.813729,
            43.600327,
            825.6
          ],
          [
            2.813747,
            43.600383,
            825.25
          ],
          [
            2.813881,
            43.60049,
            824.1
          ],
          [
            2.813941,
            43.60057,
            824.26
          ],
          [
            2.813981,
            43.600724,
            824.83
          ],
          [
            2.814136,
            43.601059,
            827.14
          ],
          [
            2.814344,
            43.600792,
            835.24
          ],
          [
            2.814783,
            43.600645,
            842.45
          ],
          [
            2.815145,
            43.600409,
            850.35
          ],
          [
            2.815363,
            43.600285,
            854.95
          ],
          [
            2.815784,
            43.600254,
            861.92
          ],
          [
            2.816282,
            43.600254,
            870.74
          ],
          [
            2.816454,
            43.600178,
            874.62
          ],
          [
            2.816915,
            43.599828,
            884.29
          ],
          [
            2.817082,
            43.599604,
            888.45
          ],
          [
            2.817414,
            43.599393,
            894.51
          ],
          [
            2.817592,
            43.599393,
            896.35
          ],
          [
            2.817919,
            43.599339,
            899.78
          ],
          [
            2.818363,
            43.599083,
            906.36
          ],
          [
            2.818865,
            43.59887,
            910.48
          ],
          [
            2.819353,
            43.598859,
            911.88
          ],
          [
            2.819728,
            43.598986,
            911.87
          ],
          [
            2.820089,
            43.599147,
            911.16
          ],
          [
            2.820431,
            43.599352,
            910.25
          ],
          [
            2.820826,
            43.5995,
            910.13
          ],
          [
            2.821145,
            43.599541,
            910.88
          ],
          [
            2.821538,
            43.599434,
            912.72
          ],
          [
            2.821617,
            43.599304,
            913.88
          ],
          [
            2.821994,
            43.599188,
            917.73
          ],
          [
            2.822423,
            43.599045,
            922.04
          ],
          [
            2.822342,
            43.59896,
            924.55
          ],
          [
            2.822257,
            43.598353,
            933.09
          ],
          [
            2.821821,
            43.597648,
            936.33
          ],
          [
            2.821679,
            43.597304,
            933.13
          ],
          [
            2.822396,
            43.597107,
            935.6
          ],
          [
            2.823524,
            43.59691,
            940.93
          ],
          [
            2.823779,
            43.596787,
            942.55
          ],
          [
            2.824244,
            43.596587,
            945.88
          ],
          [
            2.825266,
            43.596233,
            954.82
          ],
          [
            2.825468,
            43.596297,
            956.81
          ],
          [
            2.825926,
            43.596137,
            958.37
          ],
          [
            2.825926,
            43.596137,
            958.37
          ],
          [
            2.826081,
            43.596082,
            958.9
          ],
          [
            2.826645,
            43.595949,
            961.78
          ],
          [
            2.82735,
            43.596066,
            965.67
          ],
          [
            2.827697,
            43.59603,
            968.01
          ],
          [
            2.827611,
            43.596335,
            965.51
          ],
          [
            2.827587,
            43.596483,
            964.22
          ],
          [
            2.827572,
            43.59672,
            962.23
          ],
          [
            2.827697,
            43.59702,
            960.28
          ],
          [
            2.827712,
            43.596794,
            963.69
          ],
          [
            2.827798,
            43.596613,
            966.76
          ],
          [
            2.828228,
            43.596148,
            974.54
          ],
          [
            2.828564,
            43.595945,
            978.66
          ],
          [
            2.828938,
            43.595924,
            982.01
          ],
          [
            2.829006,
            43.595945,
            982.79
          ],
          [
            2.829027,
            43.595819,
            982.45
          ],
          [
            2.829085,
            43.595661,
            983.82
          ],
          [
            2.829351,
            43.595417,
            988.19
          ],
          [
            2.82956,
            43.595259,
            991.22
          ],
          [
            2.829696,
            43.595218,
            992.79
          ],
          [
            2.829836,
            43.595192,
            994.42
          ],
          [
            2.829979,
            43.595117,
            996.39
          ],
          [
            2.830101,
            43.59501,
            998.52
          ],
          [
            2.830342,
            43.594764,
            1002.91
          ],
          [
            2.830467,
            43.594543,
            1006.31
          ],
          [
            2.830555,
            43.594439,
            1008.05
          ],
          [
            2.830732,
            43.594339,
            1010.39
          ],
          [
            2.830932,
            43.594247,
            1012.89
          ],
          [
            2.831041,
            43.594179,
            1014.43
          ],
          [
            2.831135,
            43.594062,
            1016.47
          ],
          [
            2.831234,
            43.593892,
            1019.33
          ],
          [
            2.831332,
            43.5938,
            1021.2
          ],
          [
            2.831621,
            43.593631,
            1025.41
          ],
          [
            2.831655,
            43.593566,
            1026.51
          ],
          [
            2.831632,
            43.593482,
            1027.88
          ],
          [
            2.831658,
            43.593429,
            1028.76
          ],
          [
            2.831756,
            43.593401,
            1029.93
          ],
          [
            2.831968,
            43.593406,
            1032.15
          ],
          [
            2.8321,
            43.593381,
            1033.48
          ],
          [
            2.832246,
            43.593322,
            1035.01
          ],
          [
            2.832465,
            43.593176,
            1037.43
          ],
          [
            2.832649,
            43.593113,
            1038.72
          ],
          [
            2.832984,
            43.59304,
            1040.54
          ],
          [
            2.833259,
            43.592967,
            1041.71
          ],
          [
            2.833533,
            43.59295,
            1042.61
          ],
          [
            2.833714,
            43.592914,
            1043.25
          ],
          [
            2.83379,
            43.592885,
            1043.53
          ],
          [
            2.83397,
            43.592768,
            1044.14
          ],
          [
            2.83418,
            43.592589,
            1044.78
          ],
          [
            2.834408,
            43.592466,
            1045.44
          ],
          [
            2.834572,
            43.592429,
            1045.8
          ],
          [
            2.834732,
            43.592414,
            1046.02
          ],
          [
            2.834876,
            43.592371,
            1046.26
          ],
          [
            2.835379,
            43.592155,
            1046.13
          ],
          [
            2.835606,
            43.592085,
            1044.88
          ],
          [
            2.835652,
            43.592107,
            1044.35
          ],
          [
            2.835775,
            43.591679,
            1046.53
          ],
          [
            2.835955,
            43.59139,
            1048.2
          ],
          [
            2.836127,
            43.591034,
            1050.47
          ],
          [
            2.83633,
            43.5907,
            1053.11
          ],
          [
            2.836525,
            43.59032,
            1056.23
          ],
          [
            2.83658,
            43.590139,
            1057.48
          ],
          [
            2.836627,
            43.589919,
            1058.81
          ],
          [
            2.836596,
            43.589766,
            1059.64
          ],
          [
            2.836455,
            43.589517,
            1060.8
          ],
          [
            2.836228,
            43.589251,
            1061.78
          ],
          [
            2.835908,
            43.588973,
            1062.43
          ],
          [
            2.83558,
            43.588629,
            1062.58
          ],
          [
            2.835561,
            43.588523,
            1062.53
          ],
          [
            2.835563,
            43.588425,
            1062.46
          ],
          [
            2.836009,
            43.587881,
            1062.23
          ],
          [
            2.836252,
            43.587552,
            1062.8
          ],
          [
            2.836478,
            43.587218,
            1063.95
          ],
          [
            2.836588,
            43.586947,
            1065.01
          ],
          [
            2.836629,
            43.586712,
            1065.97
          ],
          [
            2.83662,
            43.586503,
            1066.68
          ],
          [
            2.836577,
            43.586367,
            1067.01
          ],
          [
            2.837463,
            43.585509,
            1064.22
          ],
          [
            2.837862,
            43.585141,
            1062.04
          ],
          [
            2.838346,
            43.584637,
            1057.27
          ],
          [
            2.838557,
            43.58445,
            1054.37
          ],
          [
            2.838573,
            43.584354,
            1053.08
          ],
          [
            2.838401,
            43.584082,
            1048.65
          ],
          [
            2.837737,
            43.583239,
            1035.82
          ],
          [
            2.837526,
            43.582938,
            1033.97
          ],
          [
            2.837502,
            43.582803,
            1033.62
          ],
          [
            2.837572,
            43.58261,
            1033.5
          ],
          [
            2.837893,
            43.581948,
            1034.14
          ],
          [
            2.838088,
            43.581653,
            1033.82
          ],
          [
            2.838315,
            43.581461,
            1033.15
          ],
          [
            2.839683,
            43.580419,
            1031.0
          ],
          [
            2.840191,
            43.580091,
            1032.96
          ],
          [
            2.84066,
            43.579757,
            1035.56
          ],
          [
            2.840824,
            43.579558,
            1037.0
          ],
          [
            2.8408,
            43.579451,
            1037.55
          ],
          [
            2.840628,
            43.579383,
            1037.72
          ],
          [
            2.840402,
            43.579355,
            1037.79
          ],
          [
            2.841994,
            43.577982,
            1059.82
          ],
          [
            2.84361,
            43.576949,
            1075.96
          ]
        ]
      }
    },
    {
      "type": "Feature",
      "properties": {
        "source": "Traversée_Plateau.gpx",
        "type": "route"
      },
      "geometry": {
        "type": "LineString",
        "coordinates": [
          [
            2.703071,
            43.600316
          ],
          [
            2.703214,
            43.600307
          ],
          [
            2.705931,
            43.600862
          ],
          [
            2.70602,
            43.600901
          ],
          [
            2.726651,
            43.603515
          ],
          [
            2.728435,
            43.603625
          ],
          [
            2.732285,
            43.605334
          ],
          [
            2.754215,
            43.597605
          ],
          [
            2.773817,
            43.598702
          ],
          [
            2.773747,
            43.598192
          ],
          [
            2.774565,
            43.597335
          ],
          [
            2.788254,
            43.596525
          ],
          [
            2.790135,
            43.596614
          ],
          [
            2.791443,
            43.597843
          ],
          [
            2.794838,
            43.598721
          ],
          [
            2.79809,
            43.603472
          ],
          [
            2.798883,
            43.603761
          ],
          [
            2.801011,
            43.604236
          ],
          [
            2.812201,
            43.599847
          ],
          [
            2.813159,
            43.598595
          ],
          [
            2.814136,
            43.601059
          ],
          [
            2.822423,
            43.599045
          ],
          [
            2.821679,
            43.597304
          ],
          [
            2.825468,
            43.596297
          ],
          [
            2.825926,
            43.596137
          ],
          [
            2.825926,
            43.596137
          ],
          [
            2.827697,
            43.59603
          ],
          [
            2.827697,
            43.59702
          ],
          [
            2.829006,
            43.595945
          ],
          [
            2.835606,
            43.592085
          ],
          [
            2.835652,
            43.592107
          ],
          [
            2.836577,
            43.586367
          ],
          [
            2.840402,
            43.579355
          ],
          [
            2.84361,
            43.576949
          ]
        ]
      }
    }
  ]
}